{"nvdm":"1.0","dataset":"atlas/water-bodies","scope":{"kind":"district","id":"mh-kolhapur"},"provenance":{"sources":[{"id":"water-bodies-census-mh","title":"First Census of Water Bodies, Maharashtra state return (data.gov.in resource e1874d07)","publisher":"Department of Water Resources, River Development and Ganga Rejuvenation, Ministry of Jal Shakti, via the Open Government Data Platform","license":"Government Open Data License - India","role":"asserts","url":"https://data.gov.in/resource/state-wise-data-first-census-water-bodies-maharashtra","as_of":"2026-02-10","retrieved":"2026-09-02"}],"method":"api","produced_at":"2026-09-02","produced_by":"scripts/atlas-water-bodies-census-district.ts","internal_inputs":["public/data/atlas/mh/kolhapur/directory.json"],"note":"First Census of Water Bodies rows for Gaganbawada taluka: 31 water bodies assigned to 12 Gram Panchayats through the LGD coverage register (the census locates each in a Census 2011 village; a village under exactly one Panchayat is assigned), rolled up per Panchayat (count, named count, type and ownership classes, a digest of the sorted names) with the enumerators' coordinates served as MultiPoint geometry under the Government Open Data License. 11 rows of the taluka are counted and not assigned (ext.atlas.unassigned: a village listed under two Panchayats, under none, a Census village with no LGD row, a town). Waterspread is withheld: The Kolhapur return shows the template pattern in a 1,200-row sample: 16 distinct whole-number waterspread values with 5 ha on four rows in five and depth 4 m on five in six, an enumerator's default rather than a measurement, so the waterspread is not published. Counts, types, ownership and recorded coordinates are served. A Panchayat absent here has no row in the return.","conventions":{"geometry":"MultiPoint of the recorded coordinates, five decimals, points outside the district's own bounding box dropped and counted in ext.atlas.pointsOutsideDistrict (a district total)","join":"unique_id part 5 is the Census 2011 village code; the directory's LGD coverage register names the Panchayat; shared, uncovered and unknown villages and urban rows are counted in ext.atlas.unassigned, never pooled","holder":"byDepartment carries the census ownership class (the register's holder axis); byType the census water-body class","vintage":"reference years 2017-18 to 2020-21, published 2023; the portal's resource stamp is the edition watched"}},"ext":{"atlas":{"schemaVersion":1,"planId":"mh-kolhapur-v1","blockCode":"4288","blockName":"Gaganbawada","register":"water-bodies-census","districtLgdCode":"480","acquiredAt":"2026-09-02","layer":"First Census of Water Bodies, Maharashtra return (data.gov.in resource e1874d07-a1db-4678-80c1-b64a2924b517)","sourceUrl":"https://api.data.gov.in/resource/e1874d07-a1db-4678-80c1-b64a2924b517?format=json&limit=all&filters[district_name]=KOLHAPUR","rights":{"status":"open","termsUrl":"https://data.gov.in/resource/state-wise-data-first-census-water-bodies-maharashtra","termsQuote":"Government Open Data License - India","approval":null},"contributingDepartments":["Co-operative","State WRD/State Irrigation"],"snapshotSha256":"09a3c7ef58d6a299f23bf93235b62032aa3dbe8feea74cd9b3cdabe0611aadbb","featureCount":31,"recordCount":12,"recordsSha256":"79441709565a38d0ef5964ca40d26b5929713f5902b45efe8fccf01e7dbd9ef3","unassigned":{"sharedVillage":0,"uncoveredVillage":11,"censusVillageWithoutLgdRow":0,"unknownVillage":0,"urban":0},"unassignedDistrict":{"sharedVillage":11,"uncoveredVillage":203,"censusVillageWithoutLgdRow":8,"unknownVillage":0,"urban":18},"attributes":{"waterspread":"withheld","note":"The Kolhapur return shows the template pattern in a 1,200-row sample: 16 distinct whole-number waterspread values with 5 ha on four rows in five and depth 4 m on five in six, an enumerator's default rather than a measurement, so the waterspread is not published. Counts, types, ownership and recorded coordinates are served."},"pointsOutsideDistrict":5}},"type":"FeatureCollection","features":[{"type":"Feature","geometry":{"type":"MultiPoint","coordinates":[[73.9325,16.61917],[73.93861,16.61444]]},"properties":{"lgdGramPanchayatCode":"178275","count":2,"namedCount":0,"areaHectares":0,"largestAreaHectares":0,"byDepartment":[{"department":"State WRD/State Irrigation","count":2}],"namesSha256":"4f53cda18c2baa0c0354bb5f9a3ecbe5ed12ab4d8e11ba873c2f11161202b945","register":"water-bodies-census","lgdBlockCode":"4288","byType":[{"type":"Water consv schemes/percolation tanks/check-dams","count":2}],"areaBasis":"withheld","pointCount":2}},{"type":"Feature","geometry":{"type":"MultiPoint","coordinates":[[73.86222,16.58806],[73.87611,16.58972]]},"properties":{"lgdGramPanchayatCode":"178276","count":2,"namedCount":0,"areaHectares":0,"largestAreaHectares":0,"byDepartment":[{"department":"State WRD/State Irrigation","count":2}],"namesSha256":"4f53cda18c2baa0c0354bb5f9a3ecbe5ed12ab4d8e11ba873c2f11161202b945","register":"water-bodies-census","lgdBlockCode":"4288","byType":[{"type":"Water consv schemes/percolation tanks/check-dams","count":2}],"areaBasis":"withheld","pointCount":2}},{"type":"Feature","geometry":{"type":"MultiPoint","coordinates":[[73.94972,16.65917]]},"properties":{"lgdGramPanchayatCode":"178277","count":1,"namedCount":0,"areaHectares":0,"largestAreaHectares":0,"byDepartment":[{"department":"State WRD/State Irrigation","count":1}],"namesSha256":"4f53cda18c2baa0c0354bb5f9a3ecbe5ed12ab4d8e11ba873c2f11161202b945","register":"water-bodies-census","lgdBlockCode":"4288","byType":[{"type":"Water consv schemes/percolation tanks/check-dams","count":1}],"areaBasis":"withheld","pointCount":1}},{"type":"Feature","geometry":{"type":"MultiPoint","coordinates":[[73.91806,16.55972],[73.91861,16.56111],[73.92056,16.55944],[73.92111,16.56167],[73.92194,16.56083],[73.92306,16.56139],[73.92361,16.5625],[73.93972,16.53333]]},"properties":{"lgdGramPanchayatCode":"178282","count":8,"namedCount":0,"areaHectares":0,"largestAreaHectares":0,"byDepartment":[{"department":"State WRD/State Irrigation","count":6},{"department":"Co-operative","count":2}],"namesSha256":"4f53cda18c2baa0c0354bb5f9a3ecbe5ed12ab4d8e11ba873c2f11161202b945","register":"water-bodies-census","lgdBlockCode":"4288","byType":[{"type":"Water consv schemes/percolation tanks/check-dams","count":6},{"type":"Ponds","count":1},{"type":"Tank","count":1}],"areaBasis":"withheld","pointCount":8}},{"type":"Feature","geometry":{"type":"MultiPoint","coordinates":[[73.90472,16.9425],[73.91139,16.97111],[73.91306,16.97083],[73.91833,16.9725],[73.92,16.97167],[73.94167,16.96056]]},"properties":{"lgdGramPanchayatCode":"178283","count":6,"namedCount":0,"areaHectares":0,"largestAreaHectares":0,"byDepartment":[{"department":"State WRD/State Irrigation","count":6}],"namesSha256":"4f53cda18c2baa0c0354bb5f9a3ecbe5ed12ab4d8e11ba873c2f11161202b945","register":"water-bodies-census","lgdBlockCode":"4288","byType":[{"type":"Water consv schemes/percolation tanks/check-dams","count":5},{"type":"Ponds","count":1}],"areaBasis":"withheld","pointCount":6}},{"type":"Feature","geometry":{"type":"MultiPoint","coordinates":[[73.91667,16.64667]]},"properties":{"lgdGramPanchayatCode":"178288","count":1,"namedCount":0,"areaHectares":0,"largestAreaHectares":0,"byDepartment":[{"department":"State WRD/State Irrigation","count":1}],"namesSha256":"4f53cda18c2baa0c0354bb5f9a3ecbe5ed12ab4d8e11ba873c2f11161202b945","register":"water-bodies-census","lgdBlockCode":"4288","byType":[{"type":"Water consv schemes/percolation tanks/check-dams","count":1}],"areaBasis":"withheld","pointCount":1}},{"type":"Feature","geometry":{"type":"MultiPoint","coordinates":[[73.97361,16.6375]]},"properties":{"lgdGramPanchayatCode":"178290","count":1,"namedCount":0,"areaHectares":0,"largestAreaHectares":0,"byDepartment":[{"department":"State WRD/State Irrigation","count":1}],"namesSha256":"4f53cda18c2baa0c0354bb5f9a3ecbe5ed12ab4d8e11ba873c2f11161202b945","register":"water-bodies-census","lgdBlockCode":"4288","byType":[{"type":"Water consv schemes/percolation tanks/check-dams","count":1}],"areaBasis":"withheld","pointCount":1}},{"type":"Feature","geometry":{"type":"MultiPoint","coordinates":[[74.1475,16.54361]]},"properties":{"lgdGramPanchayatCode":"178295","count":1,"namedCount":0,"areaHectares":0,"largestAreaHectares":0,"byDepartment":[{"department":"State WRD/State Irrigation","count":1}],"namesSha256":"4f53cda18c2baa0c0354bb5f9a3ecbe5ed12ab4d8e11ba873c2f11161202b945","register":"water-bodies-census","lgdBlockCode":"4288","byType":[{"type":"Water consv schemes/percolation tanks/check-dams","count":1}],"areaBasis":"withheld","pointCount":1}},{"type":"Feature","geometry":{"type":"MultiPoint","coordinates":[[73.98083,16.70389],[73.98194,16.70444],[73.98528,16.705],[73.98778,16.70444]]},"properties":{"lgdGramPanchayatCode":"178296","count":4,"namedCount":0,"areaHectares":0,"largestAreaHectares":0,"byDepartment":[{"department":"State WRD/State Irrigation","count":4}],"namesSha256":"4f53cda18c2baa0c0354bb5f9a3ecbe5ed12ab4d8e11ba873c2f11161202b945","register":"water-bodies-census","lgdBlockCode":"4288","byType":[{"type":"Water consv schemes/percolation tanks/check-dams","count":4}],"areaBasis":"withheld","pointCount":4}},{"type":"Feature","geometry":{"type":"MultiPoint","coordinates":[[73.94389,16.56222],[73.95417,16.56556]]},"properties":{"lgdGramPanchayatCode":"178298","count":2,"namedCount":0,"areaHectares":0,"largestAreaHectares":0,"byDepartment":[{"department":"State WRD/State Irrigation","count":2}],"namesSha256":"4f53cda18c2baa0c0354bb5f9a3ecbe5ed12ab4d8e11ba873c2f11161202b945","register":"water-bodies-census","lgdBlockCode":"4288","byType":[{"type":"Water consv schemes/percolation tanks/check-dams","count":2}],"areaBasis":"withheld","pointCount":2}},{"type":"Feature","geometry":{"type":"MultiPoint","coordinates":[[73.93333,16.65444]]},"properties":{"lgdGramPanchayatCode":"178300","count":1,"namedCount":0,"areaHectares":0,"largestAreaHectares":0,"byDepartment":[{"department":"State WRD/State Irrigation","count":1}],"namesSha256":"4f53cda18c2baa0c0354bb5f9a3ecbe5ed12ab4d8e11ba873c2f11161202b945","register":"water-bodies-census","lgdBlockCode":"4288","byType":[{"type":"Water consv schemes/percolation tanks/check-dams","count":1}],"areaBasis":"withheld","pointCount":1}},{"type":"Feature","geometry":{"type":"MultiPoint","coordinates":[[73.955,16.68222],[73.95861,16.665]]},"properties":{"lgdGramPanchayatCode":"178303","count":2,"namedCount":0,"areaHectares":0,"largestAreaHectares":0,"byDepartment":[{"department":"State WRD/State Irrigation","count":2}],"namesSha256":"4f53cda18c2baa0c0354bb5f9a3ecbe5ed12ab4d8e11ba873c2f11161202b945","register":"water-bodies-census","lgdBlockCode":"4288","byType":[{"type":"Water consv schemes/percolation tanks/check-dams","count":2}],"areaBasis":"withheld","pointCount":2}}]}
