{"nvdm":"1.0","dataset":"basins/micro-watersheds","scope":{"kind":"basin","id":"erode-rivers"},"provenance":{"sources":[{"id":"tngis-open-geoserver","title":"TNGIS open GeoServer (WFS): district, taluk, block and village panchayat boundaries, TN WRD sub-basins and reservoirs, micro-watershed atlas, all-water-bodies register, named tanks, mine leases, industry register matched to land parcels","publisher":"Tamil Nadu e-Governance Agency (TNGIS)","license":"Tamil Nadu government data on an open GeoServer (WFS, no login); published with TNGIS's permission and with attribution.","role":"input","url":"https://tngis.tn.gov.in/tngismaps/ows"}],"method":"derived","produced_at":"2026-09-17","produced_by":"scripts/build_erode_rivers_basin.py","internal_inputs":["public/data/basins/erode-rivers/sub-hydrosheds.geojson"],"note":"Erode district's rivers, groundwater and industry (scope erode-rivers; the district's own scope id is tn-erode). The district boundary is the frame and TN WRD's sub-basins, clipped to it, are the catchments (shedId). The industry register holds only units TNGIS matched to a land parcel, so every count is a lower bound; sector comes from the reviewed TNPCB type-code lookup pipeline-inputs/basins/erode-rivers/tnpcb-type-sectors.json."},"type":"FeatureCollection","features":[{"type":"Feature","properties":{"name":"4B2D5a   Lake","level":"micro-watershed","watershedCode":"4B2D5","subCatchmentCode":"4B2D","areaKm2InDistrict":88.0,"shedId":"SB114"},"geometry":{"type":"Polygon","coordinates":[[[77.049,11.5119],[77.0508,11.5097],[77.0528,11.5096],[77.0521,11.508],[77.0537,11.505],[77.0531,11.5027],[77.0547,11.5034],[77.0562,11.5028],[77.0564,11.5038],[77.0582,11.5052],[77.0597,11.504],[77.058,11.5013],[77.0591,11.4996],[77.0602,11.4996],[77.0621,11.4966],[77.0612,11.4956],[77.061,11.4935],[77.0623,11.4915],[77.0644,11.4916],[77.0655,11.4904],[77.0663,11.4908],[77.0671,11.4929],[77.0665,11.4955],[77.0655,11.4965],[77.0661,11.4985],[77.0659,11.5007],[77.067,11.5007],[77.0678,11.4994],[77.0694,11.5],[77.0699,11.4997],[77.0688,11.4983],[77.0692,11.4969],[77.0714,11.4965],[77.0725,11.4946],[77.0738,11.4939],[77.0771,11.4941],[77.0791,11.4932],[77.0809,11.495],[77.0866,11.4916],[77.0857,11.4893],[77.0837,11.4879],[77.0849,11.486],[77.0879,11.4868],[77.0903,11.4888],[77.0911,11.487],[77.0929,11.4869],[77.095,11.4883],[77.0981,11.4869],[77.0995,11.4844],[77.1002,11.477],[77.1044,11.474],[77.1109,11.4721],[77.1165,11.4696],[77.1272,11.4685],[77.1272,11.4605],[77.1297,11.4568],[77.1294,11.4545],[77.1283,11.4537],[77.1295,11.4514],[77.1281,11.4498],[77.1302,11.4495],[77.1312,11.445],[77.1315,11.4395],[77.1328,11.4346],[77.1344,11.4314],[77.1379,11.4281],[77.1396,11.4276],[77.1432,11.4278],[77.144,11.4269],[77.144,11.4245],[77.1434,11.4231],[77.1423,11.4225],[77.1396,11.4137],[77.1337,11.4147],[77.1314,11.4144],[77.126,11.4067],[77.1204,11.4056],[77.1177,11.4015],[77.1105,11.4004],[77.1113,11.4056],[77.1093,11.4065],[77.09878,11.40396],[77.0909,11.4031],[77.0932,11.399],[77.0883,11.3978],[77.0895,11.3945],[77.08907,11.3924],[77.0861,11.3918],[77.0815,11.3879],[77.08059,11.38782],[77.0802,11.3897],[77.0792,11.3895],[77.0757,11.3917],[77.0747,11.3915],[77.07571,11.38929],[77.0704,11.3862],[77.0693,11.3913],[77.0707,11.3997],[77.0704,11.4025],[77.0643,11.4015],[77.0613,11.4042],[77.0598,11.4044],[77.0558,11.4041],[77.0532,11.4027],[77.0449,11.4027],[77.04445,11.39858],[77.0419,11.3972],[77.0359,11.3921],[77.0344,11.3878],[77.03202,11.3848],[77.0263,11.3885],[77.0239,11.388],[77.0221,11.3865],[77.0238,11.3816],[77.0254,11.3734],[77.02455,11.37225],[77.0198,11.3701],[77.0157,11.3714],[77.0135,11.3688],[77.0104,11.3699],[77.0105,11.3708],[77.0122,11.3712],[77.014,11.3727],[77.0152,11.3759],[77.0158,11.3752],[77.0174,11.3754],[77.0173,11.3742],[77.0184,11.3737],[77.0215,11.3746],[77.0229,11.3762],[77.0222,11.3782],[77.0203,11.3782],[77.0209,11.3791],[77.0203,11.3804],[77.018,11.3793],[77.0167,11.3802],[77.0117,11.3805],[77.0156,11.3834],[77.0142,11.3862],[77.0154,11.3865],[77.0175,11.3859],[77.0186,11.3866],[77.0196,11.3884],[77.019,11.3901],[77.0206,11.3897],[77.0219,11.3906],[77.0226,11.3936],[77.0261,11.3913],[77.027,11.3916],[77.0271,11.394],[77.0257,11.3983],[77.0229,11.401],[77.0217,11.4038],[77.0266,11.3978],[77.0277,11.3978],[77.0293,11.3953],[77.0314,11.3961],[77.0332,11.3952],[77.0363,11.3996],[77.0399,11.4],[77.0412,11.4023],[77.0401,11.4041],[77.0371,11.4024],[77.0354,11.4024],[77.0337,11.4034],[77.034,11.4053],[77.0327,11.4064],[77.032,11.4063],[77.0332,11.4075],[77.0349,11.4114],[77.0346,11.4129],[77.0357,11.4133],[77.036,11.4159],[77.0367,11.4167],[77.0357,11.4185],[77.0386,11.4186],[77.0396,11.4207],[77.0393,11.4224],[77.0401,11.4242],[77.0427,11.4248],[77.0442,11.4288],[77.0452,11.429],[77.0463,11.4304],[77.0461,11.432],[77.0477,11.4308],[77.0505,11.4323],[77.0508,11.4348],[77.0526,11.4328],[77.0533,11.4298],[77.054,11.4291],[77.0549,11.4297],[77.0549,11.4321],[77.0559,11.435],[77.0555,11.4379],[77.0545,11.4397],[77.0531,11.4405],[77.0527,11.4418],[77.0536,11.4438],[77.0531,11.4455],[77.0549,11.447],[77.0549,11.4494],[77.057,11.4492],[77.0625,11.4522],[77.0634,11.4553],[77.063,11.4563],[77.0596,11.4559],[77.0592,11.4575],[77.0571,11.4576],[77.0578,11.4599],[77.0572,11.4612],[77.0602,11.4607],[77.0608,11.4619],[77.0628,11.4629],[77.0625,11.462],[77.064,11.4602],[77.0666,11.4594],[77.0689,11.4573],[77.0714,11.4564],[77.0706,11.4587],[77.0691,11.4604],[77.0664,11.462],[77.0656,11.4649],[77.0611,11.4664],[77.0623,11.4681],[77.0627,11.4709],[77.0585,11.4699],[77.0576,11.4691],[77.0571,11.4731],[77.0555,11.4738],[77.056,11.4742],[77.056,11.477],[77.055,11.4773],[77.0553,11.4782],[77.0536,11.4787],[77.0543,11.4794],[77.0576,11.4802],[77.0595,11.4831],[77.0593,11.4841],[77.0581,11.4847],[77.0556,11.4845],[77.0565,11.487],[77.056,11.4885],[77.055,11.4891],[77.0525,11.4892],[77.0513,11.4881],[77.0504,11.4882],[77.0508,11.4891],[77.0499,11.4895],[77.0517,11.4919],[77.0516,11.4932],[77.0508,11.4938],[77.05,11.4932],[77.0493,11.4936],[77.0487,11.4959],[77.0477,11.4966],[77.0472,11.4993],[77.0452,11.4999],[77.046,11.5005],[77.0453,11.5013],[77.0413,11.5018],[77.0413,11.5027],[77.0434,11.5038],[77.0429,11.5053],[77.0408,11.5067],[77.0383,11.5061],[77.0386,11.5084],[77.0352,11.5102],[77.0362,11.5108],[77.0371,11.5129],[77.0413,11.512],[77.0435,11.5132],[77.0446,11.5119],[77.046,11.5118],[77.0478,11.5106],[77.049,11.5119]]]}},{"type":"Feature","properties":{"name":"4B2D5a1a","level":"micro-watershed","watershedCode":"4B2D5","subCatchmentCode":"4B2D","areaKm2InDistrict":15.0,"shedId":"SB114"},"geometry":{"type":"MultiPolygon","coordinates":[[[[76.9882,11.4071],[76.9938,11.4082],[76.9965,11.4081],[76.999,11.4069],[76.9966,11.405],[76.9997,11.4022],[77.0044,11.4011],[77.0159,11.3963],[77.0186,11.3866],[77.0175,11.3859],[77.0143,11.3863],[77.0156,11.3834],[77.0117,11.3805],[77.0167,11.3802],[77.018,11.3793],[77.0203,11.3804],[77.0209,11.3796],[77.0203,11.3782],[77.022,11.3783],[77.0225,11.3778],[77.0229,11.3762],[77.0222,11.3752],[77.0182,11.3737],[77.0173,11.3742],[77.0174,11.3754],[77.0158,11.3752],[77.0152,11.3759],[77.014,11.3727],[77.0122,11.3712],[77.0106,11.3709],[77.0104,11.3699],[76.9922,11.3772],[76.9889,11.3815],[76.9876,11.3822],[76.9815,11.3831],[76.9801,11.3807],[76.97993,11.37868],[76.9716,11.3862],[76.9654,11.386],[76.9612,11.3835],[76.9595,11.3808],[76.9575,11.3811],[76.9601,11.3844],[76.9681,11.3919],[76.9686,11.3952],[76.9704,11.3972],[76.9758,11.3958],[76.981,11.4013],[76.9807,11.4036],[76.97676,11.40734],[76.977,11.4098],[76.9882,11.4071]]],[[[77.1106,11.4022],[77.111,11.3959],[77.1107,11.39585],[77.1105,11.4056],[77.10957,11.4064],[77.1113,11.4056],[77.1106,11.4022]]],[[[77.089,11.3924],[77.089,11.3923],[77.0888,11.3923],[77.089,11.3924]]],[[[77.0892,11.3933],[77.08947,11.3935],[77.08929,11.39274],[77.0892,11.3933]]],[[[77.08903,11.3959],[77.0886,11.3962],[77.08853,11.39653],[77.08903,11.3959]]],[[[77.0934,11.3993],[77.0932,11.3991],[77.09274,11.40002],[77.0934,11.3993]]],[[[77.0914,11.4032],[77.0927,11.4035],[77.09554,11.40345],[77.0925,11.4031],[77.0914,11.4032]]],[[[77.09878,11.40396],[77.1063,11.406],[77.10717,11.4061],[77.1039,11.4049],[77.09878,11.40396]]]]}},{"type":"Feature","properties":{"name":"4B2D5a1b","level":"micro-watershed","watershedCode":"4B2D5","subCatchmentCode":"4B2D","areaKm2InDistrict":8.3,"shedId":"SB114"},"geometry":{"type":"MultiPolygon","coordinates":[[[[77.07445,11.38855],[77.0744,11.3885],[77.07436,11.3885],[77.07445,11.38855]]],[[[77.0746,11.38863],[77.0746,11.3886],[77.07454,11.3886],[77.0746,11.38863]]],[[[77.0754,11.3892],[77.0755,11.3888],[77.07475,11.38872],[77.0754,11.3892]]],[[[77.079,11.3897],[77.0802,11.3897],[77.08059,11.38782],[77.0795,11.3881],[77.0787,11.3897],[77.07668,11.39142],[77.079,11.3897]]],[[[77.0761,11.3917],[77.0765,11.3915],[77.0757,11.39152],[77.0761,11.3917]]],[[[77.0647,11.4015],[77.0672,11.4023],[77.0706,11.4024],[77.0707,11.3997],[77.0701,11.3939],[77.0693,11.3913],[77.0705,11.3861],[77.07299,11.38767],[77.0714,11.3859],[77.07,11.3862],[77.0689,11.3894],[77.0704,11.3989],[77.07,11.4007],[77.0682,11.4016],[77.0633,11.4005],[77.0609,11.4038],[77.0578,11.4042],[77.0613,11.4042],[77.0632,11.4021],[77.0647,11.4015]]],[[[77.0568,11.4042],[77.0576,11.4042],[77.05676,11.40415],[77.0568,11.4042]]],[[[76.9977,11.4386],[76.9991,11.4349],[77.00024,11.4346],[76.9985,11.4302],[76.9992,11.4283],[76.9984,11.4244],[76.9995,11.4187],[76.9994,11.4156],[77.001,11.4121],[77.0001,11.4077],[76.999,11.4069],[76.9947,11.4083],[76.9882,11.4071],[76.977,11.4098],[76.97635,11.41272],[76.9769,11.4183],[76.9798,11.433],[76.9829,11.4404],[76.9898,11.4398],[76.9971,11.4407],[76.9977,11.4406],[76.9977,11.4386]]]]}},{"type":"Feature","properties":{"name":"4B2D5a1c","level":"micro-watershed","watershedCode":"4B2D5","subCatchmentCode":"4B2D","areaKm2InDistrict":5.0,"shedId":"SB114"},"geometry":{"type":"Polygon","coordinates":[[[77.0191,11.4029],[77.0218,11.4039],[77.0229,11.401],[77.0255,11.3987],[77.0271,11.3937],[77.027,11.3916],[77.0265,11.3913],[77.0226,11.3936],[77.0219,11.3906],[77.0206,11.3897],[77.019,11.3901],[77.0196,11.3884],[77.0186,11.3866],[77.0159,11.3963],[77.0044,11.4011],[76.9997,11.4022],[76.9966,11.405],[77.0001,11.4077],[77.001,11.4103],[77.001,11.4121],[76.9994,11.4156],[76.9995,11.4187],[76.9984,11.4244],[76.9992,11.4283],[76.9985,11.4302],[77.00024,11.4346],[77.0073,11.4344],[77.0095,11.4318],[77.0079,11.4284],[77.0045,11.4249],[77.0055,11.4131],[77.0115,11.4034],[77.0191,11.4029]]]}},{"type":"Feature","properties":{"name":"4B2D5a1d","level":"micro-watershed","watershedCode":"4B2D5","subCatchmentCode":"4B2D","areaKm2InDistrict":10.7,"shedId":"SB114"},"geometry":{"type":"MultiPolygon","coordinates":[[[[77.01343,11.3682],[77.0137,11.3689],[77.01455,11.37016],[77.0143,11.3688],[77.01343,11.3682]]],[[[77.01465,11.3703],[77.0166,11.3714],[77.0198,11.3701],[77.02455,11.37225],[77.0216,11.3701],[77.0189,11.3692],[77.01465,11.3703]]],[[[77.0234,11.3877],[77.0239,11.388],[77.0257,11.3886],[77.0263,11.3885],[77.03202,11.3848],[77.0308,11.3844],[77.0289,11.3851],[77.0256,11.3881],[77.0234,11.3877]]],[[[77.03695,11.39284],[77.0376,11.3934],[77.03824,11.39383],[77.03695,11.39284]]],[[[77.0413,11.3967],[77.0427,11.3977],[77.04445,11.39858],[77.0431,11.3971],[77.0413,11.3967]]],[[[77.0488,11.4026],[77.0532,11.4027],[77.05527,11.40366],[77.0529,11.4025],[77.0488,11.4026]]],[[[77.0568,11.4042],[77.05676,11.40415],[77.05662,11.40414],[77.0568,11.4042]]],[[[77.032,11.4065],[77.034,11.4053],[77.0338,11.4032],[77.0354,11.4024],[77.0371,11.4024],[77.0385,11.4036],[77.0394,11.4033],[77.0399,11.4041],[77.0412,11.4026],[77.0399,11.4],[77.037,11.3999],[77.0358,11.3992],[77.035,11.3972],[77.0332,11.3952],[77.0314,11.3961],[77.0288,11.3956],[77.0277,11.3978],[77.0266,11.3978],[77.022,11.4039],[77.0176,11.4028],[77.0115,11.4034],[77.0055,11.4131],[77.0045,11.4249],[77.0079,11.4284],[77.0095,11.4318],[77.0073,11.4344],[77.0101,11.4384],[77.0115,11.4366],[77.0162,11.4359],[77.0213,11.4333],[77.0263,11.4325],[77.0299,11.4221],[77.0324,11.4185],[77.0365,11.4164],[77.0357,11.4133],[77.0346,11.4129],[77.035,11.4117],[77.0332,11.4075],[77.032,11.4065]]]]}},{"type":"Feature","properties":{"name":"4B2D5a1e","level":"micro-watershed","watershedCode":"4B2D5","subCatchmentCode":"4B2D","areaKm2InDistrict":5.9,"shedId":"SB114"},"geometry":{"type":"Polygon","coordinates":[[[77.0509,11.4348],[77.0501,11.432],[77.0477,11.4308],[77.046,11.4319],[77.0463,11.4304],[77.0452,11.429],[77.0442,11.4288],[77.0427,11.4248],[77.0404,11.4244],[77.0396,11.4234],[77.0396,11.4207],[77.0386,11.4186],[77.0357,11.4185],[77.0367,11.417],[77.0365,11.4164],[77.0324,11.4185],[77.0299,11.4221],[77.0263,11.4325],[77.0213,11.4333],[77.0162,11.4359],[77.0115,11.4366],[77.0101,11.4384],[77.0117,11.4421],[77.0134,11.441],[77.0156,11.4406],[77.0248,11.4404],[77.031,11.4423],[77.0354,11.4423],[77.04,11.4417],[77.0436,11.4403],[77.0468,11.4384],[77.0509,11.4348]]]}},{"type":"Feature","properties":{"name":"4B2D5a1f","level":"micro-watershed","watershedCode":"4B2D5","subCatchmentCode":"4B2D","areaKm2InDistrict":10.4,"shedId":"SB114"},"geometry":{"type":"Polygon","coordinates":[[[77.0525,11.433],[77.0468,11.4384],[77.04,11.4417],[77.031,11.4423],[77.0248,11.4404],[77.0156,11.4406],[77.0134,11.441],[77.0117,11.4421],[77.012,11.4437],[77.0196,11.4513],[77.0218,11.4526],[77.0247,11.4536],[77.0298,11.4536],[77.035,11.4547],[77.0369,11.4585],[77.0419,11.4654],[77.0431,11.4656],[77.0495,11.4638],[77.0552,11.4663],[77.0611,11.4664],[77.0656,11.4649],[77.0664,11.462],[77.0691,11.4604],[77.0706,11.4587],[77.0714,11.4564],[77.0689,11.4573],[77.0666,11.4594],[77.064,11.4602],[77.0625,11.462],[77.0628,11.4629],[77.0608,11.4619],[77.0602,11.4607],[77.0572,11.4612],[77.0578,11.4599],[77.0571,11.4576],[77.0592,11.4575],[77.0596,11.4559],[77.062,11.4564],[77.0634,11.4559],[77.0627,11.4525],[77.057,11.4492],[77.0549,11.4494],[77.0549,11.447],[77.0531,11.4455],[77.0536,11.4438],[77.0527,11.4418],[77.0531,11.4405],[77.0545,11.4397],[77.0555,11.4379],[77.0559,11.435],[77.0547,11.4293],[77.054,11.4291],[77.0533,11.4298],[77.0534,11.4311],[77.0525,11.433]]]}},{"type":"Feature","properties":{"name":"4B2D5a3a1","level":"micro-watershed","watershedCode":"4B2D5","subCatchmentCode":"4B2D","areaKm2InDistrict":0.1,"shedId":"SB114"},"geometry":{"type":"Polygon","coordinates":[[[76.9681,11.39465],[76.9681,11.3919],[76.9601,11.3844],[76.958,11.3814],[76.95629,11.38041],[76.956,11.3807],[76.9574,11.3814],[76.9622,11.3872],[76.9678,11.3924],[76.9681,11.39465]]]}},{"type":"Feature","properties":{"name":"4B2D5a3a2","level":"micro-watershed","watershedCode":"4B2D5","subCatchmentCode":"4B2D","areaKm2InDistrict":0.2,"shedId":"SB114"},"geometry":{"type":"MultiPolygon","coordinates":[[[[76.9765,11.4116],[76.9764,11.4111],[76.97634,11.41159],[76.9765,11.4116]]],[[[76.977,11.4098],[76.9769,11.4079],[76.97676,11.40734],[76.977,11.4098]]],[[[76.9808,11.4023],[76.981,11.4013],[76.9758,11.3958],[76.9704,11.3972],[76.9681,11.39465],[76.9684,11.3965],[76.9701,11.3985],[76.9755,11.397],[76.9808,11.4023]]]]}},{"type":"Feature","properties":{"name":"4B2D5a3d1","level":"micro-watershed","watershedCode":"4B2D5","subCatchmentCode":"4B2D","areaKm2InDistrict":0.1,"shedId":"SB114"},"geometry":{"type":"MultiPolygon","coordinates":[[[[76.9849,11.4403],[76.9829,11.4404],[76.98163,11.43745],[76.9824,11.4404],[76.9848,11.4405],[76.9849,11.4403]]],[[[76.9815,11.4368],[76.9798,11.433],[76.9772,11.4191],[76.9798,11.4342],[76.9815,11.4368]]]]}},{"type":"Feature","properties":{"name":"4B2D5a3e2","level":"micro-watershed","watershedCode":"4B2D5","subCatchmentCode":"4B2D","areaKm2InDistrict":0.2,"shedId":"SB114"},"geometry":{"type":"MultiPolygon","coordinates":[[[[76.9985,11.4363],[76.9982,11.43688],[76.9988,11.43594],[76.9985,11.4363]]],[[[76.9977,11.4405],[76.9953,11.4406],[76.9979,11.4411],[76.9977,11.4405]]],[[[77.0114,11.441],[77.0076,11.4345],[77.0069,11.4344],[77.0015,11.4346],[77.0073,11.4346],[77.0114,11.4434],[77.0118,11.4525],[77.0097,11.4557],[77.0115,11.4533],[77.0123,11.4517],[77.0114,11.441]]]]}},{"type":"Feature","properties":{"name":"4B2D5b2a","level":"micro-watershed","watershedCode":"4B2D5","subCatchmentCode":"4B2D","areaKm2InDistrict":0.5,"shedId":"SB114"},"geometry":{"type":"MultiPolygon","coordinates":[[[[77.0135,11.3688],[77.0129,11.3682],[77.0092,11.3695],[76.9921,11.3767],[76.9887,11.3808],[76.98099,11.38248],[76.9819,11.3831],[76.9876,11.3822],[76.9889,11.3815],[76.9922,11.3772],[77.0135,11.3688]]],[[[76.9564,11.3804],[76.9575,11.3811],[76.95995,11.38115],[76.9591,11.3797],[76.9564,11.3804]]],[[[76.9609,11.383],[76.9654,11.386],[76.9716,11.3862],[76.97993,11.37868],[76.9799,11.3783],[76.978,11.3791],[76.9765,11.3807],[76.9763,11.3818],[76.9713,11.3858],[76.9683,11.3849],[76.9647,11.3852],[76.9624,11.3834],[76.9609,11.383]]],[[[76.9807,11.3818],[76.98075,11.382],[76.98069,11.38167],[76.9807,11.3818]]]]}}]}