{"nvdm":"1.0","dataset":"basins/waterbodies-minor","scope":{"kind":"basin","id":"mumbai-rivers"},"provenance":{"sources":[{"id":"osm-overpass","title":"OpenStreetMap (Overpass API extracts: rivers, water bodies, drains, industrial landuse, corporation boundaries)","publisher":"OpenStreetMap contributors","license":"ODbL 1.0","role":"input"},{"id":"fabdem-dem","title":"FABDEM v1-2 30 m bare-earth DEM","publisher":"University of Bristol (Hawker et al.), via GEE sat-io","license":"CC BY-NC-SA 4.0 (non-commercial AND share-alike); derived from Copernicus GLO-30, so the mandatory Copernicus WorldDEM-30 attribution to DLR and Airbus passes down (both notices reproduced in DATA-LICENSE.md)","role":"input"}],"method":"derived","produced_at":"2026-09-06","produced_by":"scripts/build_mumbai_rivers_basin.py","internal_inputs":["public/geojson/mumbai-water-bodies-current.geojson","public/data/basins/mumbai-rivers/sub-hydrosheds.geojson"],"note":"Mumbai's rivers and lakes basin atlas (scope mumbai-rivers; the city's own scope id 'mumbai' is the MMR region). Catchment joins (shedId) come from sub-hydrosheds.geojson, whose city half is the reviewed pipeline input pipeline-inputs/mumbai-river-catchments-fabdem.geojson (FABDEM + WhiteboxTools); CPCB stretch and station figures are read from the reviewed national table pipeline-inputs/atlas/prs/cpcb-2025.json. FABDEM lineage makes the catchment-joined families CC BY-NC-SA (non-commercial) encumbered."},"type":"FeatureCollection","features":[{"type":"Feature","properties":{"water_type":"pond","area_ha":0.31,"osm_id":495243488,"shedId":"POISAR","source":"OpenStreetMap","year":"2026"},"geometry":{"type":"Polygon","coordinates":[[[72.84035,19.20758],[72.84045,19.20767],[72.84063,19.20772],[72.84075,19.20774],[72.84083,19.20769],[72.84091,19.20763],[72.84095,19.20755],[72.84098,19.20746],[72.84097,19.20739],[72.84094,19.20731],[72.8409,19.20725],[72.84082,19.20719],[72.8408,19.20713],[72.84071,19.20712],[72.84066,19.20722],[72.84055,19.2072],[72.84048,19.20726],[72.84045,19.20732],[72.84045,19.20739],[72.84041,19.20743],[72.84037,19.20744],[72.84036,19.20751],[72.84035,19.20758]]]}}]}