{"type":"FeatureCollection","features":[{"type":"Feature","geometry":{"type":"LineString","coordinates":[[77.43237,12.28698],[77.43273,12.28682]]},"properties":{}},{"type":"Feature","geometry":{"type":"LineString","coordinates":[]},"properties":{}},{"type":"Feature","geometry":{"type":"LineString","coordinates":[[77.24368,12.75607],[77.24362,12.75606]]},"properties":{}},{"type":"Feature","geometry":{"type":"LineString","coordinates":[[77.23114,13.0885],[77.23095,13.0885]]},"properties":{}},{"type":"Feature","geometry":{"type":"LineString","coordinates":[]},"properties":{}}]}