{
  "nvdm": "1.0",
  "dataset": "atlas/water-bodies",
  "scope": {
    "kind": "district",
    "id": "tn-erode"
  },
  "provenance": {
    "sources": [
      {
        "id": "tngis-generic-viewer-water-bodies",
        "title": "TNGIS generic viewer: all water bodies (WFS layer generic_viewer:all_water_bodies)",
        "publisher": "Tamil Nadu e-Governance Agency (TNGIS)",
        "license": "LICENCE UNVERIFIED - see notes. TNGIS/TNeGA terms restrict public display, redistribution and commercial use to prior approval; the reuse confirmation requested 2026-07-27 has no reply. Only derived counts, areas, centroids and digests are published; cited with attribution.",
        "role": "asserts",
        "url": "https://tngis.tn.gov.in/tngismaps/ows",
        "retrieved": "2026-09-06"
      }
    ],
    "method": "api",
    "produced_at": "2026-09-06",
    "produced_by": "scripts/atlas-water-bodies-tn-district.ts",
    "internal_inputs": [
      "public/data/atlas/tn/erode/directory.json"
    ],
    "note": "TNGIS all-water-bodies register for ERODE block: 5 Gram Panchayats with 77 water bodies between them, rolled up per Panchayat (count, named count, summed and largest waterspread computed from the geometry, contributing departments, a digest of the sorted names). Geometry is null and names are withheld: TNGIS terms require prior approval for public display or redistribution and the confirmation requested on 2026-07-27 has no reply. A Panchayat absent here has no water body in the register.",
    "conventions": {
      "geometry": "null by rule until TNGIS/TNeGA approval is recorded; areas are hectares computed from the withheld polygons",
      "join": "panchayat_lgdvcode is the LGD Gram Panchayat code; features with code 0 (towns, corporations) are dropped, never pooled",
      "vintage": "the layer merges five departments' registers and carries no survey date"
    }
  },
  "ext": {
    "atlas": {
      "schemaVersion": 1,
      "planId": "tn-erode-v1",
      "blockCode": "6466",
      "blockName": "ERODE",
      "districtLgdCode": "527",
      "acquiredAt": "2026-09-06",
      "layer": "generic_viewer:all_water_bodies",
      "sourceUrl": "https://tngis.tn.gov.in/tngismaps/ows?service=WFS&version=2.0.0&request=GetFeature&typeNames=generic_viewer%3Aall_water_bodies&CQL_FILTER=rd_lgddcod%3D527&outputFormat=application%2Fjson",
      "rights": {
        "status": "permission-required",
        "termsUrl": "https://tngis.tn.gov.in/user.html",
        "termsQuote": "GIS based data available in TNGIS should be used for informational purpose only and Not for legal use/not to be shared / published in the public media in any form or in the social media without any prior approval / permission from TNGIS/TNeGA.",
        "approval": null
      },
      "contributingDepartments": [
        "AED",
        "DOSS",
        "NRSC",
        "TNRD",
        "WRD"
      ],
      "snapshotSha256": "cea63d0517b7df7e5e9392c734720fa08f7680e4ba4b7d5758905463d599c7e2",
      "featureCount": 77,
      "recordCount": 5,
      "recordsSha256": "2f9ea1b048a9d349606b73bb379c59baa2835864c843e25fca7b8c0dc692ac48"
    }
  },
  "type": "FeatureCollection",
  "features": [
    {
      "type": "Feature",
      "geometry": null,
      "properties": {
        "lgdGramPanchayatCode": "223656",
        "count": 8,
        "namedCount": 7,
        "areaHectares": 7.6467,
        "largestAreaHectares": 1.751,
        "byDepartment": [
          {
            "department": "NRSC",
            "count": 7
          },
          {
            "department": "AED",
            "count": 1
          }
        ],
        "namesSha256": "b2b0de99c0ff2353f7b2f92e63edb137857576456c1e5a22e624ef8f18d745b5",
        "lgdBlockCode": "6466"
      }
    },
    {
      "type": "Feature",
      "geometry": null,
      "properties": {
        "lgdGramPanchayatCode": "223657",
        "count": 32,
        "namedCount": 32,
        "areaHectares": 31.8133,
        "largestAreaHectares": 2.8673,
        "byDepartment": [
          {
            "department": "DOSS",
            "count": 32
          }
        ],
        "namesSha256": "7183d2c861e617018eb1120cc2c4a572a2452aaec291b54d244aebdee3b5e010",
        "lgdBlockCode": "6466"
      }
    },
    {
      "type": "Feature",
      "geometry": null,
      "properties": {
        "lgdGramPanchayatCode": "223658",
        "count": 28,
        "namedCount": 28,
        "areaHectares": 21.2597,
        "largestAreaHectares": 1.6732,
        "byDepartment": [
          {
            "department": "DOSS",
            "count": 25
          },
          {
            "department": "NRSC",
            "count": 3
          }
        ],
        "namesSha256": "754ed5e4bc0fbc3b7775fd8e28d8cf1942a78b5b9cd4e2c328d166d9c4b4618e",
        "lgdBlockCode": "6466"
      }
    },
    {
      "type": "Feature",
      "geometry": null,
      "properties": {
        "lgdGramPanchayatCode": "223660",
        "count": 6,
        "namedCount": 5,
        "areaHectares": 6.0785,
        "largestAreaHectares": 4.0058,
        "byDepartment": [
          {
            "department": "NRSC",
            "count": 5
          },
          {
            "department": "AED",
            "count": 1
          }
        ],
        "namesSha256": "7b2df4fe18d707b8dc0a0c1e86a2029f368f79e7eefa55ff964cdb7a6e3134a6",
        "lgdBlockCode": "6466"
      }
    },
    {
      "type": "Feature",
      "geometry": null,
      "properties": {
        "lgdGramPanchayatCode": "223661",
        "count": 3,
        "namedCount": 3,
        "areaHectares": 3.3647,
        "largestAreaHectares": 2.4795,
        "byDepartment": [
          {
            "department": "NRSC",
            "count": 2
          },
          {
            "department": "DOSS",
            "count": 1
          }
        ],
        "namesSha256": "9f5e222b42a58be8e12d4469e1a67fab6333c442651c6b140c7574a9a31ecefc",
        "lgdBlockCode": "6466"
      }
    }
  ]
}
