{
  "nvdm": "1.0",
  "dataset": "atlas/water-bodies",
  "scope": {
    "kind": "district",
    "id": "tn-erode"
  },
  "provenance": {
    "sources": [
      {
        "id": "tngis-generic-viewer-water-bodies",
        "title": "TNGIS generic viewer: all water bodies (WFS layer generic_viewer:all_water_bodies)",
        "publisher": "Tamil Nadu e-Governance Agency (TNGIS)",
        "license": "LICENCE UNVERIFIED - see notes. TNGIS/TNeGA terms restrict public display, redistribution and commercial use to prior approval; the reuse confirmation requested 2026-07-27 has no reply. Only derived counts, areas, centroids and digests are published; cited with attribution.",
        "role": "asserts",
        "url": "https://tngis.tn.gov.in/tngismaps/ows",
        "retrieved": "2026-09-06"
      }
    ],
    "method": "api",
    "produced_at": "2026-09-06",
    "produced_by": "scripts/atlas-water-bodies-tn-district.ts",
    "internal_inputs": [
      "public/data/atlas/tn/erode/directory.json"
    ],
    "note": "TNGIS all-water-bodies register for MODAKKURUCHI block: 21 Gram Panchayats with 96 water bodies between them, rolled up per Panchayat (count, named count, summed and largest waterspread computed from the geometry, contributing departments, a digest of the sorted names). Geometry is null and names are withheld: TNGIS terms require prior approval for public display or redistribution and the confirmation requested on 2026-07-27 has no reply. A Panchayat absent here has no water body in the register.",
    "conventions": {
      "geometry": "null by rule until TNGIS/TNeGA approval is recorded; areas are hectares computed from the withheld polygons",
      "join": "panchayat_lgdvcode is the LGD Gram Panchayat code; features with code 0 (towns, corporations) are dropped, never pooled",
      "vintage": "the layer merges five departments' registers and carries no survey date"
    }
  },
  "ext": {
    "atlas": {
      "schemaVersion": 1,
      "planId": "tn-erode-v1",
      "blockCode": "6471",
      "blockName": "MODAKKURUCHI",
      "districtLgdCode": "527",
      "acquiredAt": "2026-09-06",
      "layer": "generic_viewer:all_water_bodies",
      "sourceUrl": "https://tngis.tn.gov.in/tngismaps/ows?service=WFS&version=2.0.0&request=GetFeature&typeNames=generic_viewer%3Aall_water_bodies&CQL_FILTER=rd_lgddcod%3D527&outputFormat=application%2Fjson",
      "rights": {
        "status": "permission-required",
        "termsUrl": "https://tngis.tn.gov.in/user.html",
        "termsQuote": "GIS based data available in TNGIS should be used for informational purpose only and Not for legal use/not to be shared / published in the public media in any form or in the social media without any prior approval / permission from TNGIS/TNeGA.",
        "approval": null
      },
      "contributingDepartments": [
        "AED",
        "DOSS",
        "NRSC",
        "TNRD",
        "WRD"
      ],
      "snapshotSha256": "cea63d0517b7df7e5e9392c734720fa08f7680e4ba4b7d5758905463d599c7e2",
      "featureCount": 96,
      "recordCount": 21,
      "recordsSha256": "ae016036c43b1f407b058c762e14be82188e7a696e12c9b4f80ee195681a0d5d"
    }
  },
  "type": "FeatureCollection",
  "features": [
    {
      "type": "Feature",
      "geometry": null,
      "properties": {
        "lgdGramPanchayatCode": "223732",
        "count": 5,
        "namedCount": 5,
        "areaHectares": 7.0287,
        "largestAreaHectares": 4.0147,
        "byDepartment": [
          {
            "department": "NRSC",
            "count": 5
          }
        ],
        "namesSha256": "7b2df4fe18d707b8dc0a0c1e86a2029f368f79e7eefa55ff964cdb7a6e3134a6",
        "lgdBlockCode": "6471"
      }
    },
    {
      "type": "Feature",
      "geometry": null,
      "properties": {
        "lgdGramPanchayatCode": "223733",
        "count": 7,
        "namedCount": 6,
        "areaHectares": 11.8506,
        "largestAreaHectares": 5.7069,
        "byDepartment": [
          {
            "department": "NRSC",
            "count": 6
          },
          {
            "department": "AED",
            "count": 1
          }
        ],
        "namesSha256": "b93be6cec7e0cb6f0463b631bf330289a6a40e7298358834dbb2fe060656737d",
        "lgdBlockCode": "6471"
      }
    },
    {
      "type": "Feature",
      "geometry": null,
      "properties": {
        "lgdGramPanchayatCode": "223734",
        "count": 4,
        "namedCount": 4,
        "areaHectares": 2.0195,
        "largestAreaHectares": 1.5283,
        "byDepartment": [
          {
            "department": "NRSC",
            "count": 4
          }
        ],
        "namesSha256": "3c286f9b4d57446613534121f26f9e032e291835f3d12dc06ec242dd9916d2e4",
        "lgdBlockCode": "6471"
      }
    },
    {
      "type": "Feature",
      "geometry": null,
      "properties": {
        "lgdGramPanchayatCode": "223735",
        "count": 4,
        "namedCount": 3,
        "areaHectares": 3.5234,
        "largestAreaHectares": 2.4136,
        "byDepartment": [
          {
            "department": "NRSC",
            "count": 3
          },
          {
            "department": "AED",
            "count": 1
          }
        ],
        "namesSha256": "59b6ee0dfb3935b71bcb3376277ffc610803726e03f3000364bc89212086ab35",
        "lgdBlockCode": "6471"
      }
    },
    {
      "type": "Feature",
      "geometry": null,
      "properties": {
        "lgdGramPanchayatCode": "223736",
        "count": 1,
        "namedCount": 1,
        "areaHectares": 0.5942,
        "largestAreaHectares": 0.5942,
        "byDepartment": [
          {
            "department": "NRSC",
            "count": 1
          }
        ],
        "namesSha256": "06a9aeb76ef895ce4eaf5442da73c40af2f7a587e7307198f3ef76e17388d89c",
        "lgdBlockCode": "6471"
      }
    },
    {
      "type": "Feature",
      "geometry": null,
      "properties": {
        "lgdGramPanchayatCode": "223737",
        "count": 3,
        "namedCount": 2,
        "areaHectares": 1.8864,
        "largestAreaHectares": 1.0069,
        "byDepartment": [
          {
            "department": "AED",
            "count": 1
          },
          {
            "department": "DOSS",
            "count": 1
          },
          {
            "department": "NRSC",
            "count": 1
          }
        ],
        "namesSha256": "5ed82c17f616f233040698f612b1c0815df9940f14f3277dfb94b7c393168b3d",
        "lgdBlockCode": "6471"
      }
    },
    {
      "type": "Feature",
      "geometry": null,
      "properties": {
        "lgdGramPanchayatCode": "223738",
        "count": 1,
        "namedCount": 0,
        "areaHectares": 4.0322,
        "largestAreaHectares": 4.0322,
        "byDepartment": [
          {
            "department": "AED",
            "count": 1
          }
        ],
        "namesSha256": "4f53cda18c2baa0c0354bb5f9a3ecbe5ed12ab4d8e11ba873c2f11161202b945",
        "lgdBlockCode": "6471"
      }
    },
    {
      "type": "Feature",
      "geometry": null,
      "properties": {
        "lgdGramPanchayatCode": "223739",
        "count": 4,
        "namedCount": 4,
        "areaHectares": 2.0074,
        "largestAreaHectares": 0.9218,
        "byDepartment": [
          {
            "department": "NRSC",
            "count": 4
          }
        ],
        "namesSha256": "3c286f9b4d57446613534121f26f9e032e291835f3d12dc06ec242dd9916d2e4",
        "lgdBlockCode": "6471"
      }
    },
    {
      "type": "Feature",
      "geometry": null,
      "properties": {
        "lgdGramPanchayatCode": "223740",
        "count": 7,
        "namedCount": 6,
        "areaHectares": 7.0415,
        "largestAreaHectares": 2.3836,
        "byDepartment": [
          {
            "department": "NRSC",
            "count": 6
          },
          {
            "department": "AED",
            "count": 1
          }
        ],
        "namesSha256": "b93be6cec7e0cb6f0463b631bf330289a6a40e7298358834dbb2fe060656737d",
        "lgdBlockCode": "6471"
      }
    },
    {
      "type": "Feature",
      "geometry": null,
      "properties": {
        "lgdGramPanchayatCode": "223741",
        "count": 2,
        "namedCount": 1,
        "areaHectares": 0.9217,
        "largestAreaHectares": 0.667,
        "byDepartment": [
          {
            "department": "AED",
            "count": 1
          },
          {
            "department": "NRSC",
            "count": 1
          }
        ],
        "namesSha256": "06a9aeb76ef895ce4eaf5442da73c40af2f7a587e7307198f3ef76e17388d89c",
        "lgdBlockCode": "6471"
      }
    },
    {
      "type": "Feature",
      "geometry": null,
      "properties": {
        "lgdGramPanchayatCode": "223742",
        "count": 3,
        "namedCount": 1,
        "areaHectares": 1.9035,
        "largestAreaHectares": 1.2003,
        "byDepartment": [
          {
            "department": "AED",
            "count": 2
          },
          {
            "department": "DOSS",
            "count": 1
          }
        ],
        "namesSha256": "bffb31f1532196cbc309333f49382c2bb97a7ecaee68ee7c2c331b1fd3fc9551",
        "lgdBlockCode": "6471"
      }
    },
    {
      "type": "Feature",
      "geometry": null,
      "properties": {
        "lgdGramPanchayatCode": "223743",
        "count": 5,
        "namedCount": 5,
        "areaHectares": 2.4798,
        "largestAreaHectares": 1.831,
        "byDepartment": [
          {
            "department": "DOSS",
            "count": 3
          },
          {
            "department": "NRSC",
            "count": 2
          }
        ],
        "namesSha256": "9a43fe63fc991d4c7671813a5ed5b997f864eef4987a1571ff7bfb0bfeb42d1d",
        "lgdBlockCode": "6471"
      }
    },
    {
      "type": "Feature",
      "geometry": null,
      "properties": {
        "lgdGramPanchayatCode": "223744",
        "count": 2,
        "namedCount": 2,
        "areaHectares": 1.0613,
        "largestAreaHectares": 0.6004,
        "byDepartment": [
          {
            "department": "NRSC",
            "count": 2
          }
        ],
        "namesSha256": "54459dbe127d5cada5edca98dcd9cc943ceccfc1e627fbdb2f5152dc5d5c98e6",
        "lgdBlockCode": "6471"
      }
    },
    {
      "type": "Feature",
      "geometry": null,
      "properties": {
        "lgdGramPanchayatCode": "223745",
        "count": 6,
        "namedCount": 4,
        "areaHectares": 4.8259,
        "largestAreaHectares": 2.6373,
        "byDepartment": [
          {
            "department": "NRSC",
            "count": 4
          },
          {
            "department": "AED",
            "count": 2
          }
        ],
        "namesSha256": "3c286f9b4d57446613534121f26f9e032e291835f3d12dc06ec242dd9916d2e4",
        "lgdBlockCode": "6471"
      }
    },
    {
      "type": "Feature",
      "geometry": null,
      "properties": {
        "lgdGramPanchayatCode": "223746",
        "count": 1,
        "namedCount": 1,
        "areaHectares": 0.5396,
        "largestAreaHectares": 0.5396,
        "byDepartment": [
          {
            "department": "NRSC",
            "count": 1
          }
        ],
        "namesSha256": "06a9aeb76ef895ce4eaf5442da73c40af2f7a587e7307198f3ef76e17388d89c",
        "lgdBlockCode": "6471"
      }
    },
    {
      "type": "Feature",
      "geometry": null,
      "properties": {
        "lgdGramPanchayatCode": "223747",
        "count": 10,
        "namedCount": 8,
        "areaHectares": 6.6936,
        "largestAreaHectares": 2.1221,
        "byDepartment": [
          {
            "department": "NRSC",
            "count": 8
          },
          {
            "department": "AED",
            "count": 2
          }
        ],
        "namesSha256": "131c1061afab91213a6b4377f9dc396f63a492882f080b70f8f40c125ceeb185",
        "lgdBlockCode": "6471"
      }
    },
    {
      "type": "Feature",
      "geometry": null,
      "properties": {
        "lgdGramPanchayatCode": "223748",
        "count": 7,
        "namedCount": 7,
        "areaHectares": 6.4595,
        "largestAreaHectares": 3.1479,
        "byDepartment": [
          {
            "department": "NRSC",
            "count": 7
          }
        ],
        "namesSha256": "b2b0de99c0ff2353f7b2f92e63edb137857576456c1e5a22e624ef8f18d745b5",
        "lgdBlockCode": "6471"
      }
    },
    {
      "type": "Feature",
      "geometry": null,
      "properties": {
        "lgdGramPanchayatCode": "223750",
        "count": 5,
        "namedCount": 5,
        "areaHectares": 1.2913,
        "largestAreaHectares": 0.3334,
        "byDepartment": [
          {
            "department": "NRSC",
            "count": 3
          },
          {
            "department": "DOSS",
            "count": 2
          }
        ],
        "namesSha256": "c3a594a9849f80a5a10038f742e47f0f3a8241869383e522f7f7e8c8c74bc8de",
        "lgdBlockCode": "6471"
      }
    },
    {
      "type": "Feature",
      "geometry": null,
      "properties": {
        "lgdGramPanchayatCode": "223751",
        "count": 2,
        "namedCount": 2,
        "areaHectares": 10.0837,
        "largestAreaHectares": 8.9133,
        "byDepartment": [
          {
            "department": "DOSS",
            "count": 2
          }
        ],
        "namesSha256": "eacaa7c5c07fc7399cfaa61b3d088d24cb9675f0cf4eea283b5324a1f5684523",
        "lgdBlockCode": "6471"
      }
    },
    {
      "type": "Feature",
      "geometry": null,
      "properties": {
        "lgdGramPanchayatCode": "223752",
        "count": 13,
        "namedCount": 12,
        "areaHectares": 93.9915,
        "largestAreaHectares": 87.061,
        "byDepartment": [
          {
            "department": "NRSC",
            "count": 9
          },
          {
            "department": "DOSS",
            "count": 3
          },
          {
            "department": "AED",
            "count": 1
          }
        ],
        "namesSha256": "c9a3280b9436f30d558aa1a6f7abad6a63abc2f2d732a1772a8df8719c9a9537",
        "lgdBlockCode": "6471"
      }
    },
    {
      "type": "Feature",
      "geometry": null,
      "properties": {
        "lgdGramPanchayatCode": "223753",
        "count": 4,
        "namedCount": 4,
        "areaHectares": 1.0492,
        "largestAreaHectares": 0.3518,
        "byDepartment": [
          {
            "department": "NRSC",
            "count": 4
          }
        ],
        "namesSha256": "3c286f9b4d57446613534121f26f9e032e291835f3d12dc06ec242dd9916d2e4",
        "lgdBlockCode": "6471"
      }
    }
  ]
}
