{"nvdm":"1.0","dataset":"atlas/water-bodies","scope":{"kind":"district","id":"mh-satara"},"provenance":{"sources":[{"id":"water-bodies-census-mh","title":"First Census of Water Bodies, Maharashtra state return (data.gov.in resource e1874d07)","publisher":"Department of Water Resources, River Development and Ganga Rejuvenation, Ministry of Jal Shakti, via the Open Government Data Platform","license":"Government Open Data License - India","role":"asserts","url":"https://data.gov.in/resource/state-wise-data-first-census-water-bodies-maharashtra","as_of":"2026-02-10","retrieved":"2026-09-01"}],"method":"api","produced_at":"2026-09-01","produced_by":"scripts/atlas-water-bodies-census-district.ts","internal_inputs":["public/data/atlas/mh/satara/directory.json"],"note":"First Census of Water Bodies rows for Mahabaleshwar taluka: 59 water bodies assigned to 31 Gram Panchayats through the LGD coverage register (the census locates each in a Census 2011 village; a village under exactly one Panchayat is assigned), rolled up per Panchayat (count, named count, type and ownership classes, a digest of the sorted names) with the enumerators' coordinates served as MultiPoint geometry under the Government Open Data License. 15 rows of the taluka are counted and not assigned (ext.atlas.unassigned: a village listed under two Panchayats, under none, a Census village with no LGD row, a town). Waterspread is withheld: The Satara return enters whole-hectare template values on every row (4, 5, 6 or 8 ha on 3,725 rural rows; depth 4 or 5 m; the same four construction year, cost and beneficiary combinations throughout), so the waterspread is an enumerator's default rather than a measurement and is not published. Counts, types, ownership and the recorded coordinates are served. A Panchayat absent here has no row in the return.","conventions":{"geometry":"MultiPoint of the recorded coordinates, five decimals, points outside the district's own bounding box dropped and counted in ext.atlas.pointsOutsideDistrict (a district total)","join":"unique_id part 5 is the Census 2011 village code; the directory's LGD coverage register names the Panchayat; shared, uncovered and unknown villages and urban rows are counted in ext.atlas.unassigned, never pooled","holder":"byDepartment carries the census ownership class (the register's holder axis); byType the census water-body class","vintage":"reference years 2017-18 to 2020-21, published 2023; the portal's resource stamp is the edition watched"}},"ext":{"atlas":{"schemaVersion":1,"planId":"mh-satara-v1","blockCode":"4255","blockName":"Mahabaleshwar","register":"water-bodies-census","districtLgdCode":"494","acquiredAt":"2026-09-01","layer":"First Census of Water Bodies, Maharashtra return (data.gov.in resource e1874d07-a1db-4678-80c1-b64a2924b517)","sourceUrl":"https://api.data.gov.in/resource/e1874d07-a1db-4678-80c1-b64a2924b517?format=json&limit=all&filters[district_name]=SATARA","rights":{"status":"open","termsUrl":"https://data.gov.in/resource/state-wise-data-first-census-water-bodies-maharashtra","termsQuote":"Government Open Data License - India","approval":null},"contributingDepartments":["Co-operative","State WRD/State Irrigation"],"snapshotSha256":"7ef0e20d895eaf6118bb6ceb3b7ce213ab20accdf232d831bab98f9003ffa06e","featureCount":59,"recordCount":31,"recordsSha256":"47f8f27eef07ee0314a19c593186ef7919091b591094fbf9a4558365f5440717","unassigned":{"sharedVillage":0,"uncoveredVillage":15,"censusVillageWithoutLgdRow":0,"unknownVillage":0,"urban":0},"unassignedDistrict":{"sharedVillage":39,"uncoveredVillage":230,"censusVillageWithoutLgdRow":33,"unknownVillage":0,"urban":31},"attributes":{"waterspread":"withheld","note":"The Satara return enters whole-hectare template values on every row (4, 5, 6 or 8 ha on 3,725 rural rows; depth 4 or 5 m; the same four construction year, cost and beneficiary combinations throughout), so the waterspread is an enumerator's default rather than a measurement and is not published. Counts, types, ownership and the recorded coordinates are served."},"pointsOutsideDistrict":7}},"type":"FeatureCollection","features":[{"type":"Feature","geometry":{"type":"MultiPoint","coordinates":[[74.07444,18.05417]]},"properties":{"lgdGramPanchayatCode":"189006","count":1,"namedCount":0,"areaHectares":0,"largestAreaHectares":0,"byDepartment":[{"department":"State WRD/State Irrigation","count":1}],"namesSha256":"4f53cda18c2baa0c0354bb5f9a3ecbe5ed12ab4d8e11ba873c2f11161202b945","register":"water-bodies-census","lgdBlockCode":"4255","byType":[{"type":"Water consv schemes/percolation tanks/check-dams","count":1}],"areaBasis":"withheld","pointCount":1}},{"type":"Feature","geometry":{"type":"MultiPoint","coordinates":[[73.69444,17.73556]]},"properties":{"lgdGramPanchayatCode":"189007","count":1,"namedCount":0,"areaHectares":0,"largestAreaHectares":0,"byDepartment":[{"department":"State WRD/State Irrigation","count":1}],"namesSha256":"4f53cda18c2baa0c0354bb5f9a3ecbe5ed12ab4d8e11ba873c2f11161202b945","register":"water-bodies-census","lgdBlockCode":"4255","byType":[{"type":"Water consv schemes/percolation tanks/check-dams","count":1}],"areaBasis":"withheld","pointCount":1}},{"type":"Feature","geometry":{"type":"MultiPoint","coordinates":[[73.70667,17.80583]]},"properties":{"lgdGramPanchayatCode":"189011","count":1,"namedCount":0,"areaHectares":0,"largestAreaHectares":0,"byDepartment":[{"department":"State WRD/State Irrigation","count":1}],"namesSha256":"4f53cda18c2baa0c0354bb5f9a3ecbe5ed12ab4d8e11ba873c2f11161202b945","register":"water-bodies-census","lgdBlockCode":"4255","byType":[{"type":"Water consv schemes/percolation tanks/check-dams","count":1}],"areaBasis":"withheld","pointCount":1}},{"type":"Feature","geometry":{"type":"MultiPoint","coordinates":[[73.62528,17.73611]]},"properties":{"lgdGramPanchayatCode":"189017","count":1,"namedCount":0,"areaHectares":0,"largestAreaHectares":0,"byDepartment":[{"department":"State WRD/State Irrigation","count":1}],"namesSha256":"4f53cda18c2baa0c0354bb5f9a3ecbe5ed12ab4d8e11ba873c2f11161202b945","register":"water-bodies-census","lgdBlockCode":"4255","byType":[{"type":"Water consv schemes/percolation tanks/check-dams","count":1}],"areaBasis":"withheld","pointCount":1}},{"type":"Feature","geometry":{"type":"MultiPoint","coordinates":[[73.62639,17.82611]]},"properties":{"lgdGramPanchayatCode":"189037","count":1,"namedCount":0,"areaHectares":0,"largestAreaHectares":0,"byDepartment":[{"department":"State WRD/State Irrigation","count":1}],"namesSha256":"4f53cda18c2baa0c0354bb5f9a3ecbe5ed12ab4d8e11ba873c2f11161202b945","register":"water-bodies-census","lgdBlockCode":"4255","byType":[{"type":"Water consv schemes/percolation tanks/check-dams","count":1}],"areaBasis":"withheld","pointCount":1}},{"type":"Feature","geometry":{"type":"MultiPoint","coordinates":[[73.70694,17.80556]]},"properties":{"lgdGramPanchayatCode":"189056","count":1,"namedCount":0,"areaHectares":0,"largestAreaHectares":0,"byDepartment":[{"department":"State WRD/State Irrigation","count":1}],"namesSha256":"4f53cda18c2baa0c0354bb5f9a3ecbe5ed12ab4d8e11ba873c2f11161202b945","register":"water-bodies-census","lgdBlockCode":"4255","byType":[{"type":"Tank","count":1}],"areaBasis":"withheld","pointCount":1}},{"type":"Feature","geometry":{"type":"MultiPoint","coordinates":[[73.64556,17.80611],[73.64917,17.80694]]},"properties":{"lgdGramPanchayatCode":"189077","count":2,"namedCount":0,"areaHectares":0,"largestAreaHectares":0,"byDepartment":[{"department":"State WRD/State Irrigation","count":2}],"namesSha256":"4f53cda18c2baa0c0354bb5f9a3ecbe5ed12ab4d8e11ba873c2f11161202b945","register":"water-bodies-census","lgdBlockCode":"4255","byType":[{"type":"Water consv schemes/percolation tanks/check-dams","count":2}],"areaBasis":"withheld","pointCount":2}},{"type":"Feature","geometry":{"type":"MultiPoint","coordinates":[[73.67278,17.71833]]},"properties":{"lgdGramPanchayatCode":"189120","count":1,"namedCount":0,"areaHectares":0,"largestAreaHectares":0,"byDepartment":[{"department":"State WRD/State Irrigation","count":1}],"namesSha256":"4f53cda18c2baa0c0354bb5f9a3ecbe5ed12ab4d8e11ba873c2f11161202b945","register":"water-bodies-census","lgdBlockCode":"4255","byType":[{"type":"Water consv schemes/percolation tanks/check-dams","count":1}],"areaBasis":"withheld","pointCount":1}},{"type":"Feature","geometry":{"type":"MultiPoint","coordinates":[[73.67722,17.79139]]},"properties":{"lgdGramPanchayatCode":"189131","count":1,"namedCount":0,"areaHectares":0,"largestAreaHectares":0,"byDepartment":[{"department":"State WRD/State Irrigation","count":1}],"namesSha256":"4f53cda18c2baa0c0354bb5f9a3ecbe5ed12ab4d8e11ba873c2f11161202b945","register":"water-bodies-census","lgdBlockCode":"4255","byType":[{"type":"Water consv schemes/percolation tanks/check-dams","count":1}],"areaBasis":"withheld","pointCount":1}},{"type":"Feature","geometry":{"type":"MultiPoint","coordinates":[[73.64111,17.78167]]},"properties":{"lgdGramPanchayatCode":"189133","count":1,"namedCount":0,"areaHectares":0,"largestAreaHectares":0,"byDepartment":[{"department":"State WRD/State Irrigation","count":1}],"namesSha256":"4f53cda18c2baa0c0354bb5f9a3ecbe5ed12ab4d8e11ba873c2f11161202b945","register":"water-bodies-census","lgdBlockCode":"4255","byType":[{"type":"Water consv schemes/percolation tanks/check-dams","count":1}],"areaBasis":"withheld","pointCount":1}},{"type":"Feature","geometry":{"type":"MultiPoint","coordinates":[[73.71944,17.84833]]},"properties":{"lgdGramPanchayatCode":"189146","count":1,"namedCount":0,"areaHectares":0,"largestAreaHectares":0,"byDepartment":[{"department":"State WRD/State Irrigation","count":1}],"namesSha256":"4f53cda18c2baa0c0354bb5f9a3ecbe5ed12ab4d8e11ba873c2f11161202b945","register":"water-bodies-census","lgdBlockCode":"4255","byType":[{"type":"Water consv schemes/percolation tanks/check-dams","count":1}],"areaBasis":"withheld","pointCount":1}},{"type":"Feature","geometry":{"type":"MultiPoint","coordinates":[[73.78556,17.86611],[73.78583,17.86667]]},"properties":{"lgdGramPanchayatCode":"189150","count":2,"namedCount":0,"areaHectares":0,"largestAreaHectares":0,"byDepartment":[{"department":"State WRD/State Irrigation","count":2}],"namesSha256":"4f53cda18c2baa0c0354bb5f9a3ecbe5ed12ab4d8e11ba873c2f11161202b945","register":"water-bodies-census","lgdBlockCode":"4255","byType":[{"type":"Water consv schemes/percolation tanks/check-dams","count":2}],"areaBasis":"withheld","pointCount":2}},{"type":"Feature","geometry":{"type":"MultiPoint","coordinates":[[73.69972,17.87056]]},"properties":{"lgdGramPanchayatCode":"189167","count":1,"namedCount":0,"areaHectares":0,"largestAreaHectares":0,"byDepartment":[{"department":"State WRD/State Irrigation","count":1}],"namesSha256":"4f53cda18c2baa0c0354bb5f9a3ecbe5ed12ab4d8e11ba873c2f11161202b945","register":"water-bodies-census","lgdBlockCode":"4255","byType":[{"type":"Water consv schemes/percolation tanks/check-dams","count":1}],"areaBasis":"withheld","pointCount":1}},{"type":"Feature","geometry":{"type":"MultiPoint","coordinates":[[73.83944,17.90472]]},"properties":{"lgdGramPanchayatCode":"189685","count":1,"namedCount":0,"areaHectares":0,"largestAreaHectares":0,"byDepartment":[{"department":"State WRD/State Irrigation","count":1}],"namesSha256":"4f53cda18c2baa0c0354bb5f9a3ecbe5ed12ab4d8e11ba873c2f11161202b945","register":"water-bodies-census","lgdBlockCode":"4255","byType":[{"type":"Water consv schemes/percolation tanks/check-dams","count":1}],"areaBasis":"withheld","pointCount":1}},{"type":"Feature","geometry":{"type":"MultiPoint","coordinates":[[73.70528,17.92361],[73.72778,17.91806]]},"properties":{"lgdGramPanchayatCode":"189686","count":2,"namedCount":0,"areaHectares":0,"largestAreaHectares":0,"byDepartment":[{"department":"State WRD/State Irrigation","count":2}],"namesSha256":"4f53cda18c2baa0c0354bb5f9a3ecbe5ed12ab4d8e11ba873c2f11161202b945","register":"water-bodies-census","lgdBlockCode":"4255","byType":[{"type":"Water consv schemes/percolation tanks/check-dams","count":2}],"areaBasis":"withheld","pointCount":2}},{"type":"Feature","geometry":{"type":"MultiPoint","coordinates":[[73.74611,17.90778],[73.74667,17.91083],[73.74944,17.90806],[73.75222,17.91417],[73.75222,17.91528],[73.75556,17.91],[73.75583,17.90861],[73.75611,17.90917],[73.75611,17.90917],[73.76222,17.90444],[73.76222,17.90444],[73.76778,17.90389]]},"properties":{"lgdGramPanchayatCode":"189688","count":12,"namedCount":0,"areaHectares":0,"largestAreaHectares":0,"byDepartment":[{"department":"State WRD/State Irrigation","count":12}],"namesSha256":"4f53cda18c2baa0c0354bb5f9a3ecbe5ed12ab4d8e11ba873c2f11161202b945","register":"water-bodies-census","lgdBlockCode":"4255","byType":[{"type":"Water consv schemes/percolation tanks/check-dams","count":10},{"type":"Tank","count":2}],"areaBasis":"withheld","pointCount":12}},{"type":"Feature","geometry":{"type":"MultiPoint","coordinates":[[73.75611,17.92944],[73.75639,17.92806],[73.75694,17.92417],[73.75944,17.92333]]},"properties":{"lgdGramPanchayatCode":"189689","count":4,"namedCount":0,"areaHectares":0,"largestAreaHectares":0,"byDepartment":[{"department":"State WRD/State Irrigation","count":4}],"namesSha256":"4f53cda18c2baa0c0354bb5f9a3ecbe5ed12ab4d8e11ba873c2f11161202b945","register":"water-bodies-census","lgdBlockCode":"4255","byType":[{"type":"Tank","count":2},{"type":"Ponds","count":1},{"type":"Water consv schemes/percolation tanks/check-dams","count":1}],"areaBasis":"withheld","pointCount":4}},{"type":"Feature","geometry":{"type":"MultiPoint","coordinates":[[73.60389,17.86472]]},"properties":{"lgdGramPanchayatCode":"189690","count":1,"namedCount":0,"areaHectares":0,"largestAreaHectares":0,"byDepartment":[{"department":"State WRD/State Irrigation","count":1}],"namesSha256":"4f53cda18c2baa0c0354bb5f9a3ecbe5ed12ab4d8e11ba873c2f11161202b945","register":"water-bodies-census","lgdBlockCode":"4255","byType":[{"type":"Water consv schemes/percolation tanks/check-dams","count":1}],"areaBasis":"withheld","pointCount":1}},{"type":"Feature","geometry":{"type":"MultiPoint","coordinates":[[73.60778,17.84444],[74.00861,17.76917]]},"properties":{"lgdGramPanchayatCode":"189692","count":2,"namedCount":0,"areaHectares":0,"largestAreaHectares":0,"byDepartment":[{"department":"State WRD/State Irrigation","count":2}],"namesSha256":"4f53cda18c2baa0c0354bb5f9a3ecbe5ed12ab4d8e11ba873c2f11161202b945","register":"water-bodies-census","lgdBlockCode":"4255","byType":[{"type":"Water consv schemes/percolation tanks/check-dams","count":2}],"areaBasis":"withheld","pointCount":2}},{"type":"Feature","geometry":{"type":"MultiPoint","coordinates":[[73.67583,17.89944]]},"properties":{"lgdGramPanchayatCode":"189693","count":1,"namedCount":0,"areaHectares":0,"largestAreaHectares":0,"byDepartment":[{"department":"State WRD/State Irrigation","count":1}],"namesSha256":"4f53cda18c2baa0c0354bb5f9a3ecbe5ed12ab4d8e11ba873c2f11161202b945","register":"water-bodies-census","lgdBlockCode":"4255","byType":[{"type":"Water consv schemes/percolation tanks/check-dams","count":1}],"areaBasis":"withheld","pointCount":1}},{"type":"Feature","geometry":{"type":"MultiPoint","coordinates":[[73.82333,17.93056]]},"properties":{"lgdGramPanchayatCode":"189695","count":1,"namedCount":0,"areaHectares":0,"largestAreaHectares":0,"byDepartment":[{"department":"State WRD/State Irrigation","count":1}],"namesSha256":"4f53cda18c2baa0c0354bb5f9a3ecbe5ed12ab4d8e11ba873c2f11161202b945","register":"water-bodies-census","lgdBlockCode":"4255","byType":[{"type":"Water consv schemes/percolation tanks/check-dams","count":1}],"areaBasis":"withheld","pointCount":1}},{"type":"Feature","geometry":{"type":"MultiPoint","coordinates":[[73.63472,17.86056]]},"properties":{"lgdGramPanchayatCode":"189697","count":1,"namedCount":0,"areaHectares":0,"largestAreaHectares":0,"byDepartment":[{"department":"State WRD/State Irrigation","count":1}],"namesSha256":"4f53cda18c2baa0c0354bb5f9a3ecbe5ed12ab4d8e11ba873c2f11161202b945","register":"water-bodies-census","lgdBlockCode":"4255","byType":[{"type":"Water consv schemes/percolation tanks/check-dams","count":1}],"areaBasis":"withheld","pointCount":1}},{"type":"Feature","geometry":{"type":"MultiPoint","coordinates":[[73.70306,17.86139]]},"properties":{"lgdGramPanchayatCode":"189698","count":1,"namedCount":0,"areaHectares":0,"largestAreaHectares":0,"byDepartment":[{"department":"State WRD/State Irrigation","count":1}],"namesSha256":"4f53cda18c2baa0c0354bb5f9a3ecbe5ed12ab4d8e11ba873c2f11161202b945","register":"water-bodies-census","lgdBlockCode":"4255","byType":[{"type":"Water consv schemes/percolation tanks/check-dams","count":1}],"areaBasis":"withheld","pointCount":1}},{"type":"Feature","geometry":{"type":"MultiPoint","coordinates":[[73.8175,17.91611],[73.82083,17.90917]]},"properties":{"lgdGramPanchayatCode":"189699","count":2,"namedCount":0,"areaHectares":0,"largestAreaHectares":0,"byDepartment":[{"department":"State WRD/State Irrigation","count":2}],"namesSha256":"4f53cda18c2baa0c0354bb5f9a3ecbe5ed12ab4d8e11ba873c2f11161202b945","register":"water-bodies-census","lgdBlockCode":"4255","byType":[{"type":"Water consv schemes/percolation tanks/check-dams","count":2}],"areaBasis":"withheld","pointCount":2}},{"type":"Feature","geometry":{"type":"MultiPoint","coordinates":[[73.59583,17.86278],[73.59694,17.86333],[73.60417,17.86472]]},"properties":{"lgdGramPanchayatCode":"189702","count":3,"namedCount":0,"areaHectares":0,"largestAreaHectares":0,"byDepartment":[{"department":"State WRD/State Irrigation","count":3}],"namesSha256":"4f53cda18c2baa0c0354bb5f9a3ecbe5ed12ab4d8e11ba873c2f11161202b945","register":"water-bodies-census","lgdBlockCode":"4255","byType":[{"type":"Water consv schemes/percolation tanks/check-dams","count":3}],"areaBasis":"withheld","pointCount":3}},{"type":"Feature","geometry":{"type":"MultiPoint","coordinates":[[73.61333,17.93944],[73.61583,17.94222],[73.61583,17.94222],[73.62028,17.94694],[73.63028,17.94917]]},"properties":{"lgdGramPanchayatCode":"189703","count":5,"namedCount":0,"areaHectares":0,"largestAreaHectares":0,"byDepartment":[{"department":"State WRD/State Irrigation","count":5}],"namesSha256":"4f53cda18c2baa0c0354bb5f9a3ecbe5ed12ab4d8e11ba873c2f11161202b945","register":"water-bodies-census","lgdBlockCode":"4255","byType":[{"type":"Water consv schemes/percolation tanks/check-dams","count":5}],"areaBasis":"withheld","pointCount":5}},{"type":"Feature","geometry":{"type":"MultiPoint","coordinates":[[73.77306,17.89889],[73.77694,17.90444],[73.78611,17.90194]]},"properties":{"lgdGramPanchayatCode":"189705","count":3,"namedCount":0,"areaHectares":0,"largestAreaHectares":0,"byDepartment":[{"department":"State WRD/State Irrigation","count":3}],"namesSha256":"4f53cda18c2baa0c0354bb5f9a3ecbe5ed12ab4d8e11ba873c2f11161202b945","register":"water-bodies-census","lgdBlockCode":"4255","byType":[{"type":"Water consv schemes/percolation tanks/check-dams","count":3}],"areaBasis":"withheld","pointCount":3}},{"type":"Feature","geometry":{"type":"MultiPoint","coordinates":[[73.72222,17.88222],[73.72639,17.85889]]},"properties":{"lgdGramPanchayatCode":"189714","count":2,"namedCount":0,"areaHectares":0,"largestAreaHectares":0,"byDepartment":[{"department":"State WRD/State Irrigation","count":2}],"namesSha256":"4f53cda18c2baa0c0354bb5f9a3ecbe5ed12ab4d8e11ba873c2f11161202b945","register":"water-bodies-census","lgdBlockCode":"4255","byType":[{"type":"Water consv schemes/percolation tanks/check-dams","count":2}],"areaBasis":"withheld","pointCount":2}},{"type":"Feature","geometry":{"type":"MultiPoint","coordinates":[[73.60528,17.92389]]},"properties":{"lgdGramPanchayatCode":"189719","count":1,"namedCount":0,"areaHectares":0,"largestAreaHectares":0,"byDepartment":[{"department":"State WRD/State Irrigation","count":1}],"namesSha256":"4f53cda18c2baa0c0354bb5f9a3ecbe5ed12ab4d8e11ba873c2f11161202b945","register":"water-bodies-census","lgdBlockCode":"4255","byType":[{"type":"Water consv schemes/percolation tanks/check-dams","count":1}],"areaBasis":"withheld","pointCount":1}},{"type":"Feature","geometry":{"type":"MultiPoint","coordinates":[[73.61694,17.89417]]},"properties":{"lgdGramPanchayatCode":"189720","count":1,"namedCount":0,"areaHectares":0,"largestAreaHectares":0,"byDepartment":[{"department":"State WRD/State Irrigation","count":1}],"namesSha256":"4f53cda18c2baa0c0354bb5f9a3ecbe5ed12ab4d8e11ba873c2f11161202b945","register":"water-bodies-census","lgdBlockCode":"4255","byType":[{"type":"Water consv schemes/percolation tanks/check-dams","count":1}],"areaBasis":"withheld","pointCount":1}},{"type":"Feature","geometry":{"type":"MultiPoint","coordinates":[[73.71556,17.87222]]},"properties":{"lgdGramPanchayatCode":"189723","count":1,"namedCount":0,"areaHectares":0,"largestAreaHectares":0,"byDepartment":[{"department":"State WRD/State Irrigation","count":1}],"namesSha256":"4f53cda18c2baa0c0354bb5f9a3ecbe5ed12ab4d8e11ba873c2f11161202b945","register":"water-bodies-census","lgdBlockCode":"4255","byType":[{"type":"Water consv schemes/percolation tanks/check-dams","count":1}],"areaBasis":"withheld","pointCount":1}}]}
