{"nvdm":"1.0","dataset":"atlas/water-bodies","scope":{"kind":"district","id":"mh-satara"},"provenance":{"sources":[{"id":"water-bodies-census-mh","title":"First Census of Water Bodies, Maharashtra state return (data.gov.in resource e1874d07)","publisher":"Department of Water Resources, River Development and Ganga Rejuvenation, Ministry of Jal Shakti, via the Open Government Data Platform","license":"Government Open Data License - India","role":"asserts","url":"https://data.gov.in/resource/state-wise-data-first-census-water-bodies-maharashtra","as_of":"2026-02-10","retrieved":"2026-09-01"}],"method":"api","produced_at":"2026-09-01","produced_by":"scripts/atlas-water-bodies-census-district.ts","internal_inputs":["public/data/atlas/mh/satara/directory.json"],"note":"First Census of Water Bodies rows for Koregaon taluka: 526 water bodies assigned to 78 Gram Panchayats through the LGD coverage register (the census locates each in a Census 2011 village; a village under exactly one Panchayat is assigned), rolled up per Panchayat (count, named count, type and ownership classes, a digest of the sorted names) with the enumerators' coordinates served as MultiPoint geometry under the Government Open Data License. 13 rows of the taluka are counted and not assigned (ext.atlas.unassigned: a village listed under two Panchayats, under none, a Census village with no LGD row, a town). Waterspread is withheld: The Satara return enters whole-hectare template values on every row (4, 5, 6 or 8 ha on 3,725 rural rows; depth 4 or 5 m; the same four construction year, cost and beneficiary combinations throughout), so the waterspread is an enumerator's default rather than a measurement and is not published. Counts, types, ownership and the recorded coordinates are served. A Panchayat absent here has no row in the return.","conventions":{"geometry":"MultiPoint of the recorded coordinates, five decimals, points outside the district's own bounding box dropped and counted in ext.atlas.pointsOutsideDistrict (a district total)","join":"unique_id part 5 is the Census 2011 village code; the directory's LGD coverage register names the Panchayat; shared, uncovered and unknown villages and urban rows are counted in ext.atlas.unassigned, never pooled","holder":"byDepartment carries the census ownership class (the register's holder axis); byType the census water-body class","vintage":"reference years 2017-18 to 2020-21, published 2023; the portal's resource stamp is the edition watched"}},"ext":{"atlas":{"schemaVersion":1,"planId":"mh-satara-v1","blockCode":"4261","blockName":"Koregaon","register":"water-bodies-census","districtLgdCode":"494","acquiredAt":"2026-09-01","layer":"First Census of Water Bodies, Maharashtra return (data.gov.in resource e1874d07-a1db-4678-80c1-b64a2924b517)","sourceUrl":"https://api.data.gov.in/resource/e1874d07-a1db-4678-80c1-b64a2924b517?format=json&limit=all&filters[district_name]=SATARA","rights":{"status":"open","termsUrl":"https://data.gov.in/resource/state-wise-data-first-census-water-bodies-maharashtra","termsQuote":"Government Open Data License - India","approval":null},"contributingDepartments":["Co-operative","State WRD/State Irrigation"],"snapshotSha256":"7ef0e20d895eaf6118bb6ceb3b7ce213ab20accdf232d831bab98f9003ffa06e","featureCount":526,"recordCount":78,"recordsSha256":"bc7ff3d84f0ca5ecf02b16523079e830c6b2c5e0106cc250df72eb5df5e5efba","unassigned":{"sharedVillage":8,"uncoveredVillage":5,"censusVillageWithoutLgdRow":0,"unknownVillage":0,"urban":0},"unassignedDistrict":{"sharedVillage":39,"uncoveredVillage":230,"censusVillageWithoutLgdRow":33,"unknownVillage":0,"urban":31},"attributes":{"waterspread":"withheld","note":"The Satara return enters whole-hectare template values on every row (4, 5, 6 or 8 ha on 3,725 rural rows; depth 4 or 5 m; the same four construction year, cost and beneficiary combinations throughout), so the waterspread is an enumerator's default rather than a measurement and is not published. Counts, types, ownership and the recorded coordinates are served."},"pointsOutsideDistrict":7}},"type":"FeatureCollection","features":[{"type":"Feature","geometry":{"type":"MultiPoint","coordinates":[[74.07583,17.80861],[74.08,17.81583],[74.08361,17.81111],[74.08472,17.81],[74.08528,17.80917],[74.08667,17.80639],[74.08778,17.81778],[74.08806,17.80528],[74.09,17.81667],[74.09194,17.81444],[74.10472,17.81056]]},"properties":{"lgdGramPanchayatCode":"189548","count":11,"namedCount":0,"areaHectares":0,"largestAreaHectares":0,"byDepartment":[{"department":"State WRD/State Irrigation","count":10},{"department":"Co-operative","count":1}],"namesSha256":"4f53cda18c2baa0c0354bb5f9a3ecbe5ed12ab4d8e11ba873c2f11161202b945","register":"water-bodies-census","lgdBlockCode":"4261","byType":[{"type":"Water consv schemes/percolation tanks/check-dams","count":10},{"type":"Tank","count":1}],"areaBasis":"withheld","pointCount":11}},{"type":"Feature","geometry":{"type":"MultiPoint","coordinates":[[74.30194,17.60361],[74.30306,17.60194]]},"properties":{"lgdGramPanchayatCode":"189549","count":2,"namedCount":0,"areaHectares":0,"largestAreaHectares":0,"byDepartment":[{"department":"Co-operative","count":1},{"department":"State WRD/State Irrigation","count":1}],"namesSha256":"4f53cda18c2baa0c0354bb5f9a3ecbe5ed12ab4d8e11ba873c2f11161202b945","register":"water-bodies-census","lgdBlockCode":"4261","byType":[{"type":"Tank","count":1},{"type":"Water consv schemes/percolation tanks/check-dams","count":1}],"areaBasis":"withheld","pointCount":2}},{"type":"Feature","geometry":{"type":"MultiPoint","coordinates":[[74.15444,17.69056],[74.15472,17.69139]]},"properties":{"lgdGramPanchayatCode":"189550","count":2,"namedCount":0,"areaHectares":0,"largestAreaHectares":0,"byDepartment":[{"department":"State WRD/State Irrigation","count":2}],"namesSha256":"4f53cda18c2baa0c0354bb5f9a3ecbe5ed12ab4d8e11ba873c2f11161202b945","register":"water-bodies-census","lgdBlockCode":"4261","byType":[{"type":"Water consv schemes/percolation tanks/check-dams","count":2}],"areaBasis":"withheld","pointCount":2}},{"type":"Feature","geometry":{"type":"MultiPoint","coordinates":[[74.24806,17.76361],[74.25306,17.75667],[74.255,17.75639],[74.255,17.76139],[74.25639,17.75639],[74.25667,17.76167],[74.25694,17.75944],[74.25722,17.75861],[74.25944,17.75694],[74.26389,17.75778]]},"properties":{"lgdGramPanchayatCode":"189552","count":10,"namedCount":0,"areaHectares":0,"largestAreaHectares":0,"byDepartment":[{"department":"State WRD/State Irrigation","count":8},{"department":"Co-operative","count":2}],"namesSha256":"4f53cda18c2baa0c0354bb5f9a3ecbe5ed12ab4d8e11ba873c2f11161202b945","register":"water-bodies-census","lgdBlockCode":"4261","byType":[{"type":"Water consv schemes/percolation tanks/check-dams","count":8},{"type":"Tank","count":2}],"areaBasis":"withheld","pointCount":10}},{"type":"Feature","geometry":{"type":"MultiPoint","coordinates":[[74.065,17.82083],[74.08028,17.82889],[74.08056,17.83056],[74.08167,17.82944],[74.08333,17.82944],[74.08694,17.825]]},"properties":{"lgdGramPanchayatCode":"189554","count":6,"namedCount":0,"areaHectares":0,"largestAreaHectares":0,"byDepartment":[{"department":"State WRD/State Irrigation","count":5},{"department":"Co-operative","count":1}],"namesSha256":"4f53cda18c2baa0c0354bb5f9a3ecbe5ed12ab4d8e11ba873c2f11161202b945","register":"water-bodies-census","lgdBlockCode":"4261","byType":[{"type":"Water consv schemes/percolation tanks/check-dams","count":5},{"type":"Tank","count":1}],"areaBasis":"withheld","pointCount":6}},{"type":"Feature","geometry":{"type":"MultiPoint","coordinates":[[74.22167,17.51278]]},"properties":{"lgdGramPanchayatCode":"189555","count":1,"namedCount":0,"areaHectares":0,"largestAreaHectares":0,"byDepartment":[{"department":"State WRD/State Irrigation","count":1}],"namesSha256":"4f53cda18c2baa0c0354bb5f9a3ecbe5ed12ab4d8e11ba873c2f11161202b945","register":"water-bodies-census","lgdBlockCode":"4261","byType":[{"type":"Water consv schemes/percolation tanks/check-dams","count":1}],"areaBasis":"withheld","pointCount":1}},{"type":"Feature","geometry":{"type":"MultiPoint","coordinates":[[73.97472,17.64833]]},"properties":{"lgdGramPanchayatCode":"189556","count":1,"namedCount":0,"areaHectares":0,"largestAreaHectares":0,"byDepartment":[{"department":"State WRD/State Irrigation","count":1}],"namesSha256":"4f53cda18c2baa0c0354bb5f9a3ecbe5ed12ab4d8e11ba873c2f11161202b945","register":"water-bodies-census","lgdBlockCode":"4261","byType":[{"type":"Water consv schemes/percolation tanks/check-dams","count":1}],"areaBasis":"withheld","pointCount":1}},{"type":"Feature","geometry":{"type":"MultiPoint","coordinates":[[74.05361,17.84222],[74.05361,17.8425],[74.05583,17.84167],[74.06639,17.84028],[74.06722,17.84361],[74.07833,17.85222],[74.07861,17.83333]]},"properties":{"lgdGramPanchayatCode":"189558","count":7,"namedCount":0,"areaHectares":0,"largestAreaHectares":0,"byDepartment":[{"department":"State WRD/State Irrigation","count":6},{"department":"Co-operative","count":1}],"namesSha256":"4f53cda18c2baa0c0354bb5f9a3ecbe5ed12ab4d8e11ba873c2f11161202b945","register":"water-bodies-census","lgdBlockCode":"4261","byType":[{"type":"Water consv schemes/percolation tanks/check-dams","count":6},{"type":"Tank","count":1}],"areaBasis":"withheld","pointCount":7}},{"type":"Feature","geometry":{"type":"MultiPoint","coordinates":[[74.26944,17.56139],[74.26944,17.5675],[74.26944,17.5675]]},"properties":{"lgdGramPanchayatCode":"189560","count":3,"namedCount":0,"areaHectares":0,"largestAreaHectares":0,"byDepartment":[{"department":"State WRD/State Irrigation","count":2},{"department":"Co-operative","count":1}],"namesSha256":"4f53cda18c2baa0c0354bb5f9a3ecbe5ed12ab4d8e11ba873c2f11161202b945","register":"water-bodies-census","lgdBlockCode":"4261","byType":[{"type":"Water consv schemes/percolation tanks/check-dams","count":2},{"type":"Tank","count":1}],"areaBasis":"withheld","pointCount":3}},{"type":"Feature","geometry":{"type":"MultiPoint","coordinates":[[74.21583,17.84944],[74.22,17.84694],[74.22222,17.84611],[74.22306,17.84556],[74.225,17.845],[74.22639,17.84472],[74.2275,17.84417]]},"properties":{"lgdGramPanchayatCode":"189561","count":7,"namedCount":0,"areaHectares":0,"largestAreaHectares":0,"byDepartment":[{"department":"State WRD/State Irrigation","count":7}],"namesSha256":"4f53cda18c2baa0c0354bb5f9a3ecbe5ed12ab4d8e11ba873c2f11161202b945","register":"water-bodies-census","lgdBlockCode":"4261","byType":[{"type":"Water consv schemes/percolation tanks/check-dams","count":7}],"areaBasis":"withheld","pointCount":7}},{"type":"Feature","geometry":{"type":"MultiPoint","coordinates":[[74.13667,17.71778]]},"properties":{"lgdGramPanchayatCode":"189562","count":1,"namedCount":0,"areaHectares":0,"largestAreaHectares":0,"byDepartment":[{"department":"State WRD/State Irrigation","count":1}],"namesSha256":"4f53cda18c2baa0c0354bb5f9a3ecbe5ed12ab4d8e11ba873c2f11161202b945","register":"water-bodies-census","lgdBlockCode":"4261","byType":[{"type":"Water consv schemes/percolation tanks/check-dams","count":1}],"areaBasis":"withheld","pointCount":1}},{"type":"Feature","geometry":{"type":"MultiPoint","coordinates":[[74.24778,17.73444],[74.25194,17.73833],[74.25306,17.73833],[74.25472,17.73778]]},"properties":{"lgdGramPanchayatCode":"189564","count":4,"namedCount":0,"areaHectares":0,"largestAreaHectares":0,"byDepartment":[{"department":"State WRD/State Irrigation","count":4}],"namesSha256":"4f53cda18c2baa0c0354bb5f9a3ecbe5ed12ab4d8e11ba873c2f11161202b945","register":"water-bodies-census","lgdBlockCode":"4261","byType":[{"type":"Water consv schemes/percolation tanks/check-dams","count":4}],"areaBasis":"withheld","pointCount":4}},{"type":"Feature","geometry":{"type":"MultiPoint","coordinates":[[74.22167,17.71361],[74.23056,17.71]]},"properties":{"lgdGramPanchayatCode":"189565","count":2,"namedCount":0,"areaHectares":0,"largestAreaHectares":0,"byDepartment":[{"department":"Co-operative","count":1},{"department":"State WRD/State Irrigation","count":1}],"namesSha256":"4f53cda18c2baa0c0354bb5f9a3ecbe5ed12ab4d8e11ba873c2f11161202b945","register":"water-bodies-census","lgdBlockCode":"4261","byType":[{"type":"Tank","count":1},{"type":"Water consv schemes/percolation tanks/check-dams","count":1}],"areaBasis":"withheld","pointCount":2}},{"type":"Feature","geometry":{"type":"MultiPoint","coordinates":[[74.07694,17.77694],[74.08194,17.76528]]},"properties":{"lgdGramPanchayatCode":"189567","count":2,"namedCount":0,"areaHectares":0,"largestAreaHectares":0,"byDepartment":[{"department":"Co-operative","count":1},{"department":"State WRD/State Irrigation","count":1}],"namesSha256":"4f53cda18c2baa0c0354bb5f9a3ecbe5ed12ab4d8e11ba873c2f11161202b945","register":"water-bodies-census","lgdBlockCode":"4261","byType":[{"type":"Ponds","count":1},{"type":"Water consv schemes/percolation tanks/check-dams","count":1}],"areaBasis":"withheld","pointCount":2}},{"type":"Feature","geometry":{"type":"MultiPoint","coordinates":[[74.19639,17.73278],[74.19861,17.73528],[74.20139,17.7425],[74.20222,17.74417],[74.20278,17.74778],[74.20361,17.74972],[74.20556,17.75139],[74.20722,17.75278],[74.20944,17.75472],[74.21056,17.75556],[74.2125,17.74972],[74.21528,17.75278]]},"properties":{"lgdGramPanchayatCode":"189569","count":12,"namedCount":0,"areaHectares":0,"largestAreaHectares":0,"byDepartment":[{"department":"State WRD/State Irrigation","count":11},{"department":"Co-operative","count":1}],"namesSha256":"4f53cda18c2baa0c0354bb5f9a3ecbe5ed12ab4d8e11ba873c2f11161202b945","register":"water-bodies-census","lgdBlockCode":"4261","byType":[{"type":"Water consv schemes/percolation tanks/check-dams","count":11},{"type":"Tank","count":1}],"areaBasis":"withheld","pointCount":12}},{"type":"Feature","geometry":{"type":"MultiPoint","coordinates":[[74.14056,17.83278],[74.14056,17.84306],[74.14278,17.84361],[74.14611,17.84444],[74.14917,17.84556],[74.1525,17.84583],[74.15278,17.84778],[74.17694,17.84417]]},"properties":{"lgdGramPanchayatCode":"189570","count":8,"namedCount":0,"areaHectares":0,"largestAreaHectares":0,"byDepartment":[{"department":"State WRD/State Irrigation","count":7},{"department":"Co-operative","count":1}],"namesSha256":"4f53cda18c2baa0c0354bb5f9a3ecbe5ed12ab4d8e11ba873c2f11161202b945","register":"water-bodies-census","lgdBlockCode":"4261","byType":[{"type":"Water consv schemes/percolation tanks/check-dams","count":7},{"type":"Tank","count":1}],"areaBasis":"withheld","pointCount":8}},{"type":"Feature","geometry":{"type":"MultiPoint","coordinates":[[74.22944,17.7475],[74.23083,17.74917],[74.23194,17.74972],[74.235,17.74917],[74.23528,17.75167],[74.23611,17.74861],[74.2375,17.75417],[74.23778,17.74861]]},"properties":{"lgdGramPanchayatCode":"189575","count":8,"namedCount":0,"areaHectares":0,"largestAreaHectares":0,"byDepartment":[{"department":"State WRD/State Irrigation","count":8}],"namesSha256":"4f53cda18c2baa0c0354bb5f9a3ecbe5ed12ab4d8e11ba873c2f11161202b945","register":"water-bodies-census","lgdBlockCode":"4261","byType":[{"type":"Water consv schemes/percolation tanks/check-dams","count":8}],"areaBasis":"withheld","pointCount":8}},{"type":"Feature","geometry":{"type":"MultiPoint","coordinates":[[74.18389,17.7675],[74.18417,17.7725]]},"properties":{"lgdGramPanchayatCode":"189576","count":2,"namedCount":0,"areaHectares":0,"largestAreaHectares":0,"byDepartment":[{"department":"State WRD/State Irrigation","count":2}],"namesSha256":"4f53cda18c2baa0c0354bb5f9a3ecbe5ed12ab4d8e11ba873c2f11161202b945","register":"water-bodies-census","lgdBlockCode":"4261","byType":[{"type":"Water consv schemes/percolation tanks/check-dams","count":2}],"areaBasis":"withheld","pointCount":2}},{"type":"Feature","geometry":{"type":"MultiPoint","coordinates":[[74.02222,17.92667],[74.02806,17.91722]]},"properties":{"lgdGramPanchayatCode":"189578","count":2,"namedCount":0,"areaHectares":0,"largestAreaHectares":0,"byDepartment":[{"department":"Co-operative","count":1},{"department":"State WRD/State Irrigation","count":1}],"namesSha256":"4f53cda18c2baa0c0354bb5f9a3ecbe5ed12ab4d8e11ba873c2f11161202b945","register":"water-bodies-census","lgdBlockCode":"4261","byType":[{"type":"Tank","count":1},{"type":"Water consv schemes/percolation tanks/check-dams","count":1}],"areaBasis":"withheld","pointCount":2}},{"type":"Feature","geometry":{"type":"MultiPoint","coordinates":[[74.24528,17.8775],[74.24806,17.86583],[74.25,17.87833],[74.25306,17.87806]]},"properties":{"lgdGramPanchayatCode":"189579","count":4,"namedCount":0,"areaHectares":0,"largestAreaHectares":0,"byDepartment":[{"department":"Co-operative","count":2},{"department":"State WRD/State Irrigation","count":2}],"namesSha256":"4f53cda18c2baa0c0354bb5f9a3ecbe5ed12ab4d8e11ba873c2f11161202b945","register":"water-bodies-census","lgdBlockCode":"4261","byType":[{"type":"Water consv schemes/percolation tanks/check-dams","count":2},{"type":"Lakes","count":1},{"type":"Tank","count":1}],"areaBasis":"withheld","pointCount":4}},{"type":"Feature","geometry":{"type":"MultiPoint","coordinates":[[74.22417,17.72917],[74.22583,17.73528],[74.22611,17.72861],[74.22694,17.73417],[74.22889,17.73611],[74.23028,17.73806]]},"properties":{"lgdGramPanchayatCode":"189580","count":6,"namedCount":0,"areaHectares":0,"largestAreaHectares":0,"byDepartment":[{"department":"State WRD/State Irrigation","count":6}],"namesSha256":"4f53cda18c2baa0c0354bb5f9a3ecbe5ed12ab4d8e11ba873c2f11161202b945","register":"water-bodies-census","lgdBlockCode":"4261","byType":[{"type":"Water consv schemes/percolation tanks/check-dams","count":6}],"areaBasis":"withheld","pointCount":6}},{"type":"Feature","geometry":{"type":"MultiPoint","coordinates":[[74.10556,17.88194],[74.10611,17.87861],[74.10917,17.87917]]},"properties":{"lgdGramPanchayatCode":"189582","count":3,"namedCount":0,"areaHectares":0,"largestAreaHectares":0,"byDepartment":[{"department":"State WRD/State Irrigation","count":3}],"namesSha256":"4f53cda18c2baa0c0354bb5f9a3ecbe5ed12ab4d8e11ba873c2f11161202b945","register":"water-bodies-census","lgdBlockCode":"4261","byType":[{"type":"Water consv schemes/percolation tanks/check-dams","count":3}],"areaBasis":"withheld","pointCount":3}},{"type":"Feature","geometry":{"type":"MultiPoint","coordinates":[[74.08944,17.75306],[74.09611,17.77361],[74.09667,17.75722],[74.09694,17.75806],[74.10361,17.74944],[74.10694,17.76361],[74.10722,17.75417]]},"properties":{"lgdGramPanchayatCode":"189583","count":7,"namedCount":0,"areaHectares":0,"largestAreaHectares":0,"byDepartment":[{"department":"State WRD/State Irrigation","count":6},{"department":"Co-operative","count":1}],"namesSha256":"4f53cda18c2baa0c0354bb5f9a3ecbe5ed12ab4d8e11ba873c2f11161202b945","register":"water-bodies-census","lgdBlockCode":"4261","byType":[{"type":"Water consv schemes/percolation tanks/check-dams","count":6},{"type":"Tank","count":1}],"areaBasis":"withheld","pointCount":7}},{"type":"Feature","geometry":{"type":"MultiPoint","coordinates":[[74.11333,17.85278]]},"properties":{"lgdGramPanchayatCode":"189584","count":1,"namedCount":0,"areaHectares":0,"largestAreaHectares":0,"byDepartment":[{"department":"State WRD/State Irrigation","count":1}],"namesSha256":"4f53cda18c2baa0c0354bb5f9a3ecbe5ed12ab4d8e11ba873c2f11161202b945","register":"water-bodies-census","lgdBlockCode":"4261","byType":[{"type":"Water consv schemes/percolation tanks/check-dams","count":1}],"areaBasis":"withheld","pointCount":1}},{"type":"Feature","geometry":{"type":"MultiPoint","coordinates":[[74.05361,17.85667],[74.05639,17.86139],[74.05694,17.85361],[74.06083,17.85806],[74.06139,17.85111],[74.0625,17.84917],[74.06333,17.84833],[74.06389,17.85694],[74.06444,17.8475],[74.06472,17.85778],[74.06556,17.84583],[74.06583,17.845],[74.06667,17.84472]]},"properties":{"lgdGramPanchayatCode":"189587","count":13,"namedCount":0,"areaHectares":0,"largestAreaHectares":0,"byDepartment":[{"department":"State WRD/State Irrigation","count":11},{"department":"Co-operative","count":2}],"namesSha256":"4f53cda18c2baa0c0354bb5f9a3ecbe5ed12ab4d8e11ba873c2f11161202b945","register":"water-bodies-census","lgdBlockCode":"4261","byType":[{"type":"Water consv schemes/percolation tanks/check-dams","count":11},{"type":"Ponds","count":1},{"type":"Tank","count":1}],"areaBasis":"withheld","pointCount":13}},{"type":"Feature","geometry":{"type":"MultiPoint","coordinates":[[74.09306,17.90111],[74.09528,17.89917],[74.09667,17.90028],[74.09806,17.895],[74.09806,17.9025],[74.10556,17.89],[74.11583,17.91167],[74.11611,17.90889],[74.11889,17.90528],[74.11944,17.90444],[74.12028,17.90306],[74.12111,17.90056],[74.12222,17.89833],[74.12333,17.89528]]},"properties":{"lgdGramPanchayatCode":"189593","count":14,"namedCount":0,"areaHectares":0,"largestAreaHectares":0,"byDepartment":[{"department":"State WRD/State Irrigation","count":14}],"namesSha256":"4f53cda18c2baa0c0354bb5f9a3ecbe5ed12ab4d8e11ba873c2f11161202b945","register":"water-bodies-census","lgdBlockCode":"4261","byType":[{"type":"Water consv schemes/percolation tanks/check-dams","count":14}],"areaBasis":"withheld","pointCount":14}},{"type":"Feature","geometry":{"type":"MultiPoint","coordinates":[[74.13139,17.82278],[74.13667,17.83056],[74.13694,17.82083],[74.14972,17.81639],[74.15528,17.81944]]},"properties":{"lgdGramPanchayatCode":"189597","count":5,"namedCount":0,"areaHectares":0,"largestAreaHectares":0,"byDepartment":[{"department":"State WRD/State Irrigation","count":3},{"department":"Co-operative","count":2}],"namesSha256":"4f53cda18c2baa0c0354bb5f9a3ecbe5ed12ab4d8e11ba873c2f11161202b945","register":"water-bodies-census","lgdBlockCode":"4261","byType":[{"type":"Water consv schemes/percolation tanks/check-dams","count":3},{"type":"Tank","count":2}],"areaBasis":"withheld","pointCount":5}},{"type":"Feature","geometry":{"type":"MultiPoint","coordinates":[[74.1325,17.82889]]},"properties":{"lgdGramPanchayatCode":"189598","count":1,"namedCount":0,"areaHectares":0,"largestAreaHectares":0,"byDepartment":[{"department":"State WRD/State Irrigation","count":1}],"namesSha256":"4f53cda18c2baa0c0354bb5f9a3ecbe5ed12ab4d8e11ba873c2f11161202b945","register":"water-bodies-census","lgdBlockCode":"4261","byType":[{"type":"Water consv schemes/percolation tanks/check-dams","count":1}],"areaBasis":"withheld","pointCount":1}},{"type":"Feature","geometry":{"type":"MultiPoint","coordinates":[[74.22,17.865],[74.22278,17.86222],[74.22611,17.86361],[74.22611,17.87278],[74.22639,17.87194],[74.22806,17.86639],[74.22806,17.87861],[74.22861,17.87028],[74.22944,17.87583],[74.23111,17.87111],[74.23222,17.87806],[74.2325,17.87611],[74.23278,17.87222],[74.23389,17.88083],[74.23472,17.87778],[74.23556,17.86111],[74.23556,17.87861],[74.23583,17.88639],[74.23889,17.86278],[74.23917,17.88194],[74.24278,17.86389],[74.24278,17.87583],[74.24361,17.88444],[74.24389,17.87639]]},"properties":{"lgdGramPanchayatCode":"189599","count":25,"namedCount":0,"areaHectares":0,"largestAreaHectares":0,"byDepartment":[{"department":"State WRD/State Irrigation","count":22},{"department":"Co-operative","count":3}],"namesSha256":"4f53cda18c2baa0c0354bb5f9a3ecbe5ed12ab4d8e11ba873c2f11161202b945","register":"water-bodies-census","lgdBlockCode":"4261","byType":[{"type":"Water consv schemes/percolation tanks/check-dams","count":22},{"type":"Lakes","count":1},{"type":"Ponds","count":1},{"type":"Tank","count":1}],"areaBasis":"withheld","pointCount":24}},{"type":"Feature","geometry":{"type":"MultiPoint","coordinates":[[74.17667,17.82639],[74.17667,17.82694],[74.17833,17.82417],[74.17889,17.82861],[74.17917,17.82222],[74.18417,17.82],[74.18611,17.8275],[74.1875,17.82694],[74.19417,17.82472],[74.20611,17.81611]]},"properties":{"lgdGramPanchayatCode":"189600","count":10,"namedCount":0,"areaHectares":0,"largestAreaHectares":0,"byDepartment":[{"department":"State WRD/State Irrigation","count":9},{"department":"Co-operative","count":1}],"namesSha256":"4f53cda18c2baa0c0354bb5f9a3ecbe5ed12ab4d8e11ba873c2f11161202b945","register":"water-bodies-census","lgdBlockCode":"4261","byType":[{"type":"Water consv schemes/percolation tanks/check-dams","count":9},{"type":"Tank","count":1}],"areaBasis":"withheld","pointCount":10}},{"type":"Feature","geometry":{"type":"MultiPoint","coordinates":[[74.2225,17.79194],[74.22306,17.79333],[74.22444,17.79528],[74.22472,17.79528],[74.22639,17.79639],[74.22972,17.79917],[74.23,17.79806]]},"properties":{"lgdGramPanchayatCode":"189601","count":7,"namedCount":0,"areaHectares":0,"largestAreaHectares":0,"byDepartment":[{"department":"State WRD/State Irrigation","count":5},{"department":"Co-operative","count":2}],"namesSha256":"4f53cda18c2baa0c0354bb5f9a3ecbe5ed12ab4d8e11ba873c2f11161202b945","register":"water-bodies-census","lgdBlockCode":"4261","byType":[{"type":"Water consv schemes/percolation tanks/check-dams","count":5},{"type":"Lakes","count":1},{"type":"Tank","count":1}],"areaBasis":"withheld","pointCount":7}},{"type":"Feature","geometry":{"type":"MultiPoint","coordinates":[[74.06861,17.93667],[74.06889,17.93861],[74.07056,17.93556],[74.0725,17.93306],[74.08028,17.93972],[74.08139,17.93778],[74.085,17.92889]]},"properties":{"lgdGramPanchayatCode":"189603","count":7,"namedCount":0,"areaHectares":0,"largestAreaHectares":0,"byDepartment":[{"department":"State WRD/State Irrigation","count":6},{"department":"Co-operative","count":1}],"namesSha256":"4f53cda18c2baa0c0354bb5f9a3ecbe5ed12ab4d8e11ba873c2f11161202b945","register":"water-bodies-census","lgdBlockCode":"4261","byType":[{"type":"Water consv schemes/percolation tanks/check-dams","count":6},{"type":"Ponds","count":1}],"areaBasis":"withheld","pointCount":7}},{"type":"Feature","geometry":{"type":"MultiPoint","coordinates":[[74.10083,17.7175],[74.1025,17.71389],[74.10417,17.70028],[74.10611,17.72889],[74.11139,17.70694],[74.11389,17.70583],[74.11389,17.71639],[74.11389,17.71722],[74.21778,17.81667]]},"properties":{"lgdGramPanchayatCode":"189605","count":9,"namedCount":0,"areaHectares":0,"largestAreaHectares":0,"byDepartment":[{"department":"State WRD/State Irrigation","count":9}],"namesSha256":"4f53cda18c2baa0c0354bb5f9a3ecbe5ed12ab4d8e11ba873c2f11161202b945","register":"water-bodies-census","lgdBlockCode":"4261","byType":[{"type":"Water consv schemes/percolation tanks/check-dams","count":9}],"areaBasis":"withheld","pointCount":9}},{"type":"Feature","geometry":{"type":"MultiPoint","coordinates":[[74.19333,17.80861],[74.19556,17.80972],[74.20278,17.80944],[74.20306,17.795],[74.20389,17.80944],[74.205,17.79389],[74.20528,17.80944],[74.20611,17.80972],[74.20722,17.80917],[74.20833,17.80889],[74.21028,17.80194],[74.21167,17.80889],[74.21361,17.80944],[74.21583,17.80972],[74.21667,17.81028],[74.21889,17.80944],[74.22111,17.81667],[74.22167,17.81333],[74.22194,17.815],[74.22222,17.8125],[74.22472,17.81861],[74.22528,17.81472],[74.22583,17.81722],[74.22861,17.81528]]},"properties":{"lgdGramPanchayatCode":"189606","count":24,"namedCount":0,"areaHectares":0,"largestAreaHectares":0,"byDepartment":[{"department":"State WRD/State Irrigation","count":24}],"namesSha256":"4f53cda18c2baa0c0354bb5f9a3ecbe5ed12ab4d8e11ba873c2f11161202b945","register":"water-bodies-census","lgdBlockCode":"4261","byType":[{"type":"Water consv schemes/percolation tanks/check-dams","count":24}],"areaBasis":"withheld","pointCount":24}},{"type":"Feature","geometry":{"type":"MultiPoint","coordinates":[[74.1325,17.68667],[74.13389,17.67667],[74.13389,17.67667],[74.13389,17.67667],[74.13389,17.67667],[74.14472,17.68528]]},"properties":{"lgdGramPanchayatCode":"189607","count":6,"namedCount":0,"areaHectares":0,"largestAreaHectares":0,"byDepartment":[{"department":"State WRD/State Irrigation","count":6}],"namesSha256":"4f53cda18c2baa0c0354bb5f9a3ecbe5ed12ab4d8e11ba873c2f11161202b945","register":"water-bodies-census","lgdBlockCode":"4261","byType":[{"type":"Water consv schemes/percolation tanks/check-dams","count":6}],"areaBasis":"withheld","pointCount":6}},{"type":"Feature","geometry":{"type":"MultiPoint","coordinates":[[74.30389,17.56861],[74.30417,17.57222],[74.30722,17.57111],[74.31722,17.56778],[74.31917,17.56806],[74.31944,17.57028],[74.31944,17.57194],[74.31944,17.57361],[74.32167,17.57556],[74.32194,17.57944],[74.32222,17.58028],[74.32333,17.58028],[74.32389,17.58028],[74.325,17.58222],[74.32556,17.58472],[74.32667,17.57472]]},"properties":{"lgdGramPanchayatCode":"189608","count":16,"namedCount":0,"areaHectares":0,"largestAreaHectares":0,"byDepartment":[{"department":"State WRD/State Irrigation","count":14},{"department":"Co-operative","count":2}],"namesSha256":"4f53cda18c2baa0c0354bb5f9a3ecbe5ed12ab4d8e11ba873c2f11161202b945","register":"water-bodies-census","lgdBlockCode":"4261","byType":[{"type":"Water consv schemes/percolation tanks/check-dams","count":14},{"type":"Lakes","count":1},{"type":"Tank","count":1}],"areaBasis":"withheld","pointCount":16}},{"type":"Feature","geometry":{"type":"MultiPoint","coordinates":[[74.05389,17.94194],[74.055,17.94111]]},"properties":{"lgdGramPanchayatCode":"189611","count":2,"namedCount":0,"areaHectares":0,"largestAreaHectares":0,"byDepartment":[{"department":"State WRD/State Irrigation","count":2}],"namesSha256":"4f53cda18c2baa0c0354bb5f9a3ecbe5ed12ab4d8e11ba873c2f11161202b945","register":"water-bodies-census","lgdBlockCode":"4261","byType":[{"type":"Water consv schemes/percolation tanks/check-dams","count":2}],"areaBasis":"withheld","pointCount":2}},{"type":"Feature","geometry":{"type":"MultiPoint","coordinates":[[74.17222,17.82806],[74.18444,17.83056],[74.18917,17.83472],[74.19611,17.84028],[74.19639,17.8325],[74.19639,17.83806],[74.19639,17.84111],[74.19694,17.82806],[74.19694,17.84417],[74.19778,17.82806],[74.19917,17.84667],[74.20194,17.83278],[74.2025,17.83667]]},"properties":{"lgdGramPanchayatCode":"189613","count":13,"namedCount":0,"areaHectares":0,"largestAreaHectares":0,"byDepartment":[{"department":"State WRD/State Irrigation","count":13}],"namesSha256":"4f53cda18c2baa0c0354bb5f9a3ecbe5ed12ab4d8e11ba873c2f11161202b945","register":"water-bodies-census","lgdBlockCode":"4261","byType":[{"type":"Water consv schemes/percolation tanks/check-dams","count":13}],"areaBasis":"withheld","pointCount":13}},{"type":"Feature","geometry":{"type":"MultiPoint","coordinates":[[74.09139,17.84056],[74.09778,17.83722],[74.09917,17.83583],[74.10139,17.83472],[74.10417,17.83333],[74.10472,17.83444]]},"properties":{"lgdGramPanchayatCode":"189615","count":6,"namedCount":0,"areaHectares":0,"largestAreaHectares":0,"byDepartment":[{"department":"State WRD/State Irrigation","count":6}],"namesSha256":"4f53cda18c2baa0c0354bb5f9a3ecbe5ed12ab4d8e11ba873c2f11161202b945","register":"water-bodies-census","lgdBlockCode":"4261","byType":[{"type":"Water consv schemes/percolation tanks/check-dams","count":6}],"areaBasis":"withheld","pointCount":6}},{"type":"Feature","geometry":{"type":"MultiPoint","coordinates":[[74.03667,17.705]]},"properties":{"lgdGramPanchayatCode":"189616","count":1,"namedCount":0,"areaHectares":0,"largestAreaHectares":0,"byDepartment":[{"department":"State WRD/State Irrigation","count":1}],"namesSha256":"4f53cda18c2baa0c0354bb5f9a3ecbe5ed12ab4d8e11ba873c2f11161202b945","register":"water-bodies-census","lgdBlockCode":"4261","byType":[{"type":"Water consv schemes/percolation tanks/check-dams","count":1}],"areaBasis":"withheld","pointCount":1}},{"type":"Feature","geometry":{"type":"MultiPoint","coordinates":[[74.25806,17.64361],[74.26028,17.63944],[74.26139,17.64333],[74.26278,17.64139]]},"properties":{"lgdGramPanchayatCode":"189617","count":4,"namedCount":0,"areaHectares":0,"largestAreaHectares":0,"byDepartment":[{"department":"State WRD/State Irrigation","count":4}],"namesSha256":"4f53cda18c2baa0c0354bb5f9a3ecbe5ed12ab4d8e11ba873c2f11161202b945","register":"water-bodies-census","lgdBlockCode":"4261","byType":[{"type":"Water consv schemes/percolation tanks/check-dams","count":4}],"areaBasis":"withheld","pointCount":4}},{"type":"Feature","geometry":{"type":"MultiPoint","coordinates":[[74.22944,17.5075],[74.23333,17.50556],[74.23667,17.51333],[74.23861,17.50389],[74.24694,17.51306],[74.24778,17.51944],[74.24889,17.51306],[74.24944,17.50222],[74.25083,17.50417],[74.25139,17.50639],[74.25444,17.51278],[74.26889,17.50361],[74.26972,17.50278]]},"properties":{"lgdGramPanchayatCode":"189621","count":13,"namedCount":0,"areaHectares":0,"largestAreaHectares":0,"byDepartment":[{"department":"State WRD/State Irrigation","count":13}],"namesSha256":"4f53cda18c2baa0c0354bb5f9a3ecbe5ed12ab4d8e11ba873c2f11161202b945","register":"water-bodies-census","lgdBlockCode":"4261","byType":[{"type":"Water consv schemes/percolation tanks/check-dams","count":13}],"areaBasis":"withheld","pointCount":13}},{"type":"Feature","geometry":{"type":"MultiPoint","coordinates":[[74.1225,17.70056],[74.12639,17.69861],[74.13528,17.71139],[74.15111,17.69639]]},"properties":{"lgdGramPanchayatCode":"189624","count":4,"namedCount":0,"areaHectares":0,"largestAreaHectares":0,"byDepartment":[{"department":"State WRD/State Irrigation","count":4}],"namesSha256":"4f53cda18c2baa0c0354bb5f9a3ecbe5ed12ab4d8e11ba873c2f11161202b945","register":"water-bodies-census","lgdBlockCode":"4261","byType":[{"type":"Water consv schemes/percolation tanks/check-dams","count":4}],"areaBasis":"withheld","pointCount":4}},{"type":"Feature","geometry":{"type":"MultiPoint","coordinates":[[74.1725,17.51389],[74.175,17.50528],[74.17722,17.50833],[74.17972,17.50611],[74.18,17.50556],[74.18056,17.50472]]},"properties":{"lgdGramPanchayatCode":"189627","count":6,"namedCount":0,"areaHectares":0,"largestAreaHectares":0,"byDepartment":[{"department":"State WRD/State Irrigation","count":6}],"namesSha256":"4f53cda18c2baa0c0354bb5f9a3ecbe5ed12ab4d8e11ba873c2f11161202b945","register":"water-bodies-census","lgdBlockCode":"4261","byType":[{"type":"Water consv schemes/percolation tanks/check-dams","count":6}],"areaBasis":"withheld","pointCount":6}},{"type":"Feature","geometry":{"type":"MultiPoint","coordinates":[[74.04333,17.95167],[74.04694,17.95],[74.04917,17.94833],[74.05,17.94694],[74.05333,17.94556],[74.05861,17.96583],[74.05917,17.96306],[74.05917,17.96389],[74.05917,17.96472],[74.05972,17.95833],[74.05972,17.95833],[74.06028,17.95944],[74.06056,17.95361],[74.06139,17.9475]]},"properties":{"lgdGramPanchayatCode":"189628","count":14,"namedCount":0,"areaHectares":0,"largestAreaHectares":0,"byDepartment":[{"department":"State WRD/State Irrigation","count":14}],"namesSha256":"4f53cda18c2baa0c0354bb5f9a3ecbe5ed12ab4d8e11ba873c2f11161202b945","register":"water-bodies-census","lgdBlockCode":"4261","byType":[{"type":"Water consv schemes/percolation tanks/check-dams","count":14}],"areaBasis":"withheld","pointCount":14}},{"type":"Feature","geometry":{"type":"MultiPoint","coordinates":[[74.23417,17.48889],[74.235,17.49194],[74.23528,17.50028],[74.23556,17.49361],[74.23556,17.49889],[74.23889,17.47944],[74.24222,17.49056],[74.24389,17.48528],[74.245,17.48694],[74.2475,17.48833],[74.2475,17.49917],[74.2475,17.49917],[74.24972,17.48556],[74.25056,17.48806],[74.25111,17.5],[74.2525,17.48111],[74.25306,17.48444],[74.25361,17.48944],[74.26278,17.49333],[74.26778,17.47639]]},"properties":{"lgdGramPanchayatCode":"189631","count":20,"namedCount":0,"areaHectares":0,"largestAreaHectares":0,"byDepartment":[{"department":"State WRD/State Irrigation","count":20}],"namesSha256":"4f53cda18c2baa0c0354bb5f9a3ecbe5ed12ab4d8e11ba873c2f11161202b945","register":"water-bodies-census","lgdBlockCode":"4261","byType":[{"type":"Water consv schemes/percolation tanks/check-dams","count":20}],"areaBasis":"withheld","pointCount":20}},{"type":"Feature","geometry":{"type":"MultiPoint","coordinates":[[74.055,18.00056],[74.05556,17.97861],[74.05917,17.97722],[74.06056,17.97528],[74.06444,17.97472],[74.06444,17.97472],[74.06611,17.97417],[74.07361,17.98528]]},"properties":{"lgdGramPanchayatCode":"189632","count":8,"namedCount":0,"areaHectares":0,"largestAreaHectares":0,"byDepartment":[{"department":"State WRD/State Irrigation","count":8}],"namesSha256":"4f53cda18c2baa0c0354bb5f9a3ecbe5ed12ab4d8e11ba873c2f11161202b945","register":"water-bodies-census","lgdBlockCode":"4261","byType":[{"type":"Water consv schemes/percolation tanks/check-dams","count":8}],"areaBasis":"withheld","pointCount":8}},{"type":"Feature","geometry":{"type":"MultiPoint","coordinates":[[74.17389,17.85111],[74.17917,17.84806],[74.18111,17.84806],[74.1825,17.84944],[74.18389,17.85111]]},"properties":{"lgdGramPanchayatCode":"189634","count":5,"namedCount":0,"areaHectares":0,"largestAreaHectares":0,"byDepartment":[{"department":"State WRD/State Irrigation","count":5}],"namesSha256":"4f53cda18c2baa0c0354bb5f9a3ecbe5ed12ab4d8e11ba873c2f11161202b945","register":"water-bodies-census","lgdBlockCode":"4261","byType":[{"type":"Water consv schemes/percolation tanks/check-dams","count":5}],"areaBasis":"withheld","pointCount":5}},{"type":"Feature","geometry":{"type":"MultiPoint","coordinates":[[74.06833,17.95472],[74.06861,17.95694],[74.06889,17.95833],[74.06944,17.96111],[74.06972,17.96194],[74.07278,17.96361],[74.07333,17.96389],[74.07417,17.96444]]},"properties":{"lgdGramPanchayatCode":"189635","count":8,"namedCount":0,"areaHectares":0,"largestAreaHectares":0,"byDepartment":[{"department":"State WRD/State Irrigation","count":8}],"namesSha256":"4f53cda18c2baa0c0354bb5f9a3ecbe5ed12ab4d8e11ba873c2f11161202b945","register":"water-bodies-census","lgdBlockCode":"4261","byType":[{"type":"Water consv schemes/percolation tanks/check-dams","count":8}],"areaBasis":"withheld","pointCount":8}},{"type":"Feature","geometry":{"type":"MultiPoint","coordinates":[[74.24361,17.55056],[74.24639,17.56111],[74.25083,17.54806],[74.25083,17.54806],[74.25139,17.54861],[74.25444,17.54806],[74.25611,17.53111],[74.25667,17.55056],[74.2575,17.54056],[74.25972,17.53861],[74.26056,17.53028],[74.26139,17.54944],[74.26333,17.53583],[74.26361,17.54944],[74.26528,17.53472],[74.26583,17.54889],[74.27361,17.54778]]},"properties":{"lgdGramPanchayatCode":"189636","count":17,"namedCount":0,"areaHectares":0,"largestAreaHectares":0,"byDepartment":[{"department":"State WRD/State Irrigation","count":17}],"namesSha256":"4f53cda18c2baa0c0354bb5f9a3ecbe5ed12ab4d8e11ba873c2f11161202b945","register":"water-bodies-census","lgdBlockCode":"4261","byType":[{"type":"Water consv schemes/percolation tanks/check-dams","count":17}],"areaBasis":"withheld","pointCount":17}},{"type":"Feature","geometry":{"type":"MultiPoint","coordinates":[[74.21111,17.7575],[74.21167,17.75889],[74.2175,17.76167],[74.22056,17.76417],[74.225,17.76556],[74.22583,17.76583],[74.2275,17.76583],[74.22944,17.7675],[74.23028,17.76861],[74.23056,17.77],[74.23417,17.77639],[74.23444,17.76889],[74.23583,17.76861],[74.23694,17.76889],[74.23722,17.7775],[74.23722,17.78139],[74.23778,17.77806],[74.23833,17.78222],[74.24028,17.77972],[74.24139,17.78111],[74.24167,17.77472],[74.2425,17.78],[74.24278,17.78194],[74.24389,17.78194],[74.24528,17.78333]]},"properties":{"lgdGramPanchayatCode":"189637","count":25,"namedCount":0,"areaHectares":0,"largestAreaHectares":0,"byDepartment":[{"department":"State WRD/State Irrigation","count":25}],"namesSha256":"4f53cda18c2baa0c0354bb5f9a3ecbe5ed12ab4d8e11ba873c2f11161202b945","register":"water-bodies-census","lgdBlockCode":"4261","byType":[{"type":"Water consv schemes/percolation tanks/check-dams","count":25}],"areaBasis":"withheld","pointCount":25}},{"type":"Feature","geometry":{"type":"MultiPoint","coordinates":[[74.195,17.64528],[74.20389,17.64167],[74.20528,17.63694]]},"properties":{"lgdGramPanchayatCode":"189638","count":3,"namedCount":0,"areaHectares":0,"largestAreaHectares":0,"byDepartment":[{"department":"State WRD/State Irrigation","count":3}],"namesSha256":"4f53cda18c2baa0c0354bb5f9a3ecbe5ed12ab4d8e11ba873c2f11161202b945","register":"water-bodies-census","lgdBlockCode":"4261","byType":[{"type":"Water consv schemes/percolation tanks/check-dams","count":3}],"areaBasis":"withheld","pointCount":3}},{"type":"Feature","geometry":{"type":"MultiPoint","coordinates":[[74.09917,17.78333],[74.10611,17.79833],[74.10722,17.79806]]},"properties":{"lgdGramPanchayatCode":"189640","count":3,"namedCount":0,"areaHectares":0,"largestAreaHectares":0,"byDepartment":[{"department":"State WRD/State Irrigation","count":3}],"namesSha256":"4f53cda18c2baa0c0354bb5f9a3ecbe5ed12ab4d8e11ba873c2f11161202b945","register":"water-bodies-census","lgdBlockCode":"4261","byType":[{"type":"Water consv schemes/percolation tanks/check-dams","count":3}],"areaBasis":"withheld","pointCount":3}},{"type":"Feature","geometry":{"type":"MultiPoint","coordinates":[[74.09917,17.78139]]},"properties":{"lgdGramPanchayatCode":"189641","count":1,"namedCount":0,"areaHectares":0,"largestAreaHectares":0,"byDepartment":[{"department":"State WRD/State Irrigation","count":1}],"namesSha256":"4f53cda18c2baa0c0354bb5f9a3ecbe5ed12ab4d8e11ba873c2f11161202b945","register":"water-bodies-census","lgdBlockCode":"4261","byType":[{"type":"Water consv schemes/percolation tanks/check-dams","count":1}],"areaBasis":"withheld","pointCount":1}},{"type":"Feature","geometry":{"type":"MultiPoint","coordinates":[[73.885,17.94694],[73.885,17.94694],[73.885,17.94694],[74.08694,17.93111],[74.09,17.9325],[74.09139,17.93444],[74.09222,17.935],[74.09278,17.91806],[74.10167,17.91861]]},"properties":{"lgdGramPanchayatCode":"189642","count":9,"namedCount":0,"areaHectares":0,"largestAreaHectares":0,"byDepartment":[{"department":"State WRD/State Irrigation","count":9}],"namesSha256":"4f53cda18c2baa0c0354bb5f9a3ecbe5ed12ab4d8e11ba873c2f11161202b945","register":"water-bodies-census","lgdBlockCode":"4261","byType":[{"type":"Water consv schemes/percolation tanks/check-dams","count":9}],"areaBasis":"withheld","pointCount":9}},{"type":"Feature","geometry":{"type":"MultiPoint","coordinates":[[74.09222,17.82417],[74.10583,17.81722]]},"properties":{"lgdGramPanchayatCode":"189643","count":2,"namedCount":0,"areaHectares":0,"largestAreaHectares":0,"byDepartment":[{"department":"State WRD/State Irrigation","count":2}],"namesSha256":"4f53cda18c2baa0c0354bb5f9a3ecbe5ed12ab4d8e11ba873c2f11161202b945","register":"water-bodies-census","lgdBlockCode":"4261","byType":[{"type":"Water consv schemes/percolation tanks/check-dams","count":2}],"areaBasis":"withheld","pointCount":2}},{"type":"Feature","geometry":{"type":"MultiPoint","coordinates":[[74.20806,17.54972],[74.21806,17.55694],[74.21806,17.55694],[74.22194,17.55639],[74.22194,17.55639],[74.22278,17.555],[74.22556,17.55472],[74.22694,17.55389],[74.23111,17.55389],[74.2325,17.55444],[74.23556,17.55333],[74.23556,17.55333]]},"properties":{"lgdGramPanchayatCode":"189644","count":12,"namedCount":0,"areaHectares":0,"largestAreaHectares":0,"byDepartment":[{"department":"State WRD/State Irrigation","count":12}],"namesSha256":"4f53cda18c2baa0c0354bb5f9a3ecbe5ed12ab4d8e11ba873c2f11161202b945","register":"water-bodies-census","lgdBlockCode":"4261","byType":[{"type":"Water consv schemes/percolation tanks/check-dams","count":12}],"areaBasis":"withheld","pointCount":12}},{"type":"Feature","geometry":{"type":"MultiPoint","coordinates":[[74.24389,17.71556],[74.2475,17.715],[74.25139,17.71528],[74.25278,17.71583],[74.25333,17.71694],[74.25667,17.71917]]},"properties":{"lgdGramPanchayatCode":"189645","count":6,"namedCount":0,"areaHectares":0,"largestAreaHectares":0,"byDepartment":[{"department":"State WRD/State Irrigation","count":6}],"namesSha256":"4f53cda18c2baa0c0354bb5f9a3ecbe5ed12ab4d8e11ba873c2f11161202b945","register":"water-bodies-census","lgdBlockCode":"4261","byType":[{"type":"Water consv schemes/percolation tanks/check-dams","count":6}],"areaBasis":"withheld","pointCount":6}},{"type":"Feature","geometry":{"type":"MultiPoint","coordinates":[[73.885,17.94694],[74.07861,17.80139],[74.0925,17.79389]]},"properties":{"lgdGramPanchayatCode":"189647","count":3,"namedCount":0,"areaHectares":0,"largestAreaHectares":0,"byDepartment":[{"department":"State WRD/State Irrigation","count":3}],"namesSha256":"4f53cda18c2baa0c0354bb5f9a3ecbe5ed12ab4d8e11ba873c2f11161202b945","register":"water-bodies-census","lgdBlockCode":"4261","byType":[{"type":"Water consv schemes/percolation tanks/check-dams","count":3}],"areaBasis":"withheld","pointCount":3}},{"type":"Feature","geometry":{"type":"MultiPoint","coordinates":[[74.21167,17.77583],[74.2125,17.77639],[74.21361,17.77667],[74.21611,17.7775],[74.21611,17.78222],[74.21667,17.78139],[74.21722,17.77944]]},"properties":{"lgdGramPanchayatCode":"189649","count":7,"namedCount":0,"areaHectares":0,"largestAreaHectares":0,"byDepartment":[{"department":"State WRD/State Irrigation","count":7}],"namesSha256":"4f53cda18c2baa0c0354bb5f9a3ecbe5ed12ab4d8e11ba873c2f11161202b945","register":"water-bodies-census","lgdBlockCode":"4261","byType":[{"type":"Water consv schemes/percolation tanks/check-dams","count":7}],"areaBasis":"withheld","pointCount":7}},{"type":"Feature","geometry":{"type":"MultiPoint","coordinates":[[74.4875,18.05583]]},"properties":{"lgdGramPanchayatCode":"189653","count":1,"namedCount":0,"areaHectares":0,"largestAreaHectares":0,"byDepartment":[{"department":"State WRD/State Irrigation","count":1}],"namesSha256":"4f53cda18c2baa0c0354bb5f9a3ecbe5ed12ab4d8e11ba873c2f11161202b945","register":"water-bodies-census","lgdBlockCode":"4261","byType":[{"type":"Water consv schemes/percolation tanks/check-dams","count":1}],"areaBasis":"withheld","pointCount":1}},{"type":"Feature","geometry":{"type":"MultiPoint","coordinates":[[73.885,17.94694],[74.04889,17.91056],[74.05083,17.91056],[74.05556,17.90861]]},"properties":{"lgdGramPanchayatCode":"189655","count":4,"namedCount":0,"areaHectares":0,"largestAreaHectares":0,"byDepartment":[{"department":"State WRD/State Irrigation","count":4}],"namesSha256":"4f53cda18c2baa0c0354bb5f9a3ecbe5ed12ab4d8e11ba873c2f11161202b945","register":"water-bodies-census","lgdBlockCode":"4261","byType":[{"type":"Water consv schemes/percolation tanks/check-dams","count":4}],"areaBasis":"withheld","pointCount":4}},{"type":"Feature","geometry":{"type":"MultiPoint","coordinates":[[73.885,17.94694],[73.885,17.94694],[73.885,17.94694],[73.885,17.94694],[73.885,17.94694],[73.9675,17.68083],[73.97361,17.68417],[73.97806,17.71056],[74.02806,17.66083],[74.04583,17.6425],[74.04639,17.65806],[74.04806,17.64333]]},"properties":{"lgdGramPanchayatCode":"189657","count":12,"namedCount":0,"areaHectares":0,"largestAreaHectares":0,"byDepartment":[{"department":"State WRD/State Irrigation","count":12}],"namesSha256":"4f53cda18c2baa0c0354bb5f9a3ecbe5ed12ab4d8e11ba873c2f11161202b945","register":"water-bodies-census","lgdBlockCode":"4261","byType":[{"type":"Water consv schemes/percolation tanks/check-dams","count":12}],"areaBasis":"withheld","pointCount":12}},{"type":"Feature","geometry":{"type":"MultiPoint","coordinates":[[74.19389,17.51861],[74.20083,17.51444],[74.2025,17.50389]]},"properties":{"lgdGramPanchayatCode":"189658","count":3,"namedCount":0,"areaHectares":0,"largestAreaHectares":0,"byDepartment":[{"department":"State WRD/State Irrigation","count":3}],"namesSha256":"4f53cda18c2baa0c0354bb5f9a3ecbe5ed12ab4d8e11ba873c2f11161202b945","register":"water-bodies-census","lgdBlockCode":"4261","byType":[{"type":"Water consv schemes/percolation tanks/check-dams","count":3}],"areaBasis":"withheld","pointCount":3}},{"type":"Feature","geometry":{"type":"MultiPoint","coordinates":[[73.88528,17.94639],[74.19806,17.65944]]},"properties":{"lgdGramPanchayatCode":"189661","count":2,"namedCount":0,"areaHectares":0,"largestAreaHectares":0,"byDepartment":[{"department":"State WRD/State Irrigation","count":2}],"namesSha256":"4f53cda18c2baa0c0354bb5f9a3ecbe5ed12ab4d8e11ba873c2f11161202b945","register":"water-bodies-census","lgdBlockCode":"4261","byType":[{"type":"Water consv schemes/percolation tanks/check-dams","count":2}],"areaBasis":"withheld","pointCount":2}},{"type":"Feature","geometry":{"type":"MultiPoint","coordinates":[[73.88472,17.94694],[73.885,17.94694],[73.88528,17.94639],[74.02972,17.98889],[74.0425,17.98611],[74.04444,17.98444],[74.04444,17.98444],[74.04444,17.98556],[74.04528,17.98944],[74.04583,17.98333],[74.04639,17.98278],[74.04639,17.98278],[74.04778,17.98139],[74.04806,17.98167],[74.05,17.98056]]},"properties":{"lgdGramPanchayatCode":"189664","count":15,"namedCount":0,"areaHectares":0,"largestAreaHectares":0,"byDepartment":[{"department":"State WRD/State Irrigation","count":15}],"namesSha256":"4f53cda18c2baa0c0354bb5f9a3ecbe5ed12ab4d8e11ba873c2f11161202b945","register":"water-bodies-census","lgdBlockCode":"4261","byType":[{"type":"Water consv schemes/percolation tanks/check-dams","count":15}],"areaBasis":"withheld","pointCount":15}},{"type":"Feature","geometry":{"type":"MultiPoint","coordinates":[[74.07083,17.93556],[74.0725,17.93306],[74.07278,17.93167],[74.07361,17.92694]]},"properties":{"lgdGramPanchayatCode":"189665","count":4,"namedCount":0,"areaHectares":0,"largestAreaHectares":0,"byDepartment":[{"department":"State WRD/State Irrigation","count":4}],"namesSha256":"4f53cda18c2baa0c0354bb5f9a3ecbe5ed12ab4d8e11ba873c2f11161202b945","register":"water-bodies-census","lgdBlockCode":"4261","byType":[{"type":"Water consv schemes/percolation tanks/check-dams","count":4}],"areaBasis":"withheld","pointCount":4}},{"type":"Feature","geometry":{"type":"MultiPoint","coordinates":[[74.20389,17.55028]]},"properties":{"lgdGramPanchayatCode":"189667","count":1,"namedCount":0,"areaHectares":0,"largestAreaHectares":0,"byDepartment":[{"department":"State WRD/State Irrigation","count":1}],"namesSha256":"4f53cda18c2baa0c0354bb5f9a3ecbe5ed12ab4d8e11ba873c2f11161202b945","register":"water-bodies-census","lgdBlockCode":"4261","byType":[{"type":"Water consv schemes/percolation tanks/check-dams","count":1}],"areaBasis":"withheld","pointCount":1}},{"type":"Feature","geometry":{"type":"MultiPoint","coordinates":[[74.13056,17.90389],[74.14556,17.92944]]},"properties":{"lgdGramPanchayatCode":"189668","count":2,"namedCount":0,"areaHectares":0,"largestAreaHectares":0,"byDepartment":[{"department":"State WRD/State Irrigation","count":2}],"namesSha256":"4f53cda18c2baa0c0354bb5f9a3ecbe5ed12ab4d8e11ba873c2f11161202b945","register":"water-bodies-census","lgdBlockCode":"4261","byType":[{"type":"Water consv schemes/percolation tanks/check-dams","count":2}],"areaBasis":"withheld","pointCount":2}},{"type":"Feature","geometry":{"type":"MultiPoint","coordinates":[[74.14778,17.86361],[74.15139,17.86417]]},"properties":{"lgdGramPanchayatCode":"189671","count":2,"namedCount":0,"areaHectares":0,"largestAreaHectares":0,"byDepartment":[{"department":"State WRD/State Irrigation","count":2}],"namesSha256":"4f53cda18c2baa0c0354bb5f9a3ecbe5ed12ab4d8e11ba873c2f11161202b945","register":"water-bodies-census","lgdBlockCode":"4261","byType":[{"type":"Water consv schemes/percolation tanks/check-dams","count":2}],"areaBasis":"withheld","pointCount":2}},{"type":"Feature","geometry":{"type":"MultiPoint","coordinates":[[74.10667,17.67139]]},"properties":{"lgdGramPanchayatCode":"189673","count":1,"namedCount":0,"areaHectares":0,"largestAreaHectares":0,"byDepartment":[{"department":"State WRD/State Irrigation","count":1}],"namesSha256":"4f53cda18c2baa0c0354bb5f9a3ecbe5ed12ab4d8e11ba873c2f11161202b945","register":"water-bodies-census","lgdBlockCode":"4261","byType":[{"type":"Water consv schemes/percolation tanks/check-dams","count":1}],"areaBasis":"withheld","pointCount":1}},{"type":"Feature","geometry":{"type":"MultiPoint","coordinates":[[74.10389,17.695]]},"properties":{"lgdGramPanchayatCode":"189675","count":1,"namedCount":0,"areaHectares":0,"largestAreaHectares":0,"byDepartment":[{"department":"Co-operative","count":1}],"namesSha256":"4f53cda18c2baa0c0354bb5f9a3ecbe5ed12ab4d8e11ba873c2f11161202b945","register":"water-bodies-census","lgdBlockCode":"4261","byType":[{"type":"Tank","count":1}],"areaBasis":"withheld","pointCount":1}},{"type":"Feature","geometry":{"type":"MultiPoint","coordinates":[[74.23861,17.72083]]},"properties":{"lgdGramPanchayatCode":"189676","count":1,"namedCount":0,"areaHectares":0,"largestAreaHectares":0,"byDepartment":[{"department":"State WRD/State Irrigation","count":1}],"namesSha256":"4f53cda18c2baa0c0354bb5f9a3ecbe5ed12ab4d8e11ba873c2f11161202b945","register":"water-bodies-census","lgdBlockCode":"4261","byType":[{"type":"Water consv schemes/percolation tanks/check-dams","count":1}],"areaBasis":"withheld","pointCount":1}},{"type":"Feature","geometry":{"type":"MultiPoint","coordinates":[[74.25556,17.575],[74.25667,17.57361]]},"properties":{"lgdGramPanchayatCode":"189679","count":2,"namedCount":0,"areaHectares":0,"largestAreaHectares":0,"byDepartment":[{"department":"State WRD/State Irrigation","count":2}],"namesSha256":"4f53cda18c2baa0c0354bb5f9a3ecbe5ed12ab4d8e11ba873c2f11161202b945","register":"water-bodies-census","lgdBlockCode":"4261","byType":[{"type":"Water consv schemes/percolation tanks/check-dams","count":2}],"areaBasis":"withheld","pointCount":2}},{"type":"Feature","geometry":{"type":"MultiPoint","coordinates":[[73.88472,17.94694],[73.88528,17.94639],[74.60583,17.44917],[74.60583,17.45333],[74.60972,17.44667],[74.61028,17.45583],[74.61028,17.48444],[74.61194,17.4475],[74.61694,17.45917],[74.61806,17.46333],[74.61806,17.46639],[74.61972,17.47194],[74.62083,17.45861],[74.62167,17.47972],[74.62222,17.47611],[74.62222,17.48139],[74.6225,17.4475],[74.62611,17.45583]]},"properties":{"lgdGramPanchayatCode":"189680","count":18,"namedCount":0,"areaHectares":0,"largestAreaHectares":0,"byDepartment":[{"department":"State WRD/State Irrigation","count":18}],"namesSha256":"4f53cda18c2baa0c0354bb5f9a3ecbe5ed12ab4d8e11ba873c2f11161202b945","register":"water-bodies-census","lgdBlockCode":"4261","byType":[{"type":"Water consv schemes/percolation tanks/check-dams","count":18}],"areaBasis":"withheld","pointCount":18}},{"type":"Feature","geometry":{"type":"MultiPoint","coordinates":[[74.11306,17.72639],[74.115,17.72583],[74.11778,17.72472]]},"properties":{"lgdGramPanchayatCode":"189681","count":3,"namedCount":0,"areaHectares":0,"largestAreaHectares":0,"byDepartment":[{"department":"State WRD/State Irrigation","count":3}],"namesSha256":"4f53cda18c2baa0c0354bb5f9a3ecbe5ed12ab4d8e11ba873c2f11161202b945","register":"water-bodies-census","lgdBlockCode":"4261","byType":[{"type":"Water consv schemes/percolation tanks/check-dams","count":3}],"areaBasis":"withheld","pointCount":3}},{"type":"Feature","geometry":{"type":"MultiPoint","coordinates":[[74.08306,17.90444],[74.085,17.90389],[74.08556,17.90361]]},"properties":{"lgdGramPanchayatCode":"189682","count":3,"namedCount":0,"areaHectares":0,"largestAreaHectares":0,"byDepartment":[{"department":"State WRD/State Irrigation","count":3}],"namesSha256":"4f53cda18c2baa0c0354bb5f9a3ecbe5ed12ab4d8e11ba873c2f11161202b945","register":"water-bodies-census","lgdBlockCode":"4261","byType":[{"type":"Water consv schemes/percolation tanks/check-dams","count":3}],"areaBasis":"withheld","pointCount":3}},{"type":"Feature","geometry":{"type":"MultiPoint","coordinates":[[74.12806,17.88472],[74.13,17.885],[74.13139,17.88528],[74.13222,17.8775],[74.13278,17.88556],[74.13361,17.87833],[74.13389,17.17861],[74.13417,17.88722],[74.13472,17.88611],[74.13917,17.88583]]},"properties":{"lgdGramPanchayatCode":"189683","count":10,"namedCount":0,"areaHectares":0,"largestAreaHectares":0,"byDepartment":[{"department":"State WRD/State Irrigation","count":9},{"department":"Co-operative","count":1}],"namesSha256":"4f53cda18c2baa0c0354bb5f9a3ecbe5ed12ab4d8e11ba873c2f11161202b945","register":"water-bodies-census","lgdBlockCode":"4261","byType":[{"type":"Water consv schemes/percolation tanks/check-dams","count":9},{"type":"Tank","count":1}],"areaBasis":"withheld","pointCount":10}}]}
