{"nvdm":"1.0","dataset":"atlas/water-bodies","scope":{"kind":"district","id":"mh-satara"},"provenance":{"sources":[{"id":"water-bodies-census-mh","title":"First Census of Water Bodies, Maharashtra state return (data.gov.in resource e1874d07)","publisher":"Department of Water Resources, River Development and Ganga Rejuvenation, Ministry of Jal Shakti, via the Open Government Data Platform","license":"Government Open Data License - India","role":"asserts","url":"https://data.gov.in/resource/state-wise-data-first-census-water-bodies-maharashtra","as_of":"2026-02-10","retrieved":"2026-09-01"}],"method":"api","produced_at":"2026-09-01","produced_by":"scripts/atlas-water-bodies-census-district.ts","internal_inputs":["public/data/atlas/mh/satara/directory.json"],"note":"First Census of Water Bodies rows for Karad taluka: 372 water bodies assigned to 93 Gram Panchayats through the LGD coverage register (the census locates each in a Census 2011 village; a village under exactly one Panchayat is assigned), rolled up per Panchayat (count, named count, type and ownership classes, a digest of the sorted names) with the enumerators' coordinates served as MultiPoint geometry under the Government Open Data License. 28 rows of the taluka are counted and not assigned (ext.atlas.unassigned: a village listed under two Panchayats, under none, a Census village with no LGD row, a town). Waterspread is withheld: The Satara return enters whole-hectare template values on every row (4, 5, 6 or 8 ha on 3,725 rural rows; depth 4 or 5 m; the same four construction year, cost and beneficiary combinations throughout), so the waterspread is an enumerator's default rather than a measurement and is not published. Counts, types, ownership and the recorded coordinates are served. A Panchayat absent here has no row in the return.","conventions":{"geometry":"MultiPoint of the recorded coordinates, five decimals, points outside the district's own bounding box dropped and counted in ext.atlas.pointsOutsideDistrict (a district total)","join":"unique_id part 5 is the Census 2011 village code; the directory's LGD coverage register names the Panchayat; shared, uncovered and unknown villages and urban rows are counted in ext.atlas.unassigned, never pooled","holder":"byDepartment carries the census ownership class (the register's holder axis); byType the census water-body class","vintage":"reference years 2017-18 to 2020-21, published 2023; the portal's resource stamp is the edition watched"}},"ext":{"atlas":{"schemaVersion":1,"planId":"mh-satara-v1","blockCode":"4265","blockName":"Karad","register":"water-bodies-census","districtLgdCode":"494","acquiredAt":"2026-09-01","layer":"First Census of Water Bodies, Maharashtra return (data.gov.in resource e1874d07-a1db-4678-80c1-b64a2924b517)","sourceUrl":"https://api.data.gov.in/resource/e1874d07-a1db-4678-80c1-b64a2924b517?format=json&limit=all&filters[district_name]=SATARA","rights":{"status":"open","termsUrl":"https://data.gov.in/resource/state-wise-data-first-census-water-bodies-maharashtra","termsQuote":"Government Open Data License - India","approval":null},"contributingDepartments":["Co-operative","State WRD/State Irrigation"],"snapshotSha256":"7ef0e20d895eaf6118bb6ceb3b7ce213ab20accdf232d831bab98f9003ffa06e","featureCount":372,"recordCount":93,"recordsSha256":"60aeee2b2962ae060ade409f8aac357d8b0d66cd6bac5ce03e9b404233f6bbb3","unassigned":{"sharedVillage":0,"uncoveredVillage":26,"censusVillageWithoutLgdRow":2,"unknownVillage":0,"urban":0},"unassignedDistrict":{"sharedVillage":39,"uncoveredVillage":230,"censusVillageWithoutLgdRow":33,"unknownVillage":0,"urban":31},"attributes":{"waterspread":"withheld","note":"The Satara return enters whole-hectare template values on every row (4, 5, 6 or 8 ha on 3,725 rural rows; depth 4 or 5 m; the same four construction year, cost and beneficiary combinations throughout), so the waterspread is an enumerator's default rather than a measurement and is not published. Counts, types, ownership and the recorded coordinates are served."},"pointsOutsideDistrict":7}},"type":"FeatureCollection","features":[{"type":"Feature","geometry":{"type":"MultiPoint","coordinates":[[74.0725,17.26889]]},"properties":{"lgdGramPanchayatCode":"189168","count":1,"namedCount":0,"areaHectares":0,"largestAreaHectares":0,"byDepartment":[{"department":"State WRD/State Irrigation","count":1}],"namesSha256":"4f53cda18c2baa0c0354bb5f9a3ecbe5ed12ab4d8e11ba873c2f11161202b945","register":"water-bodies-census","lgdBlockCode":"4265","byType":[{"type":"Water consv schemes/percolation tanks/check-dams","count":1}],"areaBasis":"withheld","pointCount":1}},{"type":"Feature","geometry":{"type":"MultiPoint","coordinates":[[74.12,17.30778]]},"properties":{"lgdGramPanchayatCode":"189170","count":1,"namedCount":0,"areaHectares":0,"largestAreaHectares":0,"byDepartment":[{"department":"State WRD/State Irrigation","count":1}],"namesSha256":"4f53cda18c2baa0c0354bb5f9a3ecbe5ed12ab4d8e11ba873c2f11161202b945","register":"water-bodies-census","lgdBlockCode":"4265","byType":[{"type":"Water consv schemes/percolation tanks/check-dams","count":1}],"areaBasis":"withheld","pointCount":1}},{"type":"Feature","geometry":{"type":"MultiPoint","coordinates":[[74.06444,17.12167],[74.06444,17.1225],[74.07,17.11667],[74.07056,17.11583],[74.07278,17.11167],[74.07472,17.10222]]},"properties":{"lgdGramPanchayatCode":"189172","count":6,"namedCount":0,"areaHectares":0,"largestAreaHectares":0,"byDepartment":[{"department":"State WRD/State Irrigation","count":5},{"department":"Co-operative","count":1}],"namesSha256":"4f53cda18c2baa0c0354bb5f9a3ecbe5ed12ab4d8e11ba873c2f11161202b945","register":"water-bodies-census","lgdBlockCode":"4265","byType":[{"type":"Water consv schemes/percolation tanks/check-dams","count":5},{"type":"Tank","count":1}],"areaBasis":"withheld","pointCount":6}},{"type":"Feature","geometry":{"type":"MultiPoint","coordinates":[[74.47167,17.50139],[74.47389,17.50056],[74.47778,17.50028]]},"properties":{"lgdGramPanchayatCode":"189173","count":3,"namedCount":0,"areaHectares":0,"largestAreaHectares":0,"byDepartment":[{"department":"State WRD/State Irrigation","count":3}],"namesSha256":"4f53cda18c2baa0c0354bb5f9a3ecbe5ed12ab4d8e11ba873c2f11161202b945","register":"water-bodies-census","lgdBlockCode":"4265","byType":[{"type":"Water consv schemes/percolation tanks/check-dams","count":3}],"areaBasis":"withheld","pointCount":3}},{"type":"Feature","geometry":{"type":"MultiPoint","coordinates":[[74.06417,17.39389],[74.06583,17.40472]]},"properties":{"lgdGramPanchayatCode":"189174","count":2,"namedCount":0,"areaHectares":0,"largestAreaHectares":0,"byDepartment":[{"department":"State WRD/State Irrigation","count":2}],"namesSha256":"4f53cda18c2baa0c0354bb5f9a3ecbe5ed12ab4d8e11ba873c2f11161202b945","register":"water-bodies-census","lgdBlockCode":"4265","byType":[{"type":"Water consv schemes/percolation tanks/check-dams","count":2}],"areaBasis":"withheld","pointCount":2}},{"type":"Feature","geometry":{"type":"MultiPoint","coordinates":[[74.21722,17.38306],[74.22056,17.39472],[74.22083,17.38139],[74.22111,17.37639],[74.22333,17.38222],[74.22361,17.38611],[74.22556,17.38167],[74.22556,17.39],[74.2275,17.38861],[74.22806,17.38444],[74.23,17.38556],[74.23028,17.39111],[74.23028,17.39222],[74.23083,17.39361],[74.23111,17.38528],[74.23472,17.38556],[74.23583,17.38639],[74.24111,17.38833]]},"properties":{"lgdGramPanchayatCode":"189175","count":18,"namedCount":0,"areaHectares":0,"largestAreaHectares":0,"byDepartment":[{"department":"State WRD/State Irrigation","count":18}],"namesSha256":"4f53cda18c2baa0c0354bb5f9a3ecbe5ed12ab4d8e11ba873c2f11161202b945","register":"water-bodies-census","lgdBlockCode":"4265","byType":[{"type":"Water consv schemes/percolation tanks/check-dams","count":18}],"areaBasis":"withheld","pointCount":18}},{"type":"Feature","geometry":{"type":"MultiPoint","coordinates":[[73.99722,17.21389]]},"properties":{"lgdGramPanchayatCode":"189178","count":1,"namedCount":0,"areaHectares":0,"largestAreaHectares":0,"byDepartment":[{"department":"State WRD/State Irrigation","count":1}],"namesSha256":"4f53cda18c2baa0c0354bb5f9a3ecbe5ed12ab4d8e11ba873c2f11161202b945","register":"water-bodies-census","lgdBlockCode":"4265","byType":[{"type":"Water consv schemes/percolation tanks/check-dams","count":1}],"areaBasis":"withheld","pointCount":1}},{"type":"Feature","geometry":{"type":"MultiPoint","coordinates":[[74.16472,17.46639],[74.16722,17.47361],[74.16778,17.47306],[74.16944,17.47583],[74.17472,17.46917],[74.175,17.47444],[74.17556,17.47333]]},"properties":{"lgdGramPanchayatCode":"189179","count":7,"namedCount":0,"areaHectares":0,"largestAreaHectares":0,"byDepartment":[{"department":"State WRD/State Irrigation","count":7}],"namesSha256":"4f53cda18c2baa0c0354bb5f9a3ecbe5ed12ab4d8e11ba873c2f11161202b945","register":"water-bodies-census","lgdBlockCode":"4265","byType":[{"type":"Water consv schemes/percolation tanks/check-dams","count":7}],"areaBasis":"withheld","pointCount":7}},{"type":"Feature","geometry":{"type":"MultiPoint","coordinates":[[74.0875,17.37472],[74.08833,17.37278],[74.08861,17.37222]]},"properties":{"lgdGramPanchayatCode":"189185","count":3,"namedCount":0,"areaHectares":0,"largestAreaHectares":0,"byDepartment":[{"department":"State WRD/State Irrigation","count":3}],"namesSha256":"4f53cda18c2baa0c0354bb5f9a3ecbe5ed12ab4d8e11ba873c2f11161202b945","register":"water-bodies-census","lgdBlockCode":"4265","byType":[{"type":"Water consv schemes/percolation tanks/check-dams","count":3}],"areaBasis":"withheld","pointCount":3}},{"type":"Feature","geometry":{"type":"MultiPoint","coordinates":[[73.98389,17.13083],[73.99417,17.12806]]},"properties":{"lgdGramPanchayatCode":"189188","count":2,"namedCount":0,"areaHectares":0,"largestAreaHectares":0,"byDepartment":[{"department":"State WRD/State Irrigation","count":2}],"namesSha256":"4f53cda18c2baa0c0354bb5f9a3ecbe5ed12ab4d8e11ba873c2f11161202b945","register":"water-bodies-census","lgdBlockCode":"4265","byType":[{"type":"Water consv schemes/percolation tanks/check-dams","count":2}],"areaBasis":"withheld","pointCount":2}},{"type":"Feature","geometry":{"type":"MultiPoint","coordinates":[[74.11472,17.43222]]},"properties":{"lgdGramPanchayatCode":"189189","count":1,"namedCount":0,"areaHectares":0,"largestAreaHectares":0,"byDepartment":[{"department":"State WRD/State Irrigation","count":1}],"namesSha256":"4f53cda18c2baa0c0354bb5f9a3ecbe5ed12ab4d8e11ba873c2f11161202b945","register":"water-bodies-census","lgdBlockCode":"4265","byType":[{"type":"Water consv schemes/percolation tanks/check-dams","count":1}],"areaBasis":"withheld","pointCount":1}},{"type":"Feature","geometry":{"type":"MultiPoint","coordinates":[[74.07278,17.37028]]},"properties":{"lgdGramPanchayatCode":"189191","count":1,"namedCount":0,"areaHectares":0,"largestAreaHectares":0,"byDepartment":[{"department":"State WRD/State Irrigation","count":1}],"namesSha256":"4f53cda18c2baa0c0354bb5f9a3ecbe5ed12ab4d8e11ba873c2f11161202b945","register":"water-bodies-census","lgdBlockCode":"4265","byType":[{"type":"Water consv schemes/percolation tanks/check-dams","count":1}],"areaBasis":"withheld","pointCount":1}},{"type":"Feature","geometry":{"type":"MultiPoint","coordinates":[[73.8375,17.56528],[73.83889,17.56667],[73.84583,17.5725]]},"properties":{"lgdGramPanchayatCode":"189192","count":3,"namedCount":0,"areaHectares":0,"largestAreaHectares":0,"byDepartment":[{"department":"State WRD/State Irrigation","count":3}],"namesSha256":"4f53cda18c2baa0c0354bb5f9a3ecbe5ed12ab4d8e11ba873c2f11161202b945","register":"water-bodies-census","lgdBlockCode":"4265","byType":[{"type":"Water consv schemes/percolation tanks/check-dams","count":3}],"areaBasis":"withheld","pointCount":3}},{"type":"Feature","geometry":{"type":"MultiPoint","coordinates":[[74.24917,17.81694],[74.25139,17.81694],[74.25361,17.83222],[74.25472,17.83167],[74.25556,17.82167],[74.25778,17.81528],[74.26306,17.83083],[74.26306,17.83083],[74.26722,17.81389],[74.26889,17.82278]]},"properties":{"lgdGramPanchayatCode":"189193","count":10,"namedCount":0,"areaHectares":0,"largestAreaHectares":0,"byDepartment":[{"department":"State WRD/State Irrigation","count":10}],"namesSha256":"4f53cda18c2baa0c0354bb5f9a3ecbe5ed12ab4d8e11ba873c2f11161202b945","register":"water-bodies-census","lgdBlockCode":"4265","byType":[{"type":"Water consv schemes/percolation tanks/check-dams","count":10}],"areaBasis":"withheld","pointCount":10}},{"type":"Feature","geometry":{"type":"MultiPoint","coordinates":[[73.99194,17.45139],[73.99306,17.45167],[73.99667,17.45444],[73.99778,17.45528],[74.00028,17.45528],[74.00028,17.45778]]},"properties":{"lgdGramPanchayatCode":"189194","count":6,"namedCount":0,"areaHectares":0,"largestAreaHectares":0,"byDepartment":[{"department":"State WRD/State Irrigation","count":6}],"namesSha256":"4f53cda18c2baa0c0354bb5f9a3ecbe5ed12ab4d8e11ba873c2f11161202b945","register":"water-bodies-census","lgdBlockCode":"4265","byType":[{"type":"Water consv schemes/percolation tanks/check-dams","count":6}],"areaBasis":"withheld","pointCount":6}},{"type":"Feature","geometry":{"type":"MultiPoint","coordinates":[[74.02583,17.43472],[74.03139,17.44083],[74.03222,17.46083],[74.03306,17.44306],[74.03361,17.46139],[74.03417,17.44306],[74.03472,17.44333],[74.03583,17.44417],[74.03611,17.46222],[74.0375,17.44611],[74.0375,17.46139],[74.03944,17.44778],[74.04083,17.44917],[74.04083,17.46278],[74.04222,17.45111],[74.04222,17.45361]]},"properties":{"lgdGramPanchayatCode":"189195","count":16,"namedCount":0,"areaHectares":0,"largestAreaHectares":0,"byDepartment":[{"department":"State WRD/State Irrigation","count":16}],"namesSha256":"4f53cda18c2baa0c0354bb5f9a3ecbe5ed12ab4d8e11ba873c2f11161202b945","register":"water-bodies-census","lgdBlockCode":"4265","byType":[{"type":"Water consv schemes/percolation tanks/check-dams","count":16}],"areaBasis":"withheld","pointCount":16}},{"type":"Feature","geometry":{"type":"MultiPoint","coordinates":[[74.05611,17.2775],[74.06833,17.28306],[74.06861,17.28417],[74.07028,17.28722],[74.07056,17.28778]]},"properties":{"lgdGramPanchayatCode":"189197","count":5,"namedCount":0,"areaHectares":0,"largestAreaHectares":0,"byDepartment":[{"department":"State WRD/State Irrigation","count":5}],"namesSha256":"4f53cda18c2baa0c0354bb5f9a3ecbe5ed12ab4d8e11ba873c2f11161202b945","register":"water-bodies-census","lgdBlockCode":"4265","byType":[{"type":"Water consv schemes/percolation tanks/check-dams","count":5}],"areaBasis":"withheld","pointCount":5}},{"type":"Feature","geometry":{"type":"MultiPoint","coordinates":[[73.99611,17.47444],[74.00444,17.47]]},"properties":{"lgdGramPanchayatCode":"189199","count":2,"namedCount":0,"areaHectares":0,"largestAreaHectares":0,"byDepartment":[{"department":"State WRD/State Irrigation","count":2}],"namesSha256":"4f53cda18c2baa0c0354bb5f9a3ecbe5ed12ab4d8e11ba873c2f11161202b945","register":"water-bodies-census","lgdBlockCode":"4265","byType":[{"type":"Water consv schemes/percolation tanks/check-dams","count":2}],"areaBasis":"withheld","pointCount":2}},{"type":"Feature","geometry":{"type":"MultiPoint","coordinates":[[74.13861,17.21167],[74.13889,17.21278],[74.15083,17.21333]]},"properties":{"lgdGramPanchayatCode":"189200","count":3,"namedCount":0,"areaHectares":0,"largestAreaHectares":0,"byDepartment":[{"department":"State WRD/State Irrigation","count":3}],"namesSha256":"4f53cda18c2baa0c0354bb5f9a3ecbe5ed12ab4d8e11ba873c2f11161202b945","register":"water-bodies-census","lgdBlockCode":"4265","byType":[{"type":"Water consv schemes/percolation tanks/check-dams","count":3}],"areaBasis":"withheld","pointCount":3}},{"type":"Feature","geometry":{"type":"MultiPoint","coordinates":[[74.20083,17.47778],[74.20361,17.47722],[74.20444,17.4775],[74.20444,17.47861],[74.2075,17.47639],[74.20806,17.4775],[74.21111,17.47722],[74.21167,17.4775],[74.22639,17.47139],[74.22806,17.47111]]},"properties":{"lgdGramPanchayatCode":"189204","count":10,"namedCount":0,"areaHectares":0,"largestAreaHectares":0,"byDepartment":[{"department":"State WRD/State Irrigation","count":10}],"namesSha256":"4f53cda18c2baa0c0354bb5f9a3ecbe5ed12ab4d8e11ba873c2f11161202b945","register":"water-bodies-census","lgdBlockCode":"4265","byType":[{"type":"Water consv schemes/percolation tanks/check-dams","count":10}],"areaBasis":"withheld","pointCount":10}},{"type":"Feature","geometry":{"type":"MultiPoint","coordinates":[[74.08833,17.22444],[74.08889,17.22583],[74.09,17.22889]]},"properties":{"lgdGramPanchayatCode":"189206","count":3,"namedCount":0,"areaHectares":0,"largestAreaHectares":0,"byDepartment":[{"department":"State WRD/State Irrigation","count":3}],"namesSha256":"4f53cda18c2baa0c0354bb5f9a3ecbe5ed12ab4d8e11ba873c2f11161202b945","register":"water-bodies-census","lgdBlockCode":"4265","byType":[{"type":"Water consv schemes/percolation tanks/check-dams","count":3}],"areaBasis":"withheld","pointCount":3}},{"type":"Feature","geometry":{"type":"MultiPoint","coordinates":[[74.04639,17.14528],[74.05056,17.14333],[74.05667,17.14111],[74.06444,17.1475]]},"properties":{"lgdGramPanchayatCode":"189207","count":4,"namedCount":0,"areaHectares":0,"largestAreaHectares":0,"byDepartment":[{"department":"State WRD/State Irrigation","count":4}],"namesSha256":"4f53cda18c2baa0c0354bb5f9a3ecbe5ed12ab4d8e11ba873c2f11161202b945","register":"water-bodies-census","lgdBlockCode":"4265","byType":[{"type":"Water consv schemes/percolation tanks/check-dams","count":4}],"areaBasis":"withheld","pointCount":4}},{"type":"Feature","geometry":{"type":"MultiPoint","coordinates":[[74.19778,17.44389],[74.19833,17.44417],[74.19833,17.445],[74.2,17.44667],[74.20306,17.44833],[74.20528,17.44972],[74.20722,17.45083],[74.20722,17.45139],[74.20889,17.45056],[74.21056,17.45],[74.21111,17.45]]},"properties":{"lgdGramPanchayatCode":"189208","count":11,"namedCount":0,"areaHectares":0,"largestAreaHectares":0,"byDepartment":[{"department":"State WRD/State Irrigation","count":11}],"namesSha256":"4f53cda18c2baa0c0354bb5f9a3ecbe5ed12ab4d8e11ba873c2f11161202b945","register":"water-bodies-census","lgdBlockCode":"4265","byType":[{"type":"Water consv schemes/percolation tanks/check-dams","count":11}],"areaBasis":"withheld","pointCount":11}},{"type":"Feature","geometry":{"type":"MultiPoint","coordinates":[[74.22222,17.29833]]},"properties":{"lgdGramPanchayatCode":"189213","count":1,"namedCount":0,"areaHectares":0,"largestAreaHectares":0,"byDepartment":[{"department":"State WRD/State Irrigation","count":1}],"namesSha256":"4f53cda18c2baa0c0354bb5f9a3ecbe5ed12ab4d8e11ba873c2f11161202b945","register":"water-bodies-census","lgdBlockCode":"4265","byType":[{"type":"Water consv schemes/percolation tanks/check-dams","count":1}],"areaBasis":"withheld","pointCount":1}},{"type":"Feature","geometry":{"type":"MultiPoint","coordinates":[[74.18028,17.46083],[74.18083,17.4625],[74.18194,17.46222],[74.18389,17.46],[74.18444,17.46333],[74.185,17.45917]]},"properties":{"lgdGramPanchayatCode":"189214","count":6,"namedCount":0,"areaHectares":0,"largestAreaHectares":0,"byDepartment":[{"department":"State WRD/State Irrigation","count":6}],"namesSha256":"4f53cda18c2baa0c0354bb5f9a3ecbe5ed12ab4d8e11ba873c2f11161202b945","register":"water-bodies-census","lgdBlockCode":"4265","byType":[{"type":"Water consv schemes/percolation tanks/check-dams","count":6}],"areaBasis":"withheld","pointCount":6}},{"type":"Feature","geometry":{"type":"MultiPoint","coordinates":[[74.00639,17.12417],[74.00694,17.13083],[74.01167,17.12583]]},"properties":{"lgdGramPanchayatCode":"189216","count":3,"namedCount":0,"areaHectares":0,"largestAreaHectares":0,"byDepartment":[{"department":"Co-operative","count":2},{"department":"State WRD/State Irrigation","count":1}],"namesSha256":"4f53cda18c2baa0c0354bb5f9a3ecbe5ed12ab4d8e11ba873c2f11161202b945","register":"water-bodies-census","lgdBlockCode":"4265","byType":[{"type":"Lakes","count":1},{"type":"Ponds","count":1},{"type":"Water consv schemes/percolation tanks/check-dams","count":1}],"areaBasis":"withheld","pointCount":3}},{"type":"Feature","geometry":{"type":"MultiPoint","coordinates":[[74.16528,17.43694],[74.16667,17.43389]]},"properties":{"lgdGramPanchayatCode":"189218","count":2,"namedCount":0,"areaHectares":0,"largestAreaHectares":0,"byDepartment":[{"department":"State WRD/State Irrigation","count":2}],"namesSha256":"4f53cda18c2baa0c0354bb5f9a3ecbe5ed12ab4d8e11ba873c2f11161202b945","register":"water-bodies-census","lgdBlockCode":"4265","byType":[{"type":"Water consv schemes/percolation tanks/check-dams","count":2}],"areaBasis":"withheld","pointCount":2}},{"type":"Feature","geometry":{"type":"MultiPoint","coordinates":[[74.66472,18.00472]]},"properties":{"lgdGramPanchayatCode":"189219","count":1,"namedCount":0,"areaHectares":0,"largestAreaHectares":0,"byDepartment":[{"department":"Co-operative","count":1}],"namesSha256":"4f53cda18c2baa0c0354bb5f9a3ecbe5ed12ab4d8e11ba873c2f11161202b945","register":"water-bodies-census","lgdBlockCode":"4265","byType":[{"type":"Tank","count":1}],"areaBasis":"withheld","pointCount":1}},{"type":"Feature","geometry":{"type":"MultiPoint","coordinates":[[74.07139,17.18583],[74.07222,17.17389],[74.0725,17.18528],[74.07306,17.17417]]},"properties":{"lgdGramPanchayatCode":"189222","count":4,"namedCount":0,"areaHectares":0,"largestAreaHectares":0,"byDepartment":[{"department":"State WRD/State Irrigation","count":4}],"namesSha256":"4f53cda18c2baa0c0354bb5f9a3ecbe5ed12ab4d8e11ba873c2f11161202b945","register":"water-bodies-census","lgdBlockCode":"4265","byType":[{"type":"Water consv schemes/percolation tanks/check-dams","count":4}],"areaBasis":"withheld","pointCount":4}},{"type":"Feature","geometry":{"type":"MultiPoint","coordinates":[[74.15667,17.45583],[74.16083,17.46861],[74.16278,17.46583],[74.16361,17.46639]]},"properties":{"lgdGramPanchayatCode":"189223","count":4,"namedCount":0,"areaHectares":0,"largestAreaHectares":0,"byDepartment":[{"department":"State WRD/State Irrigation","count":4}],"namesSha256":"4f53cda18c2baa0c0354bb5f9a3ecbe5ed12ab4d8e11ba873c2f11161202b945","register":"water-bodies-census","lgdBlockCode":"4265","byType":[{"type":"Water consv schemes/percolation tanks/check-dams","count":4}],"areaBasis":"withheld","pointCount":4}},{"type":"Feature","geometry":{"type":"MultiPoint","coordinates":[[74.06944,17.42472]]},"properties":{"lgdGramPanchayatCode":"189224","count":1,"namedCount":0,"areaHectares":0,"largestAreaHectares":0,"byDepartment":[{"department":"State WRD/State Irrigation","count":1}],"namesSha256":"4f53cda18c2baa0c0354bb5f9a3ecbe5ed12ab4d8e11ba873c2f11161202b945","register":"water-bodies-census","lgdBlockCode":"4265","byType":[{"type":"Water consv schemes/percolation tanks/check-dams","count":1}],"areaBasis":"withheld","pointCount":1}},{"type":"Feature","geometry":{"type":"MultiPoint","coordinates":[[74.16861,17.25139]]},"properties":{"lgdGramPanchayatCode":"189226","count":1,"namedCount":0,"areaHectares":0,"largestAreaHectares":0,"byDepartment":[{"department":"State WRD/State Irrigation","count":1}],"namesSha256":"4f53cda18c2baa0c0354bb5f9a3ecbe5ed12ab4d8e11ba873c2f11161202b945","register":"water-bodies-census","lgdBlockCode":"4265","byType":[{"type":"Water consv schemes/percolation tanks/check-dams","count":1}],"areaBasis":"withheld","pointCount":1}},{"type":"Feature","geometry":{"type":"MultiPoint","coordinates":[[73.88806,17.23417],[73.88861,17.23389]]},"properties":{"lgdGramPanchayatCode":"189227","count":2,"namedCount":0,"areaHectares":0,"largestAreaHectares":0,"byDepartment":[{"department":"State WRD/State Irrigation","count":2}],"namesSha256":"4f53cda18c2baa0c0354bb5f9a3ecbe5ed12ab4d8e11ba873c2f11161202b945","register":"water-bodies-census","lgdBlockCode":"4265","byType":[{"type":"Water consv schemes/percolation tanks/check-dams","count":2}],"areaBasis":"withheld","pointCount":2}},{"type":"Feature","geometry":{"type":"MultiPoint","coordinates":[[74.08778,17.38556]]},"properties":{"lgdGramPanchayatCode":"189231","count":1,"namedCount":0,"areaHectares":0,"largestAreaHectares":0,"byDepartment":[{"department":"State WRD/State Irrigation","count":1}],"namesSha256":"4f53cda18c2baa0c0354bb5f9a3ecbe5ed12ab4d8e11ba873c2f11161202b945","register":"water-bodies-census","lgdBlockCode":"4265","byType":[{"type":"Water consv schemes/percolation tanks/check-dams","count":1}],"areaBasis":"withheld","pointCount":1}},{"type":"Feature","geometry":{"type":"MultiPoint","coordinates":[[74.14417,17.16667]]},"properties":{"lgdGramPanchayatCode":"189232","count":1,"namedCount":0,"areaHectares":0,"largestAreaHectares":0,"byDepartment":[{"department":"State WRD/State Irrigation","count":1}],"namesSha256":"4f53cda18c2baa0c0354bb5f9a3ecbe5ed12ab4d8e11ba873c2f11161202b945","register":"water-bodies-census","lgdBlockCode":"4265","byType":[{"type":"Water consv schemes/percolation tanks/check-dams","count":1}],"areaBasis":"withheld","pointCount":1}},{"type":"Feature","geometry":{"type":"MultiPoint","coordinates":[[74.18556,17.38444]]},"properties":{"lgdGramPanchayatCode":"189236","count":1,"namedCount":0,"areaHectares":0,"largestAreaHectares":0,"byDepartment":[{"department":"State WRD/State Irrigation","count":1}],"namesSha256":"4f53cda18c2baa0c0354bb5f9a3ecbe5ed12ab4d8e11ba873c2f11161202b945","register":"water-bodies-census","lgdBlockCode":"4265","byType":[{"type":"Water consv schemes/percolation tanks/check-dams","count":1}],"areaBasis":"withheld","pointCount":1}},{"type":"Feature","geometry":{"type":"MultiPoint","coordinates":[[74.25722,17.35222],[74.26028,17.34556],[74.26028,17.34889],[74.26222,17.34722],[74.26778,17.34917],[74.27361,17.35167],[74.27444,17.35222],[74.28056,17.34889],[74.28222,17.34778],[74.285,17.35139],[74.28556,17.35083],[74.28556,17.35361]]},"properties":{"lgdGramPanchayatCode":"189237","count":12,"namedCount":0,"areaHectares":0,"largestAreaHectares":0,"byDepartment":[{"department":"State WRD/State Irrigation","count":12}],"namesSha256":"4f53cda18c2baa0c0354bb5f9a3ecbe5ed12ab4d8e11ba873c2f11161202b945","register":"water-bodies-census","lgdBlockCode":"4265","byType":[{"type":"Water consv schemes/percolation tanks/check-dams","count":12}],"areaBasis":"withheld","pointCount":12}},{"type":"Feature","geometry":{"type":"MultiPoint","coordinates":[[74.26583,17.22972],[74.26833,17.23056],[74.28083,17.23306],[74.28083,17.235],[74.28111,17.23639],[74.29083,17.23667]]},"properties":{"lgdGramPanchayatCode":"189239","count":6,"namedCount":0,"areaHectares":0,"largestAreaHectares":0,"byDepartment":[{"department":"State WRD/State Irrigation","count":6}],"namesSha256":"4f53cda18c2baa0c0354bb5f9a3ecbe5ed12ab4d8e11ba873c2f11161202b945","register":"water-bodies-census","lgdBlockCode":"4265","byType":[{"type":"Water consv schemes/percolation tanks/check-dams","count":6}],"areaBasis":"withheld","pointCount":6}},{"type":"Feature","geometry":{"type":"MultiPoint","coordinates":[[74.215,17.33083],[74.21722,17.3325],[74.22889,17.33667],[74.23528,17.33694],[74.24139,17.33861],[74.24333,17.32778]]},"properties":{"lgdGramPanchayatCode":"189240","count":6,"namedCount":0,"areaHectares":0,"largestAreaHectares":0,"byDepartment":[{"department":"State WRD/State Irrigation","count":6}],"namesSha256":"4f53cda18c2baa0c0354bb5f9a3ecbe5ed12ab4d8e11ba873c2f11161202b945","register":"water-bodies-census","lgdBlockCode":"4265","byType":[{"type":"Water consv schemes/percolation tanks/check-dams","count":6}],"areaBasis":"withheld","pointCount":6}},{"type":"Feature","geometry":{"type":"MultiPoint","coordinates":[[74.05639,17.37333],[74.05889,17.38167],[74.06028,17.37278]]},"properties":{"lgdGramPanchayatCode":"189244","count":3,"namedCount":0,"areaHectares":0,"largestAreaHectares":0,"byDepartment":[{"department":"State WRD/State Irrigation","count":3}],"namesSha256":"4f53cda18c2baa0c0354bb5f9a3ecbe5ed12ab4d8e11ba873c2f11161202b945","register":"water-bodies-census","lgdBlockCode":"4265","byType":[{"type":"Water consv schemes/percolation tanks/check-dams","count":3}],"areaBasis":"withheld","pointCount":3}},{"type":"Feature","geometry":{"type":"MultiPoint","coordinates":[[74.12528,17.44778],[74.13389,17.43611],[74.13583,17.43556]]},"properties":{"lgdGramPanchayatCode":"189245","count":3,"namedCount":0,"areaHectares":0,"largestAreaHectares":0,"byDepartment":[{"department":"State WRD/State Irrigation","count":3}],"namesSha256":"4f53cda18c2baa0c0354bb5f9a3ecbe5ed12ab4d8e11ba873c2f11161202b945","register":"water-bodies-census","lgdBlockCode":"4265","byType":[{"type":"Water consv schemes/percolation tanks/check-dams","count":3}],"areaBasis":"withheld","pointCount":3}},{"type":"Feature","geometry":{"type":"MultiPoint","coordinates":[[74.16611,17.31]]},"properties":{"lgdGramPanchayatCode":"189246","count":1,"namedCount":0,"areaHectares":0,"largestAreaHectares":0,"byDepartment":[{"department":"State WRD/State Irrigation","count":1}],"namesSha256":"4f53cda18c2baa0c0354bb5f9a3ecbe5ed12ab4d8e11ba873c2f11161202b945","register":"water-bodies-census","lgdBlockCode":"4265","byType":[{"type":"Water consv schemes/percolation tanks/check-dams","count":1}],"areaBasis":"withheld","pointCount":1}},{"type":"Feature","geometry":{"type":"MultiPoint","coordinates":[[74.23389,17.43722],[74.23389,17.44083],[74.23389,17.44306],[74.23611,17.44028],[74.23639,17.43889],[74.23722,17.43972],[74.23778,17.43972],[74.23806,17.44333],[74.23861,17.44167],[74.23889,17.44],[74.23972,17.44306],[74.23972,17.44778],[74.23972,17.44861],[74.24083,17.44083],[74.24111,17.44583],[74.24139,17.44111]]},"properties":{"lgdGramPanchayatCode":"189247","count":16,"namedCount":0,"areaHectares":0,"largestAreaHectares":0,"byDepartment":[{"department":"State WRD/State Irrigation","count":16}],"namesSha256":"4f53cda18c2baa0c0354bb5f9a3ecbe5ed12ab4d8e11ba873c2f11161202b945","register":"water-bodies-census","lgdBlockCode":"4265","byType":[{"type":"Water consv schemes/percolation tanks/check-dams","count":16}],"areaBasis":"withheld","pointCount":16}},{"type":"Feature","geometry":{"type":"MultiPoint","coordinates":[[74.24333,17.14333]]},"properties":{"lgdGramPanchayatCode":"189248","count":1,"namedCount":0,"areaHectares":0,"largestAreaHectares":0,"byDepartment":[{"department":"State WRD/State Irrigation","count":1}],"namesSha256":"4f53cda18c2baa0c0354bb5f9a3ecbe5ed12ab4d8e11ba873c2f11161202b945","register":"water-bodies-census","lgdBlockCode":"4265","byType":[{"type":"Water consv schemes/percolation tanks/check-dams","count":1}],"areaBasis":"withheld","pointCount":1}},{"type":"Feature","geometry":{"type":"MultiPoint","coordinates":[[74.06528,17.25194],[74.06556,17.25806],[74.06861,17.25889],[74.07778,17.25083],[74.08222,17.25972]]},"properties":{"lgdGramPanchayatCode":"189252","count":5,"namedCount":0,"areaHectares":0,"largestAreaHectares":0,"byDepartment":[{"department":"State WRD/State Irrigation","count":5}],"namesSha256":"4f53cda18c2baa0c0354bb5f9a3ecbe5ed12ab4d8e11ba873c2f11161202b945","register":"water-bodies-census","lgdBlockCode":"4265","byType":[{"type":"Water consv schemes/percolation tanks/check-dams","count":5}],"areaBasis":"withheld","pointCount":5}},{"type":"Feature","geometry":{"type":"MultiPoint","coordinates":[[74.06722,17.22306]]},"properties":{"lgdGramPanchayatCode":"189253","count":1,"namedCount":0,"areaHectares":0,"largestAreaHectares":0,"byDepartment":[{"department":"Co-operative","count":1}],"namesSha256":"4f53cda18c2baa0c0354bb5f9a3ecbe5ed12ab4d8e11ba873c2f11161202b945","register":"water-bodies-census","lgdBlockCode":"4265","byType":[{"type":"Tank","count":1}],"areaBasis":"withheld","pointCount":1}},{"type":"Feature","geometry":{"type":"MultiPoint","coordinates":[[74.15278,17.68944],[74.15472,17.69056],[74.15667,17.69333],[74.16028,17.69694]]},"properties":{"lgdGramPanchayatCode":"189256","count":4,"namedCount":0,"areaHectares":0,"largestAreaHectares":0,"byDepartment":[{"department":"State WRD/State Irrigation","count":4}],"namesSha256":"4f53cda18c2baa0c0354bb5f9a3ecbe5ed12ab4d8e11ba873c2f11161202b945","register":"water-bodies-census","lgdBlockCode":"4265","byType":[{"type":"Water consv schemes/percolation tanks/check-dams","count":4}],"areaBasis":"withheld","pointCount":4}},{"type":"Feature","geometry":{"type":"MultiPoint","coordinates":[[74.02,17.2825]]},"properties":{"lgdGramPanchayatCode":"189257","count":1,"namedCount":0,"areaHectares":0,"largestAreaHectares":0,"byDepartment":[{"department":"Co-operative","count":1}],"namesSha256":"4f53cda18c2baa0c0354bb5f9a3ecbe5ed12ab4d8e11ba873c2f11161202b945","register":"water-bodies-census","lgdBlockCode":"4265","byType":[{"type":"Ponds","count":1}],"areaBasis":"withheld","pointCount":1}},{"type":"Feature","geometry":{"type":"MultiPoint","coordinates":[[74.05278,17.2475],[74.05306,17.23972],[74.05389,17.2375],[74.055,17.24556]]},"properties":{"lgdGramPanchayatCode":"189260","count":4,"namedCount":0,"areaHectares":0,"largestAreaHectares":0,"byDepartment":[{"department":"State WRD/State Irrigation","count":4}],"namesSha256":"4f53cda18c2baa0c0354bb5f9a3ecbe5ed12ab4d8e11ba873c2f11161202b945","register":"water-bodies-census","lgdBlockCode":"4265","byType":[{"type":"Water consv schemes/percolation tanks/check-dams","count":4}],"areaBasis":"withheld","pointCount":4}},{"type":"Feature","geometry":{"type":"MultiPoint","coordinates":[[74.05861,17.18889],[74.06278,17.19],[74.06472,17.19083],[74.06583,17.19139]]},"properties":{"lgdGramPanchayatCode":"189261","count":4,"namedCount":0,"areaHectares":0,"largestAreaHectares":0,"byDepartment":[{"department":"State WRD/State Irrigation","count":3},{"department":"Co-operative","count":1}],"namesSha256":"4f53cda18c2baa0c0354bb5f9a3ecbe5ed12ab4d8e11ba873c2f11161202b945","register":"water-bodies-census","lgdBlockCode":"4265","byType":[{"type":"Water consv schemes/percolation tanks/check-dams","count":3},{"type":"Ponds","count":1}],"areaBasis":"withheld","pointCount":4}},{"type":"Feature","geometry":{"type":"MultiPoint","coordinates":[[74.08111,17.1325],[74.09417,17.13778],[74.09722,17.14444],[74.09722,17.14583],[74.10056,17.135]]},"properties":{"lgdGramPanchayatCode":"189263","count":5,"namedCount":0,"areaHectares":0,"largestAreaHectares":0,"byDepartment":[{"department":"State WRD/State Irrigation","count":5}],"namesSha256":"4f53cda18c2baa0c0354bb5f9a3ecbe5ed12ab4d8e11ba873c2f11161202b945","register":"water-bodies-census","lgdBlockCode":"4265","byType":[{"type":"Water consv schemes/percolation tanks/check-dams","count":5}],"areaBasis":"withheld","pointCount":5}},{"type":"Feature","geometry":{"type":"MultiPoint","coordinates":[[74.11722,17.14],[74.11944,17.14],[74.12194,17.15111]]},"properties":{"lgdGramPanchayatCode":"189267","count":3,"namedCount":0,"areaHectares":0,"largestAreaHectares":0,"byDepartment":[{"department":"State WRD/State Irrigation","count":2},{"department":"Co-operative","count":1}],"namesSha256":"4f53cda18c2baa0c0354bb5f9a3ecbe5ed12ab4d8e11ba873c2f11161202b945","register":"water-bodies-census","lgdBlockCode":"4265","byType":[{"type":"Water consv schemes/percolation tanks/check-dams","count":2},{"type":"Tank","count":1}],"areaBasis":"withheld","pointCount":3}},{"type":"Feature","geometry":{"type":"MultiPoint","coordinates":[[73.94611,17.3025],[73.94611,17.30361],[73.94806,17.30944],[73.94833,17.31],[73.95,17.31083],[73.95111,17.30472]]},"properties":{"lgdGramPanchayatCode":"189268","count":6,"namedCount":0,"areaHectares":0,"largestAreaHectares":0,"byDepartment":[{"department":"State WRD/State Irrigation","count":6}],"namesSha256":"4f53cda18c2baa0c0354bb5f9a3ecbe5ed12ab4d8e11ba873c2f11161202b945","register":"water-bodies-census","lgdBlockCode":"4265","byType":[{"type":"Water consv schemes/percolation tanks/check-dams","count":6}],"areaBasis":"withheld","pointCount":6}},{"type":"Feature","geometry":{"type":"MultiPoint","coordinates":[[73.95111,17.30472],[73.99083,17.18]]},"properties":{"lgdGramPanchayatCode":"189269","count":2,"namedCount":0,"areaHectares":0,"largestAreaHectares":0,"byDepartment":[{"department":"Co-operative","count":2}],"namesSha256":"4f53cda18c2baa0c0354bb5f9a3ecbe5ed12ab4d8e11ba873c2f11161202b945","register":"water-bodies-census","lgdBlockCode":"4265","byType":[{"type":"Tank","count":2}],"areaBasis":"withheld","pointCount":2}},{"type":"Feature","geometry":{"type":"MultiPoint","coordinates":[[74.15472,17.39806],[74.16111,17.40056],[74.16417,17.4]]},"properties":{"lgdGramPanchayatCode":"189270","count":3,"namedCount":0,"areaHectares":0,"largestAreaHectares":0,"byDepartment":[{"department":"State WRD/State Irrigation","count":3}],"namesSha256":"4f53cda18c2baa0c0354bb5f9a3ecbe5ed12ab4d8e11ba873c2f11161202b945","register":"water-bodies-census","lgdBlockCode":"4265","byType":[{"type":"Water consv schemes/percolation tanks/check-dams","count":3}],"areaBasis":"withheld","pointCount":3}},{"type":"Feature","geometry":{"type":"MultiPoint","coordinates":[[74.24917,17.36194],[74.25361,17.36583]]},"properties":{"lgdGramPanchayatCode":"189271","count":2,"namedCount":0,"areaHectares":0,"largestAreaHectares":0,"byDepartment":[{"department":"Co-operative","count":1},{"department":"State WRD/State Irrigation","count":1}],"namesSha256":"4f53cda18c2baa0c0354bb5f9a3ecbe5ed12ab4d8e11ba873c2f11161202b945","register":"water-bodies-census","lgdBlockCode":"4265","byType":[{"type":"Tank","count":1},{"type":"Water consv schemes/percolation tanks/check-dams","count":1}],"areaBasis":"withheld","pointCount":2}},{"type":"Feature","geometry":{"type":"MultiPoint","coordinates":[[74.04278,17.16944],[74.05389,17.17972]]},"properties":{"lgdGramPanchayatCode":"189272","count":2,"namedCount":0,"areaHectares":0,"largestAreaHectares":0,"byDepartment":[{"department":"State WRD/State Irrigation","count":2}],"namesSha256":"4f53cda18c2baa0c0354bb5f9a3ecbe5ed12ab4d8e11ba873c2f11161202b945","register":"water-bodies-census","lgdBlockCode":"4265","byType":[{"type":"Water consv schemes/percolation tanks/check-dams","count":2}],"areaBasis":"withheld","pointCount":2}},{"type":"Feature","geometry":{"type":"MultiPoint","coordinates":[[74.06944,17.32583],[74.06972,17.32806],[74.07222,17.32861]]},"properties":{"lgdGramPanchayatCode":"189273","count":3,"namedCount":0,"areaHectares":0,"largestAreaHectares":0,"byDepartment":[{"department":"State WRD/State Irrigation","count":3}],"namesSha256":"4f53cda18c2baa0c0354bb5f9a3ecbe5ed12ab4d8e11ba873c2f11161202b945","register":"water-bodies-census","lgdBlockCode":"4265","byType":[{"type":"Water consv schemes/percolation tanks/check-dams","count":3}],"areaBasis":"withheld","pointCount":3}},{"type":"Feature","geometry":{"type":"MultiPoint","coordinates":[[73.77083,17.69944],[73.77528,17.69861]]},"properties":{"lgdGramPanchayatCode":"189274","count":2,"namedCount":0,"areaHectares":0,"largestAreaHectares":0,"byDepartment":[{"department":"Co-operative","count":1},{"department":"State WRD/State Irrigation","count":1}],"namesSha256":"4f53cda18c2baa0c0354bb5f9a3ecbe5ed12ab4d8e11ba873c2f11161202b945","register":"water-bodies-census","lgdBlockCode":"4265","byType":[{"type":"Tank","count":1},{"type":"Water consv schemes/percolation tanks/check-dams","count":1}],"areaBasis":"withheld","pointCount":2}},{"type":"Feature","geometry":{"type":"MultiPoint","coordinates":[[74.13861,17.21167]]},"properties":{"lgdGramPanchayatCode":"189277","count":1,"namedCount":0,"areaHectares":0,"largestAreaHectares":0,"byDepartment":[{"department":"State WRD/State Irrigation","count":1}],"namesSha256":"4f53cda18c2baa0c0354bb5f9a3ecbe5ed12ab4d8e11ba873c2f11161202b945","register":"water-bodies-census","lgdBlockCode":"4265","byType":[{"type":"Water consv schemes/percolation tanks/check-dams","count":1}],"areaBasis":"withheld","pointCount":1}},{"type":"Feature","geometry":{"type":"MultiPoint","coordinates":[[74.195,17.645],[74.20417,17.64528]]},"properties":{"lgdGramPanchayatCode":"189281","count":2,"namedCount":0,"areaHectares":0,"largestAreaHectares":0,"byDepartment":[{"department":"State WRD/State Irrigation","count":2}],"namesSha256":"4f53cda18c2baa0c0354bb5f9a3ecbe5ed12ab4d8e11ba873c2f11161202b945","register":"water-bodies-census","lgdBlockCode":"4265","byType":[{"type":"Water consv schemes/percolation tanks/check-dams","count":2}],"areaBasis":"withheld","pointCount":2}},{"type":"Feature","geometry":{"type":"MultiPoint","coordinates":[[74.08972,17.2125],[74.09083,17.20806],[74.095,17.20778],[74.10083,17.2225],[74.10889,17.2075],[74.10972,17.20278],[74.11111,17.20139],[74.11278,17.20917],[74.11639,17.20583],[74.11806,17.205]]},"properties":{"lgdGramPanchayatCode":"189283","count":10,"namedCount":0,"areaHectares":0,"largestAreaHectares":0,"byDepartment":[{"department":"State WRD/State Irrigation","count":10}],"namesSha256":"4f53cda18c2baa0c0354bb5f9a3ecbe5ed12ab4d8e11ba873c2f11161202b945","register":"water-bodies-census","lgdBlockCode":"4265","byType":[{"type":"Water consv schemes/percolation tanks/check-dams","count":10}],"areaBasis":"withheld","pointCount":10}},{"type":"Feature","geometry":{"type":"MultiPoint","coordinates":[[74.25028,17.37583],[74.25278,17.37722],[74.25722,17.37833],[74.25806,17.37528],[74.25944,17.37583],[74.26056,17.37667]]},"properties":{"lgdGramPanchayatCode":"189285","count":6,"namedCount":0,"areaHectares":0,"largestAreaHectares":0,"byDepartment":[{"department":"State WRD/State Irrigation","count":6}],"namesSha256":"4f53cda18c2baa0c0354bb5f9a3ecbe5ed12ab4d8e11ba873c2f11161202b945","register":"water-bodies-census","lgdBlockCode":"4265","byType":[{"type":"Water consv schemes/percolation tanks/check-dams","count":6}],"areaBasis":"withheld","pointCount":6}},{"type":"Feature","geometry":{"type":"MultiPoint","coordinates":[[74.25028,17.37583]]},"properties":{"lgdGramPanchayatCode":"189286","count":1,"namedCount":0,"areaHectares":0,"largestAreaHectares":0,"byDepartment":[{"department":"State WRD/State Irrigation","count":1}],"namesSha256":"4f53cda18c2baa0c0354bb5f9a3ecbe5ed12ab4d8e11ba873c2f11161202b945","register":"water-bodies-census","lgdBlockCode":"4265","byType":[{"type":"Water consv schemes/percolation tanks/check-dams","count":1}],"areaBasis":"withheld","pointCount":1}},{"type":"Feature","geometry":{"type":"MultiPoint","coordinates":[[74.13917,17.45083]]},"properties":{"lgdGramPanchayatCode":"189287","count":1,"namedCount":0,"areaHectares":0,"largestAreaHectares":0,"byDepartment":[{"department":"State WRD/State Irrigation","count":1}],"namesSha256":"4f53cda18c2baa0c0354bb5f9a3ecbe5ed12ab4d8e11ba873c2f11161202b945","register":"water-bodies-census","lgdBlockCode":"4265","byType":[{"type":"Water consv schemes/percolation tanks/check-dams","count":1}],"areaBasis":"withheld","pointCount":1}},{"type":"Feature","geometry":{"type":"MultiPoint","coordinates":[[74.04833,17.46472],[74.04944,17.46556],[74.05056,17.47972]]},"properties":{"lgdGramPanchayatCode":"189289","count":3,"namedCount":0,"areaHectares":0,"largestAreaHectares":0,"byDepartment":[{"department":"State WRD/State Irrigation","count":3}],"namesSha256":"4f53cda18c2baa0c0354bb5f9a3ecbe5ed12ab4d8e11ba873c2f11161202b945","register":"water-bodies-census","lgdBlockCode":"4265","byType":[{"type":"Water consv schemes/percolation tanks/check-dams","count":3}],"areaBasis":"withheld","pointCount":3}},{"type":"Feature","geometry":{"type":"MultiPoint","coordinates":[[73.82778,17.87611],[73.82806,17.87611],[73.82889,17.87583]]},"properties":{"lgdGramPanchayatCode":"189292","count":3,"namedCount":0,"areaHectares":0,"largestAreaHectares":0,"byDepartment":[{"department":"State WRD/State Irrigation","count":3}],"namesSha256":"4f53cda18c2baa0c0354bb5f9a3ecbe5ed12ab4d8e11ba873c2f11161202b945","register":"water-bodies-census","lgdBlockCode":"4265","byType":[{"type":"Water consv schemes/percolation tanks/check-dams","count":3}],"areaBasis":"withheld","pointCount":3}},{"type":"Feature","geometry":{"type":"MultiPoint","coordinates":[[74.10694,17.26833]]},"properties":{"lgdGramPanchayatCode":"189293","count":1,"namedCount":0,"areaHectares":0,"largestAreaHectares":0,"byDepartment":[{"department":"State WRD/State Irrigation","count":1}],"namesSha256":"4f53cda18c2baa0c0354bb5f9a3ecbe5ed12ab4d8e11ba873c2f11161202b945","register":"water-bodies-census","lgdBlockCode":"4265","byType":[{"type":"Water consv schemes/percolation tanks/check-dams","count":1}],"areaBasis":"withheld","pointCount":1}},{"type":"Feature","geometry":{"type":"MultiPoint","coordinates":[[74.23417,17.31833]]},"properties":{"lgdGramPanchayatCode":"189295","count":1,"namedCount":0,"areaHectares":0,"largestAreaHectares":0,"byDepartment":[{"department":"State WRD/State Irrigation","count":1}],"namesSha256":"4f53cda18c2baa0c0354bb5f9a3ecbe5ed12ab4d8e11ba873c2f11161202b945","register":"water-bodies-census","lgdBlockCode":"4265","byType":[{"type":"Water consv schemes/percolation tanks/check-dams","count":1}],"areaBasis":"withheld","pointCount":1}},{"type":"Feature","geometry":{"type":"MultiPoint","coordinates":[[74.18944,17.38694],[74.19167,17.38722],[74.19611,17.38472],[74.19917,17.38333],[74.20056,17.38417],[74.20194,17.37556],[74.20222,17.37694],[74.20333,17.38444],[74.20583,17.38528],[74.20639,17.38611],[74.20694,17.38528],[74.20806,17.38306],[74.20861,17.39306],[74.20861,17.39806],[74.20917,17.38278],[74.20917,17.38444],[74.21083,17.38389],[74.21194,17.38472],[74.21278,17.39583],[74.21306,17.37472],[74.21389,17.38333]]},"properties":{"lgdGramPanchayatCode":"189298","count":21,"namedCount":0,"areaHectares":0,"largestAreaHectares":0,"byDepartment":[{"department":"State WRD/State Irrigation","count":21}],"namesSha256":"4f53cda18c2baa0c0354bb5f9a3ecbe5ed12ab4d8e11ba873c2f11161202b945","register":"water-bodies-census","lgdBlockCode":"4265","byType":[{"type":"Water consv schemes/percolation tanks/check-dams","count":21}],"areaBasis":"withheld","pointCount":21}},{"type":"Feature","geometry":{"type":"MultiPoint","coordinates":[[74.05333,17.40889]]},"properties":{"lgdGramPanchayatCode":"189299","count":1,"namedCount":0,"areaHectares":0,"largestAreaHectares":0,"byDepartment":[{"department":"State WRD/State Irrigation","count":1}],"namesSha256":"4f53cda18c2baa0c0354bb5f9a3ecbe5ed12ab4d8e11ba873c2f11161202b945","register":"water-bodies-census","lgdBlockCode":"4265","byType":[{"type":"Water consv schemes/percolation tanks/check-dams","count":1}],"areaBasis":"withheld","pointCount":1}},{"type":"Feature","geometry":{"type":"MultiPoint","coordinates":[[74.10167,17.33139]]},"properties":{"lgdGramPanchayatCode":"189302","count":1,"namedCount":0,"areaHectares":0,"largestAreaHectares":0,"byDepartment":[{"department":"Co-operative","count":1}],"namesSha256":"4f53cda18c2baa0c0354bb5f9a3ecbe5ed12ab4d8e11ba873c2f11161202b945","register":"water-bodies-census","lgdBlockCode":"4265","byType":[{"type":"Tank","count":1}],"areaBasis":"withheld","pointCount":1}},{"type":"Feature","geometry":{"type":"MultiPoint","coordinates":[[74.09722,17.14583],[74.09917,17.15],[74.1,17.15333]]},"properties":{"lgdGramPanchayatCode":"189303","count":3,"namedCount":0,"areaHectares":0,"largestAreaHectares":0,"byDepartment":[{"department":"State WRD/State Irrigation","count":3}],"namesSha256":"4f53cda18c2baa0c0354bb5f9a3ecbe5ed12ab4d8e11ba873c2f11161202b945","register":"water-bodies-census","lgdBlockCode":"4265","byType":[{"type":"Water consv schemes/percolation tanks/check-dams","count":3}],"areaBasis":"withheld","pointCount":3}},{"type":"Feature","geometry":{"type":"MultiPoint","coordinates":[[74.17583,17.19917]]},"properties":{"lgdGramPanchayatCode":"189304","count":1,"namedCount":0,"areaHectares":0,"largestAreaHectares":0,"byDepartment":[{"department":"Co-operative","count":1}],"namesSha256":"4f53cda18c2baa0c0354bb5f9a3ecbe5ed12ab4d8e11ba873c2f11161202b945","register":"water-bodies-census","lgdBlockCode":"4265","byType":[{"type":"Tank","count":1}],"areaBasis":"withheld","pointCount":1}},{"type":"Feature","geometry":{"type":"MultiPoint","coordinates":[[74.10139,17.16861]]},"properties":{"lgdGramPanchayatCode":"189305","count":1,"namedCount":0,"areaHectares":0,"largestAreaHectares":0,"byDepartment":[{"department":"State WRD/State Irrigation","count":1}],"namesSha256":"4f53cda18c2baa0c0354bb5f9a3ecbe5ed12ab4d8e11ba873c2f11161202b945","register":"water-bodies-census","lgdBlockCode":"4265","byType":[{"type":"Water consv schemes/percolation tanks/check-dams","count":1}],"areaBasis":"withheld","pointCount":1}},{"type":"Feature","geometry":{"type":"MultiPoint","coordinates":[[74.22222,17.30472],[74.22389,17.30778]]},"properties":{"lgdGramPanchayatCode":"189306","count":2,"namedCount":0,"areaHectares":0,"largestAreaHectares":0,"byDepartment":[{"department":"State WRD/State Irrigation","count":2}],"namesSha256":"4f53cda18c2baa0c0354bb5f9a3ecbe5ed12ab4d8e11ba873c2f11161202b945","register":"water-bodies-census","lgdBlockCode":"4265","byType":[{"type":"Water consv schemes/percolation tanks/check-dams","count":2}],"areaBasis":"withheld","pointCount":2}},{"type":"Feature","geometry":{"type":"MultiPoint","coordinates":[[73.97139,17.64472]]},"properties":{"lgdGramPanchayatCode":"189307","count":1,"namedCount":0,"areaHectares":0,"largestAreaHectares":0,"byDepartment":[{"department":"State WRD/State Irrigation","count":1}],"namesSha256":"4f53cda18c2baa0c0354bb5f9a3ecbe5ed12ab4d8e11ba873c2f11161202b945","register":"water-bodies-census","lgdBlockCode":"4265","byType":[{"type":"Water consv schemes/percolation tanks/check-dams","count":1}],"areaBasis":"withheld","pointCount":1}},{"type":"Feature","geometry":{"type":"MultiPoint","coordinates":[[74.25111,17.4],[74.25278,17.40056],[74.25333,17.40972],[74.25361,17.40056],[74.25528,17.40694],[74.25778,17.405],[74.25917,17.40444],[74.26083,17.40222],[74.26167,17.40139]]},"properties":{"lgdGramPanchayatCode":"189308","count":9,"namedCount":0,"areaHectares":0,"largestAreaHectares":0,"byDepartment":[{"department":"State WRD/State Irrigation","count":9}],"namesSha256":"4f53cda18c2baa0c0354bb5f9a3ecbe5ed12ab4d8e11ba873c2f11161202b945","register":"water-bodies-census","lgdBlockCode":"4265","byType":[{"type":"Water consv schemes/percolation tanks/check-dams","count":9}],"areaBasis":"withheld","pointCount":9}},{"type":"Feature","geometry":{"type":"MultiPoint","coordinates":[[74.01944,17.14306],[74.02028,17.1425],[74.02056,17.14444]]},"properties":{"lgdGramPanchayatCode":"189310","count":3,"namedCount":0,"areaHectares":0,"largestAreaHectares":0,"byDepartment":[{"department":"State WRD/State Irrigation","count":3}],"namesSha256":"4f53cda18c2baa0c0354bb5f9a3ecbe5ed12ab4d8e11ba873c2f11161202b945","register":"water-bodies-census","lgdBlockCode":"4265","byType":[{"type":"Water consv schemes/percolation tanks/check-dams","count":3}],"areaBasis":"withheld","pointCount":3}},{"type":"Feature","geometry":{"type":"MultiPoint","coordinates":[[74.29028,17.19167]]},"properties":{"lgdGramPanchayatCode":"189311","count":1,"namedCount":0,"areaHectares":0,"largestAreaHectares":0,"byDepartment":[{"department":"State WRD/State Irrigation","count":1}],"namesSha256":"4f53cda18c2baa0c0354bb5f9a3ecbe5ed12ab4d8e11ba873c2f11161202b945","register":"water-bodies-census","lgdBlockCode":"4265","byType":[{"type":"Water consv schemes/percolation tanks/check-dams","count":1}],"areaBasis":"withheld","pointCount":1}},{"type":"Feature","geometry":{"type":"MultiPoint","coordinates":[[74.26528,17.32833],[74.26972,17.325],[74.27083,17.32278],[74.27139,17.32222],[74.27306,17.32833],[74.27417,17.31972],[74.27556,17.34111],[74.27583,17.33806],[74.27583,17.33889],[74.27611,17.31639],[74.27667,17.34028],[74.27806,17.31583],[74.28,17.33111],[74.28222,17.31389],[74.28444,17.33028],[74.28722,17.31694],[74.29,17.32056],[74.29167,17.32528]]},"properties":{"lgdGramPanchayatCode":"189322","count":18,"namedCount":0,"areaHectares":0,"largestAreaHectares":0,"byDepartment":[{"department":"State WRD/State Irrigation","count":17},{"department":"Co-operative","count":1}],"namesSha256":"4f53cda18c2baa0c0354bb5f9a3ecbe5ed12ab4d8e11ba873c2f11161202b945","register":"water-bodies-census","lgdBlockCode":"4265","byType":[{"type":"Water consv schemes/percolation tanks/check-dams","count":17},{"type":"Tank","count":1}],"areaBasis":"withheld","pointCount":18}},{"type":"Feature","geometry":{"type":"MultiPoint","coordinates":[[74.06806,17.15111],[74.07167,17.16306],[74.075,17.15111],[74.07556,17.1425],[74.07694,17.15222]]},"properties":{"lgdGramPanchayatCode":"189324","count":5,"namedCount":0,"areaHectares":0,"largestAreaHectares":0,"byDepartment":[{"department":"State WRD/State Irrigation","count":5}],"namesSha256":"4f53cda18c2baa0c0354bb5f9a3ecbe5ed12ab4d8e11ba873c2f11161202b945","register":"water-bodies-census","lgdBlockCode":"4265","byType":[{"type":"Water consv schemes/percolation tanks/check-dams","count":5}],"areaBasis":"withheld","pointCount":5}},{"type":"Feature","geometry":{"type":"MultiPoint","coordinates":[[74.26028,17.22833],[74.2625,17.2275],[74.26417,17.22889],[74.26583,17.23],[74.26722,17.2325]]},"properties":{"lgdGramPanchayatCode":"189333","count":5,"namedCount":0,"areaHectares":0,"largestAreaHectares":0,"byDepartment":[{"department":"State WRD/State Irrigation","count":5}],"namesSha256":"4f53cda18c2baa0c0354bb5f9a3ecbe5ed12ab4d8e11ba873c2f11161202b945","register":"water-bodies-census","lgdBlockCode":"4265","byType":[{"type":"Water consv schemes/percolation tanks/check-dams","count":5}],"areaBasis":"withheld","pointCount":5}},{"type":"Feature","geometry":{"type":"MultiPoint","coordinates":[[74.21722,17.3325],[74.22472,17.32028]]},"properties":{"lgdGramPanchayatCode":"189345","count":2,"namedCount":0,"areaHectares":0,"largestAreaHectares":0,"byDepartment":[{"department":"State WRD/State Irrigation","count":2}],"namesSha256":"4f53cda18c2baa0c0354bb5f9a3ecbe5ed12ab4d8e11ba873c2f11161202b945","register":"water-bodies-census","lgdBlockCode":"4265","byType":[{"type":"Water consv schemes/percolation tanks/check-dams","count":2}],"areaBasis":"withheld","pointCount":2}},{"type":"Feature","geometry":{"type":"MultiPoint","coordinates":[[74.08194,17.18556]]},"properties":{"lgdGramPanchayatCode":"189346","count":1,"namedCount":0,"areaHectares":0,"largestAreaHectares":0,"byDepartment":[{"department":"State WRD/State Irrigation","count":1}],"namesSha256":"4f53cda18c2baa0c0354bb5f9a3ecbe5ed12ab4d8e11ba873c2f11161202b945","register":"water-bodies-census","lgdBlockCode":"4265","byType":[{"type":"Water consv schemes/percolation tanks/check-dams","count":1}],"areaBasis":"withheld","pointCount":1}},{"type":"Feature","geometry":{"type":"MultiPoint","coordinates":[[73.99694,18.03333],[74.00889,18.03222]]},"properties":{"lgdGramPanchayatCode":"189350","count":2,"namedCount":0,"areaHectares":0,"largestAreaHectares":0,"byDepartment":[{"department":"Co-operative","count":1},{"department":"State WRD/State Irrigation","count":1}],"namesSha256":"4f53cda18c2baa0c0354bb5f9a3ecbe5ed12ab4d8e11ba873c2f11161202b945","register":"water-bodies-census","lgdBlockCode":"4265","byType":[{"type":"Tank","count":1},{"type":"Water consv schemes/percolation tanks/check-dams","count":1}],"areaBasis":"withheld","pointCount":2}},{"type":"Feature","geometry":{"type":"MultiPoint","coordinates":[[74.17917,17.17917]]},"properties":{"lgdGramPanchayatCode":"189351","count":1,"namedCount":0,"areaHectares":0,"largestAreaHectares":0,"byDepartment":[{"department":"State WRD/State Irrigation","count":1}],"namesSha256":"4f53cda18c2baa0c0354bb5f9a3ecbe5ed12ab4d8e11ba873c2f11161202b945","register":"water-bodies-census","lgdBlockCode":"4265","byType":[{"type":"Water consv schemes/percolation tanks/check-dams","count":1}],"areaBasis":"withheld","pointCount":1}},{"type":"Feature","geometry":{"type":"MultiPoint","coordinates":[[74.10444,17.2275],[74.11417,17.23611],[74.11583,17.22111],[74.11889,17.22361],[74.13472,17.24]]},"properties":{"lgdGramPanchayatCode":"189352","count":5,"namedCount":0,"areaHectares":0,"largestAreaHectares":0,"byDepartment":[{"department":"State WRD/State Irrigation","count":4},{"department":"Co-operative","count":1}],"namesSha256":"4f53cda18c2baa0c0354bb5f9a3ecbe5ed12ab4d8e11ba873c2f11161202b945","register":"water-bodies-census","lgdBlockCode":"4265","byType":[{"type":"Water consv schemes/percolation tanks/check-dams","count":4},{"type":"Tank","count":1}],"areaBasis":"withheld","pointCount":5}},{"type":"Feature","geometry":{"type":"MultiPoint","coordinates":[[74.16694,17.36611]]},"properties":{"lgdGramPanchayatCode":"189354","count":1,"namedCount":0,"areaHectares":0,"largestAreaHectares":0,"byDepartment":[{"department":"Co-operative","count":1}],"namesSha256":"4f53cda18c2baa0c0354bb5f9a3ecbe5ed12ab4d8e11ba873c2f11161202b945","register":"water-bodies-census","lgdBlockCode":"4265","byType":[{"type":"Tank","count":1}],"areaBasis":"withheld","pointCount":1}},{"type":"Feature","geometry":{"type":"MultiPoint","coordinates":[[74.03028,17.12667],[74.03472,17.12667]]},"properties":{"lgdGramPanchayatCode":"189355","count":2,"namedCount":0,"areaHectares":0,"largestAreaHectares":0,"byDepartment":[{"department":"State WRD/State Irrigation","count":2}],"namesSha256":"4f53cda18c2baa0c0354bb5f9a3ecbe5ed12ab4d8e11ba873c2f11161202b945","register":"water-bodies-census","lgdBlockCode":"4265","byType":[{"type":"Water consv schemes/percolation tanks/check-dams","count":2}],"areaBasis":"withheld","pointCount":2}},{"type":"Feature","geometry":{"type":"MultiPoint","coordinates":[[74.03611,17.10556],[74.04083,17.10861]]},"properties":{"lgdGramPanchayatCode":"189356","count":2,"namedCount":0,"areaHectares":0,"largestAreaHectares":0,"byDepartment":[{"department":"Co-operative","count":2}],"namesSha256":"4f53cda18c2baa0c0354bb5f9a3ecbe5ed12ab4d8e11ba873c2f11161202b945","register":"water-bodies-census","lgdBlockCode":"4265","byType":[{"type":"Tank","count":2}],"areaBasis":"withheld","pointCount":2}},{"type":"Feature","geometry":{"type":"MultiPoint","coordinates":[[74.09333,17.27]]},"properties":{"lgdGramPanchayatCode":"189357","count":1,"namedCount":0,"areaHectares":0,"largestAreaHectares":0,"byDepartment":[{"department":"State WRD/State Irrigation","count":1}],"namesSha256":"4f53cda18c2baa0c0354bb5f9a3ecbe5ed12ab4d8e11ba873c2f11161202b945","register":"water-bodies-census","lgdBlockCode":"4265","byType":[{"type":"Water consv schemes/percolation tanks/check-dams","count":1}],"areaBasis":"withheld","pointCount":1}},{"type":"Feature","geometry":{"type":"MultiPoint","coordinates":[[74.18194,17.47528],[74.18361,17.47556],[74.18417,17.47778],[74.18444,17.47833],[74.18556,17.47806],[74.18778,17.48444],[74.18806,17.47861],[74.18833,17.47917],[74.18889,17.48083],[74.18917,17.48472],[74.19028,17.48111],[74.19278,17.48083]]},"properties":{"lgdGramPanchayatCode":"244158","count":12,"namedCount":0,"areaHectares":0,"largestAreaHectares":0,"byDepartment":[{"department":"State WRD/State Irrigation","count":12}],"namesSha256":"4f53cda18c2baa0c0354bb5f9a3ecbe5ed12ab4d8e11ba873c2f11161202b945","register":"water-bodies-census","lgdBlockCode":"4265","byType":[{"type":"Water consv schemes/percolation tanks/check-dams","count":12}],"areaBasis":"withheld","pointCount":12}}]}
