{
  "nvdm": "1.0",
  "dataset": "geojson-layers/buffer-1000m",
  "scope": {
    "kind": "city",
    "id": "bangalore"
  },
  "provenance": {
    "sources": [
      {
        "id": "osm-overpass",
        "title": "OpenStreetMap body polygon (Overpass relation/way extract)",
        "publisher": "OpenStreetMap contributors",
        "license": "ODbL 1.0",
        "role": "input"
      }
    ],
    "method": "derived",
    "produced_at": "2026-06-03",
    "internal_inputs": [],
    "produced_by": "scripts/fetch-rich-body-polygon.ts",
    "note": "1 km Minkowski offset of the body polygon (@turf/buffer), not a circle from the centroid; derived in-memory from the same Overpass fetch, hence internal_inputs []."
  },
  "type": "FeatureCollection",
  "features": [
    {
      "type": "Feature",
      "properties": {
        "body_id": "agara",
        "buffer_metres": 1000,
        "source_polygon": "agara.geojson",
        "computed_with": "@turf/buffer",
        "fetched_at": "2026-05-25T14:56:17.697Z"
      },
      "geometry": {
        "type": "Polygon",
        "coordinates": [
          [
            [
              77.62954411901886,
              12.917397762694812
            ],
            [
              77.62966630913047,
              12.915231002026045
            ],
            [
              77.62968071163723,
              12.915159102522518
            ],
            [
              77.62986547871304,
              12.914409256394347
            ],
            [
              77.6298828806462,
              12.914349956981784
            ],
            [
              77.6307615631194,
              12.91232938794993
            ],
            [
              77.63078896410737,
              12.912283088782965
            ],
            [
              77.63112795103446,
              12.911753641408822
            ],
            [
              77.63118515242017,
              12.911670843073967
            ],
            [
              77.63181220115666,
              12.910931327470728
            ],
            [
              77.63189127229744,
              12.910817296835674
            ],
            [
              77.63198179077612,
              12.910731319408669
            ],
            [
              77.63233586372148,
              12.910313736783309
            ],
            [
              77.6328598764503,
              12.909897280077393
            ],
            [
              77.63323673171398,
              12.909539325938207
            ],
            [
              77.63357647422337,
              12.909327763355005
            ],
            [
              77.6337357762786,
              12.909201157285734
            ],
            [
              77.63399587060522,
              12.909066598051712
            ],
            [
              77.63481986252216,
              12.908553480647212
            ],
            [
              77.63657503322736,
              12.90790062944017
            ],
            [
              77.63842948242235,
              12.907607836174748
            ],
            [
              77.63849068023104,
              12.90760433630036
            ],
            [
              77.6408716345209,
              12.907769648800869
            ],
            [
              77.6410369289329,
              12.90780244764361
            ],
            [
              77.64352386984581,
              12.908672237935928
            ],
            [
              77.64366396119847,
              12.908744753217858
            ],
            [
              77.64393433526566,
              12.90886963951166
            ],
            [
              77.64525655024947,
              12.909616914653421
            ],
            [
              77.64643406863465,
              12.910566693100744
            ],
            [
              77.64664336839883,
              12.910766187965882
            ],
            [
              77.64721079967909,
              12.911394646445604
            ],
            [
              77.64804415614846,
              12.912181172544978
            ],
            [
              77.64821337337058,
              12.912374519019384
            ],
            [
              77.6485022446954,
              12.91270028513092
            ],
            [
              77.64887257352314,
              12.91314586953976
            ],
            [
              77.64935268122777,
              12.913762756116292
            ],
            [
              77.64939341580599,
              12.91381549637025
            ],
            [
              77.64993316120612,
              12.91451968192661
            ],
            [
              77.65119828683552,
              12.916004960982653
            ],
            [
              77.65127007709523,
              12.91611591162634
            ],
            [
              77.65220185972036,
              12.917051501217292
            ],
            [
              77.65226216036083,
              12.917122599586081
            ],
            [
              77.65328891208212,
              12.918614920858957
            ],
            [
              77.65399080700186,
              12.920276404053437
            ],
            [
              77.65433982065193,
              12.922040727133504
            ],
            [
              77.6543220135195,
              12.923837461536607
            ],
            [
              77.65430981743441,
              12.92394536196143
            ],
            [
              77.65397650182945,
              12.92554365814599
            ],
            [
              77.65335248952263,
              12.927056994142617
            ],
            [
              77.6531153004967,
              12.927508801552316
            ],
            [
              77.65273370479858,
              12.928166065596042
            ],
            [
              77.65254331052373,
              12.928464071268143
            ],
            [
              77.65204820182758,
              12.929163122185145
            ],
            [
              77.65196230317912,
              12.929272924582618
            ],
            [
              77.65098220779598,
              12.93033805164721
            ],
            [
              77.64984119851435,
              12.931238206579366
            ],
            [
              77.64979029771261,
              12.93127220758954
            ],
            [
              77.64772587676873,
              12.932306256422976
            ],
            [
              77.64766687503521,
              12.932327157130608
            ],
            [
              77.64568502856437,
              12.932795509278254
            ],
            [
              77.64364602797207,
              12.932828133899918
            ],
            [
              77.64358962596745,
              12.932822933713565
            ],
            [
              77.64237554129953,
              12.932630737337108
            ],
            [
              77.64186592437603,
              12.932515633299156
            ],
            [
              77.64143627406719,
              12.932407920253814
            ],
            [
              77.6411087310242,
              12.932317569595838
            ],
            [
              77.63933388578431,
              12.93230299212636
            ],
            [
              77.63757986909681,
              12.93195145293234
            ],
            [
              77.63592855863733,
              12.931276323071353
            ],
            [
              77.63444215205872,
              12.930303032175821
            ],
            [
              77.63317663399309,
              12.929068240136917
            ],
            [
              77.63217966712165,
              12.927618455915312
            ],
            [
              77.63186623605888,
              12.926887963204114
            ],
            [
              77.6318536887769,
              12.926893596937113
            ],
            [
              77.6315696298013,
              12.926292608534155
            ],
            [
              77.63134485087669,
              12.92591058862397
            ],
            [
              77.63045632891652,
              12.923835413651512
            ],
            [
              77.6303249441321,
              12.92337270920966
            ],
            [
              77.63024822002603,
              12.923029098134656
            ],
            [
              77.6302318512806,
              12.922978951096637
            ],
            [
              77.63017455494314,
              12.922699186071664
            ],
            [
              77.63010644333862,
              12.922394144694003
            ],
            [
              77.63008372256823,
              12.922255670871342
            ],
            [
              77.6298317150866,
              12.921025163447283
            ],
            [
              77.62980993513938,
              12.920779006597147
            ],
            [
              77.62977081471028,
              12.92050424657374
            ],
            [
              77.62970474299888,
              12.919554523776906
            ],
            [
              77.62965603110229,
              12.919200370809689
            ],
            [
              77.62961901339571,
              12.918809535884659
            ],
            [
              77.62957625193502,
              12.918406547717664
            ],
            [
              77.62954382084318,
              12.918019350772921
            ],
            [
              77.62952653117418,
              12.917738150169018
            ],
            [
              77.62951625773792,
              12.917531142296172
            ],
            [
              77.62951126261103,
              12.91739894212183
            ],
            [
              77.62954411901886,
              12.917397762694812
            ]
          ]
        ]
      }
    }
  ]
}