{"type": "FeatureCollection", "features": [{"type": "Feature", "properties": {"label": "Downstream foam weir (SE, toward Sarjapur Rd / Varthur)", "kind": "weir", "derivation": "Anchored on the lake polygon's extreme vertex + K&C hydrology (W inflow / E outflow); 120 m mouth circle. Visually confirmed accurate on review (2026-06-08).", "anchor": [77.67991, 12.94318]}, "geometry": {"type": "Polygon", "coordinates": [[[77.68101171984462, 12.943171133381043], [77.68100526226986, 12.943064943839596], [77.6809882240051, 12.94295988644628], [77.6809607691502, 12.942856972956678], [77.68092316212083, 12.942757194478467], [77.68087576510177, 12.942661511926694], [77.68081903455847, 12.942570846769888], [77.68075351684074, 12.942486072156068], [77.68067984292111, 12.942408004504129], [77.68059872231804, 12.94233739564154], [77.68051093626302, 12.942274925564092], [77.68041733017698, 12.94222119588742], [77.68031880552874, 12.942176724053288], [77.6802163111537, 12.942141938346552], [77.68011083411643, 12.942117173770633], [77.68000339020521, 12.94210266882134], [77.6798950141499, 12.94209856319005], [77.67978674965748, 12.94210489641837], [77.67967963936113, 12.942121607517235], [77.6795747147795, 12.942148535554171], [77.67947298638327, 12.942185421202943], [77.67937543386397, 12.942231909240833], [77.67928299669946, 12.94228755196937], [77.67919656510644, 12.942351813525663], [77.67911697146737, 12.942424075042776], [77.67904498231412, 12.942503640609496], [77.67898129094588, 12.942589743972068], [77.6789265107521, 12.94268155591341], [77.67888116930493, 12.942778192238723], [77.67884570327813, 12.942878722290596], [77.6788204542412, 12.94298217791162], [77.67880566536945, 12.943087562768204], [77.67880147910152, 12.943193861945796], [77.67880793576713, 12.943300051723067], [77.67882497319816, 12.94340510943102], [77.67885242732685, 12.943508023301977], [77.67889003376534, 12.943607802213597], [77.67893743035164, 12.943703485234186], [77.6789941606369, 12.9437941508772], [77.67905967828123, 12.943878925975929], [77.67913335231492, 12.943956994092842], [77.67921447321513, 12.944027603382613], [77.67930225973895, 12.944090073833022], [77.67939586644742, 12.94414380381411], [77.67949439184781, 12.944188275872405], [77.67959688707583, 12.944223061714444], [77.67970236503412, 12.944247826331608], [77.67980980989898, 12.944262331226495], [77.67991818690396, 12.944266436709825], [77.68002645230553, 12.944260103245679], [77.68013356343562, 12.944243391832172], [77.68023848874346, 12.944216463413886], [77.68034021773056, 12.944179577331706], [77.68043777068262, 12.944133088824998], [77.68053020810517, 12.944077445610253], [77.68061663977157, 12.944013183569052], [77.68069623329659, 12.943940921586956], [77.6807682221527, 12.943861355593059], [77.68083191305215, 12.943775251857526], [77.6808866926235, 12.94368343961177], [77.68093203331851, 12.94358680306229], [77.68096749849234, 12.94348627287512], [77.68099274660824, 12.943382817212852], [77.68100753452634, 12.943277432410671], [77.68101171984462, 12.943171133381043]]]}}]}