{
  "nvdm": "1.0",
  "dataset": "geojson-layers/polygon",
  "scope": {
    "kind": "city",
    "id": "bangalore"
  },
  "provenance": {
    "sources": [
      {
        "id": "osm-overpass",
        "title": "OpenStreetMap body polygon (Overpass relation/way extract)",
        "publisher": "OpenStreetMap contributors",
        "license": "ODbL 1.0"
      }
    ],
    "method": "api",
    "produced_at": "2026-06-03",
    "produced_by": "scripts/fetch-rich-body-polygon.ts"
  },
  "type": "FeatureCollection",
  "features": [
    {
      "type": "Feature",
      "geometry": {
        "type": "MultiPolygon",
        "coordinates": [
          [
            [
              [
                77.6580432,
                12.9364006
              ],
              [
                77.6581132,
                12.9362246
              ],
              [
                77.6581728,
                12.9358002
              ],
              [
                77.658143,
                12.9355406
              ],
              [
                77.658306,
                12.9349418
              ],
              [
                77.6586023,
                12.934564
              ],
              [
                77.6587454,
                12.934378
              ],
              [
                77.6588051,
                12.9342482
              ],
              [
                77.6588508,
                12.9339963
              ],
              [
                77.6588289,
                12.9337657
              ],
              [
                77.6588747,
                12.9335855
              ],
              [
                77.6590794,
                12.9331495
              ],
              [
                77.659149,
                12.9330623
              ],
              [
                77.6592484,
                12.9328704
              ],
              [
                77.6593975,
                12.9326902
              ],
              [
                77.6596182,
                12.9325837
              ],
              [
                77.6597892,
                12.9325275
              ],
              [
                77.6599323,
                12.9323841
              ],
              [
                77.6601013,
                12.9320547
              ],
              [
                77.6602087,
                12.9317892
              ],
              [
                77.660334,
                12.9314307
              ],
              [
                77.6603737,
                12.9313513
              ],
              [
                77.6604572,
                12.9312602
              ],
              [
                77.6605049,
                12.9311517
              ],
              [
                77.6605825,
                12.9305704
              ],
              [
                77.6605984,
                12.9304095
              ],
              [
                77.6607364,
                12.9301731
              ],
              [
                77.6612276,
                12.9297793
              ],
              [
                77.6614818,
                12.9296187
              ],
              [
                77.6623709,
                12.9292998
              ],
              [
                77.6629189,
                12.9290026
              ],
              [
                77.6635853,
                12.9285144
              ],
              [
                77.6637961,
                12.928292
              ],
              [
                77.6639338,
                12.9281201
              ],
              [
                77.6653074,
                12.9281455
              ],
              [
                77.6658993,
                12.9310076
              ],
              [
                77.6659693,
                12.9310374
              ],
              [
                77.6667629,
                12.9310008
              ],
              [
                77.6668293,
                12.9311038
              ],
              [
                77.666852,
                12.9312469
              ],
              [
                77.6668954,
                12.9313577
              ],
              [
                77.6669367,
                12.9314523
              ],
              [
                77.6669512,
                12.9315792
              ],
              [
                77.6669681,
                12.9317522
              ],
              [
                77.6669853,
                12.9320735
              ],
              [
                77.6669838,
                12.9322411
              ],
              [
                77.6669566,
                12.9323864
              ],
              [
                77.6669351,
                12.9327734
              ],
              [
                77.6669064,
                12.9329005
              ],
              [
                77.6669122,
                12.9333196
              ],
              [
                77.6668964,
                12.9335166
              ],
              [
                77.6668219,
                12.9340712
              ],
              [
                77.6667946,
                12.9343087
              ],
              [
                77.6667803,
                12.9345127
              ],
              [
                77.6666412,
                12.9352363
              ],
              [
                77.6665997,
                12.9354082
              ],
              [
                77.6665137,
                12.9356666
              ],
              [
                77.6664965,
                12.935946
              ],
              [
                77.6665036,
                12.9361709
              ],
              [
                77.6665481,
                12.936298
              ],
              [
                77.6666427,
                12.9365872
              ],
              [
                77.6667057,
                12.9368652
              ],
              [
                77.6667903,
                12.9371488
              ],
              [
                77.6668075,
                12.9373961
              ],
              [
                77.6667946,
                12.9376853
              ],
              [
                77.6667932,
                12.9378543
              ],
              [
                77.6667831,
                12.9380666
              ],
              [
                77.6667688,
                12.9382524
              ],
              [
                77.6668606,
                12.9384508
              ],
              [
                77.666895,
                12.9386394
              ],
              [
                77.6669494,
                12.9387651
              ],
              [
                77.6670225,
                12.9388909
              ],
              [
                77.6671587,
                12.9390054
              ],
              [
                77.6679499,
                12.939831
              ],
              [
                77.6680202,
                12.9400504
              ],
              [
                77.6680155,
                12.9401129
              ],
              [
                77.6666236,
                12.9410384
              ],
              [
                77.6660094,
                12.9412449
              ],
              [
                77.6657465,
                12.941271
              ],
              [
                77.6656178,
                12.9413834
              ],
              [
                77.6655292,
                12.9415978
              ],
              [
                77.6654997,
                12.9418305
              ],
              [
                77.6648533,
                12.9423062
              ],
              [
                77.6643571,
                12.9424474
              ],
              [
                77.6637214,
                12.9427062
              ],
              [
                77.6626995,
                12.942829
              ],
              [
                77.6622771,
                12.9429216
              ],
              [
                77.6621436,
                12.9430944
              ],
              [
                77.6621336,
                12.943446
              ],
              [
                77.6618868,
                12.9443922
              ],
              [
                77.6614925,
                12.9445439
              ],
              [
                77.6610258,
                12.9445961
              ],
              [
                77.6608273,
                12.9445674
              ],
              [
                77.6603633,
                12.9443243
              ],
              [
                77.6600656,
                12.9441674
              ],
              [
                77.6599395,
                12.9439661
              ],
              [
                77.6599476,
                12.9437413
              ],
              [
                77.6600629,
                12.9434015
              ],
              [
                77.6600897,
                12.9429806
              ],
              [
                77.6601246,
                12.9428212
              ],
              [
                77.6601595,
                12.942748
              ],
              [
                77.6603419,
                12.9426356
              ],
              [
                77.6605995,
                12.94247
              ],
              [
                77.6606607,
                12.9422019
              ],
              [
                77.6606684,
                12.9419469
              ],
              [
                77.6606877,
                12.9418263
              ],
              [
                77.6608419,
                12.9415545
              ],
              [
                77.6609788,
                12.9413149
              ],
              [
                77.661152,
                12.9408842
              ],
              [
                77.6616864,
                12.9400146
              ],
              [
                77.6619008,
                12.9396159
              ],
              [
                77.6619888,
                12.9393656
              ],
              [
                77.6619838,
                12.939222
              ],
              [
                77.6618982,
                12.938791
              ],
              [
                77.6616808,
                12.9385459
              ],
              [
                77.6613235,
                12.9381916
              ],
              [
                77.6606128,
                12.9377655
              ],
              [
                77.6598081,
                12.9373238
              ],
              [
                77.6589149,
                12.9369081
              ],
              [
                77.6580432,
                12.9364006
              ]
            ]
          ],
          [
            [
              [
                77.6539501,
                12.9295328
              ],
              [
                77.6540169,
                12.9295567
              ],
              [
                77.6540742,
                12.9296172
              ],
              [
                77.6540933,
                12.9297335
              ],
              [
                77.6540312,
                12.9298475
              ],
              [
                77.6539787,
                12.9299918
              ],
              [
                77.653962,
                12.9302291
              ],
              [
                77.6539143,
                12.9304129
              ],
              [
                77.6538259,
                12.9307131
              ],
              [
                77.6537137,
                12.9310133
              ],
              [
                77.6536325,
                12.9310319
              ],
              [
                77.6534081,
                12.9309272
              ],
              [
                77.6527755,
                12.9307154
              ],
              [
                77.6526967,
                12.9307736
              ],
              [
                77.65268,
                12.930969
              ],
              [
                77.6526895,
                12.9310179
              ],
              [
                77.653506,
                12.9312413
              ],
              [
                77.6535156,
                12.9313553
              ],
              [
                77.6531527,
                12.932072
              ],
              [
                77.6531216,
                12.9322255
              ],
              [
                77.6531312,
                12.9323186
              ],
              [
                77.6532649,
                12.932414
              ],
              [
                77.653401,
                12.9325141
              ],
              [
                77.6533866,
                12.9326118
              ],
              [
                77.6532935,
                12.9327491
              ],
              [
                77.6530357,
                12.9330515
              ],
              [
                77.6529784,
                12.933233
              ],
              [
                77.6531575,
                12.9334657
              ],
              [
                77.6533222,
                12.9335658
              ],
              [
                77.6534511,
                12.9336914
              ],
              [
                77.6535347,
                12.933838
              ],
              [
                77.6534789,
                12.9338618
              ],
              [
                77.6531565,
                12.93366
              ],
              [
                77.6529963,
                12.9335654
              ],
              [
                77.6525491,
                12.9334921
              ],
              [
                77.6523406,
                12.9334957
              ],
              [
                77.6520431,
                12.9335155
              ],
              [
                77.6515528,
                12.9334265
              ],
              [
                77.6507637,
                12.9331751
              ],
              [
                77.6485777,
                12.9327438
              ],
              [
                77.6483041,
                12.9326366
              ],
              [
                77.6462656,
                12.9316746
              ],
              [
                77.6455978,
                12.9314497
              ],
              [
                77.6445007,
                12.9311282
              ],
              [
                77.6442057,
                12.9309635
              ],
              [
                77.6439884,
                12.9307831
              ],
              [
                77.6438007,
                12.9305479
              ],
              [
                77.6435244,
                12.9300825
              ],
              [
                77.643275,
                12.9297662
              ],
              [
                77.6430676,
                12.9294073
              ],
              [
                77.6432216,
                12.9290311
              ],
              [
                77.6432587,
                12.9289217
              ],
              [
                77.6433063,
                12.9288504
              ],
              [
                77.643531,
                12.9287691
              ],
              [
                77.643764,
                12.9287757
              ],
              [
                77.6440463,
                12.9287838
              ],
              [
                77.6444697,
                12.9286958
              ],
              [
                77.6445832,
                12.9287131
              ],
              [
                77.6447074,
                12.9287621
              ],
              [
                77.6451937,
                12.9293289
              ],
              [
                77.6453046,
                12.9293911
              ],
              [
                77.645428,
                12.9293541
              ],
              [
                77.6465525,
                12.9286326
              ],
              [
                77.6465986,
                12.9286206
              ],
              [
                77.6468445,
                12.9286599
              ],
              [
                77.6468912,
                12.92866
              ],
              [
                77.6478151,
                12.9282651
              ],
              [
                77.6482588,
                12.9279607
              ],
              [
                77.6483651,
                12.9279328
              ],
              [
                77.6487667,
                12.9278714
              ],
              [
                77.6496973,
                12.9279437
              ],
              [
                77.6504071,
                12.927866
              ],
              [
                77.6507728,
                12.9278665
              ],
              [
                77.6509685,
                12.927995
              ],
              [
                77.6512462,
                12.9282945
              ],
              [
                77.6513215,
                12.9283819
              ],
              [
                77.6513578,
                12.9285074
              ],
              [
                77.6513484,
                12.9288473
              ],
              [
                77.6513989,
                12.9289572
              ],
              [
                77.6514875,
                12.9290813
              ],
              [
                77.6516322,
                12.9292526
              ],
              [
                77.6520238,
                12.9294638
              ],
              [
                77.6524977,
                12.9296073
              ],
              [
                77.6529487,
                12.92971
              ],
              [
                77.6532755,
                12.9295982
              ],
              [
                77.6534889,
                12.9295296
              ],
              [
                77.6539501,
                12.9295328
              ]
            ]
          ],
          [
            [
              [
                77.6536797,
                12.9339644
              ],
              [
                77.653635,
                12.9337503
              ],
              [
                77.6534858,
                12.9335953
              ],
              [
                77.6533924,
                12.9335255
              ],
              [
                77.6532552,
                12.9334654
              ],
              [
                77.6530982,
                12.9332814
              ],
              [
                77.6530763,
                12.9331845
              ],
              [
                77.653122,
                12.9330701
              ],
              [
                77.6532115,
                12.9329597
              ],
              [
                77.653299,
                12.9328609
              ],
              [
                77.653456,
                12.9326787
              ],
              [
                77.6535017,
                12.9325392
              ],
              [
                77.6534839,
                12.9324462
              ],
              [
                77.6533844,
                12.9323629
              ],
              [
                77.6532691,
                12.9323183
              ],
              [
                77.6532254,
                12.9322176
              ],
              [
                77.6532731,
                12.9320257
              ],
              [
                77.6534182,
                12.9318184
              ],
              [
                77.653466,
                12.9317157
              ],
              [
                77.6535157,
                12.9315549
              ],
              [
                77.6537324,
                12.931208
              ],
              [
                77.6538556,
                12.9308825
              ],
              [
                77.6539968,
                12.9304678
              ],
              [
                77.6540306,
                12.9302992
              ],
              [
                77.6540525,
                12.9301752
              ],
              [
                77.6540644,
                12.9300163
              ],
              [
                77.6540962,
                12.9299504
              ],
              [
                77.6541618,
                12.9298264
              ],
              [
                77.6541797,
                12.9297295
              ],
              [
                77.6541439,
                12.9296036
              ],
              [
                77.6541578,
                12.9295629
              ],
              [
                77.6542413,
                12.9295348
              ],
              [
                77.6545674,
                12.9294476
              ],
              [
                77.6548329,
                12.9292427
              ],
              [
                77.6549344,
                12.9291656
              ],
              [
                77.6550529,
                12.9291078
              ],
              [
                77.6556446,
                12.929261
              ],
              [
                77.6558341,
                12.9293897
              ],
              [
                77.6560515,
                12.9294994
              ],
              [
                77.6569134,
                12.9294725
              ],
              [
                77.6577938,
                12.9295278
              ],
              [
                77.6583242,
                12.9296951
              ],
              [
                77.6590176,
                12.9296384
              ],
              [
                77.6601339,
                12.9298447
              ],
              [
                77.6606072,
                12.9301456
              ],
              [
                77.660495,
                12.9304037
              ],
              [
                77.660501,
                12.9306789
              ],
              [
                77.6604274,
                12.9310955
              ],
              [
                77.6602186,
                12.9314191
              ],
              [
                77.6601232,
                12.9317214
              ],
              [
                77.6599622,
                12.9321225
              ],
              [
                77.6597474,
                12.9324267
              ],
              [
                77.6595427,
                12.9325003
              ],
              [
                77.6593339,
                12.9326282
              ],
              [
                77.6591947,
                12.9328084
              ],
              [
                77.6588349,
                12.9334944
              ],
              [
                77.6587752,
                12.9336203
              ],
              [
                77.6587395,
                12.9337889
              ],
              [
                77.6587653,
                12.9339963
              ],
              [
                77.6587017,
                12.9342888
              ],
              [
                77.6586102,
                12.934407
              ],
              [
                77.6583299,
                12.9347675
              ],
              [
                77.6582345,
                12.9349031
              ],
              [
                77.658151,
                12.9352364
              ],
              [
                77.6580794,
                12.9354708
              ],
              [
                77.6580655,
                12.9356045
              ],
              [
                77.6580873,
                12.9357731
              ],
              [
                77.6580854,
                12.9359901
              ],
              [
                77.6580615,
                12.9361413
              ],
              [
                77.6579751,
                12.9364128
              ],
              [
                77.6574363,
                12.9360669
              ],
              [
                77.6565452,
                12.9355587
              ],
              [
                77.6547497,
                12.9346521
              ],
              [
                77.6536797,
                12.9339644
              ]
            ]
          ],
          [
            [
              [
                77.6669636,
                12.9309991
              ],
              [
                77.6678791,
                12.9310436
              ],
              [
                77.6701429,
                12.9310546
              ],
              [
                77.6719274,
                12.9310054
              ],
              [
                77.6728457,
                12.9309484
              ],
              [
                77.6729762,
                12.9309627
              ],
              [
                77.6730673,
                12.9310305
              ],
              [
                77.6732643,
                12.9312422
              ],
              [
                77.673655,
                12.931304
              ],
              [
                77.6740711,
                12.9314035
              ],
              [
                77.674466,
                12.9315595
              ],
              [
                77.6747194,
                12.9317312
              ],
              [
                77.6751151,
                12.9319514
              ],
              [
                77.6754,
                12.9321091
              ],
              [
                77.6757074,
                12.9322023
              ],
              [
                77.6763469,
                12.9321062
              ],
              [
                77.676426,
                12.9320786
              ],
              [
                77.6765283,
                12.9319714
              ],
              [
                77.6765976,
                12.9318785
              ],
              [
                77.676669,
                12.931848
              ],
              [
                77.6767023,
                12.9317275
              ],
              [
                77.6767142,
                12.9315361
              ],
              [
                77.676787,
                12.9312317
              ],
              [
                77.6768995,
                12.9310861
              ],
              [
                77.6771237,
                12.9313845
              ],
              [
                77.6769469,
                12.9315653
              ],
              [
                77.6768219,
                12.931767
              ],
              [
                77.6767356,
                12.9319604
              ],
              [
                77.6767183,
                12.9321033
              ],
              [
                77.6768262,
                12.9323849
              ],
              [
                77.6768219,
                12.9324942
              ],
              [
                77.6767442,
                12.9326119
              ],
              [
                77.6767356,
                12.9327422
              ],
              [
                77.6768952,
                12.9330953
              ],
              [
                77.6769038,
                12.9332424
              ],
              [
                77.6768685,
                12.9334373
              ],
              [
                77.676717,
                12.934501
              ],
              [
                77.676494,
                12.9352839
              ],
              [
                77.6765157,
                12.9356929
              ],
              [
                77.6765711,
                12.9358855
              ],
              [
                77.6769249,
                12.9363561
              ],
              [
                77.6770116,
                12.936521
              ],
              [
                77.6770979,
                12.9368488
              ],
              [
                77.6771582,
                12.9370968
              ],
              [
                77.6771695,
                12.937671
              ],
              [
                77.6772901,
                12.938091
              ],
              [
                77.6774078,
                12.9382322
              ],
              [
                77.6775205,
                12.9384545
              ],
              [
                77.6777362,
                12.9389841
              ],
              [
                77.6779043,
                12.9391186
              ],
              [
                77.6780337,
                12.9392237
              ],
              [
                77.6782494,
                12.9396776
              ],
              [
                77.6783699,
                12.9399536
              ],
              [
                77.6785396,
                12.9402468
              ],
              [
                77.6785786,
                12.9404188
              ],
              [
                77.6786556,
                12.9407468
              ],
              [
                77.6793776,
                12.9420449
              ],
              [
                77.6794019,
                12.9421362
              ],
              [
                77.6794114,
                12.9422421
              ],
              [
                77.6794569,
                12.9425232
              ],
              [
                77.6796314,
                12.9426848
              ],
              [
                77.6797723,
                12.942843
              ],
              [
                77.6799066,
                12.9431825
              ],
              [
                77.6797047,
                12.9432551
              ],
              [
                77.6795009,
                12.9432133
              ],
              [
                77.6794124,
                12.943046
              ],
              [
                77.6788974,
                12.9423436
              ],
              [
                77.678321,
                12.9417376
              ],
              [
                77.6775348,
                12.9410384
              ],
              [
                77.6770359,
                12.940973
              ],
              [
                77.6759738,
                12.9409861
              ],
              [
                77.6751021,
                12.9413364
              ],
              [
                77.6748359,
                12.9416211
              ],
              [
                77.6747423,
                12.941956
              ],
              [
                77.6744825,
                12.9422984
              ],
              [
                77.6743644,
                12.9424761
              ],
              [
                77.6742572,
                12.9425493
              ],
              [
                77.6740801,
                12.9425493
              ],
              [
                77.6731674,
                12.9421016
              ],
              [
                77.6727765,
                12.9417708
              ],
              [
                77.6725368,
                12.941546
              ],
              [
                77.672217,
                12.9412781
              ],
              [
                77.6719733,
                12.9410956
              ],
              [
                77.6714049,
                12.9407163
              ],
              [
                77.6707274,
                12.9399562
              ],
              [
                77.670352,
                12.9397742
              ],
              [
                77.6690966,
                12.939402
              ],
              [
                77.6683285,
                12.9399021
              ],
              [
                77.6682094,
                12.9398827
              ],
              [
                77.668046,
                12.9398087
              ],
              [
                77.6677879,
                12.9395433
              ],
              [
                77.6674798,
                12.9391842
              ],
              [
                77.667153,
                12.9388504
              ],
              [
                77.6670627,
                12.938726
              ],
              [
                77.6670053,
                12.9384424
              ],
              [
                77.667001,
                12.9381547
              ],
              [
                77.666948,
                12.9379633
              ],
              [
                77.6669007,
                12.937797
              ],
              [
                77.6669537,
                12.9376461
              ],
              [
                77.6669523,
                12.9374953
              ],
              [
                77.6669251,
                12.937431
              ],
              [
                77.6669064,
                12.9371921
              ],
              [
                77.6668491,
                12.9370566
              ],
              [
                77.6668333,
                12.9369309
              ],
              [
                77.6668118,
                12.936801
              ],
              [
                77.6667616,
                12.9366375
              ],
              [
                77.6667315,
                12.9364657
              ],
              [
                77.6667,
                12.9363358
              ],
              [
                77.6666699,
                12.9361388
              ],
              [
                77.6666799,
                12.9359628
              ],
              [
                77.6667158,
                12.9357951
              ],
              [
                77.666753,
                12.9356191
              ],
              [
                77.666776,
                12.9353984
              ],
              [
                77.666743,
                12.9353341
              ],
              [
                77.6667115,
                12.9353048
              ],
              [
                77.6667158,
                12.9351888
              ],
              [
                77.6667559,
                12.9350128
              ],
              [
                77.6668305,
                12.9345211
              ],
              [
                77.6668477,
                12.9343744
              ],
              [
                77.6668563,
                12.9341858
              ],
              [
                77.6669365,
                12.9336423
              ],
              [
                77.6669623,
                12.9330933
              ],
              [
                77.6669681,
                12.9328921
              ],
              [
                77.6669838,
                12.9328111
              ],
              [
                77.6670096,
                12.932466
              ],
              [
                77.6670211,
                12.9323417
              ],
              [
                77.6670383,
                12.9322258
              ],
              [
                77.6670541,
                12.9320847
              ],
              [
                77.6670297,
                12.9316055
              ],
              [
                77.6669996,
                12.9314364
              ],
              [
                77.6669322,
                12.9312842
              ],
              [
                77.6668964,
                12.9311347
              ],
              [
                77.6669636,
                12.9309991
              ]
            ]
          ]
        ]
      },
      "properties": {
        "body_id": "bellandur",
        "osm_type": "relation",
        "osm_id": 19751547,
        "name": "Bellandur Lake",
        "name_en": "Bellandur Lake",
        "name_ta": "",
        "ramsar": false,
        "protect_class": null,
        "protection_title": null,
        "start_date": null,
        "wikidata": "Q4883488",
        "wikipedia": "en:Bellandur Lake",
        "area_ha": 316.64,
        "source": "OSM relation 19751547",
        "license": "ODbL 1.0",
        "fetched_at": "2026-05-25T13:25:27.407Z"
      }
    }
  ]
}