{
  "type": "FeatureCollection",
  "features": [
    {
      "type": "Feature",
      "properties": {
        "body_id": "bellandur",
        "buffer_metres": 1000,
        "source_polygon": "bellandur.geojson",
        "computed_with": "@turf/buffer",
        "fetched_at": "2026-05-25T13:25:27.463Z"
      },
      "geometry": {
        "type": "Polygon",
        "coordinates": [
          [
            [
              77.63468846160963,
              12.925712694402993
            ],
            [
              77.63552482064722,
              12.924016807466035
            ],
            [
              77.63557242191959,
              12.923945508868302
            ],
            [
              77.63680990125036,
              12.922463994068774
            ],
            [
              77.63834051169306,
              12.921270665304602
            ],
            [
              77.64009518574038,
              12.92041936768912
            ],
            [
              77.6403198791937,
              12.920338070432948
            ],
            [
              77.64203184551691,
              12.919895392987158
            ],
            [
              77.64330394871122,
              12.919812108123132
            ],
            [
              77.64421613353132,
              12.919705993000631
            ],
            [
              77.64459027983692,
              12.919729299392879
            ],
            [
              77.64585958882456,
              12.919276840062473
            ],
            [
              77.645965885394,
              12.919248941032201
            ],
            [
              77.64693523989396,
              12.919048236142105
            ],
            [
              77.64733682595028,
              12.918986838323603
            ],
            [
              77.6494998771846,
              12.918906632918091
            ],
            [
              77.64961957514608,
              12.918915932653183
            ],
            [
              77.6504200496784,
              12.918872805273162
            ],
            [
              77.65078573650325,
              12.91887330525169
            ],
            [
              77.65259277957385,
              12.919049977786596
            ],
            [
              77.65432931962495,
              12.919568211934033
            ],
            [
              77.65543021960096,
              12.920146439669901
            ],
            [
              77.65577865236794,
              12.920142458664085
            ],
            [
              77.65742184901534,
              12.920416048176298
            ],
            [
              77.65781210208063,
              12.920517090464742
            ],
            [
              77.65838718750432,
              12.920553212591646
            ],
            [
              77.6588628898274,
              12.920641743982216
            ],
            [
              77.65921248671643,
              12.920393392404229
            ],
            [
              77.66075453253983,
              12.91967761325196
            ],
            [
              77.66240550865206,
              12.919251116453104
            ],
            [
              77.66410884788756,
              12.91912851490253
            ],
            [
              77.66548239842624,
              12.91915391399113
            ],
            [
              77.6672510531873,
              12.91935408979937
            ],
            [
              77.66894733486555,
              12.919881641982784
            ],
            [
              77.67050808055687,
              12.92071692676023
            ],
            [
              77.67187517268636,
              12.921828841457588
            ],
            [
              77.67200857623507,
              12.921988939187358
            ],
            [
              77.67225924671409,
              12.921973379448879
            ],
            [
              77.67387658199203,
              12.922011500450319
            ],
            [
              77.67400707737785,
              12.922025799939465
            ],
            [
              77.675277897188,
              12.92227944407147
            ],
            [
              77.67600717058272,
              12.922135049519696
            ],
            [
              77.67791476685139,
              12.922147502467572
            ],
            [
              77.67977897035234,
              12.922542020338327
            ],
            [
              77.68152010398197,
              12.923301741295704
            ],
            [
              77.68306374912616,
              12.924394194373361
            ],
            [
              77.68434392569375,
              12.92577268690871
            ],
            [
              77.6845681298155,
              12.926071080552003
            ],
            [
              77.68549920354556,
              12.927610820188011
            ],
            [
              77.68609949663953,
              12.92929960646579
            ],
            [
              77.6863452941303,
              12.931070742096162
            ],
            [
              77.68622688068939,
              12.93285427603186
            ],
            [
              77.68607562888823,
              12.933400320424035
            ],
            [
              77.68600851357922,
              12.93451023466341
            ],
            [
              77.68603570501125,
              12.934613503845016
            ],
            [
              77.68607658112761,
              12.934774928686416
            ],
            [
              77.68613162825538,
              12.935001291348074
            ],
            [
              77.68640664217398,
              12.93544407130712
            ],
            [
              77.68662235413498,
              12.93589796442324
            ],
            [
              77.68674010551196,
              12.936156302345365
            ],
            [
              77.68679039791238,
              12.936271485999736
            ],
            [
              77.68715736983165,
              12.937031983769492
            ],
            [
              77.68724653320623,
              12.937321552319887
            ],
            [
              77.68748984887382,
              12.93775898771307
            ],
            [
              77.68766124881363,
              12.938182997562164
            ],
            [
              77.68768005289824,
              12.93820822996738
            ],
            [
              77.6883821225684,
              12.939607794994563
            ],
            [
              77.68851643254251,
              12.93994729058524
            ],
            [
              77.68900147802358,
              12.941662546906885
            ],
            [
              77.68913055406617,
              12.943437300267352
            ],
            [
              77.68889860108463,
              12.945202086887468
            ],
            [
              77.68831469042847,
              12.946887831634418
            ],
            [
              77.68740167046718,
              12.948428551783822
            ],
            [
              77.68619527323692,
              12.949763939947461
            ],
            [
              77.68474271646942,
              12.95084172501664
            ],
            [
              77.68310085562847,
              12.951619718636069
            ],
            [
              77.68289894972777,
              12.951692321095395
            ],
            [
              77.68123407967403,
              12.952123929312577
            ],
            [
              77.67951590043863,
              12.952246420998101
            ],
            [
              77.67780430214339,
              12.952055526486252
            ],
            [
              77.67760049526599,
              12.952013725013845
            ],
            [
              77.67603614245651,
              12.951548514803397
            ],
            [
              77.67573033506696,
              12.951395757151543
            ],
            [
              77.67425720337168,
              12.95154250356652
            ],
            [
              77.67408009698275,
              12.951542503568465
            ],
            [
              77.67194808855955,
              12.951299180543877
            ],
            [
              77.66993145641014,
              12.95058238058673
            ],
            [
              77.66919534704809,
              12.950221299725957
            ],
            [
              77.66899478283203,
              12.950342787432689
            ],
            [
              77.6686215091241,
              12.950485883176814
            ],
            [
              77.66820614440357,
              12.950945704689456
            ],
            [
              77.6668288618143,
              12.951986934930053
            ],
            [
              77.66527522655542,
              12.952757172369678
            ],
            [
              77.66488091538609,
              12.952908877459357
            ],
            [
              77.66254466354964,
              12.953478453842388
            ],
            [
              77.66207794704165,
              12.953530655712958
            ],
            [
              77.65967160429147,
              12.953491938918383
            ],
            [
              77.65947309736327,
              12.953463237894246
            ],
            [
              77.65792210694357,
              12.953103286805348
            ],
            [
              77.6564578477216,
              12.952488524369059
            ],
            [
              77.6559938372396,
              12.95224541664566
            ],
            [
              77.65597371745307,
              12.952234843987826
            ],
            [
              77.6556760107696,
              12.952077939009675
            ],
            [
              77.65432513862635,
              12.951208647411303
            ],
            [
              77.65315093284053,
              12.950122670942898
            ],
            [
              77.65218952758887,
              12.948853431005913
            ],
            [
              77.65206343157931,
              12.94865212722363
            ],
            [
              77.65128294745918,
              12.94708100236199
            ],
            [
              77.65082860443987,
              12.945392529748124
            ],
            [
              77.65071751329435,
              12.943650323018286
            ],
            [
              77.65072562159835,
              12.943425523304159
            ],
            [
              77.65083947013979,
              12.942806193620472
            ],
            [
              77.65050489366153,
              12.942637253373162
            ],
            [
              77.64985471238877,
              12.942265542760794
            ],
            [
              77.64868575104947,
              12.941974586730291
            ],
            [
              77.64840680228431,
              12.941885716220654
            ],
            [
              77.64674679961514,
              12.941558193731659
            ],
            [
              77.64513583565275,
              12.94108796202436
            ],
            [
              77.64486222798192,
              12.940980758435522
            ],
            [
              77.64428277368893,
              12.940730865436686
            ],
            [
              77.64274201845787,
              12.94000375555872
            ],
            [
              77.64184373492562,
              12.939740516552623
            ],
            [
              77.63991411540067,
              12.938931727463785
            ],
            [
              77.63961910920577,
              12.938767022308534
            ],
            [
              77.6382222620427,
              12.937809660474468
            ],
            [
              77.63800496041134,
              12.937629255522626
            ],
            [
              77.63670483731248,
              12.936304423861964
            ],
            [
              77.6365171400308,
              12.936069218657636
            ],
            [
              77.63581400564517,
              12.935051846354407
            ],
            [
              77.63572372117751,
              12.934899763124182
            ],
            [
              77.63523518749273,
              12.93417941523314
            ],
            [
              77.63502779539655,
              12.933820508888363
            ],
            [
              77.63435154906439,
              12.932358973627226
            ],
            [
              77.63395232936996,
              12.930803630555188
            ],
            [
              77.63384281955155,
              12.929203913466342
            ],
            [
              77.6340264945708,
              12.927610665548736
            ],
            [
              77.63449751136669,
              12.926074523421542
            ],
            [
              77.63465152222318,
              12.925698328452533
            ],
            [
              77.63468846160963,
              12.925712694402993
            ]
          ]
        ]
      }
    }
  ]
}