{
  "nvdm": "1.0",
  "dataset": "geojson-layers/buffer-1000m",
  "scope": {
    "kind": "region",
    "id": "mumbai"
  },
  "provenance": {
    "sources": [
      {
        "id": "osm-overpass",
        "title": "OpenStreetMap body polygon (Overpass relation/way extract)",
        "publisher": "OpenStreetMap contributors",
        "license": "ODbL 1.0",
        "role": "input"
      }
    ],
    "method": "derived",
    "produced_at": "2026-08-24",
    "internal_inputs": [],
    "produced_by": "scripts/fetch-rich-body-polygon.ts",
    "note": "1 km Minkowski offset of the body polygon (@turf/buffer), not a circle from the centroid; derived in-memory from the same Overpass fetch, hence internal_inputs []."
  },
  "type": "FeatureCollection",
  "features": [
    {
      "type": "Feature",
      "properties": {
        "body_id": "bhatsa",
        "buffer_metres": 1000,
        "source_polygon": "bhatsa.geojson",
        "computed_with": "@turf/buffer",
        "fetched_at": "2026-08-24T18:28:50.470Z"
      },
      "geometry": {
        "type": "Polygon",
        "coordinates": [
          [
            [
              73.3840542688643,
              19.554599058581484
            ],
            [
              73.38387835259638,
              19.553882578634898
            ],
            [
              73.38381840009576,
              19.55213158249349
            ],
            [
              73.38411983394018,
              19.550402856758097
            ],
            [
              73.38449836626418,
              19.5494493074102
            ],
            [
              73.38432072409566,
              19.5487943690496
            ],
            [
              73.38422943267253,
              19.546973691851672
            ],
            [
              73.38452957368402,
              19.54517306266333
            ],
            [
              73.38520880563716,
              19.5434664452398
            ],
            [
              73.38623921745966,
              19.541923939399624
            ],
            [
              73.38757847661567,
              19.540608902145895
            ],
            [
              73.38917156894054,
              19.539575346009293
            ],
            [
              73.38957285520567,
              19.539368056125635
            ],
            [
              73.39145036847046,
              19.538631112226696
            ],
            [
              73.39345094195328,
              19.538285849598186
            ],
            [
              73.39492636589938,
              19.538330924890378
            ],
            [
              73.3951279604257,
              19.538176398213253
            ],
            [
              73.39683163165836,
              19.537338266363133
            ],
            [
              73.39717236665606,
              19.53724614561894
            ],
            [
              73.39824283298162,
              19.536272218930392
            ],
            [
              73.39827860339996,
              19.534404260055375
            ],
            [
              73.39872367789653,
              19.532582438353586
            ],
            [
              73.39955878735313,
              19.530886700893078
            ],
            [
              73.40074783500589,
              19.529390320774816
            ],
            [
              73.40223943442061,
              19.528157954949084
            ],
            [
              73.40298941734979,
              19.527657977674917
            ],
            [
              73.40355215563827,
              19.527359199610082
            ],
            [
              73.40322519086638,
              19.526156175754686
            ],
            [
              73.40312474494752,
              19.52438728986796
            ],
            [
              73.40339412795322,
              19.522634162084188
            ],
            [
              73.40402287680378,
              19.52096480922778
            ],
            [
              73.40498658781506,
              19.519443995841723
            ],
            [
              73.40624786494585,
              19.51813072197897
            ],
            [
              73.40636876973569,
              19.518027405112587
            ],
            [
              73.4063097180273,
              19.516383204876988
            ],
            [
              73.4066365051317,
              19.51458367053114
            ],
            [
              73.40734213219102,
              19.51288342281808
            ],
            [
              73.40814965408242,
              19.51140174553352
            ],
            [
              73.40893810283654,
              19.509868059770746
            ],
            [
              73.40898043224877,
              19.509786765501207
            ],
            [
              73.40937686138899,
              19.50903500631073
            ],
            [
              73.41036730390552,
              19.507156990277537
            ],
            [
              73.41038039159866,
              19.507111627625985
            ],
            [
              73.41103005823149,
              19.505493800045873
            ],
            [
              73.41199629795776,
              19.50402314242181
            ],
            [
              73.41324335615406,
              19.50275406254933
            ],
            [
              73.4147250923758,
              19.50173350956578
            ],
            [
              73.4163866876192,
              19.500999237658565
            ],
            [
              73.41816667205852,
              19.500578409940307
            ],
            [
              73.41845490344632,
              19.500563969782107
            ],
            [
              73.41942970829287,
              19.49978492803475
            ],
            [
              73.42125886806446,
              19.49888760502919
            ],
            [
              73.42153794456279,
              19.49791102717009
            ],
            [
              73.42206774979519,
              19.496522476548083
            ],
            [
              73.42283129421335,
              19.495234286524553
            ],
            [
              73.42303176862652,
              19.49499760186104
            ],
            [
              73.4231145255444,
              19.49472582244596
            ],
            [
              73.42391148901665,
              19.493231295059783
            ],
            [
              73.42498825685604,
              19.49190174631427
            ],
            [
              73.42630757472224,
              19.490783168480302
            ],
            [
              73.42782380077306,
              19.489914254972728
            ],
            [
              73.4294844845352,
              19.48932506236728
            ],
            [
              73.43123218083556,
              19.48903597114643
            ],
            [
              73.43300643612592,
              19.489056981048776
            ],
            [
              73.43550629944659,
              19.48930696718005
            ],
            [
              73.43719584172882,
              19.489623328458098
            ],
            [
              73.43879750412596,
              19.490220934925777
            ],
            [
              73.43998362257105,
              19.49091834798335
            ],
            [
              73.44004700425793,
              19.4909012414254
            ],
            [
              73.44193396595078,
              19.49075846860429
            ],
            [
              73.44381368504656,
              19.49096972431434
            ],
            [
              73.44409936257925,
              19.491058196936116
            ],
            [
              73.44430610281783,
              19.490920643546524
            ],
            [
              73.44605350813863,
              19.49019647687687
            ],
            [
              73.4470777586205,
              19.489986866026197
            ],
            [
              73.44777984465172,
              19.48955515481647
            ],
            [
              73.44827982699918,
              19.489305167107702
            ],
            [
              73.44989609958776,
              19.48866863197354
            ],
            [
              73.45160857465382,
              19.488321398260425
            ],
            [
              73.45335952592094,
              19.488275170873376
            ],
            [
              73.45508993075181,
              19.488531508085952
            ],
            [
              73.4567414587686,
              19.489081769038272
            ],
            [
              73.45724640456797,
              19.489356594896083
            ],
            [
              73.45849655802616,
              19.489729320793614
            ],
            [
              73.45955518205747,
              19.490275597918796
            ],
            [
              73.46082618518605,
              19.490213719012566
            ],
            [
              73.46087718236234,
              19.490216318868494
            ],
            [
              73.46254195254998,
              19.49044112896791
            ],
            [
              73.46413898609741,
              19.490938016975388
            ],
            [
              73.4641576853198,
              19.490945616587112
            ],
            [
              73.4658701351807,
              19.491848725670952
            ],
            [
              73.46627754486416,
              19.49218293385378
            ],
            [
              73.46740385150123,
              19.492719785543205
            ],
            [
              73.4688762544211,
              19.49380707358281
            ],
            [
              73.47009533843875,
              19.49514427166282
            ],
            [
              73.4710142429546,
              19.496679986407987
            ],
            [
              73.47128991916195,
              19.497471585048856
            ],
            [
              73.47138702203821,
              19.497582070609862
            ],
            [
              73.47225903775245,
              19.49908166476198
            ],
            [
              73.47281416578438,
              19.50070974595674
            ],
            [
              73.47281946703536,
              19.500732545684734
            ],
            [
              73.47303970506229,
              19.5025291020846
            ],
            [
              73.47287416006857,
              19.504330868926715
            ],
            [
              73.47232951421256,
              19.506064981296042
            ],
            [
              73.47142778243935,
              19.50766130800731
            ],
            [
              73.4706077118306,
              19.508596521809064
            ],
            [
              73.46972035177389,
              19.50965679134749
            ],
            [
              73.46971235177898,
              19.50966439164549
            ],
            [
              73.46945772618444,
              19.509859041670396
            ],
            [
              73.46882712582477,
              19.510664201692435
            ],
            [
              73.46878692624284,
              19.510707103273447
            ],
            [
              73.46730091117553,
              19.51198998481408
            ],
            [
              73.46698705543956,
              19.512163288303903
            ],
            [
              73.46703942259738,
              19.512577647165894
            ],
            [
              73.46688779993389,
              19.514356297058395
            ],
            [
              73.46636658446396,
              19.516071718463596
            ],
            [
              73.46549628519635,
              19.51765637506965
            ],
            [
              73.46515509745167,
              19.51805697927381
            ],
            [
              73.46496587566891,
              19.518934502931966
            ],
            [
              73.46547503584769,
              19.519471215078983
            ],
            [
              73.46797510952777,
              19.522721108824086
            ],
            [
              73.46807516311365,
              19.52288474411657
            ],
            [
              73.46948042773828,
              19.52313284048753
            ],
            [
              73.4702981059317,
              19.52345434021532
            ],
            [
              73.47037325261184,
              19.5234324566564
            ],
            [
              73.47057759743554,
              19.52341385942608
            ],
            [
              73.47059209023189,
              19.523405490582395
            ],
            [
              73.47235961316497,
              19.52279355696678
            ],
            [
              73.4742202122288,
              19.52252066872675
            ],
            [
              73.4761014398929,
              19.52259745146877
            ],
            [
              73.47675085982381,
              19.52274784487635
            ],
            [
              73.47752560260732,
              19.522134096245516
            ],
            [
              73.47897755800632,
              19.5213449355128
            ],
            [
              73.48055361003814,
              19.520807393705383
            ],
            [
              73.48155356002404,
              19.52055740718631
            ],
            [
              73.48379876597032,
              19.520258796999137
            ],
            [
              73.48528218343387,
              19.52022929868286
            ],
            [
              73.48580490347666,
              19.520272408118007
            ],
            [
              73.48687491595122,
              19.519764344062665
            ],
            [
              73.48846949809867,
              19.519312661857093
            ],
            [
              73.48903806844588,
              19.519201467937716
            ],
            [
              73.49086646885313,
              19.519014497167174
            ],
            [
              73.49269896392094,
              19.519161604450808
            ],
            [
              73.49446748317534,
              19.51963732529226
            ],
            [
              73.4961063314705,
              19.52042398832065
            ],
            [
              73.49755462831617,
              19.5214923714142
            ],
            [
              73.49875856875998,
              19.52280278674261
            ],
            [
              73.49967342197033,
              19.524306554508847
            ],
            [
              73.50026519332657,
              19.525947810748406
            ],
            [
              73.50051188823191,
              19.527665582135278
            ],
            [
              73.50040433057285,
              19.5293960508098
            ],
            [
              73.50003907432752,
              19.530735471333994
            ],
            [
              73.50152910090519,
              19.53043893155469
            ],
            [
              73.50242495133547,
              19.530383334682632
            ],
            [
              73.50473541657718,
              19.530504944247877
            ],
            [
              73.50694689584236,
              19.531147122381196
            ],
            [
              73.50740277727738,
              19.53133921262696
            ],
            [
              73.50959400634139,
              19.532622509799342
            ],
            [
              73.51028069703877,
              19.533158386813493
            ],
            [
              73.51138008965367,
              19.534167276820842
            ],
            [
              73.51229369456928,
              19.535329192522244
            ],
            [
              73.51272821470151,
              19.535986373143402
            ],
            [
              73.51358750465268,
              19.53764365079303
            ],
            [
              73.51367015163333,
              19.537949889743746
            ],
            [
              73.51441066335815,
              19.538885779126165
            ],
            [
              73.51522486204104,
              19.540515022405817
            ],
            [
              73.5156087350277,
              19.541996104602408
            ],
            [
              73.51575108935998,
              19.542086424426806
            ],
            [
              73.51710728212691,
              19.543392016818295
            ],
            [
              73.5181555114235,
              19.54492896373452
            ],
            [
              73.51885250879187,
              19.5466338371955
            ],
            [
              73.5191694977021,
              19.548436277005084
            ],
            [
              73.51909338281811,
              19.550261894011072
            ],
            [
              73.51862729250311,
              19.552035340001577
            ],
            [
              73.5179165498257,
              19.553435082075218
            ],
            [
              73.51778821244703,
              19.55431646487069
            ],
            [
              73.51720330948952,
              19.55593991892245
            ],
            [
              73.51683014315431,
              19.556721536764634
            ],
            [
              73.51635806401644,
              19.55758295177609
            ],
            [
              73.5157410972192,
              19.558573779692964
            ],
            [
              73.51437595943878,
              19.56026870434567
            ],
            [
              73.51282465319188,
              19.56146152959627
            ],
            [
              73.51235223293213,
              19.561941676659224
            ],
            [
              73.51230718579353,
              19.561972312570273
            ],
            [
              73.51209357797427,
              19.56220552176471
            ],
            [
              73.51063271956718,
              19.56328287236578
            ],
            [
              73.50897825865597,
              19.564073568683543
            ],
            [
              73.50773457043834,
              19.564403840745975
            ],
            [
              73.5071974229621,
              19.564795229940913
            ],
            [
              73.50551166275258,
              19.565582353129443
            ],
            [
              73.50509146248805,
              19.565861758935267
            ],
            [
              73.50340381863144,
              19.56657289065935
            ],
            [
              73.50160232488689,
              19.56696409732195
            ],
            [
              73.49975458097816,
              19.567020699048562
            ],
            [
              73.49792992299935,
              19.56674057186597
            ],
            [
              73.49619682033067,
              19.566134227443804
            ],
            [
              73.49462030515603,
              19.565224418459163
            ],
            [
              73.49325953126247,
              19.564045284427937
            ],
            [
              73.49216555390312,
              19.562641070127622
            ],
            [
              73.49137941413497,
              19.561064464800435
            ],
            [
              73.49121313552325,
              19.560624656559227
            ],
            [
              73.49083729347616,
              19.559333628985563
            ],
            [
              73.49066900468351,
              19.55800433246562
            ],
            [
              73.4906583181023,
              19.55777683189578
            ],
            [
              73.49077312123809,
              19.55593335325077
            ],
            [
              73.49081962662041,
              19.55577143544336
            ],
            [
              73.48971233365405,
              19.555658174567807
            ],
            [
              73.48776017914581,
              19.555039660613378
            ],
            [
              73.48692334580063,
              19.554675642214928
            ],
            [
              73.48515237032225,
              19.55367317816697
            ],
            [
              73.48475848397663,
              19.553321924750414
            ],
            [
              73.48399973253782,
              19.552806409943955
            ],
            [
              73.48265158525959,
              19.55140124702993
            ],
            [
              73.48187365358191,
              19.55013280911197
            ],
            [
              73.48165498638447,
              19.550254401628795
            ],
            [
              73.47993416675783,
              19.550830642358484
            ],
            [
              73.47812836746083,
              19.551087425679285
            ],
            [
              73.47630372571977,
              19.55101534688722
            ],
            [
              73.47452706920701,
              19.55061704587119
            ],
            [
              73.4728634672815,
              19.549907110380328
            ],
            [
              73.4713738467827,
              19.54891154149562
            ],
            [
              73.47011275989199,
              19.547666800928976
            ],
            [
              73.46983912010359,
              19.547265009628525
            ],
            [
              73.46977081208516,
              19.54727496748555
            ],
            [
              73.46964740522967,
              19.54728006777134
            ],
            [
              73.46752372548724,
              19.54714390271918
            ],
            [
              73.4674647223593,
              19.547133802166314
            ],
            [
              73.46534698277792,
              19.54652527760837
            ],
            [
              73.46525544206003,
              19.54647490797243
            ],
            [
              73.46511591379289,
              19.546444559577633
            ],
            [
              73.46492145417966,
              19.546355979723813
            ],
            [
              73.46487430999517,
              19.546337288425686
            ],
            [
              73.46434854681675,
              19.546109444299677
            ],
            [
              73.46411674884256,
              19.54603016438284
            ],
            [
              73.46295059210134,
              19.546503013134842
            ],
            [
              73.46116120829443,
              19.546869726001628
            ],
            [
              73.45933043860157,
              19.546907591530406
            ],
            [
              73.45807265789621,
              19.546703826628963
            ],
            [
              73.45751410325573,
              19.547031628193817
            ],
            [
              73.4559401304021,
              19.547622696589272
            ],
            [
              73.45428003785842,
              19.547942130720653
            ],
            [
              73.45258616290702,
              19.54797985980714
            ],
            [
              73.45246275607526,
              19.54797225938482
            ],
            [
              73.45188009459245,
              19.5478808014307
            ],
            [
              73.45113265790492,
              19.547824623645845
            ],
            [
              73.44965836338994,
              19.54748645933228
            ],
            [
              73.44964226263046,
              19.547481459067697
            ],
            [
              73.44941298204404,
              19.547388079644968
            ],
            [
              73.44819077154622,
              19.54775024274261
            ],
            [
              73.44858203450629,
              19.548934987308087
            ],
            [
              73.44858733591079,
              19.548960187035178
            ],
            [
              73.44869543868614,
              19.54995400653848
            ],
            [
              73.44936356157861,
              19.549875919787045
            ],
            [
              73.44937829516743,
              19.549875390682637
            ],
            [
              73.45006981890208,
              19.549676704430134
            ],
            [
              73.45197524049954,
              19.549505527510938
            ],
            [
              73.45387858916011,
              19.54969608775419
            ],
            [
              73.45394298580048,
              19.54970878706156
            ],
            [
              73.45551519848937,
              19.550154810321537
            ],
            [
              73.45698302420938,
              19.550848176122482
            ],
            [
              73.45701792317699,
              19.5508683751633
            ],
            [
              73.4585901415198,
              19.55200600181175
            ],
            [
              73.45987907352195,
              19.553425145845868
            ],
            [
              73.46082910980012,
              19.55506458894743
            ],
            [
              73.46139925622703,
              19.556853607667932
            ],
            [
              73.46140995920189,
              19.55690670711549
            ],
            [
              73.46156091971227,
              19.559116144003664
            ],
            [
              73.46155552476787,
              19.559202044286177
            ],
            [
              73.46123572892938,
              19.561037605529993
            ],
            [
              73.46120353480465,
              19.561148807160865
            ],
            [
              73.46105634219128,
              19.561532699039894
            ],
            [
              73.462059581579,
              19.5621307396013
            ],
            [
              73.46335421177405,
              19.56326639742159
            ],
            [
              73.46440422483009,
              19.56460765440794
            ],
            [
              73.46517355346265,
              19.56610844750039
            ],
            [
              73.46563576766496,
              19.567717233312827
            ],
            [
              73.46564647095717,
              19.56777543275843
            ],
            [
              73.4657845981389,
              19.569125682005303
            ],
            [
              73.46578730546216,
              19.569249481862183
            ],
            [
              73.46568132781515,
              19.570783827545007
            ],
            [
              73.46529949816568,
              19.572278736907702
            ],
            [
              73.46526730270868,
              19.572369738511565
            ],
            [
              73.46433143406863,
              19.574254044655447
            ],
            [
              73.46296104953318,
              19.575885305479733
            ],
            [
              73.46284034953256,
              19.57599900996278
            ],
            [
              73.46113493474401,
              19.577274636966784
            ],
            [
              73.46037633252999,
              19.577613190403792
            ],
            [
              73.46012599225197,
              19.57773912766491
            ],
            [
              73.4601399728899,
              19.57776615009116
            ],
            [
              73.45982076068883,
              19.577912757439993
            ],
            [
              73.45965777515411,
              19.57797466952581
            ],
            [
              73.45915564511364,
              19.578227269567133
            ],
            [
              73.45849648254328,
              19.578422382634674
            ],
            [
              73.45831634410419,
              19.578495811904638
            ],
            [
              73.45809587137306,
              19.579263927553722
            ],
            [
              73.45862970853602,
              19.579753511813035
            ],
            [
              73.45864580874728,
              19.57977121117072
            ],
            [
              73.45962693024576,
              19.5810660080869
            ],
            [
              73.46035055721349,
              19.582503425769346
            ],
            [
              73.46079403895293,
              19.584038484846918
            ],
            [
              73.46094348963071,
              19.585623149260815
            ],
            [
              73.46094349247402,
              19.585671149260502
            ],
            [
              73.46063455618236,
              19.58794109261515
            ],
            [
              73.46060236239568,
              19.58805739425165
            ],
            [
              73.46043858392224,
              19.58855956447707
            ],
            [
              73.46032141677475,
              19.5896676304251
            ],
            [
              73.4603133188868,
              19.58970553084214
            ],
            [
              73.4602318922468,
              19.58995696868478
            ],
            [
              73.46022823992348,
              19.590104102253985
            ],
            [
              73.46022014449689,
              19.590182402677144
            ],
            [
              73.46020417542054,
              19.590180937251127
            ],
            [
              73.46005139376622,
              19.59142934502083
            ],
            [
              73.45951236616285,
              19.59304904412369
            ],
            [
              73.4586598725735,
              19.5945444670193
            ],
            [
              73.45752427763408,
              19.595862334425256
            ],
            [
              73.4561460352638,
              19.59695569183319
            ],
            [
              73.45457424778363,
              19.59778558297313
            ],
            [
              73.4528649163698,
              19.598322438341754
            ],
            [
              73.4516820554754,
              19.59858015234789
            ],
            [
              73.45000598446968,
              19.598800273434346
            ],
            [
              73.44831499082147,
              19.598738115942826
            ],
            [
              73.44666222301149,
              19.598395633503927
            ],
            [
              73.44509962748374,
              19.597783590413776
            ],
            [
              73.44504332546481,
              19.59775578904018
            ],
            [
              73.4450326098869,
              19.59774902514799
            ],
            [
              73.4431675112909,
              19.59825313017164
            ],
            [
              73.44314871027233,
              19.598255630309612
            ],
            [
              73.44119487750095,
              19.598324938481586
            ],
            [
              73.4400995755457,
              19.598150418684863
            ],
            [
              73.43987106041708,
              19.59811849037381
            ],
            [
              73.43822105259079,
              19.598344991353347
            ],
            [
              73.43815944916207,
              19.59834759149761
            ],
            [
              73.43654219447129,
              19.598286451820133
            ],
            [
              73.43495915436691,
              19.597968788211965
            ],
            [
              73.43347193868466,
              19.597409783882185
            ],
            [
              73.43317171344879,
              19.59744587145919
            ],
            [
              73.43129170472217,
              19.59732016943326
            ],
            [
              73.42947456134507,
              19.59684893114432
            ],
            [
              73.4277911259889,
              19.596050528386034
            ],
            [
              73.42630702619634,
              19.59495608748798
            ],
            [
              73.4250801151071,
              19.59360827530429
            ],
            [
              73.42415821589452,
              19.592059635205484
            ],
            [
              73.42357725790343,
              19.59037053806856
            ],
            [
              73.42335987709814,
              19.588606828269835
            ],
            [
              73.42335718607576,
              19.588455228131117
            ],
            [
              73.42343386324707,
              19.587157440702292
            ],
            [
              73.42344456777704,
              19.587079041261514
            ],
            [
              73.42385657249481,
              19.58538205865328
            ],
            [
              73.42460786648516,
              19.583791650147376
            ],
            [
              73.424653469135,
              19.58371585223272
            ],
            [
              73.42550763247587,
              19.582601863731014
            ],
            [
              73.42557358225775,
              19.582284286370506
            ],
            [
              73.42557888318625,
              19.582266586638806
            ],
            [
              73.42584893722844,
              19.581621078240076
            ],
            [
              73.42587888063646,
              19.581531210344984
            ],
            [
              73.42590838514299,
              19.581442711825144
            ],
            [
              73.42609915475094,
              19.581022979965272
            ],
            [
              73.42628086873172,
              19.580588623616592
            ],
            [
              73.4263268909547,
              19.58052191096321
            ],
            [
              73.42666044243299,
              19.579788019281285
            ],
            [
              73.42671674588831,
              19.579692021871388
            ],
            [
              73.4267569481497,
              19.57963572165277
            ],
            [
              73.42680246844085,
              19.579505265544416
            ],
            [
              73.42681056922423,
              19.57948756593544
            ],
            [
              73.42740595740514,
              19.57857815103164
            ],
            [
              73.42749023892772,
              19.578386275294594
            ],
            [
              73.42751704074647,
              19.578338276541267
            ],
            [
              73.42800304269062,
              19.577666131642722
            ],
            [
              73.42802472662774,
              19.577633010228297
            ],
            [
              73.42679365207998,
              19.576964203933453
            ],
            [
              73.42527381507887,
              19.57565965583739
            ],
            [
              73.42464197336011,
              19.574818867416205
            ],
            [
              73.42328807327311,
              19.57605999275549
            ],
            [
              73.42170102190839,
              19.577025670251018
            ],
            [
              73.41994317511508,
              19.577677901631635
            ],
            [
              73.41808340772405,
              19.577991130984266
            ],
            [
              73.4161945899503,
              19.57795308516303
            ],
            [
              73.4143507308354,
              19.577565254913072
            ],
            [
              73.41262407696034,
              19.576842836429705
            ],
            [
              73.41117587820038,
              19.575876585715466
            ],
            [
              73.41003076577702,
              19.575472342827208
            ],
            [
              73.41000396477325,
              19.57545974219806
            ],
            [
              73.40960386261844,
              19.57526033049643
            ],
            [
              73.40931145285431,
              19.57510612298891
            ],
            [
              73.40721792698197,
              19.573611875754068
            ],
            [
              73.40720722698404,
              19.57360177535626
            ],
            [
              73.40598348571092,
              19.57218370623179
            ],
            [
              73.40508931788288,
              19.57056180095144
            ],
            [
              73.40508401846768,
              19.570549200692984
            ],
            [
              73.40461131074167,
              19.569061139470776
            ],
            [
              73.4044940700354,
              19.568128467478598
            ],
            [
              73.40445304748606,
              19.56799574041648
            ],
            [
              73.40440206430848,
              19.56770003778279
            ],
            [
              73.40427892290339,
              19.566336699314313
            ],
            [
              73.40427633935475,
              19.56605869918807
            ],
            [
              73.40429764568967,
              19.56569301634519
            ],
            [
              73.40330699505378,
              19.566567981715497
            ],
            [
              73.40162935795375,
              19.567530440702757
            ],
            [
              73.40139527916374,
              19.567608646987388
            ],
            [
              73.40114561485846,
              19.567751889016364
            ],
            [
              73.39927355044874,
              19.568373101545305
            ],
            [
              73.39920644701557,
              19.568388202361415
            ],
            [
              73.3973721760821,
              19.568626966959446
            ],
            [
              73.39609094763685,
              19.568558029196797
            ],
            [
              73.39583180860633,
              19.568723603757938
            ],
            [
              73.39580760779192,
              19.568736304375758
            ],
            [
              73.39433549282425,
              19.569361542351018
            ],
            [
              73.39277257614584,
              19.569743991092714
            ],
            [
              73.39116359902351,
              19.569872702214855
            ],
            [
              73.39114759813125,
              19.569872702214084
            ],
            [
              73.38918545796382,
              19.569680604899638
            ],
            [
              73.38730715044866,
              19.569112520707975
            ],
            [
              73.38559292466778,
              19.568192720952457
            ],
            [
              73.38411601623982,
              19.566960503395993
            ],
            [
              73.38293951763853,
              19.565468512574512
            ],
            [
              73.38211368271871,
              19.563780489825753
            ],
            [
              73.38167378064179,
              19.561968549323073
            ],
            [
              73.38166298546864,
              19.561885148764624
            ],
            [
              73.38160642558606,
              19.56031562074111
            ],
            [
              73.38184047936106,
              19.558760751761014
            ],
            [
              73.38186728528449,
              19.558652053137717
            ],
            [
              73.38222941581739,
              19.557524489205488
            ],
            [
              73.38225361870221,
              19.557463790398025
            ],
            [
              73.38282742106695,
              19.5562890747477
            ],
            [
              73.38292932735554,
              19.55611467944176
            ],
            [
              73.38386448857572,
              19.55480232124402
            ],
            [
              73.38392078962312,
              19.554736623545452
            ],
            [
              73.3840542688643,
              19.554599058581484
            ]
          ]
        ]
      }
    }
  ]
}