{
  "type": "FeatureCollection",
  "features": [
    {
      "type": "Feature",
      "properties": {
        "body_id": "chembarambakkam",
        "buffer_metres": 1000,
        "source_polygon": "chembarambakkam.geojson",
        "computed_with": "@turf/buffer",
        "fetched_at": "2026-05-19T13:10:27.843Z"
      },
      "geometry": {
        "type": "Polygon",
        "coordinates": [
          [
            [
              80.00976044993841,
              13.01423367271679
            ],
            [
              80.0097361378493,
              13.013659464353575
            ],
            [
              80.01000420498872,
              13.011948702848086
            ],
            [
              80.01060361728169,
              13.01031964221955
            ],
            [
              80.01151217291314,
              13.008832604810417
            ],
            [
              80.01219728545328,
              13.007923424333283
            ],
            [
              80.01386706891014,
              13.006226634276809
            ],
            [
              80.01446876278433,
              13.005757047562234
            ],
            [
              80.01595144052217,
              13.004812156833633
            ],
            [
              80.01702505995755,
              13.004385836367632
            ],
            [
              80.01719868590352,
              13.004211336129453
            ],
            [
              80.01866600057413,
              13.003218381776323
            ],
            [
              80.01960128022102,
              13.002708497896373
            ],
            [
              80.02122034016071,
              13.002015014660014
            ],
            [
              80.02155947784254,
              13.001940336341148
            ],
            [
              80.02273244348095,
              13.000961883724502
            ],
            [
              80.02453055991235,
              13.000033820823898
            ],
            [
              80.02649367397696,
              12.99951219684017
            ],
            [
              80.0280067624548,
              12.999280652430356
            ],
            [
              80.02817277600275,
              12.999188129083777
            ],
            [
              80.02921176135871,
              12.998025159202244
            ],
            [
              80.03099945912979,
              12.996533247807136
            ],
            [
              80.03052095844224,
              12.995295724538126
            ],
            [
              80.03025222183737,
              12.993188326822082
            ],
            [
              80.03024642241165,
              12.99211763253051
            ],
            [
              80.02873797713845,
              12.990945069496494
            ],
            [
              80.02750259882272,
              12.989473475839645
            ],
            [
              80.02661232559971,
              12.987781705942265
            ],
            [
              80.02610694065284,
              12.985945373036381
            ],
            [
              80.02600902289909,
              12.984046549835586
            ],
            [
              80.02632293930097,
              12.982170100094693
            ],
            [
              80.0266229746525,
              12.981103310327669
            ],
            [
              80.02680764106482,
              12.980662088779237
            ],
            [
              80.02681893733157,
              12.980349120914386
            ],
            [
              80.02713303596349,
              12.978866959315287
            ],
            [
              80.02769774108025,
              12.977457109794743
            ],
            [
              80.02819276593785,
              12.976474525493389
            ],
            [
              80.02915590371529,
              12.974962365590237
            ],
            [
              80.03040575783069,
              12.97366463692866
            ],
            [
              80.03189337853837,
              12.972632160022604
            ],
            [
              80.0325054940736,
              12.972365307039109
            ],
            [
              80.03359969787766,
              12.971438201561892
            ],
            [
              80.0348012794777,
              12.970622825795035
            ],
            [
              80.03631670286899,
              12.969789287815201
            ],
            [
              80.03796574652799,
              12.96924777616536
            ],
            [
              80.03968978397177,
              12.96901754234308
            ],
            [
              80.04142752341616,
              12.969106771446612
            ],
            [
              80.04311718610867,
              12.96951229127551
            ],
            [
              80.0446987019463,
              12.970219685070344
            ],
            [
              80.04611584444375,
              12.971203803889649
            ],
            [
              80.04731822925902,
              12.972429660436362
            ],
            [
              80.04761142945787,
              12.972871541302545
            ],
            [
              80.04833619347616,
              12.973200216896233
            ],
            [
              80.04951726870773,
              12.97386279609069
            ],
            [
              80.04956929531055,
              12.973898590951626
            ],
            [
              80.050723591714,
              12.97395538892325
            ],
            [
              80.0509905418177,
              12.973993865521019
            ],
            [
              80.05127947769718,
              12.974024885747458
            ],
            [
              80.05318847820647,
              12.974432694816047
            ],
            [
              80.05496656130804,
              12.975223071328609
            ],
            [
              80.05653399636307,
              12.976360574898097
            ],
            [
              80.05704666572527,
              12.976931876342592
            ],
            [
              80.05824186307738,
              12.976566426438307
            ],
            [
              80.05965511472894,
              12.976299735935296
            ],
            [
              80.0616668615689,
              12.976139185636958
            ],
            [
              80.06366631300041,
              12.976408649160161
            ],
            [
              80.06514566435655,
              12.976772136404465
            ],
            [
              80.06668596763728,
              12.97729546881619
            ],
            [
              80.06810766443319,
              12.9780748811001
            ],
            [
              80.06936634111945,
              12.979086025234688
            ],
            [
              80.07042267533262,
              12.9802973138017
            ],
            [
              80.07124366434488,
              12.981670906512518
            ],
            [
              80.07223081806339,
              12.98371997493985
            ],
            [
              80.07275929706115,
              12.98510125820881
            ],
            [
              80.0730491024054,
              12.986548112622497
            ],
            [
              80.07321712508251,
              12.988021007339906
            ],
            [
              80.07376042763295,
              12.988096883010085
            ],
            [
              80.07537177979826,
              12.988629378754759
            ],
            [
              80.07575023098504,
              12.988836420490761
            ],
            [
              80.07703733661664,
              12.988790278080755
            ],
            [
              80.0789230253256,
              12.988911315117509
            ],
            [
              80.08051607005173,
              12.989175105728659
            ],
            [
              80.08210772756509,
              12.989583722904342
            ],
            [
              80.08359959199335,
              12.990261325361347
            ],
            [
              80.08394028489566,
              12.990453819330696
            ],
            [
              80.08536295461278,
              12.991444167204337
            ],
            [
              80.08593055077944,
              12.991924554061356
            ],
            [
              80.0871100404211,
              12.993126461798933
            ],
            [
              80.08732709834047,
              12.993450799997202
            ],
            [
              80.08820580213857,
              12.994218096265753
            ],
            [
              80.08934071114275,
              12.995405692438444
            ],
            [
              80.0902381291426,
              12.996772677085481
            ],
            [
              80.09089515886012,
              12.99800615646182
            ],
            [
              80.09130316314861,
              12.998884250597646
            ],
            [
              80.09152707959959,
              12.999444243213683
            ],
            [
              80.09202636054627,
              13.001202678158192
            ],
            [
              80.09215113314326,
              13.003023112107611
            ],
            [
              80.09189625385793,
              13.00483062028093
            ],
            [
              80.0916356894587,
              13.005876429195462
            ],
            [
              80.09146129859496,
              13.006482882796478
            ],
            [
              80.08777645824821,
              13.017760406564701
            ],
            [
              80.08751545706573,
              13.018458100374943
            ],
            [
              80.08076290232096,
              13.034425276472348
            ],
            [
              80.0795789043553,
              13.037853554424968
            ],
            [
              80.07900310251296,
              13.03916571949812
            ],
            [
              80.0782214917064,
              13.040372630686381
            ],
            [
              80.0770552117106,
              13.041891463694554
            ],
            [
              80.0763018651016,
              13.042753553305536
            ],
            [
              80.0753593668158,
              13.043703777269423
            ],
            [
              80.07395514377109,
              13.044862362235438
            ],
            [
              80.07234292127013,
              13.04572658584024
            ],
            [
              80.07058676587489,
              13.046262104554664
            ],
            [
              80.068940309804,
              13.046593116345168
            ],
            [
              80.06735408497048,
              13.046774580930347
            ],
            [
              80.06587633136269,
              13.046818182532258
            ],
            [
              80.0657046424817,
              13.046821690993498
            ],
            [
              80.06417398688878,
              13.046839091643742
            ],
            [
              80.06266039783125,
              13.046734796162275
            ],
            [
              80.06118479619184,
              13.046390356452926
            ],
            [
              80.06012786364649,
              13.046052044796026
            ],
            [
              80.05837005769432,
              13.04528317199289
            ],
            [
              80.05681439329025,
              13.04417555729724
            ],
            [
              80.05552864897426,
              13.042777460449066
            ],
            [
              80.05456883994009,
              13.04114979683907
            ],
            [
              80.05397677778473,
              13.039363482852462
            ],
            [
              80.05377824967726,
              13.037496345596365
            ],
            [
              80.05391999575183,
              13.036197110781966
            ],
            [
              80.05370402504116,
              13.034964958404794
            ],
            [
              80.05361098888724,
              13.033949560431468
            ],
            [
              80.05343420136612,
              13.032891760604445
            ],
            [
              80.05313052089386,
              13.032864881810685
            ],
            [
              80.05244839756061,
              13.032733077121634
            ],
            [
              80.05175406880592,
              13.03257149651112
            ],
            [
              80.05072633570147,
              13.032290986712615
            ],
            [
              80.05018233965389,
              13.032072274567
            ],
            [
              80.05008289554779,
              13.032189864412652
            ],
            [
              80.04843465290148,
              13.033425517366755
            ],
            [
              80.04792794288511,
              13.03372342662
            ],
            [
              80.04623540502887,
              13.034502528004635
            ],
            [
              80.04441632541091,
              13.034932935240905
            ],
            [
              80.04254551823742,
              13.03499694664643
            ],
            [
              80.0406999258282,
              13.03469192956947
            ],
            [
              80.03895545314319,
              13.0340304286983
            ],
            [
              80.03738384504044,
              13.033039649964326
            ],
            [
              80.03604973489036,
              13.031760341297796
            ],
            [
              80.03500798607814,
              13.030245116335323
            ],
            [
              80.03430143581016,
              13.02855629011138
            ],
            [
              80.03421375758549,
              13.028097034736115
            ],
            [
              80.03302864793227,
              13.028565377020422
            ],
            [
              80.03136654251247,
              13.02889584493416
            ],
            [
              80.02967043039709,
              13.028924396015595
            ],
            [
              80.02864501259631,
              13.02884958532177
            ],
            [
              80.02839792730875,
              13.02895908618373
            ],
            [
              80.02677549297292,
              13.029355059960517
            ],
            [
              80.0251063484766,
              13.029459294814338
            ],
            [
              80.02367359653506,
              13.029421993429024
            ],
            [
              80.02189026353071,
              13.029205047659987
            ],
            [
              80.02132404412049,
              13.029022710507624
            ],
            [
              80.02089559683196,
              13.029006540129382
            ],
            [
              80.01920313719114,
              13.028625353152226
            ],
            [
              80.01761395537609,
              13.027941987417666
            ],
            [
              80.01656973267217,
              13.027373069387489
            ],
            [
              80.01524295925208,
              13.02649460677107
            ],
            [
              80.0140923337117,
              13.025405615248024
            ],
            [
              80.01315260617972,
              13.024138985928536
            ],
            [
              80.01307949973834,
              13.024019860134883
            ],
            [
              80.01194610649871,
              13.023044623986166
            ],
            [
              80.01086045084313,
              13.021663658034633
            ],
            [
              80.0100679924766,
              13.020104889739809
            ],
            [
              80.00959837523702,
              13.018426639928878
            ],
            [
              80.0095409868956,
              13.018099537939882
            ],
            [
              80.00941251372609,
              13.01633688540207
            ],
            [
              80.00964028088787,
              13.014583783747614
            ],
            [
              80.00976044993841,
              13.01423367271679
            ]
          ]
        ]
      }
    }
  ]
}