{
  "nvdm": "1.0",
  "dataset": "geojson-layers/buffer-1000m",
  "scope": {
    "kind": "city",
    "id": "hyderabad"
  },
  "provenance": {
    "sources": [
      {
        "id": "osm-overpass",
        "title": "OpenStreetMap body polygon (Overpass relation/way extract)",
        "publisher": "OpenStreetMap contributors",
        "license": "ODbL 1.0",
        "role": "input"
      }
    ],
    "method": "derived",
    "produced_at": "2026-08-24",
    "internal_inputs": [],
    "produced_by": "scripts/fetch-rich-body-polygon.ts",
    "note": "1 km Minkowski offset of the body polygon (@turf/buffer), not a circle from the centroid; derived in-memory from the same Overpass fetch, hence internal_inputs []."
  },
  "type": "FeatureCollection",
  "features": [
    {
      "type": "Feature",
      "properties": {
        "body_id": "durgam-cheruvu",
        "buffer_metres": 1000,
        "source_polygon": "durgam-cheruvu.geojson",
        "computed_with": "@turf/buffer",
        "fetched_at": "2026-08-24T18:34:17.442Z"
      },
      "geometry": {
        "type": "Polygon",
        "coordinates": [
          [
            [
              78.37942020619606,
              17.435047357348108
            ],
            [
              78.37897002713672,
              17.434633526457148
            ],
            [
              78.3788708282565,
              17.434523522921552
            ],
            [
              78.3779388123232,
              17.433293631683284
            ],
            [
              78.37723684932443,
              17.431931726581475
            ],
            [
              78.37678492639563,
              17.43047659574938
            ],
            [
              78.37671514201433,
              17.43015409253799
            ],
            [
              78.37652339498236,
              17.428559693395165
            ],
            [
              78.37663172768455,
              17.426958164856988
            ],
            [
              78.37703668249293,
              17.42540050763847
            ],
            [
              78.37709038887276,
              17.425252110025987
            ],
            [
              78.37794248853295,
              17.42352079957074
            ],
            [
              78.37915903680711,
              17.422000569820355
            ],
            [
              78.3799351363469,
              17.42136971617606
            ],
            [
              78.3799153393231,
              17.421348414631364
            ],
            [
              78.38055353394518,
              17.42080845906292
            ],
            [
              78.38084967154043,
              17.420541070434183
            ],
            [
              78.38160491248317,
              17.41992768980817
            ],
            [
              78.38201150586197,
              17.419631201414862
            ],
            [
              78.38370612546397,
              17.41868302714662
            ],
            [
              78.38377092660217,
              17.418643676902743
            ],
            [
              78.38380947778315,
              17.41862519863167
            ],
            [
              78.38399362038489,
              17.418522165469852
            ],
            [
              78.38421511761207,
              17.41843076752499
            ],
            [
              78.38547351403852,
              17.417827585638815
            ],
            [
              78.38731331863615,
              17.417354867770694
            ],
            [
              78.38758040599618,
              17.41731326979317
            ],
            [
              78.38769236397002,
              17.417296491303563
            ],
            [
              78.38855902271463,
              17.417171697382763
            ],
            [
              78.39059684556605,
              17.41709118713863
            ],
            [
              78.39260511434185,
              17.417430821999986
            ],
            [
              78.3935652268267,
              17.41780977714271
            ],
            [
              78.39375425509067,
              17.41782953854346
            ],
            [
              78.39538699446555,
              17.41829469492136
            ],
            [
              78.39542047257834,
              17.418307478142147
            ],
            [
              78.39623412174349,
              17.418443364660398
            ],
            [
              78.39809073530097,
              17.419163943198555
            ],
            [
              78.39816313306473,
              17.419201041588362
            ],
            [
              78.39981354527995,
              17.42027618127986
            ],
            [
              78.40118932069308,
              17.421659136770334
            ],
            [
              78.40222861387437,
              17.42328774673533
            ],
            [
              78.40230641958968,
              17.423445143426214
            ],
            [
              78.40243489070993,
              17.423716594683153
            ],
            [
              78.40253679939516,
              17.423941790283447
            ],
            [
              78.40268986360782,
              17.424301128980773
            ],
            [
              78.40281057605299,
              17.42460302367677
            ],
            [
              78.40314002560137,
              17.42559622852845
            ],
            [
              78.40318293315485,
              17.425757526572202
            ],
            [
              78.40345223080844,
              17.42737890923266
            ],
            [
              78.40340813300524,
              17.42901998459525
            ],
            [
              78.40339473850408,
              17.429128685220025
            ],
            [
              78.40307399757314,
              17.43062330207407
            ],
            [
              78.40249306984698,
              17.432044685711116
            ],
            [
              78.40166866850156,
              17.43335192894125
            ],
            [
              78.40160167026072,
              17.433440231492774
            ],
            [
              78.40120742472513,
              17.43388413244475
            ],
            [
              78.40119698660163,
              17.43400772828412
            ],
            [
              78.4011732765897,
              17.43468464987622
            ],
            [
              78.40105154102369,
              17.435216027915303
            ],
            [
              78.4010634606818,
              17.43567002367146
            ],
            [
              78.4007287567747,
              17.43828067408294
            ],
            [
              78.40071805848316,
              17.438317774567857
            ],
            [
              78.40010725013835,
              17.43986380221006
            ],
            [
              78.39921027963368,
              17.441277130400174
            ],
            [
              78.39805741751408,
              17.442510052976015
            ],
            [
              78.39803661741605,
              17.442528553643033
            ],
            [
              78.39642674632154,
              17.443680306499424
            ],
            [
              78.39639184536578,
              17.443700107338373
            ],
            [
              78.3947094360377,
              17.444451444699684
            ],
            [
              78.39290524292355,
              17.444873431591297
            ],
            [
              78.39286704109705,
              17.44487863184512
            ],
            [
              78.3915355008453,
              17.444968803636264
            ],
            [
              78.39150199919365,
              17.4449688036363
            ],
            [
              78.39088686876259,
              17.444914504909026
            ],
            [
              78.39080772983328,
              17.44492474791925
            ],
            [
              78.3905502174212,
              17.44495484939202
            ],
            [
              78.39016030937638,
              17.444992596289605
            ],
            [
              78.38995459933298,
              17.445008397065887
            ],
            [
              78.38823372598625,
              17.444990217958086
            ],
            [
              78.3865449990418,
              17.44467386163768
            ],
            [
              78.38494470999584,
              17.44406987348577
            ],
            [
              78.38348620114647,
              17.443198386615176
            ],
            [
              78.38221808693667,
              17.442088450490996
            ],
            [
              78.38212998756134,
              17.44199584742331
            ],
            [
              78.38156975451558,
              17.441276956953455
            ],
            [
              78.38137170681263,
              17.441078598651085
            ],
            [
              78.38113556077506,
              17.440719795017262
            ],
            [
              78.3810327644233,
              17.440587885030748
            ],
            [
              78.38098287339072,
              17.440487798743867
            ],
            [
              78.38036878192648,
              17.439554728727735
            ],
            [
              78.3797039286239,
              17.437870877887573
            ],
            [
              78.37940375397125,
              17.436094457240554
            ],
            [
              78.37938516923421,
              17.435797456369365
            ],
            [
              78.37942020619606,
              17.435047357348108
            ]
          ]
        ]
      }
    }
  ]
}