{
  "nvdm": "1.0",
  "dataset": "geojson-layers/polygon",
  "scope": {
    "kind": "city",
    "id": "bangalore"
  },
  "provenance": {
    "sources": [
      {
        "id": "osm-overpass",
        "title": "OpenStreetMap body polygon (Overpass relation/way extract)",
        "publisher": "OpenStreetMap contributors",
        "license": "ODbL 1.0"
      }
    ],
    "method": "api",
    "produced_at": "2026-06-03",
    "produced_by": "scripts/fetch-rich-body-polygon.ts"
  },
  "type": "FeatureCollection",
  "features": [
    {
      "type": "Feature",
      "geometry": {
        "type": "MultiPolygon",
        "coordinates": [
          [
            [
              [
                77.5837702,
                13.0455917
              ],
              [
                77.5839009,
                13.0453679
              ],
              [
                77.5840511,
                13.0448348
              ],
              [
                77.5844588,
                13.0446467
              ],
              [
                77.5846519,
                13.0446467
              ],
              [
                77.5846626,
                13.0445213
              ],
              [
                77.5850382,
                13.0445004
              ],
              [
                77.5853493,
                13.0444585
              ],
              [
                77.5854351,
                13.0443436
              ],
              [
                77.5857141,
                13.0444481
              ],
              [
                77.5865187,
                13.0446989
              ],
              [
                77.5871088,
                13.0448662
              ],
              [
                77.58742,
                13.044793
              ],
              [
                77.5875809,
                13.044678
              ],
              [
                77.5878277,
                13.0444481
              ],
              [
                77.5881281,
                13.0439464
              ],
              [
                77.5883963,
                13.043497
              ],
              [
                77.5885465,
                13.0433506
              ],
              [
                77.5890241,
                13.0433598
              ],
              [
                77.5890937,
                13.0433611
              ],
              [
                77.5897803,
                13.043382
              ],
              [
                77.5902095,
                13.0435701
              ],
              [
                77.590306,
                13.0437896
              ],
              [
                77.5902524,
                13.0440718
              ],
              [
                77.5902666,
                13.044141
              ],
              [
                77.5902846,
                13.0442286
              ],
              [
                77.5904348,
                13.0443331
              ],
              [
                77.590471,
                13.0444531
              ],
              [
                77.5904884,
                13.0445108
              ],
              [
                77.5905528,
                13.0449184
              ],
              [
                77.5906493,
                13.0457546
              ],
              [
                77.5907244,
                13.0469984
              ],
              [
                77.5907566,
                13.0474164
              ],
              [
                77.5909283,
                13.0478763
              ],
              [
                77.5910892,
                13.0479181
              ],
              [
                77.591255,
                13.0479075
              ],
              [
                77.5914967,
                13.0479008
              ],
              [
                77.5916775,
                13.0479187
              ],
              [
                77.591728,
                13.048042
              ],
              [
                77.5916935,
                13.048153
              ],
              [
                77.5916244,
                13.0481934
              ],
              [
                77.5911825,
                13.0482472
              ],
              [
                77.5907781,
                13.0482108
              ],
              [
                77.5905742,
                13.0482735
              ],
              [
                77.5903275,
                13.0482735
              ],
              [
                77.5901665,
                13.0482108
              ],
              [
                77.5900807,
                13.0480645
              ],
              [
                77.589909,
                13.047845
              ],
              [
                77.5897052,
                13.0478554
              ],
              [
                77.589555,
                13.0479704
              ],
              [
                77.589319,
                13.0481376
              ],
              [
                77.5888684,
                13.0482108
              ],
              [
                77.5886752,
                13.0483153
              ],
              [
                77.5879993,
                13.0484407
              ],
              [
                77.587538,
                13.0486289
              ],
              [
                77.5870659,
                13.0488379
              ],
              [
                77.5865187,
                13.0490678
              ],
              [
                77.5857892,
                13.0493396
              ],
              [
                77.5851776,
                13.0496636
              ],
              [
                77.5843516,
                13.0499876
              ],
              [
                77.5837272,
                13.0503301
              ],
              [
                77.5820804,
                13.0508057
              ],
              [
                77.5814259,
                13.0510304
              ],
              [
                77.581147,
                13.0509572
              ],
              [
                77.5809967,
                13.0508004
              ],
              [
                77.5811577,
                13.0507273
              ],
              [
                77.5814795,
                13.0506071
              ],
              [
                77.58156,
                13.0504451
              ],
              [
                77.5816834,
                13.0490289
              ],
              [
                77.581737,
                13.0487519
              ],
              [
                77.5822145,
                13.0478949
              ],
              [
                77.5822467,
                13.047482
              ],
              [
                77.5825363,
                13.0470901
              ],
              [
                77.5826704,
                13.0473148
              ],
              [
                77.5828314,
                13.0480307
              ],
              [
                77.5828314,
                13.0485272
              ],
              [
                77.5827751,
                13.0488695
              ],
              [
                77.5827536,
                13.0490132
              ],
              [
                77.5827858,
                13.0490994
              ],
              [
                77.5830647,
                13.0493346
              ],
              [
                77.5831211,
                13.0493006
              ],
              [
                77.5830889,
                13.049217
              ],
              [
                77.5828502,
                13.0490759
              ],
              [
                77.5828233,
                13.0489792
              ],
              [
                77.5829226,
                13.0483208
              ],
              [
                77.5828931,
                13.0479654
              ],
              [
                77.5827616,
                13.0473853
              ],
              [
                77.58259,
                13.0469516
              ],
              [
                77.582767,
                13.0467948
              ],
              [
                77.5832176,
                13.0463898
              ],
              [
                77.58351,
                13.0459508
              ],
              [
                77.5835985,
                13.0458045
              ],
              [
                77.5837702,
                13.0455917
              ]
            ],
            [
              [
                77.5847163,
                13.0490156
              ],
              [
                77.5844803,
                13.0488588
              ],
              [
                77.5842979,
                13.0486184
              ],
              [
                77.5842764,
                13.0482317
              ],
              [
                77.5844803,
                13.0480331
              ],
              [
                77.5845339,
                13.0478868
              ],
              [
                77.5847485,
                13.0478972
              ],
              [
                77.5849738,
                13.0480122
              ],
              [
                77.5852635,
                13.0483571
              ],
              [
                77.5853815,
                13.0488379
              ],
              [
                77.5852205,
                13.0490156
              ],
              [
                77.5849416,
                13.0490783
              ],
              [
                77.5847163,
                13.0490156
              ]
            ],
            [
              [
                77.587141,
                13.0469148
              ],
              [
                77.5869586,
                13.0468729
              ],
              [
                77.5868621,
                13.0467789
              ],
              [
                77.5867762,
                13.0466012
              ],
              [
                77.5869372,
                13.0464131
              ],
              [
                77.5870981,
                13.0462458
              ],
              [
                77.5873127,
                13.0461936
              ],
              [
                77.5873985,
                13.0463713
              ],
              [
                77.5874414,
                13.0465489
              ],
              [
                77.5874843,
                13.0468364
              ],
              [
                77.58729,
                13.0469096
              ],
              [
                77.587141,
                13.0469148
              ]
            ],
            [
              [
                77.5890937,
                13.0455246
              ],
              [
                77.5889327,
                13.0455874
              ],
              [
                77.5887503,
                13.0455037
              ],
              [
                77.5886645,
                13.0453052
              ],
              [
                77.5883963,
                13.0450857
              ],
              [
                77.5884392,
                13.0445317
              ],
              [
                77.5887181,
                13.0443227
              ],
              [
                77.5891044,
                13.0444899
              ],
              [
                77.5894799,
                13.0449289
              ],
              [
                77.5894906,
                13.0453156
              ],
              [
                77.5893297,
                13.045441
              ],
              [
                77.5890937,
                13.0455246
              ]
            ]
          ]
        ]
      },
      "properties": {
        "body_id": "hebbal",
        "osm_type": "relation",
        "osm_id": 8754543,
        "name": "Hebbal Lake",
        "name_en": "Hebbal Lake",
        "name_ta": "",
        "ramsar": false,
        "protect_class": null,
        "protection_title": null,
        "start_date": null,
        "wikidata": null,
        "wikipedia": null,
        "area_ha": 45.46,
        "source": "OSM relation 8754543",
        "license": "ODbL 1.0",
        "fetched_at": "2026-05-25T13:56:14.646Z"
      }
    }
  ]
}