{
  "type": "FeatureCollection",
  "features": [
    {
      "type": "Feature",
      "properties": {
        "body_id": "hebbal",
        "buffer_metres": 1000,
        "source_polygon": "hebbal.geojson",
        "computed_with": "@turf/buffer",
        "fetched_at": "2026-05-25T13:56:14.680Z"
      },
      "geometry": {
        "type": "Polygon",
        "coordinates": [
          [
            [
              77.57271206591417,
              13.046917178441534
            ],
            [
              77.57303956390365,
              13.045737337206225
            ],
            [
              77.57345020113966,
              13.04484053080986
            ],
            [
              77.57389947421915,
              13.043641207938325
            ],
            [
              77.57475475617392,
              13.042227660010454
            ],
            [
              77.57492770047482,
              13.041993633633469
            ],
            [
              77.57514564565764,
              13.041633475629396
            ],
            [
              77.5757425662866,
              13.040987325609208
            ],
            [
              77.57587597882898,
              13.04065760889594
            ],
            [
              77.57697992231311,
              13.039053584239129
            ],
            [
              77.57840991919971,
              13.037716149150832
            ],
            [
              77.5801000278977,
              13.036706972535836
            ],
            [
              77.58033770061216,
              13.036597318715758
            ],
            [
              77.58051608253012,
              13.036486408076975
            ],
            [
              77.58227647461324,
              13.035833723649304
            ],
            [
              77.58290426801436,
              13.035735493565328
            ],
            [
              77.5836562354826,
              13.035518950045493
            ],
            [
              77.58420557054414,
              13.03546502797744
            ],
            [
              77.5850973028472,
              13.03500875706709
            ],
            [
              77.58687947445777,
              13.03450525146828
            ],
            [
              77.5887289996845,
              13.034359154020837
            ],
            [
              77.58920381816024,
              13.034368300443742
            ],
            [
              77.5892706514284,
              13.03436954876606
            ],
            [
              77.58938200505209,
              13.03437228346687
            ],
            [
              77.59006858012616,
              13.034393182709143
            ],
            [
              77.59185769217149,
              13.034619476218445
            ],
            [
              77.59356746181345,
              13.035180462848091
            ],
            [
              77.59399665046062,
              13.03536855661154
            ],
            [
              77.59548703049782,
              13.036191529343458
            ],
            [
              77.59679566333298,
              13.037268621509375
            ],
            [
              77.5978774794397,
              13.038562740049978
            ],
            [
              77.59869521874029,
              13.04002931728691
            ],
            [
              77.59879172488864,
              13.040248814142792
            ],
            [
              77.59933685706832,
              13.04192543491673
            ],
            [
              77.5993408888317,
              13.041960712970997
            ],
            [
              77.59934542900481,
              13.0419757667742
            ],
            [
              77.59961232189944,
              13.043142512230842
            ],
            [
              77.59966189023605,
              13.043456166655627
            ],
            [
              77.60025162789327,
              13.044585801448918
            ],
            [
              77.60030213148737,
              13.044709099786052
            ],
            [
              77.60084870042374,
              13.046652669142267
            ],
            [
              77.60093731441212,
              13.048666006082133
            ],
            [
              77.60056351299261,
              13.050648018734186
            ],
            [
              77.60052901659668,
              13.050759019903387
            ],
            [
              77.5998901772998,
              13.052290371435664
            ],
            [
              77.59897441100189,
              13.053681949638593
            ],
            [
              77.5978126530095,
              13.054886739266431
            ],
            [
              77.59644415130083,
              13.05586403519471
            ],
            [
              77.59637504992213,
              13.055904436455148
            ],
            [
              77.59463715557588,
              13.056694221845111
            ],
            [
              77.5927692466366,
              13.05711718230678
            ],
            [
              77.59232733093194,
              13.057170984251014
            ],
            [
              77.59173195657422,
              13.0571803232921
            ],
            [
              77.59057420452577,
              13.05726670362956
            ],
            [
              77.59032749554953,
              13.057266703630432
            ],
            [
              77.59031739562586,
              13.057265765371437
            ],
            [
              77.59017467026979,
              13.057325730064557
            ],
            [
              77.58981657979315,
              13.057467591668756
            ],
            [
              77.58966036112007,
              13.057525796752337
            ],
            [
              77.58958797277774,
              13.0575641452998
            ],
            [
              77.58862582413187,
              13.058005904893271
            ],
            [
              77.58835738048,
              13.058111203359406
            ],
            [
              77.58825672496634,
              13.058166415973963
            ],
            [
              77.58635125058017,
              13.058952361207853
            ],
            [
              77.5849284990397,
              13.059363257420896
            ],
            [
              77.58449443083671,
              13.059512280170166
            ],
            [
              77.58269734918764,
              13.059937903574523
            ],
            [
              77.5808492367347,
              13.060006041483696
            ],
            [
              77.57902426922313,
              13.059713959118586
            ],
            [
              77.57874536013553,
              13.059640756545708
            ],
            [
              77.5771425952339,
              13.059060325813176
            ],
            [
              77.57567721898897,
              13.058201900876405
            ],
            [
              77.57439950561982,
              13.057094933613934
            ],
            [
              77.57424920616984,
              13.056938129720768
            ],
            [
              77.57318770036224,
              13.055597054847789
            ],
            [
              77.5724031028923,
              13.054085900444038
            ],
            [
              77.57192323018191,
              13.052458251792602
            ],
            [
              77.57176509200052,
              13.050771823956094
            ],
            [
              77.57193428912024,
              13.04908641506924
            ],
            [
              77.5724248156382,
              13.047461785928224
            ],
            [
              77.57271206591417,
              13.046917178441534
            ]
          ]
        ]
      }
    }
  ]
}