{
  "type": "FeatureCollection",
  "features": [
    {
      "type": "Feature",
      "properties": {
        "body_id": "hesaraghatta",
        "buffer_metres": 1000,
        "source_polygon": "hesaraghatta.geojson",
        "computed_with": "@turf/buffer",
        "fetched_at": "2026-05-25T14:10:03.395Z"
      },
      "geometry": {
        "type": "Polygon",
        "coordinates": [
          [
            [
              77.47010047327247,
              13.155147995475179
            ],
            [
              77.4698121604301,
              13.15465609956045
            ],
            [
              77.46923453131525,
              13.152951153030383
            ],
            [
              77.46901620412298,
              13.15116845273344
            ],
            [
              77.46916587212785,
              13.149379045529269
            ],
            [
              77.46967756277725,
              13.14765424403256
            ],
            [
              77.47053087695173,
              13.146062784691217
            ],
            [
              77.47147657093826,
              13.144926662609796
            ],
            [
              77.47151459624385,
              13.144413395295329
            ],
            [
              77.47154720309206,
              13.14422369644704
            ],
            [
              77.47199203002903,
              13.142593724153697
            ],
            [
              77.47274154468495,
              13.141073290863345
            ],
            [
              77.47376938268884,
              13.139715867343307
            ],
            [
              77.47503939327943,
              13.138569190785413
            ],
            [
              77.47650691098943,
              13.137673586328216
            ],
            [
              77.47743908356775,
              13.137319397492934
            ],
            [
              77.47865191409863,
              13.136260579799663
            ],
            [
              77.48014536724689,
              13.13538515825489
            ],
            [
              77.48178113020822,
              13.134798618365187
            ],
            [
              77.48337986845546,
              13.134541337876218
            ],
            [
              77.48342916407046,
              13.134448254614838
            ],
            [
              77.48453261235184,
              13.13308935113671
            ],
            [
              77.48588313306519,
              13.131961699817536
            ],
            [
              77.48743060983097,
              13.131107144067592
            ],
            [
              77.48911761985488,
              13.130557393244747
            ],
            [
              77.48925711513645,
              13.130526094363368
            ],
            [
              77.48957272190567,
              13.13046091277876
            ],
            [
              77.48973901614626,
              13.130429513909284
            ],
            [
              77.49154729594335,
              13.130265230808645
            ],
            [
              77.49335362291094,
              13.130448761818016
            ],
            [
              77.49508814080046,
              13.13097300923465
            ],
            [
              77.4966837695684,
              13.13181769872838
            ],
            [
              77.49683396711231,
              13.131916995714617
            ],
            [
              77.49716417811874,
              13.132145766617711
            ],
            [
              77.49743777453934,
              13.13234426077838
            ],
            [
              77.49812344998112,
              13.132893546076915
            ],
            [
              77.498525748035,
              13.13324873642341
            ],
            [
              77.49957419637435,
              13.134342402802984
            ],
            [
              77.50042195138228,
              13.135590208634552
            ],
            [
              77.5010455464495,
              13.136957618273858
            ],
            [
              77.50113135396067,
              13.13719791537761
            ],
            [
              77.50156953169868,
              13.13901424181981
            ],
            [
              77.5016000103397,
              13.14030972282978
            ],
            [
              77.50188567448522,
              13.141650979699197
            ],
            [
              77.50194469665104,
              13.142247877597883
            ],
            [
              77.50193292914705,
              13.14309197949226
            ],
            [
              77.50239700734149,
              13.143837293512583
            ],
            [
              77.50322649699193,
              13.145556264345837
            ],
            [
              77.5036667787557,
              13.147406537376826
            ],
            [
              77.50404328897247,
              13.150399124005677
            ],
            [
              77.5040980468257,
              13.15187696377175
            ],
            [
              77.50459403151358,
              13.15229345040761
            ],
            [
              77.50568494072657,
              13.153639091319768
            ],
            [
              77.50649380121332,
              13.155161864890145
            ],
            [
              77.50699121384154,
              13.156806434129852
            ],
            [
              77.50715909611458,
              13.158513034899597
            ],
            [
              77.50715912289132,
              13.159223434892807
            ],
            [
              77.50700759368206,
              13.160846142909731
            ],
            [
              77.50655785408127,
              13.162415592927433
            ],
            [
              77.50634817067412,
              13.162834471950944
            ],
            [
              77.50672353024686,
              13.163154401530813
            ],
            [
              77.50779073980114,
              13.164482315975343
            ],
            [
              77.50858462997363,
              13.16598086745547
            ],
            [
              77.5090772880516,
              13.167597377611775
            ],
            [
              77.50925138930947,
              13.169275020430367
            ],
            [
              77.5092621472234,
              13.17081062003026
            ],
            [
              77.50903984422276,
              13.172834117564225
            ],
            [
              77.50902327545171,
              13.172880709308034
            ],
            [
              77.50995597104712,
              13.174093765760862
            ],
            [
              77.51068837695475,
              13.175512078214817
            ],
            [
              77.51115325009785,
              13.177033684030254
            ],
            [
              77.51122890571821,
              13.177395663863678
            ],
            [
              77.51130620420865,
              13.177577820255067
            ],
            [
              77.51144738107922,
              13.177818933687231
            ],
            [
              77.51214623113343,
              13.178819347935535
            ],
            [
              77.5128128672018,
              13.179707453725982
            ],
            [
              77.51328856913042,
              13.180156311389798
            ],
            [
              77.51453337898766,
              13.181607678111952
            ],
            [
              77.51543900627468,
              13.183280382734598
            ],
            [
              77.51596540973144,
              13.185100481957857
            ],
            [
              77.51608931017417,
              13.186987515086038
            ],
            [
              77.51601427645835,
              13.188747617739494
            ],
            [
              77.51574707835802,
              13.190553317953528
            ],
            [
              77.51511108492427,
              13.192269362237452
            ],
            [
              77.51413246175196,
              13.193825130373853
            ],
            [
              77.51344577282173,
              13.194702549909337
            ],
            [
              77.51319233316123,
              13.194964371276221
            ],
            [
              77.51303413144423,
              13.195326693806297
            ],
            [
              77.51256744920978,
              13.19612580831384
            ],
            [
              77.51190481984976,
              13.197105633454992
            ],
            [
              77.51127183036743,
              13.197920451513607
            ],
            [
              77.50979129142263,
              13.199425880675225
            ],
            [
              77.50799455040338,
              13.200559058776124
            ],
            [
              77.50625640707906,
              13.201394686323715
            ],
            [
              77.50462874038313,
              13.201998846978668
            ],
            [
              77.50291350718635,
              13.202294755969936
            ],
            [
              77.501171709993,
              13.202271889217219
            ],
            [
              77.49946529636966,
              13.20193105998225
            ],
            [
              77.49785495505105,
              13.201284389935775
            ],
            [
              77.49639795688816,
              13.20035487791168
            ],
            [
              77.49514611754076,
              13.199175581709648
            ],
            [
              77.49414395445865,
              13.197788442088559
            ],
            [
              77.49342710374584,
              13.196242790830897
            ],
            [
              77.49302105320976,
              13.194593595998663
            ],
            [
              77.49302005138061,
              13.194572595657151
            ],
            [
              77.49205458037977,
              13.193490529832047
            ],
            [
              77.49104593241181,
              13.191588929878192
            ],
            [
              77.49087964560651,
              13.191155424304494
            ],
            [
              77.49080602111384,
              13.190825500741424
            ],
            [
              77.49026607263791,
              13.190260800660772
            ],
            [
              77.48923049427101,
              13.1885233042195
            ],
            [
              77.48829752383809,
              13.186455319027637
            ],
            [
              77.48823447441396,
              13.186339181379427
            ],
            [
              77.48778013952249,
              13.186385985493803
            ],
            [
              77.48606413835344,
              13.186406668623771
            ],
            [
              77.48437382800753,
              13.186117909533634
            ],
            [
              77.48276756306728,
              13.185529677086837
            ],
            [
              77.48197354304477,
              13.185153564659503
            ],
            [
              77.48045021297801,
              13.184244924046407
            ],
            [
              77.47913503976082,
              13.183067754454413
            ],
            [
              77.47807722138154,
              13.181666094404767
            ],
            [
              77.47700445815035,
              13.179911061445663
            ],
            [
              77.47628963945569,
              13.178460065726915
            ],
            [
              77.47585187339664,
              13.176908255965378
            ],
            [
              77.47570517277934,
              13.175305324239247
            ],
            [
              77.47585422946099,
              13.173702598673366
            ],
            [
              77.47611177894285,
              13.172323707747632
            ],
            [
              77.47654584359678,
              13.170788029673504
            ],
            [
              77.4772513262781,
              13.169350995441805
            ],
            [
              77.4775511259711,
              13.168857961753616
            ],
            [
              77.47750138161024,
              13.168771209435986
            ],
            [
              77.47692754084852,
              13.166934791122953
            ],
            [
              77.47676703270075,
              13.165021623459374
            ],
            [
              77.4770271600577,
              13.163118867538193
            ],
            [
              77.47719270704313,
              13.162671986771722
            ],
            [
              77.47664486352511,
              13.162552680186554
            ],
            [
              77.47504931060296,
              13.161880071136569
            ],
            [
              77.47361149874267,
              13.160928196153295
            ],
            [
              77.47238238437687,
              13.15973079133929
            ],
            [
              77.47140552554067,
              13.158330294247227
            ],
            [
              77.47071553823933,
              13.156776339497187
            ],
            [
              77.47062245661786,
              13.15649706516061
            ],
            [
              77.4701036202974,
              13.155164721583402
            ],
            [
              77.47010047327247,
              13.155147995475179
            ]
          ]
        ]
      }
    }
  ]
}