{
  "nvdm": "1.0",
  "dataset": "geojson-layers/polygon",
  "scope": {
    "kind": "city",
    "id": "bangalore"
  },
  "provenance": {
    "sources": [
      {
        "id": "osm-overpass",
        "title": "OpenStreetMap body polygon (Overpass relation/way extract)",
        "publisher": "OpenStreetMap contributors",
        "license": "ODbL 1.0"
      }
    ],
    "method": "api",
    "produced_at": "2026-06-03",
    "produced_by": "scripts/fetch-rich-body-polygon.ts"
  },
  "type": "FeatureCollection",
  "features": [
    {
      "type": "Feature",
      "geometry": {
        "type": "MultiPolygon",
        "coordinates": [
          [
            [
              [
                77.6661478,
                12.9220409
              ],
              [
                77.6660874,
                12.9223543
              ],
              [
                77.6659824,
                12.9224762
              ],
              [
                77.6658819,
                12.9225334
              ],
              [
                77.6655956,
                12.9225916
              ],
              [
                77.6655266,
                12.9226123
              ],
              [
                77.6654984,
                12.9227692
              ],
              [
                77.6655443,
                12.9228221
              ],
              [
                77.6656431,
                12.9228666
              ],
              [
                77.6657776,
                12.9228934
              ],
              [
                77.6658157,
                12.9228973
              ],
              [
                77.6663963,
                12.9229567
              ],
              [
                77.6668257,
                12.9229273
              ],
              [
                77.6674286,
                12.9229822
              ],
              [
                77.6678737,
                12.9230095
              ],
              [
                77.6679489,
                12.9229902
              ],
              [
                77.6679902,
                12.9229437
              ],
              [
                77.6680144,
                12.9228866
              ],
              [
                77.6677237,
                12.9221541
              ],
              [
                77.667622,
                12.9220797
              ],
              [
                77.6673719,
                12.9219601
              ],
              [
                77.6669961,
                12.9217844
              ],
              [
                77.6666799,
                12.9218888
              ],
              [
                77.6661478,
                12.9220409
              ]
            ],
            [
              [
                77.6668358,
                12.9224654
              ],
              [
                77.666803,
                12.9224628
              ],
              [
                77.6667689,
                12.9224467
              ],
              [
                77.6667467,
                12.922423
              ],
              [
                77.6667323,
                12.9223822
              ],
              [
                77.666736,
                12.9223463
              ],
              [
                77.6667493,
                12.9223201
              ],
              [
                77.666784,
                12.9222909
              ],
              [
                77.6668156,
                12.9222816
              ],
              [
                77.6668335,
                12.9222812
              ],
              [
                77.6668654,
                12.922289
              ],
              [
                77.666881,
                12.9222976
              ],
              [
                77.6669043,
                12.9223203
              ],
              [
                77.6669133,
                12.9223358
              ],
              [
                77.6669214,
                12.9223784
              ],
              [
                77.6669079,
                12.9224211
              ],
              [
                77.6668776,
                12.9224514
              ],
              [
                77.6668358,
                12.9224654
              ]
            ]
          ]
        ]
      },
      "properties": {
        "body_id": "iblur",
        "osm_type": "relation",
        "osm_id": 3120373,
        "name": "Iblur Lake",
        "name_en": "Iblur Lake",
        "name_ta": "",
        "ramsar": false,
        "protect_class": null,
        "protection_title": null,
        "start_date": null,
        "wikidata": null,
        "wikipedia": null,
        "area_ha": 2.37,
        "source": "OSM relation 3120373",
        "license": "ODbL",
        "fetched_at": "2026-05-25T14:56:27.930Z"
      }
    }
  ]
}