{
  "type": "FeatureCollection",
  "features": [
    {
      "type": "Feature",
      "geometry": {
        "type": "MultiPolygon",
        "coordinates": [
          [
            [
              [
                77.6089831,
                13.0925414
              ],
              [
                77.6096193,
                13.0910586
              ],
              [
                77.6100828,
                13.0903229
              ],
              [
                77.6110612,
                13.0889685
              ],
              [
                77.6116454,
                13.0883172
              ],
              [
                77.6118243,
                13.0882956
              ],
              [
                77.6120671,
                13.0877195
              ],
              [
                77.6123744,
                13.0875557
              ],
              [
                77.6124689,
                13.0874708
              ],
              [
                77.6125105,
                13.0873441
              ],
              [
                77.6125563,
                13.0871776
              ],
              [
                77.6125928,
                13.0870178
              ],
              [
                77.6126346,
                13.0867304
              ],
              [
                77.6126389,
                13.0867009
              ],
              [
                77.6128545,
                13.0859818
              ],
              [
                77.6129865,
                13.0858518
              ],
              [
                77.6130745,
                13.0857859
              ],
              [
                77.6131292,
                13.0857311
              ],
              [
                77.6131898,
                13.0852901
              ],
              [
                77.6132341,
                13.0850189
              ],
              [
                77.6133076,
                13.0844846
              ],
              [
                77.6134342,
                13.0836452
              ],
              [
                77.6135849,
                13.0829077
              ],
              [
                77.6138078,
                13.082155
              ],
              [
                77.6140395,
                13.0815781
              ],
              [
                77.6143829,
                13.0813022
              ],
              [
                77.6145841,
                13.080811
              ],
              [
                77.6146692,
                13.0804972
              ],
              [
                77.6147742,
                13.0803444
              ],
              [
                77.6147677,
                13.0802872
              ],
              [
                77.6146747,
                13.0802405
              ],
              [
                77.6145623,
                13.0802055
              ],
              [
                77.6143829,
                13.0803157
              ],
              [
                77.614147,
                13.081019
              ],
              [
                77.613988,
                13.0812186
              ],
              [
                77.6136533,
                13.0814109
              ],
              [
                77.6134029,
                13.0815939
              ],
              [
                77.6131424,
                13.0816962
              ],
              [
                77.6126264,
                13.0818629
              ],
              [
                77.6122259,
                13.0820542
              ],
              [
                77.6121028,
                13.0821103
              ],
              [
                77.6119394,
                13.0820881
              ],
              [
                77.6117779,
                13.0819006
              ],
              [
                77.6116583,
                13.0815371
              ],
              [
                77.6115762,
                13.0811685
              ],
              [
                77.6114646,
                13.0806585
              ],
              [
                77.6113002,
                13.080291
              ],
              [
                77.6112108,
                13.0799047
              ],
              [
                77.6111647,
                13.0795426
              ],
              [
                77.6111155,
                13.0793398
              ],
              [
                77.6109411,
                13.0792707
              ],
              [
                77.6108001,
                13.0791916
              ],
              [
                77.6105901,
                13.0791527
              ],
              [
                77.6104712,
                13.0792741
              ],
              [
                77.6103266,
                13.0794082
              ],
              [
                77.6103006,
                13.0794838
              ],
              [
                77.610386,
                13.0797025
              ],
              [
                77.6104129,
                13.0799638
              ],
              [
                77.6103402,
                13.0803993
              ],
              [
                77.6102954,
                13.0807914
              ],
              [
                77.6103024,
                13.0812543
              ],
              [
                77.6102362,
                13.0817717
              ],
              [
                77.6099626,
                13.0824978
              ],
              [
                77.6096193,
                13.083741
              ],
              [
                77.6096857,
                13.0838625
              ],
              [
                77.609639,
                13.0843275
              ],
              [
                77.6095404,
                13.084498
              ],
              [
                77.6093774,
                13.0845509
              ],
              [
                77.6093532,
                13.0847634
              ],
              [
                77.6093145,
                13.0854139
              ],
              [
                77.6091472,
                13.0861512
              ],
              [
                77.6090271,
                13.0865927
              ],
              [
                77.6087516,
                13.0871244
              ],
              [
                77.6087898,
                13.0873631
              ],
              [
                77.6083618,
                13.0885396
              ],
              [
                77.6078925,
                13.0900193
              ],
              [
                77.6076338,
                13.0902551
              ],
              [
                77.6075083,
                13.0904827
              ],
              [
                77.6068778,
                13.0917702
              ],
              [
                77.6070812,
                13.0920108
              ],
              [
                77.6074031,
                13.092387
              ],
              [
                77.6076874,
                13.0925542
              ],
              [
                77.6076552,
                13.0926848
              ],
              [
                77.6072797,
                13.0924497
              ],
              [
                77.6068237,
                13.0919324
              ],
              [
                77.6063785,
                13.092852
              ],
              [
                77.6062927,
                13.0931707
              ],
              [
                77.6062283,
                13.0939283
              ],
              [
                77.6062819,
                13.0940328
              ],
              [
                77.607725,
                13.0942993
              ],
              [
                77.6081058,
                13.0942418
              ],
              [
                77.6082507,
                13.0941008
              ],
              [
                77.6089159,
                13.0927475
              ],
              [
                77.6086852,
                13.0928102
              ],
              [
                77.6081541,
                13.0928572
              ],
              [
                77.6078269,
                13.0927736
              ],
              [
                77.6078644,
                13.092643
              ],
              [
                77.6081273,
                13.09269
              ],
              [
                77.6084867,
                13.0926743
              ],
              [
                77.6089831,
                13.0925414
              ]
            ],
            [
              [
                77.6101068,
                13.0867778
              ],
              [
                77.6101202,
                13.0871384
              ],
              [
                77.6104099,
                13.0873422
              ],
              [
                77.6107344,
                13.0872429
              ],
              [
                77.6108122,
                13.0868771
              ],
              [
                77.6107317,
                13.0867413
              ],
              [
                77.6105735,
                13.0866054
              ],
              [
                77.6103508,
                13.0866133
              ],
              [
                77.6101068,
                13.0867778
              ]
            ],
            [
              [
                77.6099834,
                13.0834965
              ],
              [
                77.6100424,
                13.0836663
              ],
              [
                77.6102355,
                13.0836976
              ],
              [
                77.6103052,
                13.0834886
              ],
              [
                77.610139,
                13.0834102
              ],
              [
                77.6099834,
                13.0834965
              ]
            ],
            [
              [
                77.6105064,
                13.0835775
              ],
              [
                77.6104823,
                13.0837368
              ],
              [
                77.610611,
                13.08381
              ],
              [
                77.6107398,
                13.0837133
              ],
              [
                77.6107103,
                13.0835801
              ],
              [
                77.6105064,
                13.0835775
              ]
            ]
          ]
        ]
      },
      "properties": {
        "body_id": "jakkur",
        "osm_type": "relation",
        "osm_id": 9321012,
        "name": "Jakkur Lake",
        "name_en": "Jakkur Lake",
        "name_ta": "",
        "ramsar": false,
        "protect_class": null,
        "protection_title": null,
        "start_date": null,
        "wikidata": null,
        "wikipedia": null,
        "area_ha": 49.82,
        "source": "OSM relation 9321012",
        "license": "ODbL",
        "fetched_at": "2026-05-25T14:56:21.837Z"
      }
    }
  ]
}