{
  "nvdm": "1.0",
  "dataset": "geojson-layers/buffer-1000m",
  "scope": {
    "kind": "city",
    "id": "delhi"
  },
  "provenance": {
    "sources": [
      {
        "id": "osm-overpass",
        "title": "OpenStreetMap body polygon (Overpass relation/way extract)",
        "publisher": "OpenStreetMap contributors",
        "license": "ODbL 1.0",
        "role": "input"
      }
    ],
    "method": "derived",
    "produced_at": "1970-01-01",
    "produced_by": "scripts/fetch-rich-body-polygon.ts",
    "internal_inputs": [],
    "note": "1 km Minkowski offset of the body polygon (@turf/buffer), not a circle from the centroid; derived in-memory from the same Overpass fetch, hence internal_inputs []."
  },
  "type": "FeatureCollection",
  "features": [
    {
      "type": "Feature",
      "properties": {
        "body_id": "najafgarh-jheel",
        "buffer_metres": 1000,
        "source_polygon": "najafgarh-jheel.geojson",
        "computed_with": "@turf/buffer",
        "fetched_at": "2026-08-25T13:48:05.751Z"
      },
      "geometry": {
        "type": "Polygon",
        "coordinates": [
          [
            [
              76.9118235855582,
              28.50367235539234
            ],
            [
              76.91182382023275,
              28.503664113916848
            ],
            [
              76.91206434723209,
              28.50193802542356
            ],
            [
              76.91267838339164,
              28.500284885747785
            ],
            [
              76.91364295456496,
              28.498766501835554
            ],
            [
              76.91492198517372,
              28.497439639910713
            ],
            [
              76.91576135560949,
              28.496850037402414
            ],
            [
              76.9158615644326,
              28.496751076288394
            ],
            [
              76.91749640853412,
              28.495673403094035
            ],
            [
              76.91934228824232,
              28.49490270191569
            ],
            [
              76.91971998076289,
              28.494820246216683
            ],
            [
              76.92016010091477,
              28.494152262384876
            ],
            [
              76.92092832514109,
              28.49340080956684
            ],
            [
              76.9213574575079,
              28.492641947322422
            ],
            [
              76.92247990891592,
              28.491328403361834
            ],
            [
              76.92385546709819,
              28.490216206964618
            ],
            [
              76.92543823609846,
              28.48934246111998
            ],
            [
              76.92717541161274,
              28.48873631326931
            ],
            [
              76.92763210090308,
              28.488618076055282
            ],
            [
              76.92783890997742,
              28.488480917011614
            ],
            [
              76.92786353128301,
              28.48846701273759
            ],
            [
              76.92841565290266,
              28.48782504430133
            ],
            [
              76.92994176742025,
              28.486638841256855
            ],
            [
              76.93038924202537,
              28.48641120879647
            ],
            [
              76.93107174856301,
              28.485929880909136
            ],
            [
              76.93213354093896,
              28.48545856414496
            ],
            [
              76.93268280684657,
              28.485106036923792
            ],
            [
              76.93474885408725,
              28.484316554476425
            ],
            [
              76.9369613690239,
              28.48394357947769
            ],
            [
              76.93966484085493,
              28.483754995479206
            ],
            [
              76.94219126960715,
              28.48385428231124
            ],
            [
              76.94420810511889,
              28.48415595696071
            ],
            [
              76.944423950918,
              28.484190337457708
            ],
            [
              76.94609751607626,
              28.48447321378192
            ],
            [
              76.94815324497657,
              28.48502258147038
            ],
            [
              76.94909886349028,
              28.48548262700184
            ],
            [
              76.94918869347246,
              28.485466354610562
            ],
            [
              76.95023853194984,
              28.485472824523562
            ],
            [
              76.9519045168649,
              28.48495736385048
            ],
            [
              76.9538810582793,
              28.48470721342692
            ],
            [
              76.95587523656275,
              28.484799239063847
            ],
            [
              76.95673118211296,
              28.48498967534349
            ],
            [
              76.957007576467,
              28.485002172185755
            ],
            [
              76.95753137840114,
              28.485074151017574
            ],
            [
              76.95853656008683,
              28.4848215058889
            ],
            [
              76.96046055208673,
              28.4846698118863
            ],
            [
              76.96238269635809,
              28.48483863627877
            ],
            [
              76.96423449784848,
              28.485321963071435
            ],
            [
              76.96594996630951,
              28.486102568938303
            ],
            [
              76.96746796637372,
              28.487152636536493
            ],
            [
              76.9687343952232,
              28.48843474513752
            ],
            [
              76.96970411042928,
              28.48990320339005
            ],
            [
              76.97034253933016,
              28.491505676856985
            ],
            [
              76.9705904486147,
              28.492969716575168
            ],
            [
              76.97062766880414,
              28.49297507235967
            ],
            [
              76.9712787557654,
              28.493124755360043
            ],
            [
              76.97204792634483,
              28.493141880354703
            ],
            [
              76.9748856672778,
              28.493560711862695
            ],
            [
              76.97522214269806,
              28.49365460424064
            ],
            [
              76.97700297659135,
              28.49432026094224
            ],
            [
              76.97860939325786,
              28.495268661527138
            ],
            [
              76.97998394386276,
              28.496465892387892
            ],
            [
              76.98069866129264,
              28.49738304956727
            ],
            [
              76.98174073279725,
              28.498045707841463
            ],
            [
              76.98313480099195,
              28.49938038664404
            ],
            [
              76.98419621893568,
              28.500933529005795
            ],
            [
              76.98488190006617,
              28.502642110166406
            ],
            [
              76.98516400027768,
              28.504436794665644
            ],
            [
              76.98530442862481,
              28.507828484079326
            ],
            [
              76.9852022476464,
              28.509464224074716
            ],
            [
              76.98476407868802,
              28.511056536042034
            ],
            [
              76.98400444733738,
              28.51255258029282
            ],
            [
              76.98294854949164,
              28.513902709554113
            ],
            [
              76.9818665001911,
              28.51485518734185
            ],
            [
              76.98183187315804,
              28.515326944542373
            ],
            [
              76.98131729838555,
              28.51702547114446
            ],
            [
              76.98043653298288,
              28.51860360531581
            ],
            [
              76.9792232093541,
              28.52000105757628
            ],
            [
              76.97773831780817,
              28.521153074793133
            ],
            [
              76.97719358151446,
              28.521668494171358
            ],
            [
              76.97694387856099,
              28.521866306698136
            ],
            [
              76.97524367950032,
              28.522957047052362
            ],
            [
              76.97332543867526,
              28.52371907438814
            ],
            [
              76.97127031634723,
              28.524120146019467
            ],
            [
              76.9691652686323,
              28.524143291637237
            ],
            [
              76.96709936568932,
              28.523787531884828
            ],
            [
              76.96516002012822,
              28.52306791982872
            ],
            [
              76.96342928581176,
              28.52201490356283
            ],
            [
              76.96337444295375,
              28.521973596180562
            ],
            [
              76.96124909561597,
              28.521169789183947
            ],
            [
              76.95899938707375,
              28.519999486114692
            ],
            [
              76.95497048110104,
              28.51723700045235
            ],
            [
              76.9547689418789,
              28.517095174693882
            ],
            [
              76.9498400079684,
              28.513535809769838
            ],
            [
              76.94627355282147,
              28.51345700614078
            ],
            [
              76.94482216646912,
              28.51434469696875
            ],
            [
              76.94044788315054,
              28.517227826571748
            ],
            [
              76.9388194180264,
              28.518105283415885
            ],
            [
              76.93703372463193,
              28.518701539152417
            ],
            [
              76.93515301973878,
              28.518995818453913
            ],
            [
              76.92860916751641,
              28.51947265888962
            ],
            [
              76.92665670587645,
              28.519450654171425
            ],
            [
              76.92474454002222,
              28.519103232467458
            ],
            [
              76.92294228006654,
              28.518443041386117
            ],
            [
              76.92131553224189,
              28.51749411431042
            ],
            [
              76.91872134236526,
              28.515644688053552
            ],
            [
              76.91777424127744,
              28.515323393872215
            ],
            [
              76.91590677739117,
              28.51448776000796
            ],
            [
              76.91427219890979,
              28.5133353923673
            ],
            [
              76.91293904290566,
              28.511914615252707
            ],
            [
              76.91196319985382,
              28.510285006510482
            ],
            [
              76.91138557103518,
              28.508514898056976
            ],
            [
              76.91123035576004,
              28.506678509630426
            ],
            [
              76.91150403987746,
              28.504852836160218
            ],
            [
              76.9118235855582,
              28.50367235539234
            ]
          ]
        ]
      }
    }
  ]
}