{
  "nvdm": "1.0",
  "dataset": "geojson-layers/polygon",
  "scope": {
    "kind": "city",
    "id": "delhi"
  },
  "provenance": {
    "sources": [
      {
        "id": "osm-overpass",
        "title": "OpenStreetMap body polygon (Overpass relation/way extract)",
        "publisher": "OpenStreetMap contributors",
        "license": "ODbL 1.0"
      }
    ],
    "method": "api",
    "produced_at": "1970-01-01",
    "produced_by": "scripts/fetch-rich-body-polygon.ts"
  },
  "type": "FeatureCollection",
  "features": [
    {
      "type": "Feature",
      "geometry": {
        "type": "MultiPolygon",
        "coordinates": [
          [
            [
              [
                76.96044,
                28.4941803
              ],
              [
                76.9605623,
                28.4970977
              ],
              [
                76.9592193,
                28.4972338
              ],
              [
                76.959396,
                28.5004512
              ],
              [
                76.9600347,
                28.5004537
              ],
              [
                76.9600828,
                28.5009538
              ],
              [
                76.9607196,
                28.5010064
              ],
              [
                76.9607822,
                28.5015269
              ],
              [
                76.9641565,
                28.5014055
              ],
              [
                76.9646078,
                28.5014649
              ],
              [
                76.9654902,
                28.5016108
              ],
              [
                76.9655341,
                28.5021038
              ],
              [
                76.9670449,
                28.5021687
              ],
              [
                76.9668473,
                28.5016581
              ],
              [
                76.9677817,
                28.5016785
              ],
              [
                76.9689742,
                28.5018501
              ],
              [
                76.9690214,
                28.5022695
              ],
              [
                76.9695321,
                28.5022529
              ],
              [
                76.9695795,
                28.502083
              ],
              [
                76.9717888,
                28.5021322
              ],
              [
                76.9721253,
                28.5022261
              ],
              [
                76.972242,
                28.5030298
              ],
              [
                76.9725319,
                28.5030735
              ],
              [
                76.9725718,
                28.503558
              ],
              [
                76.974937,
                28.5047634
              ],
              [
                76.9750771,
                28.5081551
              ],
              [
                76.9721909,
                28.5095824
              ],
              [
                76.9704607,
                28.5105719
              ],
              [
                76.9703572,
                28.5108198
              ],
              [
                76.9703919,
                28.5122267
              ],
              [
                76.9717317,
                28.5138735
              ],
              [
                76.9698307,
                28.5139372
              ],
              [
                76.9698327,
                28.5144396
              ],
              [
                76.9703114,
                28.5144821
              ],
              [
                76.9703401,
                28.5149891
              ],
              [
                76.9700904,
                28.5151869
              ],
              [
                76.9688523,
                28.5142544
              ],
              [
                76.9652956,
                28.5129093
              ],
              [
                76.9612668,
                28.510147
              ],
              [
                76.9549476,
                28.5055838
              ],
              [
                76.9531453,
                28.50477
              ],
              [
                76.9512999,
                28.504572
              ],
              [
                76.9438433,
                28.5044072
              ],
              [
                76.9428776,
                28.5045769
              ],
              [
                76.9388265,
                28.5070546
              ],
              [
                76.9343069,
                28.5100334
              ],
              [
                76.9277636,
                28.5105102
              ],
              [
                76.9241023,
                28.5079001
              ],
              [
                76.9239199,
                28.5077681
              ],
              [
                76.9214602,
                28.5069337
              ],
              [
                76.9218826,
                28.5053727
              ],
              [
                76.9219268,
                28.5049725
              ],
              [
                76.9221128,
                28.5046616
              ],
              [
                76.9221705,
                28.5043269
              ],
              [
                76.9220455,
                28.5041988
              ],
              [
                76.9220543,
                28.5038887
              ],
              [
                76.9227728,
                28.5038909
              ],
              [
                76.9227888,
                28.5033705
              ],
              [
                76.923437,
                28.5032882
              ],
              [
                76.9240926,
                28.5033619
              ],
              [
                76.9244794,
                28.5036122
              ],
              [
                76.9251685,
                28.5036466
              ],
              [
                76.9252005,
                28.5034666
              ],
              [
                76.9254028,
                28.5033443
              ],
              [
                76.925699,
                28.5035969
              ],
              [
                76.9257174,
                28.5037059
              ],
              [
                76.9258292,
                28.5037025
              ],
              [
                76.925892,
                28.5030686
              ],
              [
                76.9261571,
                28.5029134
              ],
              [
                76.9264779,
                28.5028718
              ],
              [
                76.9266208,
                28.5026801
              ],
              [
                76.9271286,
                28.5024992
              ],
              [
                76.9271731,
                28.5019539
              ],
              [
                76.9278484,
                28.5018653
              ],
              [
                76.9278953,
                28.5015277
              ],
              [
                76.9285373,
                28.5014166
              ],
              [
                76.9285447,
                28.5007795
              ],
              [
                76.9291924,
                28.5007782
              ],
              [
                76.9292217,
                28.4999554
              ],
              [
                76.9284329,
                28.5001106
              ],
              [
                76.9284383,
                28.4994389
              ],
              [
                76.9297773,
                28.4987522
              ],
              [
                76.9299306,
                28.4976721
              ],
              [
                76.9300669,
                28.497363
              ],
              [
                76.9310916,
                28.4970977
              ],
              [
                76.9324647,
                28.4969355
              ],
              [
                76.9326147,
                28.49658
              ],
              [
                76.9340026,
                28.4956595
              ],
              [
                76.9347877,
                28.4954114
              ],
              [
                76.9351266,
                28.4948913
              ],
              [
                76.9356479,
                28.494805
              ],
              [
                76.9356679,
                28.494304
              ],
              [
                76.9359238,
                28.4939351
              ],
              [
                76.936529,
                28.4939212
              ],
              [
                76.9366102,
                28.4934918
              ],
              [
                76.9371979,
                28.4936304
              ],
              [
                76.9377708,
                28.4929086
              ],
              [
                76.9404745,
                28.49272
              ],
              [
                76.9424915,
                28.4930217
              ],
              [
                76.9441652,
                28.4933046
              ],
              [
                76.9442725,
                28.4940967
              ],
              [
                76.9447231,
                28.494191
              ],
              [
                76.9446802,
                28.494983
              ],
              [
                76.9456887,
                28.4949642
              ],
              [
                76.9456458,
                28.4952659
              ],
              [
                76.9461393,
                28.495247
              ],
              [
                76.9460025,
                28.4958463
              ],
              [
                76.9462369,
                28.495872
              ],
              [
                76.9483358,
                28.496102
              ],
              [
                76.94906,
                28.4949837
              ],
              [
                76.9501911,
                28.4944163
              ],
              [
                76.9521615,
                28.4946113
              ],
              [
                76.9530647,
                28.4942276
              ],
              [
                76.9538751,
                28.4938834
              ],
              [
                76.9543442,
                28.4936912
              ],
              [
                76.9546044,
                28.4938986
              ],
              [
                76.9564819,
                28.4939835
              ],
              [
                76.9565248,
                28.4945398
              ],
              [
                76.9558382,
                28.4945398
              ],
              [
                76.9558275,
                28.4947661
              ],
              [
                76.958574,
                28.4947567
              ],
              [
                76.9587242,
                28.4948699
              ],
              [
                76.9595611,
                28.4945775
              ],
              [
                76.9601619,
                28.4937478
              ],
              [
                76.9604087,
                28.4936629
              ],
              [
                76.96044,
                28.4941803
              ]
            ]
          ]
        ]
      },
      "properties": {
        "body_id": "najafgarh-jheel",
        "osm_type": "way",
        "osm_id": 203051309,
        "name": "Najafgarh Jheel",
        "name_en": "Najafgarh Jheel",
        "name_ta": "",
        "ramsar": false,
        "protect_class": null,
        "protection_title": null,
        "start_date": null,
        "wikidata": null,
        "wikipedia": null,
        "area_ha": 605.84,
        "source": "OSM way 203051309",
        "license": "ODbL 1.0",
        "fetched_at": "2026-08-25T13:48:05.679Z"
      }
    }
  ]
}