{
  "nvdm": "1.0",
  "dataset": "geojson-layers/buffer-1000m",
  "scope": {
    "kind": "city",
    "id": "hyderabad"
  },
  "provenance": {
    "sources": [
      {
        "id": "osm-overpass",
        "title": "OpenStreetMap body polygon (Overpass relation/way extract)",
        "publisher": "OpenStreetMap contributors",
        "license": "ODbL 1.0",
        "role": "input"
      }
    ],
    "method": "derived",
    "produced_at": "2026-08-24",
    "internal_inputs": [],
    "produced_by": "scripts/fetch-rich-body-polygon.ts",
    "note": "1 km Minkowski offset of the body polygon (@turf/buffer), not a circle from the centroid; derived in-memory from the same Overpass fetch, hence internal_inputs []."
  },
  "type": "FeatureCollection",
  "features": [
    {
      "type": "Feature",
      "properties": {
        "body_id": "osman-sagar",
        "buffer_metres": 1000,
        "source_polygon": "osman-sagar.geojson",
        "computed_with": "@turf/buffer",
        "fetched_at": "2026-08-24T18:33:32.259Z"
      },
      "geometry": {
        "type": "Polygon",
        "coordinates": [
          [
            [
              78.24641099039023,
              17.386865401584625
            ],
            [
              78.24651803053142,
              17.38656539761385
            ],
            [
              78.24689718682379,
              17.385753725378315
            ],
            [
              78.24687415390547,
              17.38572119715931
            ],
            [
              78.24594581562938,
              17.384057273765727
            ],
            [
              78.24540134342111,
              17.38224522376407
            ],
            [
              78.2452646490614,
              17.380364666163356
            ],
            [
              78.24554172606024,
              17.37849822763874
            ],
            [
              78.24622038847892,
              17.37672791203063
            ],
            [
              78.24727080843384,
              17.3751314976414
            ],
            [
              78.24777281787543,
              17.374521416154053
            ],
            [
              78.24916765138083,
              17.37315409510279
            ],
            [
              78.25083335510605,
              17.372098422975245
            ],
            [
              78.25269493305407,
              17.371401927433052
            ],
            [
              78.25466857415594,
              17.371095965125438
            ],
            [
              78.25663807785183,
              17.370992970124476
            ],
            [
              78.2582005842682,
              17.371035167994673
            ],
            [
              78.25973428679967,
              17.37132329624893
            ],
            [
              78.26020797157842,
              17.37149368146091
            ],
            [
              78.26121004359632,
              17.3702832852542
            ],
            [
              78.26262014345774,
              17.369137576770612
            ],
            [
              78.26423777813493,
              17.368277191120846
            ],
            [
              78.26600047362355,
              17.367735355606033
            ],
            [
              78.26816697449642,
              17.36728777705619
            ],
            [
              78.26956445277175,
              17.367102212072282
            ],
            [
              78.27190953829991,
              17.366960318994245
            ],
            [
              78.27354758972537,
              17.36699742797147
            ],
            [
              78.27471083365774,
              17.367120921930418
            ],
            [
              78.27519824316762,
              17.36721379494065
            ],
            [
              78.27570623115896,
              17.36716875467756
            ],
            [
              78.2767057700636,
              17.366984893779538
            ],
            [
              78.27697596876727,
              17.36692618294703
            ],
            [
              78.27731316473154,
              17.366820838761292
            ],
            [
              78.27738095692172,
              17.36677188570815
            ],
            [
              78.27815727654384,
              17.366267320950207
            ],
            [
              78.27832961907471,
              17.366166926638865
            ],
            [
              78.27786739856141,
              17.365784345049875
            ],
            [
              78.276584270064,
              17.364488290437507
            ],
            [
              78.27559429951351,
              17.362976086383416
            ],
            [
              78.27493640059961,
              17.36130718616897
            ],
            [
              78.2746364290719,
              17.359547201998563
            ],
            [
              78.27470616752728,
              17.35776532509111
            ],
            [
              78.27481570552841,
              17.357004930180413
            ],
            [
              78.27515197240419,
              17.355562212752353
            ],
            [
              78.27573126414548,
              17.3541915464769
            ],
            [
              78.27653793013917,
              17.352929950008413
            ],
            [
              78.27751565499676,
              17.351650587021854
            ],
            [
              78.27875412573013,
              17.350327092293725
            ],
            [
              78.28024073760608,
              17.349261471760872
            ],
            [
              78.28191761119288,
              17.348495211363193
            ],
            [
              78.28335055376897,
              17.347999534235335
            ],
            [
              78.28353698954386,
              17.347963317425673
            ],
            [
              78.28366240022667,
              17.347571850100632
            ],
            [
              78.28455199690505,
              17.346001207009834
            ],
            [
              78.28522771888177,
              17.3450483332248
            ],
            [
              78.2863837721919,
              17.343715153806993
            ],
            [
              78.28778592978409,
              17.34261801678426
            ],
            [
              78.28938226905058,
              17.341797546642717
            ],
            [
              78.29111367991321,
              17.341284123052887
            ],
            [
              78.29291605299551,
              17.341096756421578
            ],
            [
              78.29390150466718,
              17.341085356985683
            ],
            [
              78.29560062343738,
              17.341212855940476
            ],
            [
              78.29724788192703,
              17.34163045589415
            ],
            [
              78.29878937947807,
              17.34232449251248
            ],
            [
              78.30017467465646,
              17.34327225594315
            ],
            [
              78.30135843531566,
              17.34444273362507
            ],
            [
              78.30175644035775,
              17.344915224706472
            ],
            [
              78.3025459177803,
              17.34403225628688
            ],
            [
              78.30296441703585,
              17.343643169966903
            ],
            [
              78.3044982267247,
              17.342487210193337
            ],
            [
              78.30624886356301,
              17.341658152195954
            ],
            [
              78.30814101364265,
              17.341191661625803
            ],
            [
              78.31009327771507,
              17.3411078064567
            ],
            [
              78.31202167159296,
              17.341410194037312
            ],
            [
              78.31384323751927,
              17.342085815973913
            ],
            [
              78.31424012476309,
              17.34228040748379
            ],
            [
              78.31589897820557,
              17.3433176809066
            ],
            [
              78.31635958006346,
              17.343762122353823
            ],
            [
              78.31637163760819,
              17.343763574874238
            ],
            [
              78.31640555151898,
              17.343770720949085
            ],
            [
              78.31641353132298,
              17.343770322163753
            ],
            [
              78.31824425789067,
              17.344024356027287
            ],
            [
              78.3199876980469,
              17.34461494687407
            ],
            [
              78.32037598460666,
              17.344789139143163
            ],
            [
              78.3219619529745,
              17.34569141851217
            ],
            [
              78.32333314057232,
              17.346871594765915
            ],
            [
              78.32443689250556,
              17.34828435197651
            ],
            [
              78.32523081988788,
              17.34987544253325
            ],
            [
              78.32568442808994,
              17.351583769630302
            ],
            [
              78.32574571903133,
              17.35270905049377
            ],
            [
              78.32588627574947,
              17.35368286438561
            ],
            [
              78.3259037962584,
              17.35408286355429
            ],
            [
              78.3257888373476,
              17.355907971697288
            ],
            [
              78.32567641928765,
              17.356305381133872
            ],
            [
              78.32601459325569,
              17.356810235440882
            ],
            [
              78.32611823958898,
              17.357061406068304
            ],
            [
              78.32617631474326,
              17.357082343275938
            ],
            [
              78.32768840546031,
              17.357966452695024
            ],
            [
              78.32781710324933,
              17.3580586490761
            ],
            [
              78.32907928387016,
              17.359145901570297
            ],
            [
              78.32967863833179,
              17.35988924395393
            ],
            [
              78.33031543700714,
              17.36032708136836
            ],
            [
              78.33155687246852,
              17.36158953960343
            ],
            [
              78.33252184618348,
              17.363055653404025
            ],
            [
              78.3331745870578,
              17.36467108525794
            ],
            [
              78.3334908939579,
              17.36637596209639
            ],
            [
              78.33350700387382,
              17.36657056133708
            ],
            [
              78.33341799604656,
              17.368699391358312
            ],
            [
              78.33280677610195,
              17.37074849845058
            ],
            [
              78.33268338713819,
              17.371030103778317
            ],
            [
              78.33173741536334,
              17.37267951406742
            ],
            [
              78.3315926197677,
              17.372879119644015
            ],
            [
              78.33075274417345,
              17.373872307401527
            ],
            [
              78.33059401740316,
              17.37408207006922
            ],
            [
              78.33015868144754,
              17.374666985310878
            ],
            [
              78.33001047791872,
              17.37488634484653
            ],
            [
              78.32939330413822,
              17.37562179989891
            ],
            [
              78.32922766377051,
              17.37598629333844
            ],
            [
              78.32912836931365,
              17.376160397422762
            ],
            [
              78.32808122936898,
              17.377629350667
            ],
            [
              78.32787600688498,
              17.37786361608455
            ],
            [
              78.32785839423825,
              17.377884291308348
            ],
            [
              78.32752648283534,
              17.378341600013858
            ],
            [
              78.32641148599485,
              17.379358814921655
            ],
            [
              78.32642328174327,
              17.379371536467566
            ],
            [
              78.32618987988975,
              17.379568643718507
            ],
            [
              78.32616313968748,
              17.379586939414036
            ],
            [
              78.32605620122217,
              17.379693123662083
            ],
            [
              78.32606890757097,
              17.381403452690776
            ],
            [
              78.32583080833282,
              17.38252627488034
            ],
            [
              78.3259258029687,
              17.382984908468934
            ],
            [
              78.32593615056057,
              17.384685133896486
            ],
            [
              78.32583960317609,
              17.385719238376264
            ],
            [
              78.3254681838691,
              17.387540554345783
            ],
            [
              78.32471299155755,
              17.389250362940512
            ],
            [
              78.32360616513145,
              17.390775876436873
            ],
            [
              78.32347736661734,
              17.390919181019537
            ],
            [
              78.32219581879639,
              17.392098542439335
            ],
            [
              78.32070469239046,
              17.393026841394388
            ],
            [
              78.31968943131362,
              17.393423770931328
            ],
            [
              78.31909445222023,
              17.393827378586085
            ],
            [
              78.31732075280375,
              17.39456745563599
            ],
            [
              78.3169344365718,
              17.39468526115679
            ],
            [
              78.31654243724103,
              17.39479071659151
            ],
            [
              78.31653052418467,
              17.395784129513327
            ],
            [
              78.31634128623892,
              17.397477264448778
            ],
            [
              78.3158210030556,
              17.399106013482243
            ],
            [
              78.31498831811653,
              17.400611986516648
            ],
            [
              78.3138730763888,
              17.401941193560774
            ],
            [
              78.31251525518385,
              17.403045980689107
            ],
            [
              78.31148238014553,
              17.40360561740212
            ],
            [
              78.3107366646834,
              17.40424485687613
            ],
            [
              78.3091033044445,
              17.405159346434914
            ],
            [
              78.30731130889276,
              17.40574376957833
            ],
            [
              78.30543303903956,
              17.405974526844155
            ],
            [
              78.30385376147923,
              17.40601582889507
            ],
            [
              78.30369008701669,
              17.40601875155626
            ],
            [
              78.3028850474411,
              17.406026451945024
            ],
            [
              78.30112356937744,
              17.405885099362166
            ],
            [
              78.29966612062366,
              17.405497597307942
            ],
            [
              78.29959845197047,
              17.405538211160852
            ],
            [
              78.29778853782942,
              17.40638183534396
            ],
            [
              78.29744080027822,
              17.406463123730525
            ],
            [
              78.29689661528214,
              17.40687501398815
            ],
            [
              78.29531369672709,
              17.407663023805046
            ],
            [
              78.29360343192874,
              17.4081520397923
            ],
            [
              78.2918272024719,
              17.408324510895206
            ],
            [
              78.290048758463,
              17.408174246996687
            ],
            [
              78.28833192952511,
              17.407706641180432
            ],
            [
              78.28799581314229,
              17.40758116966255
            ],
            [
              78.28701787549309,
              17.407380063000296
            ],
            [
              78.28520046462135,
              17.406817252796344
            ],
            [
              78.28353937802092,
              17.405916229374945
            ],
            [
              78.28210289339555,
              17.404714030125074
            ],
            [
              78.2809500528075,
              17.403260071701617
            ],
            [
              78.28075008528161,
              17.402859575289728
            ],
            [
              78.27975675527306,
              17.403405032048234
            ],
            [
              78.27766685433352,
              17.40400062759769
            ],
            [
              78.27706857724193,
              17.404101121933163
            ],
            [
              78.27660004544374,
              17.404345738748823
            ],
            [
              78.2756155230752,
              17.404996701896277
            ],
            [
              78.27378967956395,
              17.40593859640497
            ],
            [
              78.27179203657546,
              17.406476275215898
            ],
            [
              78.26974624007167,
              17.406800490904793
            ],
            [
              78.26785344343607,
              17.406915843883645
            ],
            [
              78.26597477268756,
              17.406667224889915
            ],
            [
              78.26418632030622,
              17.406064703859645
            ],
            [
              78.26327628882215,
              17.405655685663515
            ],
            [
              78.26173776821322,
              17.404785147889537
            ],
            [
              78.26120856361875,
              17.40433747708238
            ],
            [
              78.2598431264175,
              17.40483043769206
            ],
            [
              78.25753401587345,
              17.40535887161567
            ],
            [
              78.25540431302063,
              17.40558138243009
            ],
            [
              78.25331650136658,
              17.405577512950472
            ],
            [
              78.251280817832,
              17.40513510850818
            ],
            [
              78.2491823322378,
              17.404438176110492
            ],
            [
              78.24766694225744,
              17.403786810535255
            ],
            [
              78.24629503922955,
              17.402891552755555
            ],
            [
              78.2451092909792,
              17.401780247926585
            ],
            [
              78.24414657347262,
              17.400487460338354
            ],
            [
              78.24328421462307,
              17.399081425466196
            ],
            [
              78.24248229995827,
              17.3973972573437
            ],
            [
              78.24205847026248,
              17.395592147945887
            ],
            [
              78.24203064734604,
              17.39374247517372
            ],
            [
              78.2423999965603,
              17.39192650018442
            ],
            [
              78.24315087947613,
              17.390221056079625
            ],
            [
              78.24425151739783,
              17.38869829739699
            ],
            [
              78.24565533733028,
              17.387422647876818
            ],
            [
              78.24641099039023,
              17.386865401584625
            ]
          ]
        ]
      }
    }
  ]
}