{
  "nvdm": "1.0",
  "dataset": "geojson-layers/buffer-1000m",
  "scope": {
    "kind": "city",
    "id": "pune"
  },
  "provenance": {
    "sources": [
      {
        "id": "osm-overpass",
        "title": "OpenStreetMap body polygon (Overpass relation/way extract)",
        "publisher": "OpenStreetMap contributors",
        "license": "ODbL 1.0",
        "role": "input"
      }
    ],
    "method": "derived",
    "produced_at": "1970-01-01",
    "produced_by": "scripts/fetch-rich-body-polygon.ts",
    "internal_inputs": [],
    "note": "1 km Minkowski offset of the body polygon (@turf/buffer), not a circle from the centroid; derived in-memory from the same Overpass fetch, hence internal_inputs []."
  },
  "type": "FeatureCollection",
  "features": [
    {
      "type": "Feature",
      "properties": {
        "body_id": "panshet",
        "buffer_metres": 1000,
        "source_polygon": "panshet.geojson",
        "computed_with": "@turf/buffer",
        "fetched_at": "2026-08-25T13:51:46.809Z"
      },
      "geometry": {
        "type": "Polygon",
        "coordinates": [
          [
            [
              73.47105597298517,
              18.327921248967687
            ],
            [
              73.47110063500156,
              18.32752486053619
            ],
            [
              73.47173334744255,
              18.32570970277525
            ],
            [
              73.4727559597805,
              18.324062529820253
            ],
            [
              73.47319478477809,
              18.32361135598802
            ],
            [
              73.47359628738856,
              18.32305876340618
            ],
            [
              73.47388159104196,
              18.32274027414592
            ],
            [
              73.47524006750166,
              18.321498775507955
            ],
            [
              73.4768306372682,
              18.320537279235253
            ],
            [
              73.47859028617775,
              18.319893875281593
            ],
            [
              73.48044930472416,
              18.319594051937095
            ],
            [
              73.48233404864521,
              18.31964968654186
            ],
            [
              73.48416985504328,
              18.32005857518041
            ],
            [
              73.48588399876873,
              18.320804519946794
            ],
            [
              73.48740857221316,
              18.321857970331564
            ],
            [
              73.48865384087986,
              18.323146833011656
            ],
            [
              73.48874210963575,
              18.32312248899489
            ],
            [
              73.48949502970311,
              18.32307121772844
            ],
            [
              73.48958602337898,
              18.323048732772328
            ],
            [
              73.48989932372555,
              18.322996465780562
            ],
            [
              73.49078770499256,
              18.322481522708884
            ],
            [
              73.49115689110741,
              18.322322230242055
            ],
            [
              73.4925185872599,
              18.321878480910406
            ],
            [
              73.49267238886296,
              18.321787229972823
            ],
            [
              73.49431762083303,
              18.32117801663519
            ],
            [
              73.49600108728335,
              18.320878550125194
            ],
            [
              73.49600000097271,
              18.320002427640052
            ],
            [
              73.49603361904882,
              18.31966782930676
            ],
            [
              73.49607798421478,
              18.319461826686542
            ],
            [
              73.49607120437058,
              18.319419298023437
            ],
            [
              73.49615337568676,
              18.317671841807588
            ],
            [
              73.49659031601531,
              18.315972539745555
            ],
            [
              73.49670783045524,
              18.31565394523408
            ],
            [
              73.49739396947058,
              18.314213943488813
            ],
            [
              73.49833503918899,
              18.31291020673311
            ],
            [
              73.49856994286563,
              18.31263931569224
            ],
            [
              73.49985709390333,
              18.311416398545795
            ],
            [
              73.5013669242631,
              18.310449882070195
            ],
            [
              73.50304364390355,
              18.30977547814989
            ],
            [
              73.50482529890215,
              18.309418105035355
            ],
            [
              73.50664605983432,
              18.30939096703422
            ],
            [
              73.50843865303726,
              18.309695066851376
            ],
            [
              73.51013684511588,
              18.310319168556656
            ],
            [
              73.5116778891002,
              18.311240212545535
            ],
            [
              73.51300484206614,
              18.312424167194834
            ],
            [
              73.51406866873864,
              18.313827285812284
            ],
            [
              73.51483005343628,
              18.315397722525603
            ],
            [
              73.51501852968673,
              18.316132611240626
            ],
            [
              73.51515749232418,
              18.316545756733735
            ],
            [
              73.51570707082399,
              18.317091855953322
            ],
            [
              73.516739756919,
              18.31869358785254
            ],
            [
              73.51679378003986,
              18.318733613804415
            ],
            [
              73.5176332319777,
              18.31975419516196
            ],
            [
              73.5189116867826,
              18.31900246481509
            ],
            [
              73.52061994220713,
              18.318389313380372
            ],
            [
              73.52242038132057,
              18.31809871597471
            ],
            [
              73.52424610060824,
              18.31814147102513
            ],
            [
              73.52602925758752,
              18.31851598978788
            ],
            [
              73.52770359064446,
              18.319208355357613
            ],
            [
              73.5292068802586,
              18.32019283958193
            ],
            [
              73.52992662944301,
              18.320892088096212
            ],
            [
              73.53098910118149,
              18.32094045694023
            ],
            [
              73.53275702122133,
              18.32135178889975
            ],
            [
              73.53309270676267,
              18.32146328341938
            ],
            [
              73.53485319186903,
              18.322248864889893
            ],
            [
              73.53640755332455,
              18.323359230001298
            ],
            [
              73.53769025557595,
              18.324747566380875
            ],
            [
              73.53864721235952,
              18.3263553412902
            ],
            [
              73.53901035251448,
              18.327436691543504
            ],
            [
              73.53976294797818,
              18.32743668939895
            ],
            [
              73.5415721134423,
              18.327775805258145
            ],
            [
              73.54327780900749,
              18.328441189882174
            ],
            [
              73.54481541380433,
              18.329407635549096
            ],
            [
              73.54508391012355,
              18.329614727184225
            ],
            [
              73.54634651348755,
              18.3307905018621
            ],
            [
              73.54639011996997,
              18.330849977231225
            ],
            [
              73.54678580810405,
              18.33109182500502
            ],
            [
              73.54728925318103,
              18.331548539661103
            ],
            [
              73.5475643914369,
              18.33149714903296
            ],
            [
              73.54942278477716,
              18.331501000986357
            ],
            [
              73.54974650976811,
              18.331562861806972
            ],
            [
              73.54978284088935,
              18.331209311493886
            ],
            [
              73.55031142855769,
              18.329537695455727
            ],
            [
              73.55117018441395,
              18.327994472730452
            ],
            [
              73.55232675944256,
              18.326637761028195
            ],
            [
              73.55373759173675,
              18.32551865279152
            ],
            [
              73.55534954748533,
              18.324679291653684
            ],
            [
              73.55710192185144,
              18.3241512859373
            ],
            [
              73.55892872442656,
              18.32395451883491
            ],
            [
              73.56076116331121,
              18.324096399988644
            ],
            [
              73.56253023445757,
              18.32457158659201
            ],
            [
              73.56416931898286,
              18.32536218449262
            ],
            [
              73.56561669086462,
              18.32643842173992
            ],
            [
              73.56681784077249,
              18.32775976926905
            ],
            [
              73.5668912393974,
              18.32785845435362
            ],
            [
              73.56689669731081,
              18.32786348140717
            ],
            [
              73.56714839854357,
              18.32811837233553
            ],
            [
              73.5675016210983,
              18.328590195695494
            ],
            [
              73.5678579738956,
              18.3289097367524
            ],
            [
              73.56891478294455,
              18.33030849224498
            ],
            [
              73.56993843542949,
              18.33198094850899
            ],
            [
              73.57076019763133,
              18.333729061576065
            ],
            [
              73.57094918019155,
              18.334585588606163
            ],
            [
              73.57159983653969,
              18.33451385155631
            ],
            [
              73.57334152411488,
              18.33462793698587
            ],
            [
              73.57503159464731,
              18.33504342775649
            ],
            [
              73.57567464618062,
              18.33532926758049
            ],
            [
              73.57633578680955,
              18.33555919228955
            ],
            [
              73.57792940779379,
              18.336483806349744
            ],
            [
              73.5793009889975,
              18.337687204057424
            ],
            [
              73.58039722667937,
              18.33912262227752
            ],
            [
              73.58117551361038,
              18.34073428047259
            ],
            [
              73.58130485859805,
              18.341253149783835
            ],
            [
              73.5813343190566,
              18.34130948994093
            ],
            [
              73.58182350826829,
              18.343068864779497
            ],
            [
              73.58182388849507,
              18.343075377500245
            ],
            [
              73.58228848563525,
              18.343270786998435
            ],
            [
              73.58330633628634,
              18.34395792609123
            ],
            [
              73.58390348279687,
              18.343696456300798
            ],
            [
              73.58480684606499,
              18.343220453990263
            ],
            [
              73.58676040499543,
              18.342664849324876
            ],
            [
              73.58879396466325,
              18.342518905632687
            ],
            [
              73.5908133231516,
              18.342789383544673
            ],
            [
              73.59272493609816,
              18.343463753524386
            ],
            [
              73.59312482212201,
              18.34365354469593
            ],
            [
              73.59467034304839,
              18.344573427555915
            ],
            [
              73.59600150656266,
              18.345757388661955
            ],
            [
              73.5970689656897,
              18.34716154222253
            ],
            [
              73.59746586101818,
              18.34797815709605
            ],
            [
              73.59821972196376,
              18.34782505722896
            ],
            [
              73.60002895105876,
              18.3477915393126
            ],
            [
              73.60181190146986,
              18.348085089430633
            ],
            [
              73.60350354811135,
              18.34869500170514
            ],
            [
              73.60504219431955,
              18.349599032254293
            ],
            [
              73.60637172119468,
              18.35076421009642
            ],
            [
              73.60744363393053,
              18.352148039173027
            ],
            [
              73.60821883058517,
              18.353700047735856
            ],
            [
              73.60866902879239,
              18.355363628682735
            ],
            [
              73.60877140879268,
              18.356977390247067
            ],
            [
              73.60903579504723,
              18.357227008743855
            ],
            [
              73.60958637338143,
              18.357990476118466
            ],
            [
              73.60971924767614,
              18.357570093110144
            ],
            [
              73.61015484161551,
              18.356462430505708
            ],
            [
              73.61035485845989,
              18.356040739502305
            ],
            [
              73.61120897040169,
              18.35460730432446
            ],
            [
              73.61232413850406,
              18.353345714937227
            ],
            [
              73.61366296863679,
              18.352298269362613
            ],
            [
              73.61518057034776,
              18.351500085202694
            ],
            [
              73.61682606185305,
              18.350977922669834
            ],
            [
              73.6185442755178,
              18.350749287772313
            ],
            [
              73.61901085130641,
              18.350728188895815
            ],
            [
              73.62082939035626,
              18.35081216381634
            ],
            [
              73.62259744004443,
              18.35122471108559
            ],
            [
              73.62424972586955,
              18.35195060002534
            ],
            [
              73.62572524534563,
              18.352963031562332
            ],
            [
              73.62696951948558,
              18.35422462721511
            ],
            [
              73.62793660391313,
              18.35568880858125
            ],
            [
              73.62813661786095,
              18.356068399724307
            ],
            [
              73.62853856128459,
              18.35711746766892
            ],
            [
              73.62868331148131,
              18.35744364748296
            ],
            [
              73.62875769929411,
              18.35766324346184
            ],
            [
              73.62891677985056,
              18.357911910745038
            ],
            [
              73.62946024674659,
              18.359046478707924
            ],
            [
              73.6295116854336,
              18.359089668694914
            ],
            [
              73.63059993337,
              18.360424390811257
            ],
            [
              73.63140628787632,
              18.36192857850854
            ],
            [
              73.63190234591256,
              18.363549262513736
            ],
            [
              73.63207062968283,
              18.36522936966231
            ],
            [
              73.63201096091689,
              18.365835474826365
            ],
            [
              73.63227044558921,
              18.366873176653048
            ],
            [
              73.63234589671433,
              18.368589595412594
            ],
            [
              73.63207607003783,
              18.370288314092566
            ],
            [
              73.6314708018126,
              18.371907345145875
            ],
            [
              73.63082675437244,
              18.372945151801233
            ],
            [
              73.63029021135046,
              18.37449029525166
            ],
            [
              73.62939861173895,
              18.375999384734158
            ],
            [
              73.62883571089993,
              18.37662886383731
            ],
            [
              73.62870303275866,
              18.37687694994733
            ],
            [
              73.6285078261202,
              18.37716868234658
            ],
            [
              73.62835221775408,
              18.37740131304039
            ],
            [
              73.6271522103561,
              18.37884462873417
            ],
            [
              73.6256679703303,
              18.380026187724056
            ],
            [
              73.62396152904242,
              18.380896604602103
            ],
            [
              73.62381739075947,
              18.380937184771888
            ],
            [
              73.62372503808295,
              18.38102587534738
            ],
            [
              73.62220552680981,
              18.38200635695995
            ],
            [
              73.62207781276108,
              18.382058018853805
            ],
            [
              73.62168562188737,
              18.38241181742094
            ],
            [
              73.62131781669844,
              18.382693328842144
            ],
            [
              73.62005219445348,
              18.38351119115334
            ],
            [
              73.61991995911384,
              18.383569668433523
            ],
            [
              73.61957884092372,
              18.383938376315413
            ],
            [
              73.61879584386472,
              18.3850849516693
            ],
            [
              73.61859904753719,
              18.38531905927197
            ],
            [
              73.61847415308728,
              18.385464494353524
            ],
            [
              73.61830905554068,
              18.38565270062468
            ],
            [
              73.61675173753922,
              18.38706488214878
            ],
            [
              73.61489857165991,
              18.388106852514564
            ],
            [
              73.61410354145022,
              18.38844466860824
            ],
            [
              73.6123159351251,
              18.38900949992469
            ],
            [
              73.61044590076266,
              18.38922758324381
            ],
            [
              73.61000117163125,
              18.38919508374095
            ],
            [
              73.6096937507521,
              18.389370643941817
            ],
            [
              73.60886999234215,
              18.389640990540226
            ],
            [
              73.60872507428854,
              18.389727411609375
            ],
            [
              73.60654857590897,
              18.39040872502344
            ],
            [
              73.60621295944343,
              18.39047242829243
            ],
            [
              73.60412908039358,
              18.390644564763708
            ],
            [
              73.60205616967653,
              18.39037869987621
            ],
            [
              73.60172055375382,
              18.390299095865437
            ],
            [
              73.60002893856192,
              18.389731739354502
            ],
            [
              73.59848033224534,
              18.388872009258627
            ],
            [
              73.59713024146413,
              18.387750722254907
            ],
            [
              73.59602705457571,
              18.38640806974174
            ],
            [
              73.59576764093892,
              18.385926598151077
            ],
            [
              73.59476963110235,
              18.385092344544674
            ],
            [
              73.59449428170545,
              18.384746031733734
            ],
            [
              73.59382968772765,
              18.38457506978421
            ],
            [
              73.59220304688081,
              18.38381755145183
            ],
            [
              73.59075808093536,
              18.3827800828004
            ],
            [
              73.58954761551101,
              18.38150059466189
            ],
            [
              73.58947534082607,
              18.38138619860204
            ],
            [
              73.58946781539491,
              18.381383851878066
            ],
            [
              73.58787580295206,
              18.380538157381835
            ],
            [
              73.5872180950259,
              18.38000908094581
            ],
            [
              73.58674767443392,
              18.37987888591841
            ],
            [
              73.58600582720099,
              18.37951658685081
            ],
            [
              73.58422449206384,
              18.379425088749038
            ],
            [
              73.58242569282564,
              18.378982354442304
            ],
            [
              73.58201531380662,
              18.378959173309894
            ],
            [
              73.5802310667958,
              18.37851904806224
            ],
            [
              73.57857038943543,
              18.37775940172173
            ],
            [
              73.57759681989282,
              18.37706572996924
            ],
            [
              73.57653439992974,
              18.37687973213582
            ],
            [
              73.57476494478269,
              18.376200879455165
            ],
            [
              73.57317473096693,
              18.375199301179563
            ],
            [
              73.57182826665333,
              18.373915629337173
            ],
            [
              73.57120026592416,
              18.373008658620584
            ],
            [
              73.57094024565765,
              18.373003561898724
            ],
            [
              73.56914895616374,
              18.372633362507578
            ],
            [
              73.56746631126398,
              18.371942740371896
            ],
            [
              73.56595529387549,
              18.370957546779735
            ],
            [
              73.5646724600404,
              18.36971465885542
            ],
            [
              73.5636658216641,
              18.368260598681097
            ],
            [
              73.56349803228805,
              18.367957991338677
            ],
            [
              73.56347314977039,
              18.36790358369358
            ],
            [
              73.5633758508365,
              18.36778138791099
            ],
            [
              73.5631261151685,
              18.367271535640178
            ],
            [
              73.56214937166008,
              18.366822165336902
            ],
            [
              73.56071740382163,
              18.365810127943583
            ],
            [
              73.56066168846989,
              18.365752450805164
            ],
            [
              73.559405884458,
              18.365882221778204
            ],
            [
              73.5575957749047,
              18.365734624366908
            ],
            [
              73.55733976567969,
              18.36589048124508
            ],
            [
              73.55559080736562,
              18.366537932474735
            ],
            [
              73.55374167462034,
              18.3668454354209
            ],
            [
              73.55186495450187,
              18.366800919106623
            ],
            [
              73.5500343175024,
              18.366406131015886
            ],
            [
              73.54832162430563,
              18.365676568465094
            ],
            [
              73.54800234660892,
              18.36546009195605
            ],
            [
              73.54795559980262,
              18.36544496414806
            ],
            [
              73.54648521026527,
              18.364671172020536
            ],
            [
              73.54554412667107,
              18.363943048378697
            ],
            [
              73.54396378489143,
              18.36340030318126
            ],
            [
              73.54361137208134,
              18.363240995690937
            ],
            [
              73.54233755157742,
              18.362545351668047
            ],
            [
              73.54119240115888,
              18.361671127095303
            ],
            [
              73.5409070999219,
              18.36141631743244
            ],
            [
              73.53970623362194,
              18.36011540739727
            ],
            [
              73.53878997813058,
              18.358620374913233
            ],
            [
              73.53854968680967,
              18.357963592618017
            ],
            [
              73.53823412771828,
              18.35793409143358
            ],
            [
              73.53645661408038,
              18.35742230014925
            ],
            [
              73.53481846859398,
              18.356591200459256
            ],
            [
              73.53338265028515,
              18.355472735348084
            ],
            [
              73.5322043389175,
              18.354109891855124
            ],
            [
              73.53190007630214,
              18.353569555822286
            ],
            [
              73.53188561288408,
              18.35356895946201
            ],
            [
              73.53002500723038,
              18.353125099273072
            ],
            [
              73.52831566135063,
              18.352343245363958
            ],
            [
              73.52761672008634,
              18.35258157183576
            ],
            [
              73.52575273218102,
              18.352841231601623
            ],
            [
              73.52387146401466,
              18.35274571465059
            ],
            [
              73.52204730090807,
              18.352298797728157
            ],
            [
              73.52035236922895,
              18.351518151854478
            ],
            [
              73.51885368338623,
              18.350434643307292
            ],
            [
              73.51761049537943,
              18.349091112688164
            ],
            [
              73.5167807926768,
              18.347720482305487
            ],
            [
              73.51630081622196,
              18.347673090197844
            ],
            [
              73.51458647574995,
              18.34718232114831
            ],
            [
              73.51300004185926,
              18.346394161720703
            ],
            [
              73.51191168430657,
              18.345573236989154
            ],
            [
              73.51139918689384,
              18.345619039605168
            ],
            [
              73.50969218400944,
              18.345441416823807
            ],
            [
              73.50872841812239,
              18.346070542891354
            ],
            [
              73.50704976969593,
              18.346761228781222
            ],
            [
              73.50526255134206,
              18.347132788472745
            ],
            [
              73.50343341350435,
              18.347171365357937
            ],
            [
              73.50163057064562,
              18.346875520787542
            ],
            [
              73.4999212561534,
              18.346256287746254
            ],
            [
              73.49836921391629,
              18.345336759212188
            ],
            [
              73.49718162695504,
              18.344283630229697
            ],
            [
              73.497161897754,
              18.344274266116123
            ],
            [
              73.4965916314162,
              18.344410667630328
            ],
            [
              73.49465591135261,
              18.344487892671268
            ],
            [
              73.49410208269292,
              18.34445609099369
            ],
            [
              73.49207103443729,
              18.344126387718507
            ],
            [
              73.49148370746556,
              18.34396707972138
            ],
            [
              73.49036854996928,
              18.343579894515603
            ],
            [
              73.48894901684852,
              18.343768580326092
            ],
            [
              73.48738083605866,
              18.3437289207848
            ],
            [
              73.4868941111926,
              18.343678118131724
            ],
            [
              73.48520435847033,
              18.34335190049463
            ],
            [
              73.4836048896357,
              18.342740380713057
            ],
            [
              73.48359728079504,
              18.342736675274036
            ],
            [
              73.48261924614535,
              18.34252509524196
            ],
            [
              73.48174276591958,
              18.342150978178005
            ],
            [
              73.48100405464999,
              18.34235433177035
            ],
            [
              73.48059703458763,
              18.342427835506086
            ],
            [
              73.47834769542644,
              18.34257481947393
            ],
            [
              73.47797277599457,
              18.342556818516044
            ],
            [
              73.47604070216516,
              18.342272310005548
            ],
            [
              73.47421130307195,
              18.341617413488976
            ],
            [
              73.47256249313621,
              18.340620021706208
            ],
            [
              73.4711644922058,
              18.33932261402333
            ],
            [
              73.47007683434248,
              18.337780446525155
            ],
            [
              73.46934583252255,
              18.336059197917965
            ],
            [
              73.46900260722391,
              18.334232171663512
            ],
            [
              73.46906176271274,
              18.332377173650197
            ],
            [
              73.46952076713842,
              18.33057319848418
            ],
            [
              73.46959817650426,
              18.330365702099947
            ],
            [
              73.47045782740317,
              18.328657988480376
            ],
            [
              73.47105597298517,
              18.327921248967687
            ]
          ]
        ]
      }
    }
  ]
}