{
  "nvdm": "1.0",
  "dataset": "geojson-layers/buffer-1000m",
  "scope": {
    "kind": "city",
    "id": "pune"
  },
  "provenance": {
    "sources": [
      {
        "id": "osm-overpass",
        "title": "OpenStreetMap body polygon (Overpass relation/way extract)",
        "publisher": "OpenStreetMap contributors",
        "license": "ODbL 1.0",
        "role": "input"
      }
    ],
    "method": "derived",
    "produced_at": "1970-01-01",
    "produced_by": "scripts/fetch-rich-body-polygon.ts",
    "internal_inputs": [],
    "note": "1 km Minkowski offset of the body polygon (@turf/buffer), not a circle from the centroid; derived in-memory from the same Overpass fetch, hence internal_inputs []."
  },
  "type": "FeatureCollection",
  "features": [
    {
      "type": "Feature",
      "properties": {
        "body_id": "pavana",
        "buffer_metres": 1000,
        "source_polygon": "pavana.geojson",
        "computed_with": "@turf/buffer",
        "fetched_at": "2026-08-25T13:52:48.777Z"
      },
      "geometry": {
        "type": "Polygon",
        "coordinates": [
          [
            [
              73.4004269783045,
              18.68279213311532
            ],
            [
              73.40109151389063,
              18.682469824168336
            ],
            [
              73.40262525730004,
              18.682014495838562
            ],
            [
              73.40388402691683,
              18.68185351304022
            ],
            [
              73.40407703548958,
              18.681551262794812
            ],
            [
              73.40450523123967,
              18.681074404191566
            ],
            [
              73.4045208422209,
              18.68105432126374
            ],
            [
              73.40450871050827,
              18.68104528648195
            ],
            [
              73.40456771170086,
              18.680974188813067
            ],
            [
              73.40462861558944,
              18.68091567479892
            ],
            [
              73.40471986644762,
              18.68079828370883
            ],
            [
              73.40507498422947,
              18.68018906954656
            ],
            [
              73.40627021171656,
              18.678845403633314
            ],
            [
              73.40771840832821,
              18.677747542440457
            ],
            [
              73.40936429224071,
              18.676937391217063
            ],
            [
              73.41114503894033,
              18.676445872840144
            ],
            [
              73.41299267855786,
              18.676291747995265
            ],
            [
              73.41483668917569,
              18.676480899420294
            ],
            [
              73.41619842150732,
              18.67688496532254
            ],
            [
              73.41702096508537,
              18.676640507581403
            ],
            [
              73.41706116307687,
              18.676632907975613
            ],
            [
              73.41832150523017,
              18.67649737357246
            ],
            [
              73.41887862025365,
              18.676162684523465
            ],
            [
              73.42056234221788,
              18.67553609732869
            ],
            [
              73.42058114133751,
              18.67553099758828
            ],
            [
              73.42250660601476,
              18.675207144654408
            ],
            [
              73.42446126219366,
              18.67526390843157
            ],
            [
              73.4263621740217,
              18.675698880444457
            ],
            [
              73.42812868496381,
              18.676493604804087
            ],
            [
              73.42928657526794,
              18.67732699509681
            ],
            [
              73.4300949538221,
              18.67721987463535
            ],
            [
              73.43128566397677,
              18.677277005972044
            ],
            [
              73.43183251790585,
              18.67587355980517
            ],
            [
              73.43184861886654,
              18.67584566051506
            ],
            [
              73.43230774672097,
              18.675216943453496
            ],
            [
              73.43258803580606,
              18.67449292264239
            ],
            [
              73.43289298967817,
              18.674033658566735
            ],
            [
              73.43295927131712,
              18.67389462617159
            ],
            [
              73.43338238675268,
              18.67329661465287
            ],
            [
              73.43364751079183,
              18.67289732818599
            ],
            [
              73.43370344267089,
              18.672842845822544
            ],
            [
              73.43383720141378,
              18.672653795172
            ],
            [
              73.43384790161525,
              18.672641095592127
            ],
            [
              73.43526895882636,
              18.67128089945099
            ],
            [
              73.4369616186602,
              18.67023635013167
            ],
            [
              73.43884923457422,
              18.669554744006366
            ],
            [
              73.44009500060629,
              18.66937522020509
            ],
            [
              73.44048667690875,
              18.669227526383285
            ],
            [
              73.44230655040882,
              18.668907531940686
            ],
            [
              73.44415737311046,
              18.66892818235653
            ],
            [
              73.44596878756,
              18.66928869262407
            ],
            [
              73.4476719336822,
              18.669975358206486
            ],
            [
              73.44920206533062,
              18.67096207576895
            ],
            [
              73.4503132817954,
              18.672030788607735
            ],
            [
              73.45063761175538,
              18.67199828169692
            ],
            [
              73.45122794570656,
              18.671840431260556
            ],
            [
              73.45206244810701,
              18.671394159375176
            ],
            [
              73.45261242896817,
              18.671221155056074
            ],
            [
              73.45312439545164,
              18.670022226444157
            ],
            [
              73.45416749447303,
              18.66852708070232
            ],
            [
              73.45550280465386,
              18.667257572349687
            ],
            [
              73.45707729463751,
              18.666264113852243
            ],
            [
              73.45882843869916,
              18.66558615489427
            ],
            [
              73.46068669921867,
              18.665250616455776
            ],
            [
              73.46092808656937,
              18.665230317529794
            ],
            [
              73.46125473220926,
              18.66522872204422
            ],
            [
              73.46139243340117,
              18.66518312843423
            ],
            [
              73.46145673029937,
              18.665167929216643
            ],
            [
              73.46170816055205,
              18.665131284291405
            ],
            [
              73.46171689591242,
              18.665128953178087
            ],
            [
              73.46173387872773,
              18.665127535953324
            ],
            [
              73.46317839578646,
              18.664916996539937
            ],
            [
              73.46334886092696,
              18.66492202315071
            ],
            [
              73.46376978470335,
              18.664730794898254
            ],
            [
              73.46427672305533,
              18.664606115990306
            ],
            [
              73.46427829309651,
              18.66460552615504
            ],
            [
              73.46428043086425,
              18.664605204067893
            ],
            [
              73.46554162754927,
              18.664295012439517
            ],
            [
              73.46736880994416,
              18.664189529925682
            ],
            [
              73.46855557580804,
              18.664339131516222
            ],
            [
              73.46863424838169,
              18.66414457808627
            ],
            [
              73.46870330856947,
              18.664010663576693
            ],
            [
              73.46873751713902,
              18.663908218467245
            ],
            [
              73.46894791420861,
              18.663563316629425
            ],
            [
              73.46863478215947,
              18.66277012195663
            ],
            [
              73.46833427448897,
              18.66129467214534
            ],
            [
              73.46831736490003,
              18.66060825730408
            ],
            [
              73.46817078420013,
              18.659103711223175
            ],
            [
              73.46840049470441,
              18.65724422285325
            ],
            [
              73.46840589588646,
              18.657221423117466
            ],
            [
              73.46849392408181,
              18.656881016918124
            ],
            [
              73.4685609360882,
              18.656642120165987
            ],
            [
              73.46860368032114,
              18.65652579302443
            ],
            [
              73.46826253674817,
              18.655814131364718
            ],
            [
              73.46811407663776,
              18.655185876600942
            ],
            [
              73.46808637271961,
              18.655163040737705
            ],
            [
              73.4674767217448,
              18.65443392702936
            ],
            [
              73.46697410697465,
              18.654020805438535
            ],
            [
              73.46581906752627,
              18.65260052504318
            ],
            [
              73.46574105538778,
              18.652450131112143
            ],
            [
              73.46552263096898,
              18.652529922203026
            ],
            [
              73.46550383009,
              18.65253502246303
            ],
            [
              73.46354499262887,
              18.65286104972769
            ],
            [
              73.4615574510803,
              18.652793158042304
            ],
            [
              73.46148234722,
              18.652783057513066
            ],
            [
              73.46080309666883,
              18.652608474281607
            ],
            [
              73.4598336928468,
              18.652854824702757
            ],
            [
              73.45818400095169,
              18.65299170361568
            ],
            [
              73.45814649896482,
              18.6529917036159
            ],
            [
              73.45659985377422,
              18.652871503032188
            ],
            [
              73.45533111908787,
              18.652570280596994
            ],
            [
              73.45419105374839,
              18.65295164337183
            ],
            [
              73.45226539554496,
              18.65319816845779
            ],
            [
              73.45032710379965,
              18.6530679564716
            ],
            [
              73.45011249294322,
              18.653032354613348
            ],
            [
              73.44839422626157,
              18.652586481343985
            ],
            [
              73.44679417589133,
              18.651844228905254
            ],
            [
              73.44536871579979,
              18.65083174967791
            ],
            [
              73.44416806606976,
              18.64958471661456
            ],
            [
              73.44323452331942,
              18.648147065898254
            ],
            [
              73.44260097076719,
              18.646569448473848
            ],
            [
              73.44228972041253,
              18.644907445093136
            ],
            [
              73.44231172803481,
              18.643219607836873
            ],
            [
              73.44249467387999,
              18.642365880979238
            ],
            [
              73.44253372085728,
              18.642129091025648
            ],
            [
              73.44257933341655,
              18.641892793278632
            ],
            [
              73.44259127497656,
              18.64189486282776
            ],
            [
              73.44277866042083,
              18.6410629834798
            ],
            [
              73.44279305055981,
              18.640978863804904
            ],
            [
              73.44283056082172,
              18.64078566565726
            ],
            [
              73.44329169151578,
              18.63922126382232
            ],
            [
              73.44404226112069,
              18.637760969720915
            ],
            [
              73.44405036150629,
              18.637748270068965
            ],
            [
              73.44522263457475,
              18.63627598957311
            ],
            [
              73.44651099215399,
              18.635207408696157
            ],
            [
              73.44693890678732,
              18.63480457653516
            ],
            [
              73.44694970658902,
              18.63479687686112
            ],
            [
              73.44739061247152,
              18.634500778439694
            ],
            [
              73.44747101050403,
              18.634449980678774
            ],
            [
              73.44944646074354,
              18.63349669262665
            ],
            [
              73.45001243646833,
              18.633298502475714
            ],
            [
              73.45042184049164,
              18.633191101779474
            ],
            [
              73.45182625357319,
              18.632454556348957
            ],
            [
              73.45346610839705,
              18.63193436071882
            ],
            [
              73.45351170617799,
              18.63192416124483
            ],
            [
              73.45374189023032,
              18.63189669701629
            ],
            [
              73.45530264738183,
              18.6308029046836
            ],
            [
              73.455539728275,
              18.630703230075245
            ],
            [
              73.45586866261581,
              18.630471072979343
            ],
            [
              73.45591696143306,
              18.630440574323966
            ],
            [
              73.45773992854537,
              18.629542666786882
            ],
            [
              73.45778822652265,
              18.629524867665925
            ],
            [
              73.45996038229556,
              18.629006642344855
            ],
            [
              73.46091391016566,
              18.628339195503393
            ],
            [
              73.4625854337023,
              18.627591296271394
            ],
            [
              73.46437823460609,
              18.627164615421336
            ],
            [
              73.46443183186258,
              18.627157015820075
            ],
            [
              73.46666971633316,
              18.627126002360665
            ],
            [
              73.46735065446647,
              18.626838780810004
            ],
            [
              73.46762015082103,
              18.626778889411256
            ],
            [
              73.46781920313445,
              18.626564940288542
            ],
            [
              73.46791470671361,
              18.626427653068056
            ],
            [
              73.46820627856943,
              18.625620372986088
            ],
            [
              73.46823848085543,
              18.625559374430768
            ],
            [
              73.46929755910399,
              18.62398600152647
            ],
            [
              73.47067649300571,
              18.622653635486767
            ],
            [
              73.47155215959839,
              18.62210134762798
            ],
            [
              73.47120691198268,
              18.621208324472107
            ],
            [
              73.47119621404475,
              18.621167723950393
            ],
            [
              73.47095353414174,
              18.619814003762734
            ],
            [
              73.47093115580068,
              18.61844105150076
            ],
            [
              73.47093656045975,
              18.618357151769573
            ],
            [
              73.47094160522134,
              18.618326373280244
            ],
            [
              73.4707274093654,
              18.617981737638456
            ],
            [
              73.47009347674127,
              18.617098802118058
            ],
            [
              73.46935413543386,
              18.615414902199376
            ],
            [
              73.4689885058674,
              18.61362426660592
            ],
            [
              73.4690116146766,
              18.611800545031244
            ],
            [
              73.46942249909014,
              18.61001874564962
            ],
            [
              73.47020424853535,
              18.608352150108455
            ],
            [
              73.47022574969569,
              18.60831655104432
            ],
            [
              73.47137790427693,
              18.60679982592154
            ],
            [
              73.47283593703743,
              18.605541528129645
            ],
            [
              73.47453688305177,
              18.604595991879638
            ],
            [
              73.47459588079779,
              18.60457059310483
            ],
            [
              73.47640945256708,
              18.603990763429522
            ],
            [
              73.47830889857593,
              18.603767632891714
            ],
            [
              73.47963244795997,
              18.60386658289382
            ],
            [
              73.48154600369614,
              18.60360493921421
            ],
            [
              73.48166409745424,
              18.603602439349512
            ],
            [
              73.4837083510359,
              18.603769451647956
            ],
            [
              73.48566694346314,
              18.604349019874892
            ],
            [
              73.4857715393519,
              18.604392217780365
            ],
            [
              73.48722004185753,
              18.605138510858048
            ],
            [
              73.48762562562625,
              18.60544423271086
            ],
            [
              73.48765107946691,
              18.60545527782088
            ],
            [
              73.48806406547129,
              18.60566116818104
            ],
            [
              73.48911743810316,
              18.60631163578337
            ],
            [
              73.48933984674709,
              18.606386887444113
            ],
            [
              73.49079712620357,
              18.60717785224178
            ],
            [
              73.49208447835919,
              18.60819988337336
            ],
            [
              73.49212737836058,
              18.608240581850445
            ],
            [
              73.49272652969749,
              18.60895094922133
            ],
            [
              73.49305141361856,
              18.609148558889036
            ],
            [
              73.4931265126196,
              18.60920705649685
            ],
            [
              73.494825924628,
              18.610931442327644
            ],
            [
              73.49483932502442,
              18.61094924178002
            ],
            [
              73.4953456495538,
              18.611879501734155
            ],
            [
              73.49542381010689,
              18.61197828544077
            ],
            [
              73.49578372401177,
              18.612118670398246
            ],
            [
              73.49595541877113,
              18.612212766088405
            ],
            [
              73.49698423579132,
              18.612864967198597
            ],
            [
              73.49713443319764,
              18.612974262609974
            ],
            [
              73.49867439144298,
              18.614383306227477
            ],
            [
              73.49872482739151,
              18.614456755661283
            ],
            [
              73.49933881523421,
              18.614726304464494
            ],
            [
              73.49938171387528,
              18.614749103412418
            ],
            [
              73.50070452836337,
              18.615598257226985
            ],
            [
              73.50097236276403,
              18.615841409585098
            ],
            [
              73.50117779533218,
              18.61593373227265
            ],
            [
              73.50133609065671,
              18.616022728222784
            ],
            [
              73.50299623964779,
              18.61720670375602
            ],
            [
              73.50308743923775,
              18.617288000620416
            ],
            [
              73.50452291576623,
              18.618909539542077
            ],
            [
              73.50468112185355,
              18.61913833289655
            ],
            [
              73.5053074201882,
              18.62023511833747
            ],
            [
              73.50575144656642,
              18.620998162869487
            ],
            [
              73.506303981833,
              18.622595383033012
            ],
            [
              73.50653323358524,
              18.624262140846053
            ],
            [
              73.50653593754855,
              18.62433324070742
            ],
            [
              73.50642965466244,
              18.62550420487125
            ],
            [
              73.50646669865868,
              18.62550658335956
            ],
            [
              73.50645870486127,
              18.625618383755114
            ],
            [
              73.50637506438034,
              18.626105643204067
            ],
            [
              73.50633827546092,
              18.626510955932112
            ],
            [
              73.50628458807954,
              18.626752458559153
            ],
            [
              73.50626471557304,
              18.62674849147683
            ],
            [
              73.5061738844104,
              18.627277634034954
            ],
            [
              73.50556816292381,
              18.62885766421222
            ],
            [
              73.50522139006014,
              18.62941129955465
            ],
            [
              73.50558835173945,
              18.630501621622543
            ],
            [
              73.50568497414108,
              18.630931216862326
            ],
            [
              73.50584776042575,
              18.63192445003212
            ],
            [
              73.5058638689598,
              18.632079449221024
            ],
            [
              73.50582887938675,
              18.634130969603895
            ],
            [
              73.5053040728658,
              18.636121581523128
            ],
            [
              73.50523127881362,
              18.636256218064958
            ],
            [
              73.50555879012555,
              18.636609199843335
            ],
            [
              73.50641733985474,
              18.6379448115356
            ],
            [
              73.50655684992586,
              18.63821160525223
            ],
            [
              73.50709515031387,
              18.639472779167818
            ],
            [
              73.50713535602785,
              18.6395922772403
            ],
            [
              73.50755543454326,
              18.64162939240382
            ],
            [
              73.50756083820465,
              18.641695492130502
            ],
            [
              73.50752560863069,
              18.64342921207871
            ],
            [
              73.5071398697822,
              18.645124296746957
            ],
            [
              73.50670616783137,
              18.64608157503666
            ],
            [
              73.50653427999944,
              18.647446712510412
            ],
            [
              73.50660622095161,
              18.64766890493092
            ],
            [
              73.50700685954432,
              18.64977220162033
            ],
            [
              73.50702027141902,
              18.649985700938963
            ],
            [
              73.50697446083012,
              18.65155102959151
            ],
            [
              73.50664276458448,
              18.653085099140892
            ],
            [
              73.50657037335196,
              18.653258627368373
            ],
            [
              73.50649842048757,
              18.65359380660284
            ],
            [
              73.50568530542398,
              18.655347078360776
            ],
            [
              73.50558071105822,
              18.655519882912426
            ],
            [
              73.50539576650769,
              18.655766650599606
            ],
            [
              73.50588167283361,
              18.65650407774175
            ],
            [
              73.50599428101576,
              18.65672007266532
            ],
            [
              73.50666491913694,
              18.658419782751125
            ],
            [
              73.50696178095339,
              18.660212443956432
            ],
            [
              73.506924460189,
              18.660972443676524
            ],
            [
              73.50723620798969,
              18.66278984380575
            ],
            [
              73.50724692474074,
              18.66308974325491
            ],
            [
              73.50706956232253,
              18.66515044302415
            ],
            [
              73.50673013789695,
              18.666148231040815
            ],
            [
              73.50702941941275,
              18.666834179185383
            ],
            [
              73.50738988519522,
              18.668464623532103
            ],
            [
              73.50742178384944,
              18.669905370644045
            ],
            [
              73.50743067365059,
              18.670138885960846
            ],
            [
              73.50727162872438,
              18.671458945121174
            ],
            [
              73.50729804682071,
              18.67159989957027
            ],
            [
              73.50730615475082,
              18.67174219915748
            ],
            [
              73.50722161379029,
              18.673518063836546
            ],
            [
              73.50676999553522,
              18.675243480011115
            ],
            [
              73.50646731941384,
              18.676048799894897
            ],
            [
              73.50583202625388,
              18.677758715704755
            ],
            [
              73.50570216430901,
              18.678087592807156
            ],
            [
              73.50467417743978,
              18.680543716123317
            ],
            [
              73.50416254513314,
              18.68182120014757
            ],
            [
              73.50385997628875,
              18.68290091832832
            ],
            [
              73.50351131589659,
              18.68378003469641
            ],
            [
              73.50348899307984,
              18.683835757831236
            ],
            [
              73.50257179427922,
              18.686102600785677
            ],
            [
              73.50173869876363,
              18.687678834789626
            ],
            [
              73.50059700778264,
              18.689070841338065
            ],
            [
              73.49919058225053,
              18.69022513450767
            ],
            [
              73.49757345852164,
              18.69109736119278
            ],
            [
              73.49580777207696,
              18.69165400594679
            ],
            [
              73.49487972821102,
              18.691764421102636
            ],
            [
              73.49447275722721,
              18.691922190327812
            ],
            [
              73.49431533914847,
              18.692067782138384
            ],
            [
              73.49382632383158,
              18.692556498007825
            ],
            [
              73.49372972242544,
              18.692630101050693
            ],
            [
              73.49210090734171,
              18.693629940353794
            ],
            [
              73.49029145836167,
              18.694295099387492
            ],
            [
              73.48933712786004,
              18.694445981910768
            ],
            [
              73.48920314941192,
              18.694613082294197
            ],
            [
              73.48916602299369,
              18.69464415188734
            ],
            [
              73.48904078399993,
              18.694846345346498
            ],
            [
              73.4889817855937,
              18.694922547736173
            ],
            [
              73.48778156915427,
              18.69619822956089
            ],
            [
              73.4863482680795,
              18.697235835189698
            ],
            [
              73.48473363061042,
              18.697997899936563
            ],
            [
              73.48462902619659,
              18.69803600182521
            ],
            [
              73.48227330316804,
              18.698579844595663
            ],
            [
              73.48217669813594,
              18.698590045135816
            ],
            [
              73.48205021225539,
              18.698594362405043
            ],
            [
              73.48095081723653,
              18.699052163602257
            ],
            [
              73.47928282231936,
              18.699427692972687
            ],
            [
              73.47757072070924,
              18.699512947352286
            ],
            [
              73.47749831687423,
              18.699510347216048
            ],
            [
              73.47501941944968,
              18.699105439903622
            ],
            [
              73.47493894213339,
              18.699081555452
            ],
            [
              73.47413946005926,
              18.69899084098923
            ],
            [
              73.47263156841596,
              18.69857252520122
            ],
            [
              73.47259676694763,
              18.698559824573078
            ],
            [
              73.47204446476232,
              18.698298559775
            ],
            [
              73.47128582344452,
              18.698446448518265
            ],
            [
              73.47128422973113,
              18.698603773479967
            ],
            [
              73.47127883195881,
              18.698644473748615
            ],
            [
              73.47087006005135,
              18.700354872498064
            ],
            [
              73.47011860948463,
              18.701957606649536
            ],
            [
              73.4690530468521,
              18.703391728203655
            ],
            [
              73.46771388655948,
              18.704602699631035
            ],
            [
              73.46615205082205,
              18.70554446840706
            ],
            [
              73.46442693326645,
              18.706181218949137
            ],
            [
              73.46260413977994,
              18.70648873522056
            ],
            [
              73.46075299261702,
              18.70645532208008
            ],
            [
              73.45894389285449,
              18.706082250262746
            ],
            [
              73.45850248289496,
              18.705900686972324
            ],
            [
              73.45754715684984,
              18.70567964154671
            ],
            [
              73.4573219834232,
              18.706066678059557
            ],
            [
              73.45723513750367,
              18.706323351832065
            ],
            [
              73.45627351334733,
              18.707929635455443
            ],
            [
              73.45498576974478,
              18.70931602319105
            ],
            [
              73.453426195366,
              18.71042405993861
            ],
            [
              73.45166054429517,
              18.711207025860418
            ],
            [
              73.45144221766436,
              18.71125591947211
            ],
            [
              73.4506176225131,
              18.711591599327342
            ],
            [
              73.4486529868687,
              18.711958421191998
            ],
            [
              73.44853228053462,
              18.711968621730854
            ],
            [
              73.4466080279497,
              18.711945785200182
            ],
            [
              73.44472816446974,
              18.71155591858724
            ],
            [
              73.44296991981976,
              18.71081503875213
            ],
            [
              73.44249962367398,
              18.710495941364297
            ],
            [
              73.44233691668835,
              18.71069408819432
            ],
            [
              73.44203644689773,
              18.711225682424544
            ],
            [
              73.44078417929298,
              18.71264163973165
            ],
            [
              73.43925287868286,
              18.713785404329204
            ],
            [
              73.4375071438603,
              18.714608722176287
            ],
            [
              73.43562062398023,
              18.715076857896253
            ],
            [
              73.43367291047792,
              18.715170060851328
            ],
            [
              73.43174617774258,
              18.71488439879391
            ],
            [
              73.42992171456753,
              18.714231923844963
            ],
            [
              73.42989491361358,
              18.714219223241955
            ],
            [
              73.42825090267256,
              18.71322837036354
            ],
            [
              73.42759479229932,
              18.7126230010828
            ],
            [
              73.42752884989495,
              18.712664158816782
            ],
            [
              73.42602861186597,
              18.7132820003217
            ],
            [
              73.4244386608829,
              18.713646755750396
            ],
            [
              73.42369717177566,
              18.71369256073903
            ],
            [
              73.4236979330982,
              18.713699762417694
            ],
            [
              73.42351022327712,
              18.713717563353374
            ],
            [
              73.42327267090783,
              18.71371878267199
            ],
            [
              73.42280619988081,
              18.713747596043028
            ],
            [
              73.42255138635709,
              18.71374249576657
            ],
            [
              73.42255183296005,
              18.713722480790086
            ],
            [
              73.4217207427355,
              18.713726741121768
            ],
            [
              73.41996122918468,
              18.71341773612477
            ],
            [
              73.41973935906908,
              18.713335724438746
            ],
            [
              73.41841710208286,
              18.71324428563071
            ],
            [
              73.41667441319817,
              18.71279942581728
            ],
            [
              73.41505209708444,
              18.712050262376096
            ],
            [
              73.41360877746244,
              18.711023867850752
            ],
            [
              73.41239660711713,
              18.70975733251433
            ],
            [
              73.41226452501355,
              18.709551449785955
            ],
            [
              73.41209460836951,
              18.7093801716342
            ],
            [
              73.41176262477573,
              18.708872690344887
            ],
            [
              73.4114903107348,
              18.708675996322523
            ],
            [
              73.41134632796046,
              18.708519332842894
            ],
            [
              73.41131137766578,
              18.708501198949914
            ],
            [
              73.41119665743616,
              18.708409041599445
            ],
            [
              73.41026721184609,
              18.70809341617474
            ],
            [
              73.40865721120893,
              18.70717394912987
            ],
            [
              73.40727005963836,
              18.705972034008084
            ],
            [
              73.40616014234078,
              18.704534798120783
            ],
            [
              73.40537097085284,
              18.702918594446867
            ],
            [
              73.40534957357437,
              18.70286019343266
            ],
            [
              73.40530288851969,
              18.702671898267987
            ],
            [
              73.40498261081659,
              18.70254773767668
            ],
            [
              73.4034459477994,
              18.70158868394784
            ],
            [
              73.40213349191139,
              18.700366849418266
            ],
            [
              73.40197474681061,
              18.700147024121268
            ],
            [
              73.40139415782407,
              18.70005115444914
            ],
            [
              73.39982190681111,
              18.69950913239482
            ],
            [
              73.39974150379257,
              18.699473530681644
            ],
            [
              73.39807820386625,
              18.698530055196223
            ],
            [
              73.39665193116358,
              18.697286203744778
            ],
            [
              73.39552215804744,
              18.695793847196065
            ],
            [
              73.39473598863638,
              18.694115218042814
            ],
            [
              73.39432619537457,
              18.692320314557616
            ],
            [
              73.39430985391967,
              18.690483981342865
            ],
            [
              73.39468763303796,
              18.688682788127625
            ],
            [
              73.39474124103792,
              18.688517690708338
            ],
            [
              73.39543283977108,
              18.686939767658004
            ],
            [
              73.39642696751162,
              18.685514214968958
            ],
            [
              73.39768774011911,
              18.684292479381554
            ],
            [
              73.39916965344963,
              18.683318651068063
            ],
            [
              73.4004269783045,
              18.68279213311532
            ]
          ]
        ]
      }
    }
  ]
}