{
  "type": "FeatureCollection",
  "features": [
    {
      "type": "Feature",
      "properties": {
        "body_id": "perumbakkam",
        "buffer_metres": 1000,
        "source_polygon": "perumbakkam.geojson",
        "computed_with": "@turf/buffer",
        "fetched_at": "2026-05-19T13:10:35.658Z"
      },
      "geometry": {
        "type": "Polygon",
        "coordinates": [
          [
            [
              80.17683809485261,
              12.892853075339968
            ],
            [
              80.17685144498208,
              12.892816759371827
            ],
            [
              80.17779251246589,
              12.891293700741981
            ],
            [
              80.17902256303105,
              12.889980876348902
            ],
            [
              80.17933241658224,
              12.889759427783629
            ],
            [
              80.1796473758448,
              12.889267316058584
            ],
            [
              80.18096287017946,
              12.887929481321972
            ],
            [
              80.18169209857668,
              12.887443005469482
            ],
            [
              80.1819191336289,
              12.8870810379252
            ],
            [
              80.18320599418404,
              12.885742798728602
            ],
            [
              80.18474461580706,
              12.884686912000879
            ],
            [
              80.18647099433109,
              12.88395729903914
            ],
            [
              80.18756816053408,
              12.88361831064962
            ],
            [
              80.18784555116639,
              12.883548039210606
            ],
            [
              80.18934522959805,
              12.882830042627598
            ],
            [
              80.1901092068919,
              12.882568751487552
            ],
            [
              80.19181401392888,
              12.882158329970572
            ],
            [
              80.19356771015687,
              12.882070232550335
            ],
            [
              80.19530676267004,
              12.882307650818532
            ],
            [
              80.1969681689078,
              12.882861983580355
            ],
            [
              80.19849173842215,
              12.883713148362045
            ],
            [
              80.19982227292248,
              12.884830308746743
            ],
            [
              80.2009115657205,
              12.886172991227289
            ],
            [
              80.20172014820227,
              12.887692551168682
            ],
            [
              80.20172980397118,
              12.88772433982114
            ],
            [
              80.20184117146188,
              12.88793140340596
            ],
            [
              80.20235019651449,
              12.889600476489393
            ],
            [
              80.20251972127093,
              12.891333886761746
            ],
            [
              80.20234338346256,
              12.893066651166638
            ],
            [
              80.20232650781604,
              12.893149572415842
            ],
            [
              80.20230503238211,
              12.893255293710876
            ],
            [
              80.20185420898598,
              12.89464771383114
            ],
            [
              80.20183225175424,
              12.899541890845837
            ],
            [
              80.20175358344156,
              12.900675122110417
            ],
            [
              80.2016678062871,
              12.901310925085797
            ],
            [
              80.20132998287647,
              12.90281019778893
            ],
            [
              80.200735499964,
              12.904231629163055
            ],
            [
              80.19990167344476,
              12.905533806227362
            ],
            [
              80.19948968036371,
              12.906069317774971
            ],
            [
              80.19820291005884,
              12.907425602864368
            ],
            [
              80.19665896240716,
              12.90849698319733
            ],
            [
              80.19492298785225,
              12.909238247424678
            ],
            [
              80.19306824248183,
              12.909618114483326
            ],
            [
              80.19117299599075,
              12.909620554023823
            ],
            [
              80.19016371281133,
              12.909416557810186
            ],
            [
              80.1900175057153,
              12.909510120531356
            ],
            [
              80.18848275002166,
              12.910142767337181
            ],
            [
              80.18740981703726,
              12.91047737879199
            ],
            [
              80.18562934239807,
              12.910848772919572
            ],
            [
              80.18380870975537,
              12.910872109950095
            ],
            [
              80.18201883082266,
              12.91054648093166
            ],
            [
              80.18032941911194,
              12.90988456874806
            ],
            [
              80.17880627387214,
              12.908912153982083
            ],
            [
              80.17750871671254,
              12.907667110504063
            ],
            [
              80.17648728087111,
              12.90619792996272
            ],
            [
              80.17578174318972,
              12.90456183272186
            ],
            [
              80.17549857174548,
              12.90366662324619
            ],
            [
              80.17509876298365,
              12.901430388358907
            ],
            [
              80.17503870973296,
              12.900158686266552
            ],
            [
              80.17503045738886,
              12.899907664651915
            ],
            [
              80.17500470857546,
              12.898518863760358
            ],
            [
              80.17519998383708,
              12.89650884506692
            ],
            [
              80.17525119203906,
              12.896271046824282
            ],
            [
              80.17576285464645,
              12.894662534036252
            ],
            [
              80.17657318284718,
              12.893175208369074
            ],
            [
              80.17683809485261,
              12.892853075339968
            ]
          ]
        ]
      }
    }
  ]
}