{
  "nvdm": "1.0",
  "dataset": "geojson-layers/buffer-1000m",
  "scope": {
    "kind": "city",
    "id": "chennai"
  },
  "provenance": {
    "sources": [
      {
        "id": "osm-overpass",
        "title": "OpenStreetMap body polygon (Overpass relation/way extract)",
        "publisher": "OpenStreetMap contributors",
        "license": "ODbL 1.0",
        "role": "input"
      }
    ],
    "method": "derived",
    "produced_at": "2026-05-19",
    "produced_by": "scripts/fetch-rich-body-polygon.ts",
    "note": "1 km Minkowski offset of the body polygon (@turf/buffer), not a circle from the centroid."
  },
  "type": "FeatureCollection",
  "features": [
    {
      "type": "Feature",
      "properties": {
        "body_id": "porur",
        "buffer_metres": 1000,
        "source_polygon": "porur.geojson",
        "computed_with": "@turf/buffer",
        "fetched_at": "2026-05-19T13:10:30.681Z"
      },
      "geometry": {
        "type": "Polygon",
        "coordinates": [
          [
            [
              80.1379278229613,
              13.038688578915627
            ],
            [
              80.13740337525645,
              13.037059261209034
            ],
            [
              80.13700989211802,
              13.035085961586235
            ],
            [
              80.13707614939443,
              13.033076808517018
            ],
            [
              80.13712986242271,
              13.032716210401048
            ],
            [
              80.13760506709879,
              13.030894150278163
            ],
            [
              80.13845869313421,
              13.029208147910836
            ],
            [
              80.13914770868853,
              13.028356773206484
            ],
            [
              80.13961917991884,
              13.027533858585787
            ],
            [
              80.14074555267112,
              13.026228402258536
            ],
            [
              80.14210461500755,
              13.025153577137537
            ],
            [
              80.14364749463175,
              13.024348032145133
            ],
            [
              80.14531871128158,
              13.023840733012985
            ],
            [
              80.14705817134025,
              13.023649921025616
            ],
            [
              80.1471806547625,
              13.023647872620069
            ],
            [
              80.1491044667266,
              13.023478048707375
            ],
            [
              80.14960315439089,
              13.023403696954658
            ],
            [
              80.15006513772343,
              13.02330496405406
            ],
            [
              80.15096746290277,
              13.023157351007079
            ],
            [
              80.15123605334654,
              13.023126652115126
            ],
            [
              80.15156595427585,
              13.023104478804717
            ],
            [
              80.15186762473805,
              13.023059408828303
            ],
            [
              80.15423645853647,
              13.023005252644777
            ],
            [
              80.15453184798518,
              13.023035651547511
            ],
            [
              80.15620155711662,
              13.023361357103662
            ],
            [
              80.15778145259951,
              13.023980333045104
            ],
            [
              80.15921777172713,
              13.02487151640366
            ],
            [
              80.16046163614482,
              13.02600458106351
            ],
            [
              80.1614707149291,
              13.027340969453222
            ],
            [
              80.16221066514166,
              13.02883520433406
            ],
            [
              80.16236677739691,
              13.029242799154787
            ],
            [
              80.16281217411017,
              13.030842684425284
            ],
            [
              80.16294860017345,
              13.032495034631996
            ],
            [
              80.16293992636669,
              13.033197534934247
            ],
            [
              80.16274896125577,
              13.034912305469701
            ],
            [
              80.1622254799919,
              13.036560019047243
            ],
            [
              80.16220111925445,
              13.036616751439572
            ],
            [
              80.16193189803533,
              13.038261271716378
            ],
            [
              80.16131542303097,
              13.039895887934742
            ],
            [
              80.16038711554393,
              13.041384104150433
            ],
            [
              80.15918178095161,
              13.04267011370536
            ],
            [
              80.15774461495769,
              13.043705691692454
            ],
            [
              80.1561295089892,
              13.04445200376004
            ],
            [
              80.15439702912109,
              13.044881062778755
            ],
            [
              80.15399351496374,
              13.044941264942576
            ],
            [
              80.15250857033513,
              13.04504449935482
            ],
            [
              80.14664825735547,
              13.044990297383377
            ],
            [
              80.14472981818538,
              13.044775760459707
            ],
            [
              80.14289917181625,
              13.044177104015713
            ],
            [
              80.14123642821458,
              13.043220525846076
            ],
            [
              80.13981434765873,
              13.041947886362133
            ],
            [
              80.13869515624579,
              13.040414876257332
            ],
            [
              80.1379278229613,
              13.038688578915627
            ]
          ]
        ]
      }
    }
  ]
}