{
  "nvdm": "1.0",
  "dataset": "geojson-layers/polygon",
  "scope": {
    "kind": "region",
    "id": "kolkata"
  },
  "provenance": {
    "sources": [
      {
        "id": "osm-overpass",
        "title": "OpenStreetMap body polygon (Overpass relation/way extract)",
        "publisher": "OpenStreetMap contributors",
        "license": "ODbL 1.0"
      }
    ],
    "method": "api",
    "produced_at": "1970-01-01",
    "produced_by": "scripts/fetch-rich-body-polygon.ts"
  },
  "type": "FeatureCollection",
  "features": [
    {
      "type": "Feature",
      "geometry": {
        "type": "MultiPolygon",
        "coordinates": [
          [
            [
              [
                88.3541121,
                22.5098202
              ],
              [
                88.3538894,
                22.5097917
              ],
              [
                88.3537929,
                22.5097149
              ],
              [
                88.3536561,
                22.5096108
              ],
              [
                88.353581,
                22.5095736
              ],
              [
                88.3535045,
                22.5095402
              ],
              [
                88.3533972,
                22.5095018
              ],
              [
                88.3531619,
                22.5094571
              ],
              [
                88.3530302,
                22.509391
              ],
              [
                88.3529323,
                22.5093288
              ],
              [
                88.3528417,
                22.5093016
              ],
              [
                88.3526051,
                22.5092148
              ],
              [
                88.3523875,
                22.5090855
              ],
              [
                88.3520905,
                22.508925
              ],
              [
                88.3519274,
                22.5088571
              ],
              [
                88.3516127,
                22.5087418
              ],
              [
                88.3513722,
                22.5086479
              ],
              [
                88.3511861,
                22.5085869
              ],
              [
                88.3509907,
                22.5085507
              ],
              [
                88.3507703,
                22.5085123
              ],
              [
                88.3507286,
                22.5085127
              ],
              [
                88.3507023,
                22.5085214
              ],
              [
                88.3506695,
                22.5085598
              ],
              [
                88.3506258,
                22.5085793
              ],
              [
                88.350571,
                22.5085849
              ],
              [
                88.3502499,
                22.5085377
              ],
              [
                88.349888,
                22.508495
              ],
              [
                88.3493247,
                22.5084485
              ],
              [
                88.3491629,
                22.5084445
              ],
              [
                88.3490216,
                22.5084866
              ],
              [
                88.3488267,
                22.5085172
              ],
              [
                88.3486736,
                22.508524
              ],
              [
                88.3485234,
                22.5085104
              ],
              [
                88.3483214,
                22.5084819
              ],
              [
                88.3481855,
                22.5084592
              ],
              [
                88.3480928,
                22.508469
              ],
              [
                88.3480268,
                22.5084932
              ],
              [
                88.3479828,
                22.508524
              ],
              [
                88.3479548,
                22.5085583
              ],
              [
                88.3479218,
                22.508601
              ],
              [
                88.3479115,
                22.5086281
              ],
              [
                88.3478944,
                22.5086663
              ],
              [
                88.3478907,
                22.5087067
              ],
              [
                88.3478969,
                22.5087339
              ],
              [
                88.3479089,
                22.5087683
              ],
              [
                88.348009,
                22.5089561
              ],
              [
                88.3480843,
                22.5090513
              ],
              [
                88.3481323,
                22.5090989
              ],
              [
                88.3482185,
                22.5091626
              ],
              [
                88.3485174,
                22.5093499
              ],
              [
                88.3487305,
                22.5094446
              ],
              [
                88.3489506,
                22.5095147
              ],
              [
                88.3492693,
                22.509602
              ],
              [
                88.3496815,
                22.5097315
              ],
              [
                88.3498599,
                22.5097551
              ],
              [
                88.3499916,
                22.5097532
              ],
              [
                88.3500507,
                22.5097747
              ],
              [
                88.3501151,
                22.5098304
              ],
              [
                88.3501901,
                22.5098583
              ],
              [
                88.3502845,
                22.5098896
              ],
              [
                88.3504455,
                22.5099069
              ],
              [
                88.3510315,
                22.5099032
              ],
              [
                88.351462,
                22.5098648
              ],
              [
                88.3519757,
                22.5098326
              ],
              [
                88.352083,
                22.5099292
              ],
              [
                88.3525912,
                22.5100073
              ],
              [
                88.3526194,
                22.5099998
              ],
              [
                88.3526435,
                22.5099701
              ],
              [
                88.3526784,
                22.5099515
              ],
              [
                88.352724,
                22.509949
              ],
              [
                88.3529372,
                22.5100432
              ],
              [
                88.3531062,
                22.5101448
              ],
              [
                88.3532417,
                22.5101758
              ],
              [
                88.3533396,
                22.510172
              ],
              [
                88.353438,
                22.5101519
              ],
              [
                88.3536281,
                22.5100872
              ],
              [
                88.3538591,
                22.5099951
              ],
              [
                88.3541,
                22.5100097
              ],
              [
                88.3541724,
                22.5100481
              ],
              [
                88.3542381,
                22.5100779
              ],
              [
                88.3543105,
                22.5101175
              ],
              [
                88.3544889,
                22.5102129
              ],
              [
                88.3546382,
                22.5103608
              ],
              [
                88.3546757,
                22.5105293
              ],
              [
                88.354767,
                22.5108664
              ],
              [
                88.354885,
                22.5109308
              ],
              [
                88.3550817,
                22.5108819
              ],
              [
                88.3551541,
                22.5108968
              ],
              [
                88.3551997,
                22.5109377
              ],
              [
                88.3551903,
                22.5109873
              ],
              [
                88.3551072,
                22.5110566
              ],
              [
                88.3548729,
                22.5111203
              ],
              [
                88.3548215,
                22.511235
              ],
              [
                88.3548313,
                22.5113421
              ],
              [
                88.3548796,
                22.5117039
              ],
              [
                88.3547737,
                22.5118432
              ],
              [
                88.3547538,
                22.5119282
              ],
              [
                88.3548175,
                22.5120069
              ],
              [
                88.3549355,
                22.5120397
              ],
              [
                88.3551186,
                22.5120385
              ],
              [
                88.3552755,
                22.5120211
              ],
              [
                88.3556328,
                22.5120032
              ],
              [
                88.3558324,
                22.5120146
              ],
              [
                88.3559944,
                22.5120084
              ],
              [
                88.3561591,
                22.5119895
              ],
              [
                88.356339,
                22.5119502
              ],
              [
                88.3564929,
                22.5119138
              ],
              [
                88.356548,
                22.5118615
              ],
              [
                88.3567341,
                22.5117856
              ],
              [
                88.3569538,
                22.5116902
              ],
              [
                88.3571913,
                22.5116138
              ],
              [
                88.3573698,
                22.5115711
              ],
              [
                88.3574106,
                22.511575
              ],
              [
                88.3574187,
                22.5115854
              ],
              [
                88.3574183,
                22.5115969
              ],
              [
                88.3574218,
                22.5116036
              ],
              [
                88.3574275,
                22.5116069
              ],
              [
                88.3575843,
                22.5115741
              ],
              [
                88.3581028,
                22.5115513
              ],
              [
                88.3584478,
                22.5115345
              ],
              [
                88.3587148,
                22.5115394
              ],
              [
                88.3590335,
                22.5116172
              ],
              [
                88.3595995,
                22.5118311
              ],
              [
                88.3597588,
                22.5119296
              ],
              [
                88.3599469,
                22.5120503
              ],
              [
                88.3602274,
                22.5122185
              ],
              [
                88.3602677,
                22.5122342
              ],
              [
                88.3603255,
                22.5122458
              ],
              [
                88.3605165,
                22.5122186
              ],
              [
                88.3607231,
                22.512153
              ],
              [
                88.3612696,
                22.5118848
              ],
              [
                88.3618706,
                22.5116135
              ],
              [
                88.3627302,
                22.5112224
              ],
              [
                88.362965,
                22.5111463
              ],
              [
                88.3632894,
                22.5110485
              ],
              [
                88.3637388,
                22.5109429
              ],
              [
                88.3641657,
                22.5109193
              ],
              [
                88.364437,
                22.5108715
              ],
              [
                88.3645634,
                22.5108227
              ],
              [
                88.3646022,
                22.5107396
              ],
              [
                88.3646013,
                22.5106415
              ],
              [
                88.364562,
                22.5105664
              ],
              [
                88.3644866,
                22.5104895
              ],
              [
                88.3643615,
                22.510405
              ],
              [
                88.3641595,
                22.510351
              ],
              [
                88.363894,
                22.5103361
              ],
              [
                88.3636665,
                22.510347
              ],
              [
                88.3634981,
                22.5103877
              ],
              [
                88.3628823,
                22.5104917
              ],
              [
                88.3623823,
                22.5105531
              ],
              [
                88.3621623,
                22.5105532
              ],
              [
                88.3618748,
                22.5105225
              ],
              [
                88.3613923,
                22.510433
              ],
              [
                88.3613207,
                22.5104338
              ],
              [
                88.3612697,
                22.5104452
              ],
              [
                88.3612485,
                22.5104687
              ],
              [
                88.3612402,
                22.5105012
              ],
              [
                88.3611979,
                22.5105403
              ],
              [
                88.3611168,
                22.5105685
              ],
              [
                88.3610025,
                22.5105819
              ],
              [
                88.3609313,
                22.5105631
              ],
              [
                88.3608886,
                22.510508
              ],
              [
                88.3608653,
                22.5104357
              ],
              [
                88.3608241,
                22.510401
              ],
              [
                88.3607395,
                22.5103767
              ],
              [
                88.3605638,
                22.510346
              ],
              [
                88.3601137,
                22.5102756
              ],
              [
                88.3597322,
                22.5101488
              ],
              [
                88.3594094,
                22.510113
              ],
              [
                88.3587763,
                22.5100794
              ],
              [
                88.3584834,
                22.5099932
              ],
              [
                88.3577211,
                22.5098435
              ],
              [
                88.3575521,
                22.5098227
              ],
              [
                88.3570554,
                22.5096651
              ],
              [
                88.3567287,
                22.5095764
              ],
              [
                88.3562755,
                22.509557
              ],
              [
                88.3558513,
                22.5096057
              ],
              [
                88.3556418,
                22.5096751
              ],
              [
                88.3556196,
                22.509703
              ],
              [
                88.3556161,
                22.5097389
              ],
              [
                88.3556306,
                22.509783
              ],
              [
                88.3553796,
                22.5098118
              ],
              [
                88.3549764,
                22.5098916
              ],
              [
                88.3545989,
                22.5098883
              ],
              [
                88.3541121,
                22.5098202
              ]
            ],
            [
              [
                88.3505286,
                22.5093804
              ],
              [
                88.350884,
                22.5093717
              ],
              [
                88.3509578,
                22.5093568
              ],
              [
                88.3509806,
                22.5093407
              ],
              [
                88.3510007,
                22.5092949
              ],
              [
                88.3509779,
                22.5091945
              ],
              [
                88.3509417,
                22.5091487
              ],
              [
                88.3508652,
                22.5091103
              ],
              [
                88.3507486,
                22.5090867
              ],
              [
                88.3506359,
                22.5090855
              ],
              [
                88.3505635,
                22.5091264
              ],
              [
                88.3505233,
                22.509166
              ],
              [
                88.3505166,
                22.5091933
              ],
              [
                88.3505326,
                22.5092664
              ],
              [
                88.3505273,
                22.5092887
              ],
              [
                88.3504743,
                22.5093035
              ],
              [
                88.3504495,
                22.5093184
              ],
              [
                88.3504455,
                22.5093457
              ],
              [
                88.3504669,
                22.5093742
              ],
              [
                88.3505286,
                22.5093804
              ]
            ],
            [
              [
                88.3564631,
                22.5101806
              ],
              [
                88.3564768,
                22.5101517
              ],
              [
                88.3565429,
                22.5101195
              ],
              [
                88.3566394,
                22.5100847
              ],
              [
                88.3567039,
                22.5100754
              ],
              [
                88.356754,
                22.5100881
              ],
              [
                88.3567997,
                22.510116
              ],
              [
                88.3568405,
                22.5101687
              ],
              [
                88.3569399,
                22.5104414
              ],
              [
                88.3569694,
                22.510473
              ],
              [
                88.3570084,
                22.5104995
              ],
              [
                88.3570616,
                22.5105005
              ],
              [
                88.3571568,
                22.5104961
              ],
              [
                88.3572224,
                22.5105083
              ],
              [
                88.3572583,
                22.5104859
              ],
              [
                88.3573196,
                22.5104744
              ],
              [
                88.3573657,
                22.5104722
              ],
              [
                88.3573857,
                22.5104877
              ],
              [
                88.3573982,
                22.5105108
              ],
              [
                88.3573995,
                22.5105406
              ],
              [
                88.3573549,
                22.510568
              ],
              [
                88.3572819,
                22.5105901
              ],
              [
                88.3572014,
                22.5106233
              ],
              [
                88.3571124,
                22.5106513
              ],
              [
                88.3570034,
                22.5106645
              ],
              [
                88.3569177,
                22.5106574
              ],
              [
                88.3568964,
                22.5106366
              ],
              [
                88.3568859,
                22.5106117
              ],
              [
                88.3568849,
                22.5105789
              ],
              [
                88.3568877,
                22.5105429
              ],
              [
                88.3568906,
                22.5104935
              ],
              [
                88.3568799,
                22.5104546
              ],
              [
                88.3568653,
                22.5104254
              ],
              [
                88.3568066,
                22.5103565
              ],
              [
                88.3567778,
                22.5103618
              ],
              [
                88.356726,
                22.5103684
              ],
              [
                88.3566757,
                22.5103646
              ],
              [
                88.3566406,
                22.5103372
              ],
              [
                88.3566086,
                22.510289
              ],
              [
                88.3565769,
                22.5102729
              ],
              [
                88.3565214,
                22.5102665
              ],
              [
                88.3564887,
                22.5102519
              ],
              [
                88.3564687,
                22.5102206
              ],
              [
                88.3564631,
                22.5101806
              ]
            ],
            [
              [
                88.3606911,
                22.5110866
              ],
              [
                88.3606267,
                22.5111237
              ],
              [
                88.3606012,
                22.5111962
              ],
              [
                88.3605992,
                22.5112743
              ],
              [
                88.3606026,
                22.5113387
              ],
              [
                88.3606287,
                22.5114452
              ],
              [
                88.3606784,
                22.5115344
              ],
              [
                88.3607521,
                22.5115567
              ],
              [
                88.3608212,
                22.5115629
              ],
              [
                88.3608567,
                22.5115437
              ],
              [
                88.3608829,
                22.5115066
              ],
              [
                88.3609162,
                22.5114838
              ],
              [
                88.3610199,
                22.51145
              ],
              [
                88.3611012,
                22.5114031
              ],
              [
                88.3611776,
                22.5113578
              ],
              [
                88.3611773,
                22.5112914
              ],
              [
                88.3611484,
                22.5112018
              ],
              [
                88.3610981,
                22.5111519
              ],
              [
                88.3610036,
                22.5111045
              ],
              [
                88.3609467,
                22.5110933
              ],
              [
                88.3608267,
                22.5110758
              ],
              [
                88.3606911,
                22.5110866
              ]
            ],
            [
              [
                88.3555162,
                22.5112772
              ],
              [
                88.3556007,
                22.5112127
              ],
              [
                88.3556694,
                22.5111839
              ],
              [
                88.3556852,
                22.5111811
              ],
              [
                88.3556962,
                22.5111883
              ],
              [
                88.355767,
                22.5113106
              ],
              [
                88.3557697,
                22.5113701
              ],
              [
                88.3557442,
                22.5114085
              ],
              [
                88.3556879,
                22.5114221
              ],
              [
                88.3555779,
                22.5114345
              ],
              [
                88.3554773,
                22.5114345
              ],
              [
                88.3554585,
                22.5114048
              ],
              [
                88.3554625,
                22.5113602
              ],
              [
                88.3554894,
                22.5113081
              ],
              [
                88.3555162,
                22.5112772
              ]
            ]
          ]
        ]
      },
      "properties": {
        "body_id": "rabindra-sarobar",
        "osm_type": "relation",
        "osm_id": 8257895,
        "name": "Dhakuria Lake",
        "name_en": "Dhakuria Lake",
        "name_ta": "",
        "ramsar": false,
        "protect_class": null,
        "protection_title": null,
        "start_date": null,
        "wikidata": null,
        "wikipedia": null,
        "area_ha": 23.25,
        "source": "OSM relation 8257895",
        "license": "ODbL 1.0",
        "fetched_at": "2026-08-25T13:55:30.977Z"
      }
    }
  ]
}