{
  "nvdm": "1.0",
  "dataset": "geojson-layers/buffer-1000m",
  "scope": {
    "kind": "city",
    "id": "kolkata"
  },
  "provenance": {
    "sources": [
      {
        "id": "osm-overpass",
        "title": "OpenStreetMap body polygon (Overpass relation/way extract)",
        "publisher": "OpenStreetMap contributors",
        "license": "ODbL 1.0",
        "role": "input"
      }
    ],
    "method": "derived",
    "produced_at": "1970-01-01",
    "produced_by": "scripts/fetch-rich-body-polygon.ts",
    "internal_inputs": [],
    "note": "1 km Minkowski offset of the body polygon (@turf/buffer), not a circle from the centroid; derived in-memory from the same Overpass fetch, hence internal_inputs []."
  },
  "type": "FeatureCollection",
  "features": [
    {
      "type": "Feature",
      "properties": {
        "body_id": "rabindra-sarobar",
        "buffer_metres": 1000,
        "source_polygon": "rabindra-sarobar.geojson",
        "computed_with": "@turf/buffer",
        "fetched_at": "2026-08-25T13:55:31.009Z"
      },
      "geometry": {
        "type": "Polygon",
        "coordinates": [
          [
            [
              88.35765974465323,
              22.52086419403562
            ],
            [
              88.35735924061456,
              22.520914106391206
            ],
            [
              88.35719453014427,
              22.520933007611507
            ],
            [
              88.35639739288334,
              22.52099389524992
            ],
            [
              88.35623538236993,
              22.52100009565293
            ],
            [
              88.35588802985646,
              22.52099683255907
            ],
            [
              88.35580268154516,
              22.521001108263782
            ],
            [
              88.35580238327519,
              22.520996027864737
            ],
            [
              88.3557945079518,
              22.52099595386969
            ],
            [
              88.35518767278413,
              22.521031477275642
            ],
            [
              88.35500456087163,
              22.521032677353542
            ],
            [
              88.35355197799734,
              22.520941625999708
            ],
            [
              88.35213034196629,
              22.520651480496856
            ],
            [
              88.3520123352802,
              22.520618678453204
            ],
            [
              88.35011216561266,
              22.519879907726704
            ],
            [
              88.34842303035823,
              22.51878807487409
            ],
            [
              88.3482625760779,
              22.51862835753977
            ],
            [
              88.34699573811442,
              22.51835409065853
            ],
            [
              88.34691388081795,
              22.518326949204546
            ],
            [
              88.34654700893347,
              22.51824579484434
            ],
            [
              88.34631708994999,
              22.518173561328172
            ],
            [
              88.34618298455476,
              22.518136826172523
            ],
            [
              88.34577752848881,
              22.518016789151442
            ],
            [
              88.3455574165617,
              22.51794668483882
            ],
            [
              88.34451028215467,
              22.51754883895551
            ],
            [
              88.34429717255405,
              22.517454133402687
            ],
            [
              88.34305245693342,
              22.5167923890858
            ],
            [
              88.34275354824884,
              22.51660507900111
            ],
            [
              88.34213728025033,
              22.51618528037509
            ],
            [
              88.34205107867456,
              22.516121577138957
            ],
            [
              88.34100907913195,
              22.515228809939934
            ],
            [
              88.34096107945699,
              22.51518120782936
            ],
            [
              88.3402239786305,
              22.514356970414205
            ],
            [
              88.34014868115482,
              22.514261766760967
            ],
            [
              88.3392753205921,
              22.51292867965779
            ],
            [
              88.33917522958177,
              22.51274087426278
            ],
            [
              88.33864317198832,
              22.51152651230834
            ],
            [
              88.33863117405468,
              22.511492111622363
            ],
            [
              88.3383708945912,
              22.51058674060702
            ],
            [
              88.33836469638237,
              22.51055954024278
            ],
            [
              88.33819062374631,
              22.50794822662653
            ],
            [
              88.33819432656023,
              22.507907826848612
            ],
            [
              88.3388179179971,
              22.505415609737003
            ],
            [
              88.33884532163879,
              22.505350311272807
            ],
            [
              88.33999936785682,
              22.503375186109686
            ],
            [
              88.3400323690555,
              22.503332487723686
            ],
            [
              88.34018275958887,
              22.503143181150218
            ],
            [
              88.34021076041971,
              22.503108882493645
            ],
            [
              88.34210397127444,
              22.501355982267494
            ],
            [
              88.34214797030253,
              22.501325183864022
            ],
            [
              88.34443579746217,
              22.500134278326563
            ],
            [
              88.34450179410072,
              22.500110079789078
            ],
            [
              88.34698610257173,
              22.49953410451754
            ],
            [
              88.34707879666063,
              22.49952430515016
            ],
            [
              88.34776812946667,
              22.499544993504664
            ],
            [
              88.34777936928293,
              22.49954259176132
            ],
            [
              88.34942330134741,
              22.499454514676
            ],
            [
              88.34958509083661,
              22.499458514415075
            ],
            [
              88.35019107142963,
              22.49949098520075
            ],
            [
              88.35058601546824,
              22.49952358772964
            ],
            [
              88.35062753427563,
              22.499519981082916
            ],
            [
              88.35066923156423,
              22.49951958110875
            ],
            [
              88.35257432048354,
              22.499674879846218
            ],
            [
              88.35279470689994,
              22.499713277391297
            ],
            [
              88.35290466328485,
              22.499733040752446
            ],
            [
              88.35310005132686,
              22.49976923844342
            ],
            [
              88.35444107329795,
              22.500111346386603
            ],
            [
              88.35462716332806,
              22.500172342647225
            ],
            [
              88.35516165715451,
              22.500364090743886
            ],
            [
              88.35530218481496,
              22.50041895735568
            ],
            [
              88.35551599140392,
              22.500497291125974
            ],
            [
              88.35579570909233,
              22.500606688357706
            ],
            [
              88.35672608409679,
              22.50057343551817
            ],
            [
              88.357179254718,
              22.500592834257926
            ],
            [
              88.35947345454623,
              22.500948085854418
            ],
            [
              88.35980013592157,
              22.50103678031993
            ],
            [
              88.36001332472797,
              22.501099507649542
            ],
            [
              88.360352533594,
              22.501166120955403
            ],
            [
              88.36056968702357,
              22.501183907349336
            ],
            [
              88.36089246647981,
              22.501219705038466
            ],
            [
              88.36180026651685,
              22.501418212825218
            ],
            [
              88.36218876287748,
              22.501478977230793
            ],
            [
              88.36227414051902,
              22.501493111793028
            ],
            [
              88.36316233130454,
              22.5013658659811
            ],
            [
              88.36338981656857,
              22.501354966690375
            ],
            [
              88.36448426729999,
              22.501359444432246
            ],
            [
              88.36474975012801,
              22.50137434346659
            ],
            [
              88.36686534610845,
              22.50171219932323
            ],
            [
              88.36706733454452,
              22.50176619595074
            ],
            [
              88.36865256723539,
              22.502332673200627
            ],
            [
              88.37010699754693,
              22.503145245107827
            ],
            [
              88.37023209448847,
              22.50322974067155
            ],
            [
              88.37170138227995,
              22.504451915584735
            ],
            [
              88.37177678299896,
              22.50452881222666
            ],
            [
              88.37332623899216,
              22.506651961465522
            ],
            [
              88.37336554263912,
              22.50672705933873
            ],
            [
              88.3740810786191,
              22.508596315532436
            ],
            [
              88.3743358675685,
              22.510564990157864
            ],
            [
              88.37433677447537,
              22.510663090102476
            ],
            [
              88.37414441188123,
              22.51252046976529
            ],
            [
              88.37354128238734,
              22.514301201491737
            ],
            [
              88.37350248676204,
              22.514384303631964
            ],
            [
              88.37260294577464,
              22.515894144274238
            ],
            [
              88.37140812963452,
              22.51721774239453
            ],
            [
              88.36996191422152,
              22.518306484402217
            ],
            [
              88.36831741278122,
              22.519120381551872
            ],
            [
              88.36819100651971,
              22.519169184481882
            ],
            [
              88.36626090296436,
              22.519705462279536
            ],
            [
              88.3660273428094,
              22.51974661307085
            ],
            [
              88.36569171172972,
              22.519898123905726
            ],
            [
              88.3652905214117,
              22.520095014729474
            ],
            [
              88.36388766062109,
              22.52065781494095
            ],
            [
              88.3636810494114,
              22.520723418977852
            ],
            [
              88.36199978942412,
              22.521106806835906
            ],
            [
              88.3618087774339,
              22.521134008585566
            ],
            [
              88.36002874583045,
              22.521234824598707
            ],
            [
              88.35825867365338,
              22.52103399687355
            ],
            [
              88.35820087015175,
              22.521022396136196
            ],
            [
              88.35765974465323,
              22.52086419403562
            ]
          ]
        ]
      }
    }
  ]
}