{
  "type": "FeatureCollection",
  "features": [
    {
      "type": "Feature",
      "properties": {
        "body_id": "rachenahalli",
        "buffer_metres": 1000,
        "source_polygon": "rachenahalli.geojson",
        "computed_with": "@turf/buffer",
        "fetched_at": "2026-05-25T14:56:23.669Z"
      },
      "geometry": {
        "type": "Polygon",
        "coordinates": [
          [
            [
              77.60334629457414,
              13.070068534082306
            ],
            [
              77.60265773367108,
              13.069471557048642
            ],
            [
              77.60152173852717,
              13.067972737937628
            ],
            [
              77.60150583908091,
              13.06794643745167
            ],
            [
              77.60146715209035,
              13.067882355324386
            ],
            [
              77.60073747846127,
              13.066366037540599
            ],
            [
              77.6003090652196,
              13.064744227180531
            ],
            [
              77.60028647017,
              13.064606626389995
            ],
            [
              77.6001721118728,
              13.063022450396513
            ],
            [
              77.60034559198235,
              13.061443379419487
            ],
            [
              77.60036629558053,
              13.061341280140748
            ],
            [
              77.60086885016587,
              13.059702335167172
            ],
            [
              77.60168085863519,
              13.058185723848881
            ],
            [
              77.60277294214745,
              13.056846307867923
            ],
            [
              77.60410559232443,
              13.055732538238038
            ],
            [
              77.60421849063185,
              13.05565504054461
            ],
            [
              77.60560594819262,
              13.054868911160165
            ],
            [
              77.60570387132596,
              13.05483379562209
            ],
            [
              77.60641998710871,
              13.053247195520658
            ],
            [
              77.60753433268346,
              13.051732488320988
            ],
            [
              77.6089452018095,
              13.050474027702908
            ],
            [
              77.61059201466385,
              13.04952584580649
            ],
            [
              77.61240406382036,
              13.048928652384973
            ],
            [
              77.61258605768948,
              13.048888553808862
            ],
            [
              77.61434363897196,
              13.048671103159796
            ],
            [
              77.61611149389732,
              13.04878472885885
            ],
            [
              77.61782451540962,
              13.049225246268781
            ],
            [
              77.61935379575286,
              13.049945435543309
            ],
            [
              77.61947711063544,
              13.049946125915085
            ],
            [
              77.62124461357713,
              13.05029779794309
            ],
            [
              77.62290817106134,
              13.05097760901837
            ],
            [
              77.62440426250245,
              13.051959601968665
            ],
            [
              77.62454036129212,
              13.052069198893204
            ],
            [
              77.6257802098202,
              13.053278291613097
            ],
            [
              77.62676288749533,
              13.054694035243216
            ],
            [
              77.6274529045413,
              13.056265306390065
            ],
            [
              77.62782533781197,
              13.057935364447745
            ],
            [
              77.62786673150771,
              13.05964390031679
            ],
            [
              77.62757558398775,
              13.061329214137336
            ],
            [
              77.6269624029718,
              13.062930443421006
            ],
            [
              77.62604932699803,
              13.0643897611207
            ],
            [
              77.62486932667566,
              13.065654464237857
            ],
            [
              77.62466409320172,
              13.065804178311307
            ],
            [
              77.6240735054247,
              13.066875401685607
            ],
            [
              77.62367705735413,
              13.067336217186126
            ],
            [
              77.62367704717991,
              13.06733623965554
            ],
            [
              77.62345383432904,
              13.067853752713688
            ],
            [
              77.6232720981258,
              13.068248263926247
            ],
            [
              77.62293781586354,
              13.06892957462503
            ],
            [
              77.62216828259993,
              13.070213112911944
            ],
            [
              77.6221113770379,
              13.070279723763374
            ],
            [
              77.62193452493187,
              13.070670505726444
            ],
            [
              77.62122048168393,
              13.071954405317072
            ],
            [
              77.62107028572657,
              13.072178809780997
            ],
            [
              77.61984666811553,
              13.073643854401436
            ],
            [
              77.61833590709844,
              13.07482765789112
            ],
            [
              77.61660463454888,
              13.075678005964413
            ],
            [
              77.61472921116544,
              13.076157391671106
            ],
            [
              77.614541504562,
              13.076185292675804
            ],
            [
              77.6129308699198,
              13.076285697837424
            ],
            [
              77.61132689543953,
              13.076111358057686
            ],
            [
              77.60977860007226,
              13.07566760132961
            ],
            [
              77.60938218869379,
              13.075516196194297
            ],
            [
              77.60709937998655,
              13.074253839580535
            ],
            [
              77.60655217368085,
              13.073841027691344
            ],
            [
              77.6059995870708,
              13.073389439198337
            ],
            [
              77.60550608473282,
              13.07295302742833
            ],
            [
              77.60379673727556,
              13.070924102885265
            ],
            [
              77.60370014048901,
              13.070767399947423
            ],
            [
              77.60334629457414,
              13.070068534082306
            ]
          ]
        ]
      }
    }
  ]
}