{
  "type": "FeatureCollection",
  "features": [
    {
      "type": "Feature",
      "properties": {
        "body_id": "sankey",
        "buffer_metres": 1000,
        "source_polygon": "sankey.geojson",
        "computed_with": "@turf/buffer",
        "fetched_at": "2026-05-25T14:09:58.969Z"
      },
      "geometry": {
        "type": "Polygon",
        "coordinates": [
          [
            [
              77.56362586185847,
              13.010629985520954
            ],
            [
              77.56364863461226,
              13.010258586525152
            ],
            [
              77.56339530707339,
              13.008535097518543
            ],
            [
              77.56338961265962,
              13.008384697318295
            ],
            [
              77.56350241787278,
              13.006613233432338
            ],
            [
              77.56397008723546,
              13.004897853803483
            ],
            [
              77.56477439857518,
              13.003305370163687
            ],
            [
              77.56588401956452,
              13.00189780638726
            ],
            [
              77.56725572881889,
              13.000729983129576
            ],
            [
              77.56883609965803,
              12.999847383127925
            ],
            [
              77.56902029479016,
              12.999766885790692
            ],
            [
              77.5691632077598,
              12.999705838175716
            ],
            [
              77.56932540334599,
              12.999638140431731
            ],
            [
              77.57032909309326,
              12.999284620934995
            ],
            [
              77.57060658430255,
              12.999204223728627
            ],
            [
              77.57154384953483,
              12.998983861000358
            ],
            [
              77.57177534157206,
              12.998941762500477
            ],
            [
              77.57277476052572,
              12.998814557362962
            ],
            [
              77.57299115274736,
              12.998798657937536
            ],
            [
              77.57367742707396,
              12.998773199552403
            ],
            [
              77.57392101824293,
              12.99877299955943
            ],
            [
              77.57493360087254,
              12.998826445957242
            ],
            [
              77.57508137766524,
              12.99884221465121
            ],
            [
              77.57593149901209,
              12.99866559367232
            ],
            [
              77.57772887554276,
              12.998639298034607
            ],
            [
              77.57949739781962,
              12.998952955008741
            ],
            [
              77.5811699899975,
              12.99959466837227
            ],
            [
              77.58119768933706,
              12.999608467926826
            ],
            [
              77.58277449304188,
              13.000603191991427
            ],
            [
              77.5841119622672,
              13.001888369850493
            ],
            [
              77.5851546989178,
              13.003410773251732
            ],
            [
              77.58526300364298,
              13.003610269868588
            ],
            [
              77.58604780424925,
              13.005592657742437
            ],
            [
              77.58605560525383,
              13.005622457475212
            ],
            [
              77.58631794819793,
              13.007196975578884
            ],
            [
              77.58629066744876,
              13.008791885758791
            ],
            [
              77.5859746157501,
              13.01035701141678
            ],
            [
              77.58537973110195,
              13.011843112057777
            ],
            [
              77.5845247247457,
              13.013203432542342
            ],
            [
              77.58450812503882,
              13.013225233013381
            ],
            [
              77.58404292059745,
              13.013710657143
            ],
            [
              77.58391162321293,
              13.014350481605922
            ],
            [
              77.58306229233119,
              13.01619206913508
            ],
            [
              77.58299419466016,
              13.016304071205333
            ],
            [
              77.58158646658505,
              13.018072876760572
            ],
            [
              77.5814638665988,
              13.018192579827423
            ],
            [
              77.58012729949671,
              13.019272317940178
            ],
            [
              77.58003449800617,
              13.019333919786831
            ],
            [
              77.57857227947875,
              13.020125809337177
            ],
            [
              77.57752369704279,
              13.020470993482423
            ],
            [
              77.57738036421095,
              13.020535860635537
            ],
            [
              77.57570735705725,
              13.021109918603843
            ],
            [
              77.57395253549198,
              13.021361598173453
            ],
            [
              77.57218070310978,
              13.021281605078531
            ],
            [
              77.57045729189797,
              13.020872893384556
            ],
            [
              77.56884594513483,
              13.020150556363005
            ],
            [
              77.56854009712296,
              13.019936157714017
            ],
            [
              77.567652056912,
              13.019455623733931
            ],
            [
              77.56622471160387,
              13.018256665715416
            ],
            [
              77.5650770668557,
              13.01680024423435
            ],
            [
              77.56460350354303,
              13.015845638760153
            ],
            [
              77.56435209250054,
              13.015394529309827
            ],
            [
              77.56429312513907,
              13.015219975783948
            ],
            [
              77.56425696062622,
              13.01514707487453
            ],
            [
              77.56418056686367,
              13.014941872337541
            ],
            [
              77.5641971920946,
              13.014935996929022
            ],
            [
              77.56416010350284,
              13.014826207924685
            ],
            [
              77.5640408184169,
              13.014575869126562
            ],
            [
              77.56396018835315,
              13.014234420811249
            ],
            [
              77.5638348510263,
              13.01386339681237
            ],
            [
              77.5637768759579,
              13.01345813470977
            ],
            [
              77.56361008322683,
              13.012751801280485
            ],
            [
              77.56357620773281,
              13.01088036893605
            ],
            [
              77.56362586185847,
              13.010629985520954
            ]
          ]
        ]
      }
    }
  ]
}