{
  "nvdm": "1.0",
  "dataset": "geojson-layers/polygon",
  "scope": {
    "kind": "city",
    "id": "gurugram"
  },
  "provenance": {
    "sources": [
      {
        "id": "osm-overpass",
        "title": "OpenStreetMap body polygon (Overpass relation/way extract)",
        "publisher": "OpenStreetMap contributors",
        "license": "ODbL 1.0"
      }
    ],
    "method": "api",
    "produced_at": "1970-01-01",
    "produced_by": "scripts/fetch-rich-body-polygon.ts"
  },
  "type": "FeatureCollection",
  "features": [
    {
      "type": "Feature",
      "geometry": {
        "type": "MultiPolygon",
        "coordinates": [
          [
            [
              [
                76.8922269,
                28.4674888
              ],
              [
                76.8945551,
                28.4677859
              ],
              [
                76.8953866,
                28.4657534
              ],
              [
                76.8953705,
                28.4656685
              ],
              [
                76.8948501,
                28.4652629
              ],
              [
                76.8947804,
                28.465079
              ],
              [
                76.8948501,
                28.4642443
              ],
              [
                76.894716,
                28.4641971
              ],
              [
                76.8925703,
                28.4641641
              ],
              [
                76.8925005,
                28.4641877
              ],
              [
                76.892404,
                28.4641782
              ],
              [
                76.892404,
                28.4640886
              ],
              [
                76.8925005,
                28.4640698
              ],
              [
                76.8926936,
                28.4641122
              ],
              [
                76.8946999,
                28.4641122
              ],
              [
                76.8948287,
                28.4639141
              ],
              [
                76.8949252,
                28.4636501
              ],
              [
                76.894775,
                28.4623249
              ],
              [
                76.8948662,
                28.4607827
              ],
              [
                76.8949842,
                28.4599291
              ],
              [
                76.8949091,
                28.4598584
              ],
              [
                76.8937343,
                28.4597829
              ],
              [
                76.8933481,
                28.4598772
              ],
              [
                76.8930048,
                28.4598348
              ],
              [
                76.8929887,
                28.4597546
              ],
              [
                76.893214,
                28.459698
              ],
              [
                76.8938202,
                28.4596839
              ],
              [
                76.894083,
                28.4595518
              ],
              [
                76.8945873,
                28.4591132
              ],
              [
                76.8946838,
                28.4590047
              ],
              [
                76.8946999,
                28.4589104
              ],
              [
                76.8945551,
                28.4585237
              ],
              [
                76.8942976,
                28.458552
              ],
              [
                76.8942493,
                28.4586463
              ],
              [
                76.8943351,
                28.4589953
              ],
              [
                76.8942386,
                28.4591462
              ],
              [
                76.8938363,
                28.4594952
              ],
              [
                76.8936807,
                28.4595424
              ],
              [
                76.8928868,
                28.4594811
              ],
              [
                76.8928438,
                28.4592877
              ],
              [
                76.8928063,
                28.4587784
              ],
              [
                76.891551,
                28.4584529
              ],
              [
                76.8912399,
                28.4584058
              ],
              [
                76.8908429,
                28.4584482
              ],
              [
                76.8906069,
                28.4583822
              ],
              [
                76.890462,
                28.4582266
              ],
              [
                76.8904245,
                28.4579483
              ],
              [
                76.8902636,
                28.4578728
              ],
              [
                76.8901402,
                28.4579672
              ],
              [
                76.8900704,
                28.4581841
              ],
              [
                76.88999,
                28.4582077
              ],
              [
                76.8894589,
                28.4580332
              ],
              [
                76.8892872,
                28.4579672
              ],
              [
                76.8892121,
                28.4580143
              ],
              [
                76.8894267,
                28.4584718
              ],
              [
                76.8891263,
                28.4586086
              ],
              [
                76.8894964,
                28.4594292
              ],
              [
                76.8884504,
                28.4598065
              ],
              [
                76.8883592,
                28.4597687
              ],
              [
                76.8882894,
                28.4595754
              ],
              [
                76.8881553,
                28.4595801
              ],
              [
                76.8880373,
                28.4597404
              ],
              [
                76.8876672,
                28.4603771
              ],
              [
                76.8872756,
                28.4610138
              ],
              [
                76.8869322,
                28.4612732
              ],
              [
                76.8863904,
                28.4614477
              ],
              [
                76.8863207,
                28.461509
              ],
              [
                76.8859774,
                28.4615326
              ],
              [
                76.8851727,
                28.4615043
              ],
              [
                76.8847114,
                28.4615514
              ],
              [
                76.8841267,
                28.461575
              ],
              [
                76.8839121,
                28.4616552
              ],
              [
                76.883955,
                28.4616976
              ],
              [
                76.8849689,
                28.4616033
              ],
              [
                76.8854892,
                28.461575
              ],
              [
                76.8861222,
                28.4616693
              ],
              [
                76.886369,
                28.4616693
              ],
              [
                76.8864495,
                28.4617684
              ],
              [
                76.8864924,
                28.4622117
              ],
              [
                76.8865836,
                28.4622494
              ],
              [
                76.888386,
                28.4619193
              ],
              [
                76.8884987,
                28.4619523
              ],
              [
                76.8885416,
                28.4620325
              ],
              [
                76.8884772,
                28.4621126
              ],
              [
                76.8883538,
                28.4621032
              ],
              [
                76.8881446,
                28.4621032
              ],
              [
                76.8868464,
                28.4623673
              ],
              [
                76.8867874,
                28.462438
              ],
              [
                76.8867981,
                28.462655
              ],
              [
                76.8882894,
                28.4640792
              ],
              [
                76.8885952,
                28.4645697
              ],
              [
                76.888783,
                28.4649186
              ],
              [
                76.8891692,
                28.4653855
              ],
              [
                76.8893194,
                28.4653714
              ],
              [
                76.8895662,
                28.4652393
              ],
              [
                76.8896252,
                28.4652865
              ],
              [
                76.889593,
                28.4654138
              ],
              [
                76.8893087,
                28.4655553
              ],
              [
                76.8893033,
                28.4656402
              ],
              [
                76.8896037,
                28.4658854
              ],
              [
                76.8903601,
                28.4661259
              ],
              [
                76.8913901,
                28.466324
              ],
              [
                76.8917334,
                28.4665881
              ],
              [
                76.8921733,
                28.4673803
              ],
              [
                76.8922269,
                28.4674888
              ]
            ]
          ]
        ]
      },
      "properties": {
        "body_id": "sultanpur",
        "osm_type": "way",
        "osm_id": 35310140,
        "name": "Sultanpur Lake",
        "name_en": "Sultanpur Lake",
        "name_ta": "",
        "ramsar": false,
        "protect_class": null,
        "protection_title": null,
        "start_date": null,
        "wikidata": null,
        "wikipedia": null,
        "area_ha": 59.83,
        "source": "OSM way 35310140",
        "license": "ODbL 1.0",
        "fetched_at": "2026-08-25T13:53:43.394Z"
      }
    }
  ]
}