{
  "nvdm": "1.0",
  "dataset": "geojson-layers/buffer-1000m",
  "scope": {
    "kind": "city",
    "id": "gurugram"
  },
  "provenance": {
    "sources": [
      {
        "id": "osm-overpass",
        "title": "OpenStreetMap body polygon (Overpass relation/way extract)",
        "publisher": "OpenStreetMap contributors",
        "license": "ODbL 1.0",
        "role": "input"
      }
    ],
    "method": "derived",
    "produced_at": "1970-01-01",
    "produced_by": "scripts/fetch-rich-body-polygon.ts",
    "internal_inputs": [],
    "note": "1 km Minkowski offset of the body polygon (@turf/buffer), not a circle from the centroid; derived in-memory from the same Overpass fetch, hence internal_inputs []."
  },
  "type": "FeatureCollection",
  "features": [
    {
      "type": "Feature",
      "properties": {
        "body_id": "sultanpur",
        "buffer_metres": 1000,
        "source_polygon": "sultanpur.geojson",
        "computed_with": "@turf/buffer",
        "fetched_at": "2026-08-25T13:53:43.422Z"
      },
      "geometry": {
        "type": "Polygon",
        "coordinates": [
          [
            [
              76.90510329640395,
              28.46308987340434
            ],
            [
              76.9054610793105,
              28.464189293817203
            ],
            [
              76.90547718719105,
              28.464274192628206
            ],
            [
              76.90561646584102,
              28.465797544654173
            ],
            [
              76.90546032522359,
              28.467319632756897
            ],
            [
              76.905013261936,
              28.468796500957488
            ],
            [
              76.90418192317055,
              28.470829059473434
            ],
            [
              76.9033252057902,
              28.472416374570052
            ],
            [
              76.90213373047366,
              28.47382696866889
            ],
            [
              76.90065296479912,
              28.47500699784635
            ],
            [
              76.89893942463145,
              28.47591141745819
            ],
            [
              76.8970585168907,
              28.47650570255223
            ],
            [
              76.89508204191179,
              28.476767166650035
            ],
            [
              76.89308545092437,
              28.47668582839556
            ],
            [
              76.89075705893741,
              28.4763887033763
            ],
            [
              76.8887422788527,
              28.475944255701254
            ],
            [
              76.88687118079817,
              28.475151219383562
            ],
            [
              76.88522091120169,
              28.47404229347382
            ],
            [
              76.88508420391827,
              28.47390381237306
            ],
            [
              76.88427636839535,
              28.473563052903092
            ],
            [
              76.88264255407216,
              28.472475631059275
            ],
            [
              76.88234215149187,
              28.47223041576741
            ],
            [
              76.88087638883194,
              28.47073922561946
            ],
            [
              76.88067156011672,
              28.470404092751686
            ],
            [
              76.8805088399095,
              28.4702073514182
            ],
            [
              76.88043667311888,
              28.470100376373626
            ],
            [
              76.87937544833655,
              28.46973935852649
            ],
            [
              76.87773149451704,
              28.468835143833243
            ],
            [
              76.87631120687888,
              28.467674452572748
            ],
            [
              76.87626830751998,
              28.46763205017487
            ],
            [
              76.87512407612255,
              28.466258594236532
            ],
            [
              76.87429479693478,
              28.46472018230168
            ],
            [
              76.8738101754509,
              28.463071948014434
            ],
            [
              76.87368756243569,
              28.461372958194595
            ],
            [
              76.87393133434065,
              28.459684095700407
            ],
            [
              76.87453273893298,
              28.458065877605108
            ],
            [
              76.87547021132036,
              28.45657628689019
            ],
            [
              76.87671014870686,
              28.45526869531612
            ],
            [
              76.87820811583396,
              28.454189951811255
            ],
            [
              76.87991043772467,
              28.4533787047491
            ],
            [
              76.88012502395766,
              28.453298511027743
            ],
            [
              76.8806016748454,
              28.453162927117834
            ],
            [
              76.88179380242538,
              28.45182238645613
            ],
            [
              76.88327198708126,
              28.450692899915154
            ],
            [
              76.88334708452649,
              28.450645803177157
            ],
            [
              76.88517935495473,
              28.449731066384217
            ],
            [
              76.88718590095905,
              28.44916580419859
            ],
            [
              76.88857861441255,
              28.44903834092404
            ],
            [
              76.88911125792235,
              28.448936847373353
            ],
            [
              76.89116410405438,
              28.448914514504292
            ],
            [
              76.89318068047027,
              28.449253055974303
            ],
            [
              76.89409039663869,
              28.449581569014473
            ],
            [
              76.89529467212199,
              28.449554033868182
            ],
            [
              76.89727449668175,
              28.449854134780953
            ],
            [
              76.89914943415658,
              28.450488675746833
            ],
            [
              76.90084716509215,
              28.451433182313206
            ],
            [
              76.90230220045366,
              28.452651223748187
            ],
            [
              76.90345840687841,
              28.454095817335606
            ],
            [
              76.90427117211722,
              28.455711239634287
            ],
            [
              76.90441600380515,
              28.456097929342622
            ],
            [
              76.90461591179685,
              28.45695895727994
            ],
            [
              76.90470960576421,
              28.457141334685733
            ],
            [
              76.90516535366342,
              28.459056854083755
            ],
            [
              76.90513901079407,
              28.461013693642435
            ],
            [
              76.90506365504615,
              28.461559190187533
            ],
            [
              76.90503108126498,
              28.46211091939822
            ],
            [
              76.90510448925862,
              28.46275803692481
            ],
            [
              76.90510329640395,
              28.46308987340434
            ]
          ]
        ]
      }
    }
  ]
}