{
  "nvdm": "1.0",
  "dataset": "geojson-layers/buffer-1000m",
  "scope": {
    "kind": "region",
    "id": "mumbai"
  },
  "provenance": {
    "sources": [
      {
        "id": "osm-overpass",
        "title": "OpenStreetMap body polygon (Overpass relation/way extract)",
        "publisher": "OpenStreetMap contributors",
        "license": "ODbL 1.0",
        "role": "input"
      }
    ],
    "method": "derived",
    "produced_at": "2026-08-24",
    "internal_inputs": [],
    "produced_by": "scripts/fetch-rich-body-polygon.ts",
    "note": "1 km Minkowski offset of the body polygon (@turf/buffer), not a circle from the centroid; derived in-memory from the same Overpass fetch, hence internal_inputs []."
  },
  "type": "FeatureCollection",
  "features": [
    {
      "type": "Feature",
      "properties": {
        "body_id": "tulsi",
        "buffer_metres": 1000,
        "source_polygon": "tulsi.geojson",
        "computed_with": "@turf/buffer",
        "fetched_at": "2026-08-24T18:28:02.245Z"
      },
      "geometry": {
        "type": "Polygon",
        "coordinates": [
          [
            [
              72.9024293072171,
              19.191510414216083
            ],
            [
              72.90236262942295,
              19.190891131255697
            ],
            [
              72.90234606838506,
              19.189241349942726
            ],
            [
              72.90263953160179,
              19.187666740858454
            ],
            [
              72.90263877595267,
              19.18757085387134
            ],
            [
              72.90268110027905,
              19.18714465604878
            ],
            [
              72.90294962962456,
              19.185707908738177
            ],
            [
              72.90302109269744,
              19.185515347625767
            ],
            [
              72.90326656868584,
              19.184180542274834
            ],
            [
              72.9036936481208,
              19.183227578377384
            ],
            [
              72.90368168383061,
              19.18322329166123
            ],
            [
              72.90383680170525,
              19.182837099145885
            ],
            [
              72.90403183076661,
              19.182472965840613
            ],
            [
              72.90411257498734,
              19.182292794033817
            ],
            [
              72.90426209234542,
              19.182043048547975
            ],
            [
              72.90474406674598,
              19.181143154528186
            ],
            [
              72.90491615957515,
              19.180942074331757
            ],
            [
              72.90503046838067,
              19.180774136097764
            ],
            [
              72.90542600407555,
              19.180106022447397
            ],
            [
              72.90603490648894,
              19.179435864390886
            ],
            [
              72.9067603099245,
              19.17850614683952
            ],
            [
              72.90816449712648,
              19.177304009582784
            ],
            [
              72.90979292469487,
              19.176388338197984
            ],
            [
              72.91158108567309,
              19.175795403431703
            ],
            [
              72.91345814868309,
              19.175548691761698
            ],
            [
              72.91365686044101,
              19.175541446269527
            ],
            [
              72.91382875107453,
              19.1755352466073
            ],
            [
              72.91571148832158,
              19.175643930153168
            ],
            [
              72.91753460607762,
              19.176101014848445
            ],
            [
              72.91922656569093,
              19.17688856500929
            ],
            [
              72.91961492860196,
              19.17717108369289
            ],
            [
              72.9205087812696,
              19.177220489391757
            ],
            [
              72.92076291527535,
              19.177275751910916
            ],
            [
              72.92101302587479,
              19.177276658629363
            ],
            [
              72.92302635480958,
              19.177703843502837
            ],
            [
              72.92396190793632,
              19.17811780515323
            ],
            [
              72.92497537606843,
              19.17848106251399
            ],
            [
              72.92670520666852,
              19.179552349402673
            ],
            [
              72.92732357564554,
              19.180151344584864
            ],
            [
              72.92882869381708,
              19.18108915551147
            ],
            [
              72.93015031508403,
              19.182320051845622
            ],
            [
              72.93036181833492,
              19.18255974346281
            ],
            [
              72.93141702223147,
              19.184029383379244
            ],
            [
              72.93214593618426,
              19.185666189785888
            ],
            [
              72.93237555508756,
              19.186734009047818
            ],
            [
              72.93274128646325,
              19.187580330223234
            ],
            [
              72.93308653438717,
              19.189394927098395
            ],
            [
              72.93316377296655,
              19.189533941636995
            ],
            [
              72.93368918424706,
              19.191196975366847
            ],
            [
              72.93386659257479,
              19.192924354339755
            ],
            [
              72.93386659335,
              19.192937754339606
            ],
            [
              72.93382941027033,
              19.193337490075812
            ],
            [
              72.93393186196501,
              19.193588368777668
            ],
            [
              72.93424687775988,
              19.195435026205658
            ],
            [
              72.93426099156434,
              19.19567472547655
            ],
            [
              72.93416768586536,
              19.197524607556133
            ],
            [
              72.93367511638837,
              19.19931721465393
            ],
            [
              72.93280416012998,
              19.200976523563966
            ],
            [
              72.93159174414178,
              19.202432161978937
            ],
            [
              72.9300892809041,
              19.203622393652708
            ],
            [
              72.92960986914096,
              19.203928707517193
            ],
            [
              72.92917190943717,
              19.20419238450675
            ],
            [
              72.92874889674712,
              19.204431995736453
            ],
            [
              72.92714385374829,
              19.20515802212265
            ],
            [
              72.92542378170657,
              19.20558933981329
            ],
            [
              72.92399004619004,
              19.205687515357408
            ],
            [
              72.92331086558248,
              19.20602374511487
            ],
            [
              72.92146742420977,
              19.206526248304787
            ],
            [
              72.91955472833108,
              19.206669581429825
            ],
            [
              72.91841265890531,
              19.206536649423047
            ],
            [
              72.91755078164964,
              19.206667427961815
            ],
            [
              72.91571131284853,
              19.206607893519404
            ],
            [
              72.91391833262583,
              19.206215301943683
            ],
            [
              72.91223882343309,
              19.205504319859827
            ],
            [
              72.91073552670318,
              19.20450150821464
            ],
            [
              72.91030425449136,
              19.204074904965225
            ],
            [
              72.91008963829587,
              19.203954866713758
            ],
            [
              72.90954452331236,
              19.203796933015408
            ],
            [
              72.90792019998148,
              19.202975879786717
            ],
            [
              72.90783559784778,
              19.20292257736364
            ],
            [
              72.90729723386988,
              19.202557188021867
            ],
            [
              72.90698702847087,
              19.202330778232614
            ],
            [
              72.90579478008915,
              19.201174140916393
            ],
            [
              72.90577326469956,
              19.201194244892225
            ],
            [
              72.90540036501024,
              19.200838331214076
            ],
            [
              72.90512793281081,
              19.200527201139472
            ],
            [
              72.90512171884788,
              19.200521172647754
            ],
            [
              72.90511461196017,
              19.200511988076222
            ],
            [
              72.90431975637112,
              19.199604217269883
            ],
            [
              72.90348806897909,
              19.19820866892639
            ],
            [
              72.9029316693321,
              19.19669593950887
            ],
            [
              72.90275627378097,
              19.19603389344208
            ],
            [
              72.90254858464696,
              19.19525014575611
            ],
            [
              72.90227502240779,
              19.193505284528044
            ],
            [
              72.90236734890772,
              19.191743556730824
            ],
            [
              72.9024293072171,
              19.191510414216083
            ]
          ]
        ]
      }
    }
  ]
}