{
  "nvdm": "1.0",
  "dataset": "geojson-layers/polygon",
  "scope": {
    "kind": "city",
    "id": "bangalore"
  },
  "provenance": {
    "sources": [
      {
        "id": "osm-overpass",
        "title": "OpenStreetMap body polygon (Overpass relation/way extract)",
        "publisher": "OpenStreetMap contributors",
        "license": "ODbL 1.0"
      }
    ],
    "method": "api",
    "produced_at": "2026-06-03",
    "produced_by": "scripts/fetch-rich-body-polygon.ts"
  },
  "type": "FeatureCollection",
  "features": [
    {
      "type": "Feature",
      "geometry": {
        "type": "MultiPolygon",
        "coordinates": [
          [
            [
              [
                77.7251834,
                12.9434765
              ],
              [
                77.7252121,
                12.9435084
              ],
              [
                77.7252872,
                12.9438069
              ],
              [
                77.7253165,
                12.943966
              ],
              [
                77.7253193,
                12.9444136
              ],
              [
                77.7252562,
                12.9446956
              ],
              [
                77.7251531,
                12.9449832
              ],
              [
                77.7247941,
                12.94546
              ],
              [
                77.7243101,
                12.9458592
              ],
              [
                77.7241673,
                12.9458741
              ],
              [
                77.7241584,
                12.9458683
              ],
              [
                77.7239366,
                12.9457256
              ],
              [
                77.7238045,
                12.9456016
              ],
              [
                77.7237247,
                12.9454427
              ],
              [
                77.7236746,
                12.9452269
              ],
              [
                77.7235522,
                12.9449428
              ],
              [
                77.723286,
                12.9445781
              ],
              [
                77.7231702,
                12.9444861
              ],
              [
                77.7230186,
                12.9444507
              ],
              [
                77.722421,
                12.9444117
              ],
              [
                77.7225016,
                12.9434534
              ],
              [
                77.7227221,
                12.94339
              ],
              [
                77.7230237,
                12.9434142
              ],
              [
                77.7232922,
                12.9434269
              ],
              [
                77.7235151,
                12.9434632
              ],
              [
                77.7238979,
                12.9434613
              ],
              [
                77.7242543,
                12.9434667
              ],
              [
                77.7244729,
                12.9434726
              ],
              [
                77.7248195,
                12.9435035
              ],
              [
                77.7251834,
                12.9434765
              ]
            ]
          ],
          [
            [
              [
                77.7291093,
                12.9477001
              ],
              [
                77.7287233,
                12.9476532
              ],
              [
                77.7285256,
                12.9476191
              ],
              [
                77.7283372,
                12.9475294
              ],
              [
                77.7281732,
                12.9474032
              ],
              [
                77.7278771,
                12.947165
              ],
              [
                77.7278654,
                12.9470515
              ],
              [
                77.7283752,
                12.943709
              ],
              [
                77.728406,
                12.9436455
              ],
              [
                77.7286941,
                12.9436208
              ],
              [
                77.729638,
                12.9433024
              ],
              [
                77.7296442,
                12.9433811
              ],
              [
                77.7291455,
                12.9475808
              ],
              [
                77.7291093,
                12.9477001
              ]
            ]
          ],
          [
            [
              [
                77.7305504,
                12.9429484
              ],
              [
                77.7314401,
                12.9426953
              ],
              [
                77.731652,
                12.9426265
              ],
              [
                77.7322902,
                12.9420182
              ],
              [
                77.7323726,
                12.9418662
              ],
              [
                77.7324017,
                12.9413521
              ],
              [
                77.7324344,
                12.9412903
              ],
              [
                77.7325738,
                12.9412549
              ],
              [
                77.7339432,
                12.9412009
              ],
              [
                77.7339631,
                12.9418069
              ],
              [
                77.7340114,
                12.9420265
              ],
              [
                77.7344459,
                12.9427741
              ],
              [
                77.7351916,
                12.943595
              ],
              [
                77.7354062,
                12.9437413
              ],
              [
                77.735846,
                12.9438459
              ],
              [
                77.7359909,
                12.9439139
              ],
              [
                77.7364683,
                12.9442955
              ],
              [
                77.7366078,
                12.9443687
              ],
              [
                77.7367902,
                12.9444158
              ],
              [
                77.7372783,
                12.9442276
              ],
              [
                77.7375197,
                12.9442014
              ],
              [
                77.7379918,
                12.9442119
              ],
              [
                77.738201,
                12.9442537
              ],
              [
                77.7386838,
                12.944468
              ],
              [
                77.7388501,
                12.944523
              ],
              [
                77.7390593,
                12.9445491
              ],
              [
                77.739577,
                12.944549
              ],
              [
                77.7401376,
                12.9447399
              ],
              [
                77.7403628,
                12.944936
              ],
              [
                77.7409556,
                12.945315
              ],
              [
                77.7411944,
                12.945545
              ],
              [
                77.7417523,
                12.9459633
              ],
              [
                77.7419668,
                12.9461672
              ],
              [
                77.7421305,
                12.946277
              ],
              [
                77.7422967,
                12.9461228
              ],
              [
                77.742388,
                12.9457594
              ],
              [
                77.7425436,
                12.9456653
              ],
              [
                77.7433776,
                12.9456862
              ],
              [
                77.7440107,
                12.945715
              ],
              [
                77.7442736,
                12.9458247
              ],
              [
                77.7444988,
                12.9458979
              ],
              [
                77.7454981,
                12.9459145
              ],
              [
                77.7456162,
                12.9458991
              ],
              [
                77.745736,
                12.9458619
              ],
              [
                77.7461973,
                12.9456174
              ],
              [
                77.7465386,
                12.9455927
              ],
              [
                77.7468136,
                12.945714
              ],
              [
                77.7468639,
                12.9457687
              ],
              [
                77.7467437,
                12.9459653
              ],
              [
                77.7467093,
                12.9461197
              ],
              [
                77.7466502,
                12.9462384
              ],
              [
                77.7465857,
                12.9463305
              ],
              [
                77.746371,
                12.9464626
              ],
              [
                77.7462519,
                12.9466268
              ],
              [
                77.7462316,
                12.9467004
              ],
              [
                77.7462191,
                12.946916
              ],
              [
                77.746199,
                12.9471657
              ],
              [
                77.7455985,
                12.948755
              ],
              [
                77.7455261,
                12.9488812
              ],
              [
                77.7453331,
                12.9489984
              ],
              [
                77.7452056,
                12.9491804
              ],
              [
                77.7451695,
                12.949392
              ],
              [
                77.7450997,
                12.9497275
              ],
              [
                77.745014,
                12.9499315
              ],
              [
                77.7448536,
                12.9503236
              ],
              [
                77.7448093,
                12.9505481
              ],
              [
                77.7447649,
                12.9506795
              ],
              [
                77.7447884,
                12.9508241
              ],
              [
                77.7446899,
                12.9511933
              ],
              [
                77.7445876,
                12.9515404
              ],
              [
                77.7445316,
                12.9517591
              ],
              [
                77.7443871,
                12.9520912
              ],
              [
                77.7442995,
                12.952221
              ],
              [
                77.7441502,
                12.9526237
              ],
              [
                77.7440739,
                12.9529349
              ],
              [
                77.7439904,
                12.9531215
              ],
              [
                77.7439463,
                12.9532642
              ],
              [
                77.743949,
                12.9534498
              ],
              [
                77.744137,
                12.9538281
              ],
              [
                77.7441742,
                12.9539516
              ],
              [
                77.7441819,
                12.9540795
              ],
              [
                77.7441631,
                12.9541933
              ],
              [
                77.7441126,
                12.9542784
              ],
              [
                77.7440077,
                12.9543743
              ],
              [
                77.7440565,
                12.9545012
              ],
              [
                77.744159,
                12.9548224
              ],
              [
                77.7441972,
                12.9549873
              ],
              [
                77.7442224,
                12.9552121
              ],
              [
                77.7442361,
                12.9555368
              ],
              [
                77.7441396,
                12.955507
              ],
              [
                77.7439463,
                12.9551697
              ],
              [
                77.7438406,
                12.9548161
              ],
              [
                77.7437583,
                12.9546267
              ],
              [
                77.7436427,
                12.9544275
              ],
              [
                77.7435955,
                12.9543104
              ],
              [
                77.7434738,
                12.9539837
              ],
              [
                77.7431602,
                12.9537218
              ],
              [
                77.7427694,
                12.953514
              ],
              [
                77.7426225,
                12.9534466
              ],
              [
                77.7424193,
                12.9534148
              ],
              [
                77.7420418,
                12.9532428
              ],
              [
                77.7416874,
                12.9531227
              ],
              [
                77.7412314,
                12.9529578
              ],
              [
                77.7410757,
                12.95292
              ],
              [
                77.7409047,
                12.9528785
              ],
              [
                77.740723,
                12.9528053
              ],
              [
                77.7405568,
                12.9527221
              ],
              [
                77.7403512,
                12.9526601
              ],
              [
                77.7401987,
                12.9526426
              ],
              [
                77.7400749,
                12.9526131
              ],
              [
                77.7399558,
                12.9525792
              ],
              [
                77.7398157,
                12.952493
              ],
              [
                77.739579,
                12.9522615
              ],
              [
                77.7395969,
                12.9522398
              ],
              [
                77.7396082,
                12.9522093
              ],
              [
                77.7396108,
                12.9521781
              ],
              [
                77.7395979,
                12.9521361
              ],
              [
                77.7395546,
                12.9520899
              ],
              [
                77.7394826,
                12.9520754
              ],
              [
                77.7394381,
                12.9520894
              ],
              [
                77.7392597,
                12.9520378
              ],
              [
                77.7391679,
                12.9520614
              ],
              [
                77.7389729,
                12.9521085
              ],
              [
                77.7386784,
                12.9521375
              ],
              [
                77.7385857,
                12.9521397
              ],
              [
                77.7385164,
                12.952121
              ],
              [
                77.7385211,
                12.9520728
              ],
              [
                77.7385034,
                12.9520366
              ],
              [
                77.7384514,
                12.9519957
              ],
              [
                77.7383765,
                12.9520008
              ],
              [
                77.7383205,
                12.9520709
              ],
              [
                77.7382472,
                12.9520437
              ],
              [
                77.738094,
                12.9519429
              ],
              [
                77.73797,
                12.9518162
              ],
              [
                77.7378022,
                12.9516961
              ],
              [
                77.737722,
                12.9516193
              ],
              [
                77.7376652,
                12.9515242
              ],
              [
                77.7376408,
                12.9514542
              ],
              [
                77.7376331,
                12.9513644
              ],
              [
                77.7376376,
                12.9512099
              ],
              [
                77.7376531,
                12.9511244
              ],
              [
                77.7376523,
                12.9510632
              ],
              [
                77.7376133,
                12.9510212
              ],
              [
                77.7375548,
                12.9510081
              ],
              [
                77.7375042,
                12.9510271
              ],
              [
                77.7374627,
                12.9510573
              ],
              [
                77.7367223,
                12.9507375
              ],
              [
                77.7364707,
                12.9505635
              ],
              [
                77.7359877,
                12.9502919
              ],
              [
                77.7358533,
                12.9502306
              ],
              [
                77.7357256,
                12.9501552
              ],
              [
                77.7350789,
                12.9495549
              ],
              [
                77.734918,
                12.949487
              ],
              [
                77.7345138,
                12.9494884
              ],
              [
                77.7342658,
                12.949511
              ],
              [
                77.733444,
                12.9492794
              ],
              [
                77.7333322,
                12.9492014
              ],
              [
                77.7332152,
                12.9489229
              ],
              [
                77.7330402,
                12.9485777
              ],
              [
                77.7328998,
                12.9484222
              ],
              [
                77.7326518,
                12.9482843
              ],
              [
                77.7323681,
                12.9481495
              ],
              [
                77.7320871,
                12.9480637
              ],
              [
                77.7314097,
                12.9479918
              ],
              [
                77.731258,
                12.9480314
              ],
              [
                77.7311798,
                12.9480984
              ],
              [
                77.731101,
                12.9481417
              ],
              [
                77.7309393,
                12.948127
              ],
              [
                77.7307913,
                12.9480998
              ],
              [
                77.7305596,
                12.9480307
              ],
              [
                77.7304325,
                12.9480012
              ],
              [
                77.7301555,
                12.9479469
              ],
              [
                77.7300456,
                12.9479056
              ],
              [
                77.7299128,
                12.9478067
              ],
              [
                77.7299048,
                12.9477779
              ],
              [
                77.7299,
                12.9477553
              ],
              [
                77.7299254,
                12.9476777
              ],
              [
                77.7305238,
                12.9432407
              ],
              [
                77.7305095,
                12.9430246
              ],
              [
                77.7305504,
                12.9429484
              ]
            ]
          ],
          [
            [
              [
                77.7298431,
                12.9477614
              ],
              [
                77.7298062,
                12.9477766
              ],
              [
                77.7297671,
                12.9477752
              ],
              [
                77.7294805,
                12.9477088
              ],
              [
                77.7293727,
                12.9477001
              ],
              [
                77.7293324,
                12.9476797
              ],
              [
                77.7293507,
                12.947597
              ],
              [
                77.7294081,
                12.9474939
              ],
              [
                77.7294943,
                12.9473797
              ],
              [
                77.7294941,
                12.9473627
              ],
              [
                77.7294625,
                12.9473391
              ],
              [
                77.7294508,
                12.9473477
              ],
              [
                77.7293259,
                12.9475164
              ],
              [
                77.7292808,
                12.9475812
              ],
              [
                77.7292305,
                12.9476634
              ],
              [
                77.729199,
                12.9476187
              ],
              [
                77.7297253,
                12.9433452
              ],
              [
                77.7297416,
                12.9432668
              ],
              [
                77.729958,
                12.9431702
              ],
              [
                77.7303839,
                12.9430196
              ],
              [
                77.7304582,
                12.9431188
              ],
              [
                77.7304628,
                12.9432094
              ],
              [
                77.7298856,
                12.9476775
              ],
              [
                77.7298431,
                12.9477614
              ]
            ]
          ],
          [
            [
              [
                77.7277483,
                12.947121
              ],
              [
                77.7273575,
                12.9469808
              ],
              [
                77.7269574,
                12.9469262
              ],
              [
                77.7267301,
                12.9468418
              ],
              [
                77.7267054,
                12.9467961
              ],
              [
                77.7274438,
                12.9455793
              ],
              [
                77.7274585,
                12.9455053
              ],
              [
                77.7276521,
                12.944276
              ],
              [
                77.7276333,
                12.9442321
              ],
              [
                77.7275786,
                12.9442209
              ],
              [
                77.727564,
                12.944242
              ],
              [
                77.7273567,
                12.9454615
              ],
              [
                77.7273225,
                12.9455777
              ],
              [
                77.726631,
                12.9467248
              ],
              [
                77.7265514,
                12.946754
              ],
              [
                77.7264749,
                12.9467346
              ],
              [
                77.7258038,
                12.9464652
              ],
              [
                77.7256,
                12.9463449
              ],
              [
                77.7263737,
                12.9452554
              ],
              [
                77.726394,
                12.9451896
              ],
              [
                77.7265182,
                12.9439146
              ],
              [
                77.7264682,
                12.9438873
              ],
              [
                77.7264258,
                12.9439081
              ],
              [
                77.7263725,
                12.9445957
              ],
              [
                77.72632,
                12.9450371
              ],
              [
                77.7262932,
                12.9451742
              ],
              [
                77.7262377,
                12.9452856
              ],
              [
                77.7255521,
                12.9462537
              ],
              [
                77.7255219,
                12.9462444
              ],
              [
                77.7254612,
                12.9461513
              ],
              [
                77.7253952,
                12.9459636
              ],
              [
                77.7253698,
                12.945949
              ],
              [
                77.7253493,
                12.9459663
              ],
              [
                77.7254058,
                12.9462361
              ],
              [
                77.7253946,
                12.9463295
              ],
              [
                77.7253004,
                12.9463385
              ],
              [
                77.7250314,
                12.9463083
              ],
              [
                77.7243823,
                12.9460248
              ],
              [
                77.7243478,
                12.9459517
              ],
              [
                77.7243778,
                12.94588
              ],
              [
                77.7247933,
                12.9455703
              ],
              [
                77.7250264,
                12.9453029
              ],
              [
                77.7252435,
                12.9449653
              ],
              [
                77.7252806,
                12.9448519
              ],
              [
                77.7253575,
                12.9445446
              ],
              [
                77.7253918,
                12.9444062
              ],
              [
                77.7253996,
                12.9440108
              ],
              [
                77.7253932,
                12.9439295
              ],
              [
                77.7252766,
                12.9434967
              ],
              [
                77.7252836,
                12.943457
              ],
              [
                77.7254462,
                12.9434254
              ],
              [
                77.7256662,
                12.9433399
              ],
              [
                77.7257011,
                12.9433555
              ],
              [
                77.725825,
                12.9442053
              ],
              [
                77.7258437,
                12.9442882
              ],
              [
                77.7258634,
                12.9444027
              ],
              [
                77.72589,
                12.9445877
              ],
              [
                77.7258869,
                12.9446134
              ],
              [
                77.7254155,
                12.9456099
              ],
              [
                77.7254408,
                12.9456411
              ],
              [
                77.7254898,
                12.9456555
              ],
              [
                77.7259824,
                12.9446392
              ],
              [
                77.725985,
                12.9446011
              ],
              [
                77.7259532,
                12.9444389
              ],
              [
                77.7258286,
                12.9433284
              ],
              [
                77.7258474,
                12.9432947
              ],
              [
                77.7261088,
                12.9432491
              ],
              [
                77.7267471,
                12.9432893
              ],
              [
                77.7269067,
                12.9433397
              ],
              [
                77.7269232,
                12.9433824
              ],
              [
                77.7269899,
                12.9448193
              ],
              [
                77.726985,
                12.9448737
              ],
              [
                77.7265568,
                12.9458556
              ],
              [
                77.726541,
                12.9459349
              ],
              [
                77.7265433,
                12.9460142
              ],
              [
                77.7265784,
                12.9460266
              ],
              [
                77.7266046,
                12.9460043
              ],
              [
                77.7270463,
                12.9449103
              ],
              [
                77.7270585,
                12.9448112
              ],
              [
                77.7270552,
                12.9441643
              ],
              [
                77.7270343,
                12.9437815
              ],
              [
                77.727038,
                12.9434118
              ],
              [
                77.7270903,
                12.9434016
              ],
              [
                77.7271567,
                12.9434205
              ],
              [
                77.7277092,
                12.943552
              ],
              [
                77.7282888,
                12.9436266
              ],
              [
                77.7283058,
                12.943684
              ],
              [
                77.7277993,
                12.9470236
              ],
              [
                77.7277483,
                12.947121
              ]
            ]
          ]
        ]
      },
      "properties": {
        "body_id": "varthur",
        "osm_type": "relation",
        "osm_id": 19306126,
        "name": "Varthur Lake",
        "name_en": "Varthur Lake",
        "name_ta": "",
        "ramsar": false,
        "protect_class": null,
        "protection_title": null,
        "start_date": null,
        "wikidata": null,
        "wikipedia": null,
        "area_ha": 154.7,
        "source": "OSM relation 19306126",
        "license": "ODbL",
        "fetched_at": "2026-05-25T13:46:09.416Z"
      }
    }
  ]
}