{
  "type": "FeatureCollection",
  "features": [
    {
      "type": "Feature",
      "properties": {
        "body_id": "velachery",
        "buffer_metres": 1000,
        "source_polygon": "velachery.geojson",
        "computed_with": "@turf/buffer",
        "fetched_at": "2026-05-19T13:10:32.912Z"
      },
      "geometry": {
        "type": "Polygon",
        "coordinates": [
          [
            [
              80.19568813759285,
              12.989006373279729
            ],
            [
              80.19568174145499,
              12.988901873055461
            ],
            [
              80.19575919538315,
              12.987087382956737
            ],
            [
              80.19620917565602,
              12.985325051260052
            ],
            [
              80.19701332560716,
              12.983686741328828
            ],
            [
              80.19813884814091,
              12.982239257885116
            ],
            [
              80.19953984396753,
              12.981041623310597
            ],
            [
              80.20115918365889,
              12.980142671416564
            ],
            [
              80.20148747491986,
              12.980001076101908
            ],
            [
              80.20190825447888,
              12.979831557933501
            ],
            [
              80.20220184602859,
              12.979721461651424
            ],
            [
              80.20425249790833,
              12.97920615350934
            ],
            [
              80.20567964771605,
              12.979013860397469
            ],
            [
              80.20701004554341,
              12.978929328047398
            ],
            [
              80.20813946972771,
              12.978937225414443
            ],
            [
              80.20949233452035,
              12.978714224638503
            ],
            [
              80.20995325380066,
              12.97874565948063
            ],
            [
              80.21061647453507,
              12.978626197802399
            ],
            [
              80.2113420724261,
              12.978396546941356
            ],
            [
              80.21257463781104,
              12.978200848788708
            ],
            [
              80.21265213700242,
              12.978174304614969
            ],
            [
              80.21424201414504,
              12.977919211656097
            ],
            [
              80.21454052885433,
              12.977922591723303
            ],
            [
              80.21535332297505,
              12.977796254714304
            ],
            [
              80.21633149304563,
              12.977830993316681
            ],
            [
              80.21645533180003,
              12.977810328557227
            ],
            [
              80.21828280053849,
              12.977685137184825
            ],
            [
              80.22009964319327,
              12.977914147965103
            ],
            [
              80.22183427674575,
              12.97848833796124
            ],
            [
              80.22341835618869,
              12.979385084201708
            ],
            [
              80.2247894666254,
              12.980569054754893
            ],
            [
              80.22589358205701,
              12.981993600432824
            ],
            [
              80.22668719406538,
              12.98360259236472
            ],
            [
              80.22713902653629,
              12.98533263312356
            ],
            [
              80.22723724930046,
              12.985966829691831
            ],
            [
              80.22733226182126,
              12.987690828463744
            ],
            [
              80.22708743479649,
              12.989400749771058
            ],
            [
              80.22651178460391,
              12.991033573637017
            ],
            [
              80.2256265212936,
              12.99252912034795
            ],
            [
              80.22446426769714,
              12.993832268677568
            ],
            [
              80.22306785762643,
              12.99489498780599
            ],
            [
              80.22148875737916,
              12.995678107984373
            ],
            [
              80.22071446846492,
              12.995974778742168
            ],
            [
              80.2203940287316,
              12.996191109598323
            ],
            [
              80.21867973810231,
              12.99710340959291
            ],
            [
              80.21750155179699,
              12.997443309889395
            ],
            [
              80.21750600923575,
              12.99745889977455
            ],
            [
              80.21375708860913,
              12.998476535278305
            ],
            [
              80.21188321537619,
              12.998787194840368
            ],
            [
              80.20998376800942,
              12.998717227520265
            ],
            [
              80.20957896033184,
              12.998618986797542
            ],
            [
              80.20829988367726,
              12.998591753329858
            ],
            [
              80.20642902870755,
              12.9981640932163
            ],
            [
              80.20540562989018,
              12.997695833286844
            ],
            [
              80.20526016094936,
              12.997692774529002
            ],
            [
              80.20383941479622,
              12.99739461975706
            ],
            [
              80.20373330597205,
              12.99739172507278
            ],
            [
              80.20195725666024,
              12.99699427066819
            ],
            [
              80.20029597571259,
              12.996264544261344
            ],
            [
              80.19881422808682,
              12.995230994765636
            ],
            [
              80.19756977760731,
              12.993933915433145
            ],
            [
              80.19661113484315,
              12.992423872605567
            ],
            [
              80.19597566615232,
              12.9907597339714
            ],
            [
              80.19568813759285,
              12.989006373279729
            ]
          ]
        ]
      }
    }
  ]
}