{
  "nvdm": "1.0",
  "dataset": "geojson-layers/buffer-1000m",
  "scope": {
    "kind": "region",
    "id": "mumbai"
  },
  "provenance": {
    "sources": [
      {
        "id": "osm-overpass",
        "title": "OpenStreetMap body polygon (Overpass relation/way extract)",
        "publisher": "OpenStreetMap contributors",
        "license": "ODbL 1.0",
        "role": "input"
      }
    ],
    "method": "derived",
    "produced_at": "2026-08-24",
    "internal_inputs": [],
    "produced_by": "scripts/fetch-rich-body-polygon.ts",
    "note": "1 km Minkowski offset of the body polygon (@turf/buffer), not a circle from the centroid; derived in-memory from the same Overpass fetch, hence internal_inputs []."
  },
  "type": "FeatureCollection",
  "features": [
    {
      "type": "Feature",
      "properties": {
        "body_id": "vihar",
        "buffer_metres": 1000,
        "source_polygon": "vihar.geojson",
        "computed_with": "@turf/buffer",
        "fetched_at": "2026-08-24T18:27:39.059Z"
      },
      "geometry": {
        "type": "Polygon",
        "coordinates": [
          [
            [
              72.89028912638635,
              19.138916637706966
            ],
            [
              72.89034250421822,
              19.138070269106088
            ],
            [
              72.89077007812978,
              19.136454461564245
            ],
            [
              72.89150569746757,
              19.134940850587796
            ],
            [
              72.89252412506349,
              19.13358134766944
            ],
            [
              72.8937904268828,
              19.13242257773892
            ],
            [
              72.89526117065697,
              19.13150428057533
            ],
            [
              72.8968859155135,
              19.130857948406486
            ],
            [
              72.89860894151607,
              19.130505746339153
            ],
            [
              72.90037115986497,
              19.130459752569926
            ],
            [
              72.90049615309887,
              19.13046745215012
            ],
            [
              72.90216956834263,
              19.130713154117817
            ],
            [
              72.90289039795248,
              19.130948182783683
            ],
            [
              72.90323877524322,
              19.131007132776535
            ],
            [
              72.90360999859267,
              19.131148338636553
            ],
            [
              72.90368545028403,
              19.13112136998095
            ],
            [
              72.90417274963136,
              19.131042444075042
            ],
            [
              72.90444358243273,
              19.130923456131097
            ],
            [
              72.90629389739136,
              19.13050478634819
            ],
            [
              72.90819537896714,
              19.130442127692575
            ],
            [
              72.91007207107916,
              19.130737983110446
            ],
            [
              72.91227336390652,
              19.1313033533765
            ],
            [
              72.91392050248014,
              19.131885420981078
            ],
            [
              72.91542621176286,
              19.132743808708437
            ],
            [
              72.91673910464797,
              19.13384922282301
            ],
            [
              72.91752859878525,
              19.134814530384073
            ],
            [
              72.91772672032121,
              19.13483514716824
            ],
            [
              72.91947878420972,
              19.135352316758286
            ],
            [
              72.92109322181666,
              19.13617755518141
            ],
            [
              72.92251000806746,
              19.1372801811958
            ],
            [
              72.92259580806999,
              19.137361278071122
            ],
            [
              72.92389417885705,
              19.13889076841113
            ],
            [
              72.92396928208498,
              19.139002265148175
            ],
            [
              72.92409499647609,
              19.13920359370211
            ],
            [
              72.92411169822788,
              19.139220322592298
            ],
            [
              72.92415047760157,
              19.139261492773784
            ],
            [
              72.92426478626017,
              19.139370322145957
            ],
            [
              72.92538622607178,
              19.139797808147055
            ],
            [
              72.92661278024589,
              19.14054449144804
            ],
            [
              72.92661524956782,
              19.140541078431905
            ],
            [
              72.92671714712387,
              19.140606875471455
            ],
            [
              72.92672852277319,
              19.14061495068312
            ],
            [
              72.92689561618431,
              19.14071666996578
            ],
            [
              72.92692721566922,
              19.140740168959404
            ],
            [
              72.92694247591463,
              19.140751541110703
            ],
            [
              72.92701277478629,
              19.14080403886604
            ],
            [
              72.92722321482633,
              19.140966115396548
            ],
            [
              72.92739932700974,
              19.141091130640763
            ],
            [
              72.92749052577751,
              19.141162127654454
            ],
            [
              72.92824642060758,
              19.141818336857227
            ],
            [
              72.92847172101621,
              19.142036228557867
            ],
            [
              72.92877725023891,
              19.142345971543094
            ],
            [
              72.92882015065118,
              19.142391569891814
            ],
            [
              72.92881241761684,
              19.14239806305446
            ],
            [
              72.92935419273593,
              19.14296602054405
            ],
            [
              72.92939179355119,
              19.143011619016413
            ],
            [
              72.93004485537507,
              19.143911232870906
            ],
            [
              72.93007705697958,
              19.14396193144867
            ],
            [
              72.93094740227086,
              19.145751185683352
            ],
            [
              72.93096880523093,
              19.145811984636886
            ],
            [
              72.9313988276461,
              19.147672401840232
            ],
            [
              72.93140267527247,
              19.148951195460327
            ],
            [
              72.93140398216579,
              19.14895649808009
            ],
            [
              72.93141686390835,
              19.149015494959496
            ],
            [
              72.93149137965511,
              19.14927633081009
            ],
            [
              72.93149624670123,
              19.14929766779412
            ],
            [
              72.93149782060104,
              19.149302127369722
            ],
            [
              72.93150941162646,
              19.149355382402735
            ],
            [
              72.93169726844827,
              19.15017893615629
            ],
            [
              72.93172947884638,
              19.150366434516666
            ],
            [
              72.9317294701426,
              19.150366435850984
            ],
            [
              72.93195316201324,
              19.151394169666926
            ],
            [
              72.93195856548482,
              19.15145496938887
            ],
            [
              72.93199193990759,
              19.152206854833498
            ],
            [
              72.93199195043381,
              19.15238925483066
            ],
            [
              72.93173102398362,
              19.154480809884053
            ],
            [
              72.9309623001617,
              19.156457687859437
            ],
            [
              72.92995604896387,
              19.158331752003633
            ],
            [
              72.92987757390752,
              19.159084523016038
            ],
            [
              72.9303008359176,
              19.159810355775566
            ],
            [
              72.93088204448716,
              19.16166000033692
            ],
            [
              72.93103221153106,
              19.163584182527572
            ],
            [
              72.93074441034325,
              19.16549433812849
            ],
            [
              72.93003187322437,
              19.167302545502338
            ],
            [
              72.92996747793433,
              19.16742414846802
            ],
            [
              72.92921442041451,
              19.168552626827417
            ],
            [
              72.92898850213783,
              19.168928432481742
            ],
            [
              72.92789756186771,
              19.170163084587024
            ],
            [
              72.92781176187385,
              19.170244187713397
            ],
            [
              72.9264962671833,
              19.171281570501318
            ],
            [
              72.92525671293465,
              19.171944822093923
            ],
            [
              72.92510178781384,
              19.172118552240846
            ],
            [
              72.92479160327143,
              19.17298356705283
            ],
            [
              72.92382989303195,
              19.174542628356562
            ],
            [
              72.92255801133659,
              19.17588896871865
            ],
            [
              72.9214734902538,
              19.176653674761134
            ],
            [
              72.92104658437201,
              19.17702771166598
            ],
            [
              72.91965707133748,
              19.17787612040356
            ],
            [
              72.91945706439668,
              19.177976125224998
            ],
            [
              72.91729740726751,
              19.178755949123154
            ],
            [
              72.91500240554541,
              19.179021103630387
            ],
            [
              72.91480239463245,
              19.179021103631044
            ],
            [
              72.91250740257118,
              19.178755951406284
            ],
            [
              72.91240392188041,
              19.17871858680514
            ],
            [
              72.9107421704737,
              19.178597069704537
            ],
            [
              72.91043260583562,
              19.17851437425098
            ],
            [
              72.90857830912044,
              19.17833556355271
            ],
            [
              72.90673362392046,
              19.177786601958235
            ],
            [
              72.90504446083727,
              19.176896872385655
            ],
            [
              72.90459698280966,
              19.176531975604462
            ],
            [
              72.9042119033926,
              19.176275249847144
            ],
            [
              72.90278055539473,
              19.175103099092826
            ],
            [
              72.90268055584835,
              19.175003095347652
            ],
            [
              72.90157438920663,
              19.173663087795468
            ],
            [
              72.90137758307017,
              19.17329985307993
            ],
            [
              72.9004421846399,
              19.172415728869353
            ],
            [
              72.89929306777479,
              19.170668264563595
            ],
            [
              72.89919307589109,
              19.170468259906578
            ],
            [
              72.89851207535379,
              19.168595644376225
            ],
            [
              72.89828768939412,
              19.166681083819945
            ],
            [
              72.89771247979783,
              19.166375614314454
            ],
            [
              72.89741247309225,
              19.166175605402863
            ],
            [
              72.89616452501645,
              19.165181848015962
            ],
            [
              72.89511463209816,
              19.164001344411208
            ],
            [
              72.89429365033997,
              19.162668794303368
            ],
            [
              72.89309374769454,
              19.16026883843671
            ],
            [
              72.89274423301384,
              19.159473125792054
            ],
            [
              72.89194433232156,
              19.15737308704571
            ],
            [
              72.89152369350344,
              19.155873508975063
            ],
            [
              72.89144414101304,
              19.1550049316715
            ],
            [
              72.89095628831576,
              19.153609876666174
            ],
            [
              72.89073386921545,
              19.151788942588485
            ],
            [
              72.89073314381947,
              19.151735358254374
            ],
            [
              72.89068203380343,
              19.15135443333682
            ],
            [
              72.89079721114246,
              19.149652502392005
            ],
            [
              72.89124434021149,
              19.148023855140664
            ],
            [
              72.89090727097036,
              19.147461884877092
            ],
            [
              72.890767881902,
              19.14718827841182
            ],
            [
              72.8901113110996,
              19.145472916667316
            ],
            [
              72.8898346471281,
              19.143667683212545
            ],
            [
              72.88981856782844,
              19.143307882389852
            ],
            [
              72.88985312290643,
              19.142074456731287
            ],
            [
              72.89006244083886,
              19.14000166748607
            ],
            [
              72.89028912638635,
              19.138916637706966
            ]
          ]
        ]
      }
    }
  ]
}