{"nvdm":"1.0","dataset":"basins/watersheds","scope":{"kind":"basin","id":"palakkad-rivers"},"provenance":{"sources":[{"id":"ksrec-open-geoserver","title":"KSREC GeoServer (WFS): local-body boundaries, watershed atlas, wetlands, paddy, notified wetland parcels, flood extents and quarries of Kerala","publisher":"Kerala State Remote Sensing and Environment Centre (KSREC)","license":"No licence or terms are stated on the GeoServer (WFS capabilities: AccessConstraints NONE). Served with attribution to KSREC by the maintainer's decision; layers KSREC derived from OpenStreetMap (quarries, waterbodies) carry ODbL 1.0.","role":"input","url":"http://ksrec.in:9090/geoserver/ows"}],"method":"derived","produced_at":"2026-09-29","produced_by":"scripts/build_palakkad_rivers_basin.py","note":"Palakkad district's rivers, reservoirs, wetlands and groundwater (scope palakkad-rivers; the district's own scope id is kl-palakkad). The district is the union of its local bodies in KSREC's layer and the catchments (shedId) are the river basins of KSREC's watershed atlas cut to it. KSREC publishes no licence and its layers are served with attribution; its quarry layer is OpenStreetMap's (ODbL)."},"type":"FeatureCollection","features":[{"type":"Feature","properties":{"code":"18K12b","basin":"KEECHERI","areaHa":66.92,"shedId":"RB19"},"geometry":{"type":"MultiPolygon","coordinates":[[[[76.1372,10.7193],[76.1354,10.7196],[76.1343,10.7214],[76.1359,10.7212],[76.1372,10.7193]]],[[[76.1304,10.7166],[76.1272,10.7151],[76.1271,10.7135],[76.1235,10.7122],[76.1229,10.7105],[76.1206,10.712],[76.1222,10.7148],[76.1244,10.7164],[76.1278,10.7216],[76.1287,10.7221],[76.1327,10.7217],[76.1304,10.7166]]]]}},{"type":"Feature","properties":{"code":"18K13a","basin":"KEECHERI","areaHa":13.09,"shedId":"RB19"},"geometry":{"type":"Polygon","coordinates":[[[76.1539,10.712],[76.1535,10.7113],[76.1519,10.7122],[76.1517,10.7137],[76.1446,10.7194],[76.1468,10.7188],[76.1527,10.714],[76.1539,10.712]]]}},{"type":"Feature","properties":{"code":"18K14a","basin":"KEECHERI","areaHa":68.53,"shedId":"RB19"},"geometry":{"type":"Polygon","coordinates":[[[76.1642,10.7165],[76.1659,10.714],[76.1663,10.7117],[76.1655,10.7114],[76.1645,10.7092],[76.1643,10.7063],[76.1629,10.7062],[76.1627,10.707],[76.1612,10.7072],[76.1576,10.7159],[76.1568,10.7162],[76.15695,10.71692],[76.158,10.717],[76.1624,10.7159],[76.1642,10.7165]]]}},{"type":"Feature","properties":{"code":"19K10a","basin":"KANJIRAMUKKU","areaHa":74.45,"shedId":"RB19"},"geometry":{"type":"Polygon","coordinates":[[[76.1051,10.7306],[76.1071,10.7272],[76.10501,10.72212],[76.0988,10.7262],[76.097,10.7264],[76.0979,10.7281],[76.0992,10.7289],[76.0995,10.7306],[76.1012,10.731],[76.1023,10.7328],[76.1049,10.7342],[76.1056,10.7332],[76.1051,10.7306]]]}},{"type":"Feature","properties":{"code":"19K3b","basin":"KANJIRAMUKKU","areaHa":76.26,"shedId":"RB19"},"geometry":{"type":"Polygon","coordinates":[[[76.045,10.7922],[76.0424,10.7755],[76.0426,10.7685],[76.04022,10.7662],[76.0393,10.7683],[76.0401,10.7692],[76.0398,10.773],[76.0415,10.7801],[76.0414,10.7846],[76.0421,10.7856],[76.0422,10.7871],[76.0412,10.789],[76.0416,10.7914],[76.0429,10.794],[76.0445,10.7936],[76.045,10.7922]]]}},{"type":"Feature","properties":{"code":"19K3c","basin":"KANJIRAMUKKU","areaHa":851.77,"shedId":"RB19"},"geometry":{"type":"Polygon","coordinates":[[[76.0694,10.793],[76.0703,10.7896],[76.0681,10.7877],[76.0676,10.7854],[76.0622,10.7868],[76.0481,10.7869],[76.0474,10.7884],[76.0476,10.7911],[76.0445,10.7936],[76.0427,10.794],[76.0432,10.7972],[76.0445,10.7968],[76.0448,10.7953],[76.0468,10.7957],[76.0491,10.7981],[76.0494,10.799],[76.0488,10.8003],[76.05,10.8007],[76.0476,10.8017],[76.0457,10.8009],[76.047,10.8025],[76.0467,10.8043],[76.0458,10.8048],[76.0451,10.8043],[76.0446,10.8053],[76.0438,10.805],[76.0433,10.8055],[76.0402,10.8044],[76.0381,10.8058],[76.0373,10.8079],[76.0351,10.8084],[76.0372,10.8091],[76.0389,10.8105],[76.0394,10.8116],[76.0388,10.8156],[76.0394,10.8166],[76.0424,10.8188],[76.0448,10.8194],[76.0511,10.8188],[76.0604,10.8109],[76.065,10.806],[76.0701,10.8042],[76.0708,10.7969],[76.0694,10.793]]]}},{"type":"Feature","properties":{"code":"19K3d","basin":"KANJIRAMUKKU","areaHa":472.0,"shedId":"RB19"},"geometry":{"type":"Polygon","coordinates":[[[76.0675,10.785],[76.0676,10.7836],[76.0696,10.782],[76.0717,10.7777],[76.0723,10.7738],[76.0735,10.7717],[76.0719,10.7713],[76.0681,10.7722],[76.0638,10.7756],[76.0587,10.7722],[76.0512,10.7717],[76.0493,10.7736],[76.0455,10.7729],[76.0435,10.7751],[76.0424,10.7755],[76.0434,10.7797],[76.0431,10.7823],[76.0448,10.7933],[76.0476,10.7911],[76.0474,10.7884],[76.0481,10.7869],[76.0622,10.7868],[76.0634,10.7861],[76.0664,10.7859],[76.0675,10.785]]]}},{"type":"Feature","properties":{"code":"19K3e","basin":"KANJIRAMUKKU","areaHa":316.89,"shedId":"RB19"},"geometry":{"type":"Polygon","coordinates":[[[76.0649,10.7743],[76.0629,10.768],[76.0592,10.7647],[76.0596,10.7619],[76.0586,10.7592],[76.0559,10.7564],[76.0536,10.7582],[76.0529,10.7607],[76.0521,10.7612],[76.0495,10.7602],[76.0461,10.7606],[76.043,10.7614],[76.0424,10.7628],[76.04116,10.7633],[76.04022,10.7662],[76.0426,10.7685],[76.0424,10.7755],[76.0435,10.7751],[76.0455,10.7729],[76.0493,10.7736],[76.0512,10.7717],[76.0587,10.7722],[76.0606,10.773],[76.0631,10.7756],[76.0644,10.7753],[76.0649,10.7743]]]}},{"type":"Feature","properties":{"code":"19K3f","basin":"KANJIRAMUKKU","areaHa":139.75,"shedId":"RB19"},"geometry":{"type":"Polygon","coordinates":[[[76.0559,10.7564],[76.0543,10.7528],[76.0504,10.7519],[76.0477,10.7527],[76.0453,10.752],[76.0445,10.754],[76.0429,10.7547],[76.0397,10.7547],[76.0391,10.7554],[76.0403,10.7566],[76.0394,10.757],[76.0403,10.7583],[76.0401,10.76],[76.04116,10.7633],[76.0424,10.7628],[76.043,10.7614],[76.0461,10.7606],[76.0495,10.7602],[76.0521,10.7612],[76.0529,10.7607],[76.0536,10.7582],[76.0559,10.7564]]]}},{"type":"Feature","properties":{"code":"19K6a","basin":"KANJIRAMUKKU","areaHa":94.0,"shedId":"RB19"},"geometry":{"type":"Polygon","coordinates":[[[76.0559,10.7411],[76.054,10.7401],[76.0538,10.7414],[76.0511,10.7407],[76.0492,10.7412],[76.0493,10.7418],[76.0475,10.743],[76.0468,10.7426],[76.0452,10.7472],[76.046,10.7483],[76.0464,10.7478],[76.0472,10.7481],[76.0478,10.7508],[76.0463,10.7519],[76.0471,10.7526],[76.0504,10.7519],[76.0543,10.7528],[76.0543,10.7507],[76.0527,10.7499],[76.0529,10.7452],[76.0557,10.7416],[76.0559,10.7411]]]}},{"type":"Feature","properties":{"code":"19K7a","basin":"KANJIRAMUKKU","areaHa":704.14,"shedId":"RB19"},"geometry":{"type":"Polygon","coordinates":[[[76.0774,10.7689],[76.0761,10.7657],[76.077,10.763],[76.0767,10.7618],[76.076,10.7606],[76.0728,10.7594],[76.0738,10.7526],[76.0769,10.75],[76.0732,10.7475],[76.0719,10.7442],[76.0718,10.741],[76.0733,10.7371],[76.0739,10.7315],[76.0729,10.7308],[76.0696,10.7305],[76.0697,10.7311],[76.0684,10.7316],[76.0687,10.7329],[76.07,10.733],[76.0693,10.7333],[76.069,10.7353],[76.0689,10.7369],[76.0697,10.7374],[76.067,10.7387],[76.0639,10.7437],[76.0633,10.7431],[76.0624,10.7439],[76.0617,10.7434],[76.0619,10.7422],[76.0617,10.7421],[76.0604,10.7427],[76.0598,10.7419],[76.0585,10.7423],[76.0559,10.7411],[76.0531,10.7446],[76.0527,10.7499],[76.0543,10.7507],[76.0548,10.7546],[76.0586,10.7592],[76.0596,10.7619],[76.0592,10.7647],[76.0629,10.768],[76.0649,10.7743],[76.066,10.7743],[76.0692,10.7718],[76.0719,10.7713],[76.0737,10.7719],[76.0773,10.7716],[76.0774,10.7689]]]}},{"type":"Feature","properties":{"code":"19K7b","basin":"KANJIRAMUKKU","areaHa":447.73,"shedId":"RB19"},"geometry":{"type":"Polygon","coordinates":[[[76.0895,10.7725],[76.0891,10.7698],[76.0855,10.7676],[76.0848,10.766],[76.0857,10.7637],[76.0858,10.7606],[76.0837,10.7439],[76.0822,10.7436],[76.0816,10.7418],[76.08,10.7414],[76.0798,10.7394],[76.0777,10.7379],[76.0763,10.7377],[76.0758,10.7366],[76.0761,10.7336],[76.0749,10.7318],[76.0739,10.7315],[76.0733,10.7371],[76.0718,10.741],[76.0719,10.7442],[76.0732,10.7475],[76.0769,10.75],[76.0738,10.7526],[76.0728,10.7594],[76.076,10.7606],[76.0767,10.7618],[76.077,10.763],[76.0761,10.7657],[76.0774,10.7689],[76.0773,10.7716],[76.081,10.7729],[76.0867,10.7735],[76.0879,10.7743],[76.0895,10.7725]]]}},{"type":"Feature","properties":{"code":"19K7c","basin":"KANJIRAMUKKU","areaHa":919.73,"shedId":"RB19"},"geometry":{"type":"Polygon","coordinates":[[[76.1004,10.7625],[76.1017,10.7605],[76.1049,10.7579],[76.1107,10.7559],[76.1107,10.7535],[76.1085,10.7505],[76.1071,10.7464],[76.1065,10.7458],[76.1037,10.7458],[76.0988,10.7438],[76.0968,10.7443],[76.0894,10.7442],[76.084,10.7426],[76.0838,10.7457],[76.0851,10.752],[76.0848,10.7553],[76.0858,10.7606],[76.0857,10.7637],[76.0848,10.766],[76.0855,10.7676],[76.0885,10.7691],[76.0897,10.7715],[76.0895,10.7728],[76.0879,10.7743],[76.0887,10.7767],[76.0872,10.7804],[76.0927,10.7843],[76.0949,10.7905],[76.0977,10.7896],[76.0989,10.7862],[76.1004,10.7841],[76.1039,10.7831],[76.1041,10.7821],[76.1031,10.7801],[76.0997,10.7788],[76.0995,10.7778],[76.1027,10.7739],[76.1058,10.7743],[76.1067,10.7738],[76.1067,10.7721],[76.105,10.7676],[76.1035,10.766],[76.1004,10.7648],[76.1004,10.7625]]]}},{"type":"Feature","properties":{"code":"19K7d","basin":"KANJIRAMUKKU","areaHa":230.85,"shedId":"RB19"},"geometry":{"type":"Polygon","coordinates":[[[76.0988,10.7438],[76.095,10.738],[76.0926,10.7357],[76.0876,10.7356],[76.0853,10.7326],[76.0844,10.7323],[76.074,10.7298],[76.0706,10.7295],[76.0693,10.73],[76.0704,10.7309],[76.0729,10.7308],[76.0751,10.732],[76.0761,10.7336],[76.0758,10.7366],[76.0763,10.7377],[76.0777,10.7379],[76.0798,10.7394],[76.08,10.7414],[76.0816,10.7418],[76.0822,10.7436],[76.0837,10.7439],[76.0845,10.7425],[76.0894,10.7442],[76.0968,10.7443],[76.0988,10.7438]]]}},{"type":"Feature","properties":{"code":"19K8a","basin":"KANJIRAMUKKU","areaHa":1015.25,"shedId":"RB19"},"geometry":{"type":"Polygon","coordinates":[[[76.1049,10.7342],[76.102,10.7325],[76.1012,10.731],[76.0995,10.7306],[76.0992,10.7289],[76.0972,10.727],[76.0966,10.7283],[76.0953,10.7284],[76.0934,10.7273],[76.091,10.7279],[76.0897,10.7271],[76.0867,10.7272],[76.0852,10.7282],[76.0848,10.7274],[76.0833,10.7269],[76.0807,10.7276],[76.0767,10.7275],[76.0757,10.7277],[76.074,10.7298],[76.0853,10.7326],[76.0876,10.7356],[76.0926,10.7357],[76.095,10.738],[76.0957,10.7399],[76.0988,10.7438],[76.1037,10.7458],[76.1065,10.7458],[76.1071,10.7464],[76.1085,10.7505],[76.1107,10.7535],[76.1107,10.7559],[76.1173,10.7576],[76.119,10.7576],[76.124,10.7558],[76.1312,10.7577],[76.1368,10.7566],[76.1415,10.7574],[76.1437,10.7563],[76.1414,10.7528],[76.1406,10.7497],[76.1357,10.7454],[76.1337,10.7455],[76.1329,10.7443],[76.129,10.7417],[76.123,10.7406],[76.1223,10.7396],[76.1225,10.7365],[76.122,10.7353],[76.1174,10.735],[76.116,10.7338],[76.1145,10.7335],[76.1109,10.7357],[76.1056,10.7332],[76.1049,10.7342]]]}},{"type":"Feature","properties":{"code":"19K8b","basin":"KANJIRAMUKKU","areaHa":399.47,"shedId":"RB19"},"geometry":{"type":"Polygon","coordinates":[[[76.1544,10.7446],[76.1584,10.7404],[76.1586,10.7379],[76.1574,10.735],[76.1513,10.7338],[76.1492,10.7359],[76.1471,10.7369],[76.144,10.736],[76.1424,10.7346],[76.1392,10.7341],[76.136,10.7364],[76.1349,10.7445],[76.1361,10.7462],[76.1406,10.7497],[76.1414,10.7528],[76.1437,10.7563],[76.1461,10.7549],[76.1474,10.7527],[76.1494,10.7523],[76.1517,10.7508],[76.1544,10.7446]]]}},{"type":"Feature","properties":{"code":"19K8c","basin":"KANJIRAMUKKU","areaHa":959.79,"shedId":"RB19"},"geometry":{"type":"Polygon","coordinates":[[[76.158,10.7345],[76.16,10.7326],[76.1602,10.7289],[76.1597,10.7271],[76.1626,10.7255],[76.1646,10.7213],[76.1664,10.721],[76.1642,10.7165],[76.1632,10.7159],[76.15695,10.71692],[76.1567,10.7177],[76.1543,10.7157],[76.154,10.7122],[76.1527,10.714],[76.1459,10.7193],[76.1372,10.7193],[76.1359,10.7212],[76.1335,10.722],[76.1287,10.7221],[76.1256,10.7182],[76.1205,10.7219],[76.1209,10.7255],[76.1198,10.7268],[76.1177,10.7276],[76.1174,10.7284],[76.1177,10.7307],[76.121,10.7353],[76.122,10.7353],[76.1225,10.7365],[76.1223,10.7396],[76.123,10.7406],[76.129,10.7417],[76.1329,10.7443],[76.1337,10.7455],[76.1357,10.7454],[76.1348,10.7436],[76.136,10.7364],[76.1392,10.7341],[76.1424,10.7346],[76.144,10.736],[76.1471,10.7369],[76.1492,10.7359],[76.1513,10.7338],[76.1559,10.7349],[76.158,10.7345]]]}},{"type":"Feature","properties":{"code":"19K9a","basin":"KANJIRAMUKKU","areaHa":325.1,"shedId":"RB19"},"geometry":{"type":"Polygon","coordinates":[[[76.121,10.7353],[76.1177,10.7307],[76.1174,10.7284],[76.1177,10.7276],[76.1198,10.7268],[76.1209,10.7255],[76.1205,10.7219],[76.1256,10.7182],[76.1244,10.7164],[76.1222,10.7148],[76.1206,10.712],[76.10501,10.72212],[76.1071,10.7272],[76.1051,10.7306],[76.1056,10.7332],[76.1109,10.7357],[76.1145,10.7335],[76.116,10.7338],[76.1174,10.735],[76.121,10.7353]]]}}]}