{"nvdm":"1.0","dataset":"basins/admin-gp","scope":{"kind":"basin","id":"krishnagiri-rivers"},"provenance":{"sources":[{"id":"tngis-open-geoserver","title":"TNGIS open GeoServer (WFS): district, taluk, block and village panchayat boundaries, TN WRD sub-basins and reservoirs, micro-watershed atlas, all-water-bodies and all-tanks registers, mine leases, industry register matched to land parcels","publisher":"Tamil Nadu e-Governance Agency (TNGIS)","license":"Tamil Nadu government data on an open GeoServer (WFS, no login); published with TNGIS's permission and with attribution.","role":"input","url":"https://tngis.tn.gov.in/tngismaps/ows"}],"method":"derived","produced_at":"2026-09-18","produced_by":"scripts/build_krishnagiri_rivers_basin.py","internal_inputs":["public/data/basins/krishnagiri-rivers/sub-hydrosheds.geojson","public/data/atlas/tn/krishnagiri/briefs/6510.json","public/data/atlas/tn/krishnagiri/briefs/6511.json","public/data/atlas/tn/krishnagiri/briefs/6512.json","public/data/atlas/tn/krishnagiri/briefs/6513.json","public/data/atlas/tn/krishnagiri/briefs/6514.json","public/data/atlas/tn/krishnagiri/briefs/6515.json","public/data/atlas/tn/krishnagiri/briefs/6516.json","public/data/atlas/tn/krishnagiri/briefs/6517.json","public/data/atlas/tn/krishnagiri/briefs/6518.json","public/data/atlas/tn/krishnagiri/briefs/6519.json","public/data/atlas/tn/krishnagiri/census-2011/6510.json","public/data/atlas/tn/krishnagiri/census-2011/6511.json","public/data/atlas/tn/krishnagiri/census-2011/6512.json","public/data/atlas/tn/krishnagiri/census-2011/6513.json","public/data/atlas/tn/krishnagiri/census-2011/6514.json","public/data/atlas/tn/krishnagiri/census-2011/6515.json","public/data/atlas/tn/krishnagiri/census-2011/6516.json","public/data/atlas/tn/krishnagiri/census-2011/6517.json","public/data/atlas/tn/krishnagiri/census-2011/6518.json","public/data/atlas/tn/krishnagiri/census-2011/6519.json"],"note":"Krishnagiri district's rivers, groundwater and industry (scope krishnagiri-rivers; the district's own scope id is tn-krishnagiri). The district boundary is the frame and TN WRD's sub-basins, clipped to it, are the catchments (shedId): the Thenpennai's to the east, the Cauvery's Chinnar and Dodda Halla to the south-west. The industry register holds only units TNGIS matched to a land parcel, so every count is a lower bound; sector comes from the reviewed TNPCB type-code lookup pipeline-inputs/basins/krishnagiri-rivers/tnpcb-type-sectors.json."},"type":"FeatureCollection","features":[{"type":"Feature","properties":{"name":"Gopanapalli","level":"village panchayat","parentBlock":"Hosur","parentDistrict":"Krishnagiri","lgdGramPanchayatCode":"224824","householdsWithTapConnection":"100% (526 of 526 households, across 3 habitations; Jal Jeevan Mission)","populationCensus2011":1388,"householdsCensus2011":342,"pagePath":"/atlas/tn/krishnagiri/panchayats/224824","pageLabel":"Open this panchayat's water page","shedId":"SB115"},"geometry":{"type":"Polygon","coordinates":[[[77.8178,12.6487],[77.817,12.6447],[77.8171,12.6419],[77.8181,12.6395],[77.8178,12.6345],[77.8163,12.6338],[77.8134,12.6313],[77.8107,12.6332],[77.8059,12.6352],[77.8046,12.6369],[77.8021,12.6381],[77.7983,12.638],[77.7977,12.6377],[77.7974,12.6363],[77.7934,12.637],[77.7918,12.6382],[77.7908,12.6381],[77.7908,12.6388],[77.7888,12.6416],[77.7883,12.644],[77.7852,12.6452],[77.7845,12.6553],[77.7892,12.6548],[77.7932,12.656],[77.7948,12.657],[77.7963,12.6571],[77.8042,12.6558],[77.8059,12.6552],[77.809,12.6529],[77.8135,12.6516],[77.817,12.65],[77.8178,12.6487]]]}},{"type":"Feature","properties":{"name":"Anekollu","level":"village panchayat","parentBlock":"Kelamangalam","parentDistrict":"Krishnagiri","lgdGramPanchayatCode":"224878","householdsWithTapConnection":"100% (584 of 584 households, across 10 habitations; Jal Jeevan Mission)","populationCensus2011":2858,"householdsCensus2011":628,"pagePath":"/atlas/tn/krishnagiri/panchayats/224878","pageLabel":"Open this panchayat's water page","shedId":"SB115"},"geometry":{"type":"Polygon","coordinates":[[[77.8444,12.6023],[77.8446,12.5994],[77.8429,12.5989],[77.841,12.5971],[77.8403,12.5953],[77.8387,12.594],[77.8374,12.5916],[77.844,12.5897],[77.8448,12.5872],[77.849,12.5852],[77.8548,12.5788],[77.856,12.5763],[77.8561,12.5747],[77.8524,12.5755],[77.8483,12.5741],[77.8454,12.5745],[77.8425,12.5728],[77.8333,12.576],[77.8308,12.5752],[77.8301,12.5782],[77.8291,12.5792],[77.8248,12.5794],[77.8219,12.5801],[77.8206,12.58],[77.8167,12.5783],[77.8145,12.5796],[77.8113,12.5792],[77.8123,12.5843],[77.815,12.5887],[77.8167,12.5903],[77.8184,12.593],[77.8217,12.6022],[77.8253,12.6008],[77.8294,12.5977],[77.83,12.5977],[77.831,12.5988],[77.8305,12.6015],[77.8349,12.6026],[77.8361,12.6046],[77.8383,12.6043],[77.8435,12.6022],[77.8444,12.6023]]]}},{"type":"Feature","properties":{"name":"Jagirkarupalli","level":"village panchayat","parentBlock":"Kelamangalam","parentDistrict":"Krishnagiri","lgdGramPanchayatCode":"224890","householdsWithTapConnection":"11.54% (60 of 520 households, across 4 habitations; Jal Jeevan Mission)","populationCensus2011":1905,"householdsCensus2011":393,"pagePath":"/atlas/tn/krishnagiri/panchayats/224890","pageLabel":"Open this panchayat's water page","shedId":"SB115"},"geometry":{"type":"Polygon","coordinates":[[[77.8133,12.6141],[77.8189,12.6139],[77.8185,12.6083],[77.8208,12.6038],[77.821,12.6024],[77.8217,12.6022],[77.8217,12.6014],[77.8184,12.593],[77.8167,12.5903],[77.815,12.5887],[77.8123,12.5843],[77.8113,12.5792],[77.8086,12.579],[77.8066,12.5794],[77.8057,12.58],[77.8054,12.5811],[77.8016,12.5836],[77.7972,12.5843],[77.7949,12.5827],[77.7936,12.5829],[77.7923,12.5848],[77.7918,12.5877],[77.7923,12.5883],[77.7944,12.5859],[77.7958,12.5863],[77.7961,12.5872],[77.795,12.5919],[77.7972,12.5939],[77.7988,12.5962],[77.7997,12.6006],[77.801,12.6023],[77.8016,12.6064],[77.8044,12.606],[77.8081,12.6071],[77.8075,12.6101],[77.8099,12.6134],[77.8133,12.6141]]]}},{"type":"Feature","properties":{"name":"Mugalur","level":"village panchayat","parentBlock":"Hosur","parentDistrict":"Krishnagiri","lgdGramPanchayatCode":"224830","householdsWithTapConnection":"100% (640 of 640 households, across 7 habitations; Jal Jeevan Mission)","populationCensus2011":2593,"householdsCensus2011":609,"pagePath":"/atlas/tn/krishnagiri/panchayats/224830","pageLabel":"Open this panchayat's water page","shedId":"SB115"},"geometry":{"type":"Polygon","coordinates":[[[77.8134,12.6313],[77.8102,12.6287],[77.8144,12.6245],[77.8152,12.6242],[77.8163,12.6252],[77.8171,12.625],[77.819,12.6185],[77.8189,12.6139],[77.815,12.6142],[77.8099,12.6134],[77.8075,12.6101],[77.8081,12.6071],[77.8061,12.6062],[77.8039,12.606],[77.8023,12.6065],[77.8025,12.609],[77.8008,12.6101],[77.7981,12.614],[77.799,12.6152],[77.7989,12.616],[77.7967,12.6171],[77.7968,12.6183],[77.7961,12.6189],[77.796,12.6209],[77.7949,12.621],[77.7942,12.6198],[77.7935,12.6198],[77.793,12.6237],[77.7921,12.6241],[77.7914,12.6254],[77.7903,12.6257],[77.7896,12.6283],[77.7888,12.6284],[77.7881,12.6277],[77.7881,12.6249],[77.7873,12.6243],[77.7868,12.6252],[77.7868,12.6281],[77.7804,12.6279],[77.7789,12.6296],[77.7755,12.6303],[77.7745,12.6337],[77.7747,12.6342],[77.7766,12.6342],[77.7776,12.6348],[77.7799,12.6343],[77.7814,12.6353],[77.7856,12.635],[77.788,12.6338],[77.7886,12.6353],[77.7899,12.636],[77.7908,12.6381],[77.7918,12.6382],[77.7934,12.637],[77.7974,12.6363],[77.7977,12.6377],[77.7998,12.6383],[77.8033,12.6376],[77.8051,12.6365],[77.8059,12.6352],[77.8107,12.6332],[77.8134,12.6313]]]}},{"type":"Feature","properties":{"name":"Masinayakanapalli","level":"village panchayat","parentBlock":"Hosur","parentDistrict":"Krishnagiri","lgdGramPanchayatCode":"224829","householdsWithTapConnection":"100% (597 of 597 households, across 3 habitations; Jal Jeevan Mission)","pagePath":"/atlas/tn/krishnagiri/panchayats/224829","pageLabel":"Open this panchayat's water page","shedId":"SB115"},"geometry":{"type":"Polygon","coordinates":[[[77.8023,12.6065],[77.8013,12.606],[77.801,12.6023],[77.7997,12.6006],[77.7988,12.5962],[77.7972,12.5939],[77.795,12.5919],[77.7961,12.5872],[77.7958,12.5863],[77.7939,12.5861],[77.7915,12.5899],[77.7892,12.5925],[77.7872,12.5937],[77.7824,12.5952],[77.7817,12.594],[77.779,12.5933],[77.7784,12.5879],[77.7712,12.5873],[77.7692,12.5882],[77.7683,12.5881],[77.7678,12.5808],[77.7683,12.5801],[77.7676,12.5791],[77.7637,12.5773],[77.7605,12.5778],[77.7597,12.577],[77.7596,12.5762],[77.757,12.5785],[77.7573,12.5813],[77.7568,12.5827],[77.7577,12.5835],[77.7597,12.5882],[77.7609,12.5919],[77.7614,12.5956],[77.7637,12.5949],[77.7639,12.5929],[77.7674,12.591],[77.7678,12.5915],[77.7679,12.5948],[77.769,12.5948],[77.7695,12.5953],[77.7699,12.5991],[77.7714,12.599],[77.7717,12.5999],[77.7729,12.6],[77.7735,12.6031],[77.7745,12.6041],[77.7767,12.6046],[77.7815,12.6023],[77.7823,12.6024],[77.7828,12.6074],[77.7838,12.6089],[77.7842,12.6111],[77.7845,12.6166],[77.7864,12.618],[77.7888,12.6189],[77.7911,12.619],[77.7919,12.6197],[77.7942,12.6198],[77.7949,12.621],[77.7958,12.6211],[77.7961,12.6189],[77.7968,12.6183],[77.7967,12.6171],[77.7989,12.616],[77.799,12.6152],[77.7981,12.614],[77.8008,12.6101],[77.8025,12.609],[77.8023,12.6065]]]}},{"type":"Feature","properties":{"name":"Bettamugalalam","level":"village panchayat","parentBlock":"Kelamangalam","parentDistrict":"Krishnagiri","lgdGramPanchayatCode":"224880","householdsWithTapConnection":"61.62% (1,127 of 1,829 households, across 47 habitations; Jal Jeevan Mission)","pagePath":"/atlas/tn/krishnagiri/panchayats/224880","pageLabel":"Open this panchayat's water page","shedId":"SB115"},"geometry":{"type":"MultiPolygon","coordinates":[[[[77.9536,12.4134],[77.9468,12.4111],[77.9452,12.4131],[77.9411,12.4094],[77.9351,12.4087],[77.932,12.4153],[77.9353,12.417],[77.9369,12.4187],[77.9393,12.426],[77.941,12.4266],[77.9448,12.4269],[77.9508,12.4291],[77.9534,12.4257],[77.9555,12.4196],[77.9554,12.418],[77.9536,12.4134]]],[[[77.9514,12.3659],[77.9508,12.362],[77.9536,12.3573],[77.9548,12.3514],[77.9527,12.3508],[77.9501,12.3493],[77.9494,12.3479],[77.948,12.3409],[77.9457,12.343],[77.9434,12.3466],[77.9409,12.3536],[77.9402,12.3542],[77.9325,12.3553],[77.9309,12.3565],[77.9294,12.3587],[77.9284,12.3609],[77.9283,12.3623],[77.9289,12.3653],[77.9305,12.3655],[77.9331,12.3649],[77.9345,12.3657],[77.9359,12.3655],[77.9378,12.3637],[77.9391,12.3648],[77.9417,12.3656],[77.9445,12.3653],[77.9479,12.3679],[77.9489,12.3681],[77.9511,12.368],[77.9514,12.3659]]],[[[77.9496,12.3827],[77.9486,12.3824],[77.9437,12.3842],[77.9442,12.3854],[77.9431,12.3893],[77.9435,12.3911],[77.9444,12.3921],[77.9512,12.3958],[77.9517,12.3956],[77.9508,12.3895],[77.951,12.3852],[77.9496,12.3827]]],[[[77.8991,12.3829],[77.9022,12.3826],[77.9047,12.3815],[77.9071,12.3797],[77.9077,12.3785],[77.9149,12.3707],[77.9158,12.3676],[77.9155,12.365],[77.9105,12.3599],[77.9001,12.3521],[77.8964,12.3487],[77.8889,12.3513],[77.8842,12.3511],[77.8837,12.3554],[77.8808,12.3569],[77.877,12.3573],[77.8781,12.3594],[77.8774,12.362],[77.8787,12.364],[77.8781,12.365],[77.8761,12.366],[77.8746,12.3685],[77.8755,12.3756],[77.8745,12.377],[77.8726,12.3779],[77.8731,12.3796],[77.8752,12.3829],[77.8768,12.3826],[77.8781,12.383],[77.8818,12.3884],[77.8824,12.3919],[77.8871,12.3902],[77.8884,12.388],[77.8935,12.3848],[77.8991,12.3829]]],[[[77.9072,12.3887],[77.9057,12.388],[77.9036,12.3886],[77.9043,12.3927],[77.9054,12.3938],[77.9072,12.3936],[77.9078,12.3927],[77.908,12.3903],[77.9072,12.3887]]],[[[77.8607,12.3923],[77.8614,12.392],[77.8651,12.393],[77.8659,12.3903],[77.865,12.3898],[77.8648,12.3883],[77.8627,12.3858],[77.862,12.3828],[77.855,12.3814],[77.851,12.3814],[77.8499,12.3818],[77.8525,12.3853],[77.8534,12.3879],[77.8539,12.3924],[77.8554,12.3945],[77.8585,12.3948],[77.8603,12.3938],[77.8607,12.3923]]],[[[77.8454,12.3573],[77.8436,12.3509],[77.8437,12.3492],[77.8431,12.349],[77.837,12.3524],[77.8364,12.3537],[77.8364,12.3551],[77.8378,12.357],[77.8393,12.3569],[77.84,12.3574],[77.841,12.3661],[77.8416,12.3684],[77.8432,12.3699],[77.846,12.3686],[77.8465,12.3676],[77.8454,12.3573]]],[[[77.8173,12.3907],[77.822,12.3884],[77.8268,12.3883],[77.8268,12.3868],[77.824,12.382],[77.8237,12.3783],[77.8247,12.3759],[77.8237,12.3742],[77.8222,12.3745],[77.8216,12.3753],[77.8201,12.3759],[77.819,12.3759],[77.8181,12.3733],[77.8168,12.3732],[77.8126,12.3751],[77.8119,12.3772],[77.8119,12.3798],[77.8137,12.383],[77.8138,12.3893],[77.8149,12.3907],[77.8173,12.3907]]]]}},{"type":"Feature","properties":{"name":"Thandarai","level":"village panchayat","parentBlock":"Thally","parentDistrict":"Krishnagiri","lgdGramPanchayatCode":"225049","householdsWithTapConnection":"66.08% (415 of 628 households, across 8 habitations; Jal Jeevan Mission)","populationCensus2011":2664,"householdsCensus2011":605,"pagePath":"/atlas/tn/krishnagiri/panchayats/225049","pageLabel":"Open this panchayat's water page","shedId":"SB115"},"geometry":{"type":"Polygon","coordinates":[[[77.8078,12.5792],[77.8068,12.5737],[77.8072,12.5725],[77.8085,12.5713],[77.8084,12.5698],[77.8076,12.5691],[77.8056,12.5689],[77.8051,12.5678],[77.8039,12.5676],[77.8031,12.5667],[77.8017,12.5673],[77.8001,12.567],[77.7974,12.5644],[77.7942,12.5659],[77.7918,12.5659],[77.7909,12.5686],[77.7895,12.5697],[77.7882,12.5699],[77.7872,12.5693],[77.786,12.5675],[77.7826,12.5655],[77.7753,12.5662],[77.7723,12.5647],[77.7717,12.5654],[77.7721,12.5738],[77.7692,12.5793],[77.7678,12.5808],[77.7683,12.5881],[77.7692,12.5882],[77.7712,12.5873],[77.7784,12.5879],[77.779,12.5933],[77.7817,12.594],[77.7826,12.5952],[77.7872,12.5937],[77.7906,12.5911],[77.7923,12.5883],[77.7918,12.5877],[77.7918,12.5865],[77.7923,12.5848],[77.7936,12.5829],[77.7949,12.5827],[77.7972,12.5843],[77.8016,12.5836],[77.8054,12.5811],[77.8057,12.58],[77.8078,12.5792]]]}},{"type":"Feature","properties":{"name":"Nagondapalli","level":"village panchayat","parentBlock":"Hosur","parentDistrict":"Krishnagiri","lgdGramPanchayatCode":"224833","householdsWithTapConnection":"100% (858 of 858 households, across 2 habitations; Jal Jeevan Mission)","populationCensus2011":2929,"householdsCensus2011":674,"pagePath":"/atlas/tn/krishnagiri/panchayats/224833","pageLabel":"Open this panchayat's water page","shedId":"SB115"},"geometry":{"type":"Polygon","coordinates":[[[77.8136,12.6846],[77.8136,12.6809],[77.813,12.6791],[77.8097,12.6744],[77.8063,12.6707],[77.8061,12.6664],[77.8053,12.6632],[77.8068,12.6597],[77.808,12.6581],[77.81,12.6563],[77.8135,12.6553],[77.8176,12.6505],[77.81777,12.649],[77.817,12.65],[77.8135,12.6516],[77.809,12.6529],[77.8059,12.6552],[77.8042,12.6558],[77.7963,12.6571],[77.7948,12.657],[77.7932,12.656],[77.7882,12.6548],[77.7844,12.6553],[77.7816,12.6565],[77.7805,12.6599],[77.7807,12.6636],[77.7799,12.6643],[77.7796,12.6656],[77.7784,12.6665],[77.7786,12.6706],[77.7776,12.6708],[77.7818,12.6733],[77.7866,12.6743],[77.7891,12.6737],[77.7904,12.6725],[77.7953,12.6712],[77.7966,12.6714],[77.7968,12.6719],[77.796,12.6734],[77.796,12.6768],[77.7943,12.6846],[77.7943,12.69],[77.7954,12.692],[77.7967,12.6916],[77.7976,12.6899],[77.7998,12.6897],[77.8029,12.688],[77.8042,12.688],[77.8058,12.687],[77.8088,12.6864],[77.8136,12.6846]]]}},{"type":"Feature","properties":{"name":"S.muthuganapalli","level":"village panchayat","parentBlock":"Hosur","parentDistrict":"Krishnagiri","lgdGramPanchayatCode":"224832","householdsWithTapConnection":"100% (1,189 of 1,189 households, across 7 habitations; Jal Jeevan Mission)","pagePath":"/atlas/tn/krishnagiri/panchayats/224832","pageLabel":"Open this panchayat's water page","shedId":"SB115"},"geometry":{"type":"Polygon","coordinates":[[[77.7845,12.6553],[77.7851,12.6455],[77.7885,12.6437],[77.7893,12.6405],[77.7908,12.6388],[77.7903,12.6367],[77.7886,12.6353],[77.788,12.6338],[77.7856,12.635],[77.7814,12.6353],[77.7799,12.6343],[77.7776,12.6348],[77.7766,12.6342],[77.7747,12.6342],[77.7746,12.6329],[77.7754,12.6317],[77.7755,12.6303],[77.7789,12.6296],[77.7804,12.6279],[77.7868,12.6281],[77.7868,12.6252],[77.7873,12.6243],[77.7881,12.6249],[77.7881,12.6277],[77.7888,12.6284],[77.7896,12.6283],[77.7903,12.6257],[77.7914,12.6254],[77.7921,12.6241],[77.793,12.6237],[77.7935,12.6198],[77.7915,12.6196],[77.7911,12.619],[77.7881,12.6187],[77.7845,12.6166],[77.7842,12.6111],[77.7838,12.6089],[77.7828,12.6074],[77.7823,12.6024],[77.7815,12.6023],[77.779,12.6037],[77.7759,12.6047],[77.7734,12.6031],[77.7724,12.6038],[77.7725,12.6056],[77.7721,12.6064],[77.7698,12.6077],[77.7695,12.6094],[77.7658,12.6112],[77.7664,12.6138],[77.7645,12.6153],[77.7639,12.6185],[77.765,12.6229],[77.7653,12.6263],[77.7638,12.6274],[77.7635,12.6294],[77.7599,12.6319],[77.7577,12.6319],[77.7579,12.634],[77.7575,12.635],[77.7564,12.6355],[77.7561,12.6389],[77.7571,12.6403],[77.7633,12.6423],[77.7646,12.6439],[77.7698,12.6447],[77.7728,12.6467],[77.7733,12.6484],[77.7749,12.6494],[77.7766,12.6533],[77.7774,12.654],[77.7819,12.6551],[77.7816,12.6565],[77.7845,12.6553]]]}},{"type":"Feature","properties":{"name":"Noganur","level":"village panchayat","parentBlock":"Thally","parentDistrict":"Krishnagiri","lgdGramPanchayatCode":"225037","householdsWithTapConnection":"67.48% (664 of 984 households, across 5 habitations; Jal Jeevan Mission)","pagePath":"/atlas/tn/krishnagiri/panchayats/225037","pageLabel":"Open this panchayat's water page","shedId":"SB115"},"geometry":{"type":"Polygon","coordinates":[[[77.7857,12.4801],[77.7797,12.4813],[77.7757,12.4837],[77.7727,12.4897],[77.769,12.4949],[77.767,12.4967],[77.7686,12.5016],[77.7689,12.506],[77.7638,12.5121],[77.7643,12.5138],[77.7672,12.5158],[77.7678,12.5173],[77.7678,12.5205],[77.7701,12.5221],[77.7717,12.5219],[77.7729,12.5224],[77.7739,12.5238],[77.778,12.5272],[77.7812,12.5257],[77.7843,12.5256],[77.7878,12.522],[77.7873,12.5181],[77.7881,12.5171],[77.7853,12.5123],[77.7855,12.5104],[77.7847,12.509],[77.7843,12.5047],[77.7852,12.5021],[77.7847,12.5013],[77.7849,12.5],[77.786,12.4995],[77.7881,12.4971],[77.7891,12.4971],[77.7886,12.4932],[77.7893,12.4916],[77.7898,12.4882],[77.7911,12.4861],[77.7906,12.484],[77.787,12.4826],[77.7857,12.4801]]]}},{"type":"Feature","properties":{"name":"Hanumanthapuram","level":"village panchayat","parentBlock":"Kelamangalam","parentDistrict":"Krishnagiri","lgdGramPanchayatCode":"224887","householdsWithTapConnection":"41.28% (457 of 1,107 households, across 18 habitations; Jal Jeevan Mission)","populationCensus2011":5241,"householdsCensus2011":1125,"pagePath":"/atlas/tn/krishnagiri/panchayats/224887","pageLabel":"Open this panchayat's water page","shedId":"SB115"},"geometry":{"type":"MultiPolygon","coordinates":[[[[77.8825,12.451],[77.8993,12.4505],[77.8993,12.4489],[77.8981,12.4471],[77.8985,12.4427],[77.8952,12.438],[77.8951,12.4365],[77.8963,12.4307],[77.8875,12.4292],[77.8836,12.4293],[77.8839,12.4312],[77.8827,12.4344],[77.8824,12.4449],[77.8825,12.451]]],[[[77.836,12.4627],[77.8409,12.4625],[77.8426,12.4616],[77.844,12.4615],[77.8466,12.4588],[77.8482,12.458],[77.8508,12.4578],[77.8555,12.4595],[77.8592,12.4571],[77.8595,12.4546],[77.8586,12.4512],[77.8596,12.4489],[77.8592,12.447],[77.8605,12.4462],[77.8611,12.4438],[77.8644,12.4425],[77.8634,12.4372],[77.8603,12.4352],[77.8591,12.4264],[77.8619,12.4232],[77.8634,12.4228],[77.86,12.419],[77.8571,12.4182],[77.8553,12.4184],[77.8551,12.4202],[77.8536,12.4219],[77.8531,12.4222],[77.851,12.4213],[77.8493,12.4249],[77.8469,12.4261],[77.8451,12.4257],[77.845,12.4316],[77.8409,12.4336],[77.8378,12.437],[77.8369,12.4404],[77.8367,12.4445],[77.8367,12.4487],[77.8376,12.4523],[77.8374,12.4553],[77.8366,12.4586],[77.8346,12.4602],[77.834,12.4634],[77.836,12.4627]]]]}},{"type":"Feature","properties":{"name":"Jekkeri","level":"village panchayat","parentBlock":"Kelamangalam","parentDistrict":"Krishnagiri","lgdGramPanchayatCode":"224891","householdsWithTapConnection":"94.61% (965 of 1,020 households, across 10 habitations; Jal Jeevan Mission)","pagePath":"/atlas/tn/krishnagiri/panchayats/224891","pageLabel":"Open this panchayat's water page","shedId":"SB115"},"geometry":{"type":"Polygon","coordinates":[[[77.8856,12.5633],[77.8842,12.5613],[77.8833,12.5582],[77.8814,12.5566],[77.8735,12.5591],[77.8673,12.5623],[77.8658,12.5606],[77.8646,12.5607],[77.8609,12.5641],[77.8598,12.5658],[77.8574,12.5716],[77.8562,12.5733],[77.856,12.5763],[77.8548,12.5788],[77.849,12.5852],[77.8448,12.5872],[77.844,12.5897],[77.8485,12.59],[77.8488,12.5891],[77.8497,12.5885],[77.8505,12.5885],[77.8514,12.5892],[77.8517,12.588],[77.8525,12.588],[77.8534,12.5887],[77.8532,12.5869],[77.8539,12.586],[77.8552,12.5884],[77.8586,12.5882],[77.8623,12.5853],[77.8632,12.5869],[77.8638,12.5907],[77.8654,12.5936],[77.8716,12.5921],[77.8758,12.5901],[77.88,12.5863],[77.8805,12.5836],[77.8812,12.5826],[77.885,12.5816],[77.8884,12.5793],[77.8877,12.5773],[77.8841,12.5721],[77.8856,12.5633]]]}},{"type":"Feature","properties":{"name":"Kandaganapalli","level":"village panchayat","parentBlock":"Kelamangalam","parentDistrict":"Krishnagiri","lgdGramPanchayatCode":"224892","householdsWithTapConnection":"59.14% (424 of 717 households, across 9 habitations; Jal Jeevan Mission)","populationCensus2011":2712,"householdsCensus2011":637,"pagePath":"/atlas/tn/krishnagiri/panchayats/224892","pageLabel":"Open this panchayat's water page","shedId":"SB115"},"geometry":{"type":"Polygon","coordinates":[[[77.7268,12.5389],[77.7354,12.5393],[77.7389,12.5385],[77.7411,12.5379],[77.7418,12.537],[77.7416,12.5325],[77.7396,12.5315],[77.7382,12.5297],[77.7354,12.5283],[77.7348,12.527],[77.7396,12.5183],[77.7441,12.5183],[77.7448,12.5145],[77.7482,12.5114],[77.7495,12.5076],[77.7472,12.5051],[77.7425,12.5034],[77.7355,12.5027],[77.735,12.5],[77.7338,12.4988],[77.7308,12.4978],[77.7271,12.4946],[77.7266,12.495],[77.7265,12.4964],[77.7251,12.4993],[77.7256,12.5005],[77.7238,12.5018],[77.723,12.5033],[77.7207,12.5036],[77.7173,12.5069],[77.7176,12.512],[77.7184,12.5128],[77.719,12.5153],[77.7185,12.517],[77.7185,12.52],[77.7169,12.523],[77.7173,12.5241],[77.7168,12.5248],[77.7169,12.5255],[77.7179,12.5263],[77.7186,12.532],[77.7206,12.5328],[77.7211,12.5341],[77.7234,12.5354],[77.7268,12.5389]]]}},{"type":"Feature","properties":{"name":"Kottaiulimangalam","level":"village panchayat","parentBlock":"Kelamangalam","parentDistrict":"Krishnagiri","lgdGramPanchayatCode":"224896","householdsWithTapConnection":"44.16% (204 of 462 households, across 4 habitations; Jal Jeevan Mission)","pagePath":"/atlas/tn/krishnagiri/panchayats/224896","pageLabel":"Open this panchayat's water page","shedId":"SB115"},"geometry":{"type":"Polygon","coordinates":[[[77.762,12.5473],[77.7662,12.54],[77.7707,12.5386],[77.7748,12.5362],[77.7766,12.535],[77.7789,12.5318],[77.7775,12.5303],[77.7782,12.5272],[77.7739,12.5238],[77.7729,12.5224],[77.7717,12.5219],[77.7701,12.5221],[77.7677,12.5204],[77.7659,12.5206],[77.7656,12.5234],[77.765,12.524],[77.7636,12.5235],[77.7627,12.5242],[77.7608,12.5242],[77.7592,12.5255],[77.7564,12.5255],[77.7536,12.5266],[77.7494,12.526],[77.7471,12.529],[77.7423,12.531],[77.7415,12.5324],[77.7419,12.5367],[77.7411,12.5379],[77.7415,12.538],[77.7417,12.5407],[77.7459,12.5413],[77.7467,12.5439],[77.7474,12.5433],[77.7474,12.5415],[77.7482,12.5413],[77.7509,12.5455],[77.752,12.5462],[77.7555,12.5458],[77.756,12.5473],[77.7544,12.5495],[77.7545,12.5507],[77.7587,12.55],[77.762,12.5473]]]}},{"type":"Feature","properties":{"name":"Bairamangalam","level":"village panchayat","parentBlock":"Kelamangalam","parentDistrict":"Krishnagiri","lgdGramPanchayatCode":"224879","householdsWithTapConnection":"98.8% (740 of 749 households, across 4 habitations; Jal Jeevan Mission)","populationCensus2011":4932,"householdsCensus2011":1207,"pagePath":"/atlas/tn/krishnagiri/panchayats/224879","pageLabel":"Open this panchayat's water page","shedId":"SB115"},"geometry":{"type":"Polygon","coordinates":[[[77.8637,12.6202],[77.8602,12.6201],[77.8567,12.6233],[77.856,12.6255],[77.8566,12.6317],[77.8563,12.6353],[77.8541,12.6395],[77.8465,12.6462],[77.8453,12.6495],[77.8391,12.6505],[77.835,12.6503],[77.8337,12.6509],[77.8334,12.6518],[77.8355,12.6591],[77.8373,12.6614],[77.8401,12.667],[77.8407,12.6673],[77.8471,12.6661],[77.848,12.6675],[77.8491,12.6713],[77.8492,12.6733],[77.8523,12.6746],[77.8539,12.6768],[77.8565,12.671],[77.8575,12.6657],[77.861,12.6642],[77.8714,12.6629],[77.8726,12.6618],[77.876,12.6614],[77.8753,12.6564],[77.8742,12.6535],[77.8725,12.6501],[77.8705,12.6485],[77.8753,12.6447],[77.8773,12.6423],[77.8765,12.642],[77.875,12.6425],[77.8726,12.6414],[77.8719,12.6407],[77.8715,12.6383],[77.8686,12.6389],[77.868,12.6384],[77.8676,12.6367],[77.8643,12.6372],[77.8643,12.6357],[77.863,12.6332],[77.8628,12.6293],[77.8617,12.6261],[77.8623,12.6216],[77.8637,12.6202]]]}},{"type":"Feature","properties":{"name":"Rathinagiri","level":"village panchayat","parentBlock":"Kelamangalam","parentDistrict":"Krishnagiri","lgdGramPanchayatCode":"224900","householdsWithTapConnection":"100% (424 of 424 households, across 11 habitations; Jal Jeevan Mission)","pagePath":"/atlas/tn/krishnagiri/panchayats/224900","pageLabel":"Open this panchayat's water page","shedId":"SB115"},"geometry":{"type":"MultiPolygon","coordinates":[[[[77.9182,12.477],[77.9155,12.4768],[77.9163,12.4788],[77.9153,12.481],[77.9153,12.4828],[77.916,12.4851],[77.9183,12.4853],[77.9196,12.4833],[77.9197,12.4813],[77.9191,12.4783],[77.9182,12.477]]],[[[77.9159,12.4596],[77.9175,12.4597],[77.9183,12.4587],[77.917,12.4565],[77.9173,12.4546],[77.9169,12.45],[77.9114,12.4532],[77.91,12.4562],[77.9106,12.4578],[77.9137,12.4619],[77.9158,12.4619],[77.9159,12.4596]]],[[[77.9072,12.4737],[77.9108,12.4735],[77.9095,12.4715],[77.9083,12.4677],[77.9065,12.4665],[77.9038,12.4689],[77.9034,12.4701],[77.9045,12.473],[77.9051,12.4733],[77.9051,12.4743],[77.9072,12.4737]]],[[[77.8972,12.4929],[77.9057,12.4925],[77.9065,12.4923],[77.9067,12.4916],[77.9064,12.488],[77.9072,12.4867],[77.907,12.4853],[77.9037,12.4817],[77.9029,12.4796],[77.9002,12.4754],[77.9004,12.4745],[77.8993,12.4738],[77.8946,12.4732],[77.8918,12.4716],[77.886,12.4694],[77.8795,12.468],[77.8765,12.4661],[77.8724,12.4659],[77.8694,12.465],[77.8649,12.4662],[77.8651,12.4715],[77.8645,12.475],[77.8674,12.4794],[77.8681,12.4817],[77.868,12.4844],[77.8728,12.4828],[77.8796,12.4814],[77.8847,12.4781],[77.8884,12.4831],[77.8905,12.483],[77.8934,12.4897],[77.8968,12.4895],[77.8972,12.4929]]],[[[77.8792,12.5239],[77.8826,12.5239],[77.8837,12.5211],[77.8877,12.5209],[77.889,12.5204],[77.8892,12.5199],[77.8884,12.5187],[77.8881,12.5162],[77.8851,12.5161],[77.8838,12.5155],[77.8813,12.5088],[77.881,12.5032],[77.8782,12.4998],[77.8759,12.5044],[77.8761,12.5062],[77.8749,12.5145],[77.8771,12.5162],[77.8785,12.5182],[77.8792,12.5239]]]]}},{"type":"Feature","properties":{"name":"Sandhanapalli","level":"village panchayat","parentBlock":"Kelamangalam","parentDistrict":"Krishnagiri","lgdGramPanchayatCode":"224902","householdsWithTapConnection":"55.76% (862 of 1,546 households, across 22 habitations; Jal Jeevan Mission)","pagePath":"/atlas/tn/krishnagiri/panchayats/224902","pageLabel":"Open this panchayat's water page","shedId":"SB115"},"geometry":{"type":"Polygon","coordinates":[[[77.8211,12.5159],[77.8215,12.5148],[77.8192,12.5054],[77.8189,12.5052],[77.8173,12.5071],[77.8168,12.5086],[77.8155,12.5082],[77.8131,12.5055],[77.813,12.5051],[77.8158,12.5033],[77.8188,12.5027],[77.8193,12.503],[77.8197,12.5024],[77.8206,12.5035],[77.8216,12.5016],[77.8262,12.4985],[77.8314,12.4966],[77.836,12.4938],[77.8394,12.4929],[77.8418,12.4929],[77.8462,12.4973],[77.8475,12.496],[77.8492,12.4975],[77.8506,12.4979],[77.8513,12.4975],[77.854,12.4929],[77.8546,12.4926],[77.855,12.4931],[77.8591,12.4895],[77.8628,12.4886],[77.865,12.4874],[77.8666,12.4875],[77.8681,12.4885],[77.8693,12.4886],[77.868,12.4847],[77.8679,12.4808],[77.8645,12.475],[77.8651,12.4715],[77.8649,12.4662],[77.8595,12.4659],[77.8553,12.4665],[77.8542,12.4641],[77.8547,12.4602],[77.8555,12.4595],[77.8508,12.4578],[77.8497,12.4578],[77.8472,12.4584],[77.844,12.4615],[77.8426,12.4616],[77.8409,12.4625],[77.836,12.4627],[77.8349,12.4634],[77.8298,12.464],[77.8262,12.4662],[77.8246,12.4664],[77.8237,12.4656],[77.8235,12.4645],[77.8246,12.4555],[77.8234,12.4538],[77.8207,12.453],[77.8192,12.4531],[77.8178,12.454],[77.8174,12.4548],[77.8169,12.4577],[77.8146,12.4589],[77.8066,12.4648],[77.8146,12.4653],[77.815,12.4658],[77.815,12.4726],[77.8135,12.4764],[77.8122,12.4753],[77.8114,12.4756],[77.8115,12.4771],[77.8127,12.4779],[77.8099,12.482],[77.8038,12.4842],[77.8016,12.4826],[77.8007,12.48],[77.8004,12.4799],[77.7996,12.4822],[77.7989,12.482],[77.7948,12.4776],[77.7938,12.4755],[77.793,12.4755],[77.7916,12.4767],[77.7909,12.4796],[77.7857,12.4801],[77.787,12.4826],[77.7906,12.484],[77.7911,12.4861],[77.7898,12.4882],[77.7893,12.4916],[77.7886,12.4932],[77.7891,12.4971],[77.798,12.499],[77.7996,12.5001],[77.8006,12.5017],[77.8021,12.5025],[77.8046,12.5027],[77.8066,12.5035],[77.8092,12.5032],[77.8107,12.5045],[77.8111,12.5063],[77.8132,12.5102],[77.8135,12.515],[77.8146,12.5157],[77.8211,12.5159]]]}},{"type":"Feature","properties":{"name":"Thimjepalli","level":"village panchayat","parentBlock":"Kelamangalam","parentDistrict":"Krishnagiri","lgdGramPanchayatCode":"224904","householdsWithTapConnection":"77.41% (860 of 1,111 households, across 11 habitations; Jal Jeevan Mission)","pagePath":"/atlas/tn/krishnagiri/panchayats/224904","pageLabel":"Open this panchayat's water page","shedId":"SB115"},"geometry":{"type":"Polygon","coordinates":[[[77.9766,12.5562],[77.9771,12.5526],[77.9763,12.5441],[77.9748,12.5423],[77.9767,12.541],[77.9768,12.5402],[77.9758,12.5354],[77.9771,12.5298],[77.9766,12.5252],[77.9757,12.5228],[77.975,12.5221],[77.9738,12.5169],[77.9727,12.5148],[77.9733,12.5142],[77.9733,12.5131],[77.9687,12.5064],[77.9669,12.5021],[77.9668,12.4994],[77.9695,12.4963],[77.9691,12.4959],[77.9691,12.4942],[77.9671,12.4929],[77.9664,12.4916],[77.9663,12.486],[77.9643,12.485],[77.9625,12.4851],[77.9614,12.4836],[77.9603,12.4835],[77.9589,12.485],[77.9542,12.4871],[77.9538,12.4895],[77.9561,12.4908],[77.9563,12.4922],[77.9528,12.4943],[77.9522,12.4955],[77.9522,12.4968],[77.9532,12.4987],[77.953,12.5],[77.9491,12.5027],[77.9476,12.5046],[77.9505,12.5073],[77.9552,12.5082],[77.9582,12.507],[77.9578,12.5051],[77.9604,12.5044],[77.9648,12.5043],[77.9654,12.5049],[77.9669,12.5052],[77.9673,12.5058],[77.9705,12.5143],[77.9698,12.5163],[77.9674,12.5167],[77.9649,12.5195],[77.9642,12.5218],[77.9646,12.523],[77.9612,12.5279],[77.9605,12.5316],[77.96,12.5321],[77.9548,12.5361],[77.946,12.5375],[77.9427,12.5387],[77.9437,12.5401],[77.9468,12.5398],[77.9504,12.5403],[77.9518,12.5416],[77.9527,12.5448],[77.9502,12.548],[77.9501,12.5488],[77.9534,12.5571],[77.9549,12.5549],[77.9565,12.5566],[77.9575,12.5551],[77.9628,12.5566],[77.9632,12.5564],[77.963,12.5555],[77.9637,12.5554],[77.9654,12.5558],[77.9693,12.5583],[77.9737,12.5595],[77.9766,12.5562]]]}},{"type":"Feature","properties":{"name":"Bodichipalli","level":"village panchayat","parentBlock":"Kelamangalam","parentDistrict":"Krishnagiri","lgdGramPanchayatCode":"224883","householdsWithTapConnection":"100% (929 of 929 households, across 8 habitations; Jal Jeevan Mission)","populationCensus2011":4982,"householdsCensus2011":1176,"pagePath":"/atlas/tn/krishnagiri/panchayats/224883","pageLabel":"Open this panchayat's water page","shedId":"SB115"},"geometry":{"type":"Polygon","coordinates":[[[77.8646,12.619],[77.8702,12.6189],[77.8739,12.6181],[77.8769,12.6169],[77.877,12.6163],[77.878,12.6166],[77.8791,12.616],[77.8817,12.6116],[77.8844,12.6095],[77.8888,12.6074],[77.897,12.6056],[77.9011,12.6041],[77.9037,12.6038],[77.9038,12.6029],[77.9059,12.6001],[77.9085,12.5944],[77.9087,12.5923],[77.9103,12.5893],[77.9112,12.5886],[77.9135,12.5881],[77.9161,12.5859],[77.9155,12.5833],[77.911,12.5768],[77.9106,12.5748],[77.9097,12.5735],[77.9086,12.573],[77.9064,12.5734],[77.9034,12.5693],[77.9027,12.5671],[77.9003,12.5656],[77.9006,12.5646],[77.8993,12.5641],[77.8983,12.5644],[77.8977,12.5635],[77.8965,12.5634],[77.8947,12.562],[77.8943,12.5605],[77.8909,12.5626],[77.8879,12.5633],[77.8856,12.5633],[77.8851,12.5645],[77.885,12.5682],[77.8841,12.5704],[77.8841,12.5721],[77.8877,12.5773],[77.8884,12.5793],[77.885,12.5816],[77.8812,12.5826],[77.8805,12.5836],[77.88,12.5863],[77.8758,12.5901],[77.8716,12.5921],[77.8654,12.5936],[77.8654,12.5942],[77.8633,12.5964],[77.8631,12.5993],[77.864,12.6009],[77.867,12.6005],[77.8673,12.6012],[77.8679,12.6013],[77.8692,12.5998],[77.8717,12.6002],[77.8736,12.5997],[77.8746,12.6007],[77.8756,12.6037],[77.8737,12.605],[77.8709,12.6052],[77.8691,12.6047],[77.8688,12.6064],[77.8681,12.6073],[77.8655,12.6075],[77.8628,12.6085],[77.8619,12.6093],[77.8605,12.6115],[77.8609,12.612],[77.8609,12.6142],[77.8624,12.6151],[77.8623,12.6173],[77.8631,12.6191],[77.864,12.6199],[77.8646,12.619]]]}},{"type":"Feature","properties":{"name":"Bommathathanur","level":"village panchayat","parentBlock":"Kelamangalam","parentDistrict":"Krishnagiri","lgdGramPanchayatCode":"224884","householdsWithTapConnection":"55.42% (501 of 904 households, across 15 habitations; Jal Jeevan Mission)","pagePath":"/atlas/tn/krishnagiri/panchayats/224884","pageLabel":"Open this panchayat's water page","shedId":"SB115"},"geometry":{"type":"Polygon","coordinates":[[[77.8856,12.5633],[77.8879,12.5633],[77.8909,12.5626],[77.8924,12.5619],[77.8935,12.5607],[77.8944,12.5606],[77.8936,12.5558],[77.8952,12.5544],[77.8975,12.5504],[77.8975,12.5489],[77.8961,12.5467],[77.8975,12.5419],[77.8969,12.5409],[77.8943,12.5418],[77.8925,12.5416],[77.8909,12.5403],[77.8898,12.5384],[77.8895,12.5366],[77.8843,12.5358],[77.8816,12.5348],[77.8814,12.5265],[77.8826,12.5239],[77.8777,12.5243],[77.874,12.5266],[77.8717,12.527],[77.8723,12.5294],[77.8686,12.5314],[77.8681,12.5335],[77.8673,12.5342],[77.8658,12.5341],[77.8656,12.5321],[77.8652,12.5318],[77.862,12.5322],[77.8612,12.533],[77.8605,12.5383],[77.8599,12.5393],[77.8571,12.5407],[77.8564,12.5426],[77.8553,12.5422],[77.8546,12.543],[77.8535,12.5425],[77.8527,12.5428],[77.8502,12.5462],[77.848,12.5478],[77.8484,12.5507],[77.848,12.5518],[77.8482,12.5538],[77.8497,12.5551],[77.852,12.556],[77.8517,12.5572],[77.8502,12.5583],[77.8502,12.5591],[77.851,12.5597],[77.8525,12.5593],[77.8546,12.5608],[77.8547,12.5619],[77.8535,12.5641],[77.8536,12.5657],[77.8545,12.5679],[77.8569,12.5686],[77.8576,12.5693],[77.8576,12.5704],[77.8609,12.5641],[77.8649,12.5606],[77.8661,12.5608],[77.8673,12.5623],[77.8735,12.5591],[77.8814,12.5566],[77.8833,12.5582],[77.8842,12.5613],[77.8856,12.5633]]]}},{"type":"Feature","properties":{"name":"Choodasandiram","level":"village panchayat","parentBlock":"Thally","parentDistrict":"Krishnagiri","lgdGramPanchayatCode":"225011","householdsWithTapConnection":"56.72% (329 of 580 households, across 10 habitations; Jal Jeevan Mission)","pagePath":"/atlas/tn/krishnagiri/panchayats/225011","pageLabel":"Open this panchayat's water page","shedId":"SB115"},"geometry":{"type":"Polygon","coordinates":[[[77.6503,12.5961],[77.647,12.5938],[77.6455,12.5937],[77.6452,12.5926],[77.642,12.5934],[77.641,12.5925],[77.6402,12.5926],[77.6404,12.5825],[77.6395,12.5806],[77.6344,12.5809],[77.6332,12.5761],[77.6266,12.5767],[77.6212,12.5751],[77.6133,12.5758],[77.6083,12.5769],[77.6099,12.5789],[77.6113,12.5818],[77.6118,12.5849],[77.6114,12.5878],[77.6106,12.5896],[77.6087,12.5911],[77.6037,12.5911],[77.6018,12.5901],[77.602,12.5943],[77.6011,12.5964],[77.6011,12.5991],[77.6017,12.6005],[77.6026,12.6011],[77.6054,12.6004],[77.6095,12.601],[77.6109,12.6007],[77.6123,12.5993],[77.6144,12.5961],[77.6215,12.5974],[77.6256,12.5973],[77.6267,12.5977],[77.6272,12.5986],[77.6284,12.6076],[77.6295,12.6052],[77.6338,12.6027],[77.6369,12.5954],[77.6406,12.5947],[77.6422,12.5963],[77.6482,12.5965],[77.6503,12.5961]]]}},{"type":"Feature","properties":{"name":"Dharavendiram","level":"village panchayat","parentBlock":"Thally","parentDistrict":"Krishnagiri","lgdGramPanchayatCode":"225012","householdsWithTapConnection":"99.44% (528 of 531 households, across 5 habitations; Jal Jeevan Mission)","pagePath":"/atlas/tn/krishnagiri/panchayats/225012","pageLabel":"Open this panchayat's water page","shedId":"SB115"},"geometry":{"type":"Polygon","coordinates":[[[77.6971,12.565],[77.6992,12.5631],[77.6997,12.561],[77.6989,12.5591],[77.6984,12.5548],[77.6968,12.5517],[77.6893,12.55],[77.6824,12.5445],[77.6758,12.5427],[77.6748,12.542],[77.6735,12.5421],[77.6713,12.5411],[77.6698,12.5394],[77.6681,12.5358],[77.6655,12.5339],[77.6623,12.5334],[77.6614,12.5327],[77.6576,12.5348],[77.6545,12.5348],[77.6517,12.542],[77.6519,12.545],[77.6599,12.5434],[77.6619,12.5442],[77.6636,12.5472],[77.6663,12.5479],[77.6687,12.5502],[77.6699,12.5544],[77.6692,12.5567],[77.6707,12.5597],[77.672,12.5618],[77.6758,12.5634],[77.6768,12.5655],[77.6785,12.565],[77.6813,12.5631],[77.686,12.5639],[77.6892,12.5653],[77.6911,12.5649],[77.6933,12.5653],[77.6971,12.565]]]}},{"type":"Feature","properties":{"name":"Devarulimangalam","level":"village panchayat","parentBlock":"Thally","parentDistrict":"Krishnagiri","lgdGramPanchayatCode":"225014","householdsWithTapConnection":"87.06% (942 of 1,082 households, across 9 habitations; Jal Jeevan Mission)","pagePath":"/atlas/tn/krishnagiri/panchayats/225014","pageLabel":"Open this panchayat's water page","shedId":"SB115"},"geometry":{"type":"Polygon","coordinates":[[[77.7311,12.5491],[77.7299,12.5459],[77.7304,12.5441],[77.73,12.5423],[77.7314,12.5391],[77.7273,12.5391],[77.7261,12.5382],[77.7209,12.5382],[77.7162,12.5398],[77.713,12.5402],[77.7125,12.5413],[77.7099,12.5415],[77.7094,12.5427],[77.7093,12.545],[77.7115,12.5491],[77.7128,12.5498],[77.717,12.5498],[77.716,12.5527],[77.7165,12.5522],[77.7217,12.5519],[77.7244,12.5504],[77.7269,12.5504],[77.7285,12.5483],[77.7296,12.5484],[77.7306,12.5493],[77.7311,12.5491]]]}},{"type":"Feature","properties":{"name":"Kodiyalam","level":"village panchayat","parentBlock":"Thally","parentDistrict":"Krishnagiri","lgdGramPanchayatCode":"225024","householdsWithTapConnection":"97.69% (633 of 648 households, across 4 habitations; Jal Jeevan Mission)","populationCensus2011":1806,"householdsCensus2011":446,"pagePath":"/atlas/tn/krishnagiri/panchayats/225024","pageLabel":"Open this panchayat's water page","shedId":"SB115"},"geometry":{"type":"Polygon","coordinates":[[[77.7395,12.6078],[77.739,12.6015],[77.7366,12.5945],[77.7367,12.5928],[77.7399,12.5893],[77.7435,12.5871],[77.7456,12.5868],[77.7554,12.596],[77.758,12.597],[77.7606,12.5971],[77.7625,12.5953],[77.7614,12.5956],[77.7604,12.5902],[77.7578,12.5837],[77.7511,12.5843],[77.7498,12.5834],[77.7496,12.5815],[77.7477,12.5823],[77.7467,12.582],[77.7466,12.5794],[77.7449,12.5783],[77.7432,12.5789],[77.7409,12.5809],[77.7393,12.5812],[77.7381,12.5772],[77.7365,12.5765],[77.7356,12.5777],[77.7325,12.5789],[77.7315,12.58],[77.7319,12.5854],[77.7349,12.5916],[77.7264,12.5958],[77.7262,12.6076],[77.7268,12.6086],[77.7304,12.6092],[77.732,12.6091],[77.7327,12.6084],[77.7395,12.6078]]]}},{"type":"Feature","properties":{"name":"Gumlapuram","level":"village panchayat","parentBlock":"Thally","parentDistrict":"Krishnagiri","lgdGramPanchayatCode":"225017","householdsWithTapConnection":"73.82% (753 of 1,020 households, across 7 habitations; Jal Jeevan Mission)","populationCensus2011":4201,"householdsCensus2011":917,"pagePath":"/atlas/tn/krishnagiri/panchayats/225017","pageLabel":"Open this panchayat's water page","shedId":"SB115"},"geometry":{"type":"Polygon","coordinates":[[[77.6781,12.6606],[77.6832,12.6605],[77.6884,12.6595],[77.6868,12.6533],[77.6872,12.6465],[77.6848,12.6418],[77.6809,12.6359],[77.6722,12.6379],[77.6688,12.6373],[77.6647,12.6397],[77.6647,12.6406],[77.6639,12.6405],[77.6637,12.6417],[77.6641,12.6426],[77.6636,12.6432],[77.6583,12.6449],[77.6572,12.6448],[77.6563,12.646],[77.6548,12.6454],[77.6541,12.6422],[77.653,12.6417],[77.6522,12.6417],[77.6517,12.6425],[77.6517,12.6453],[77.6504,12.6458],[77.6474,12.6457],[77.6454,12.6448],[77.6444,12.6451],[77.6437,12.6446],[77.643,12.6428],[77.6418,12.6425],[77.6429,12.6457],[77.6429,12.6486],[77.6484,12.652],[77.6495,12.6567],[77.6494,12.6585],[77.6479,12.6636],[77.6528,12.6652],[77.6563,12.6702],[77.6588,12.6838],[77.6595,12.6841],[77.6622,12.6837],[77.6769,12.6794],[77.6753,12.6743],[77.6769,12.6722],[77.6764,12.6635],[77.6785,12.6625],[77.6781,12.6606]]]}},{"type":"Feature","properties":{"name":"Doddaubbanur","level":"village panchayat","parentBlock":"Thally","parentDistrict":"Krishnagiri","lgdGramPanchayatCode":"225016","householdsWithTapConnection":"92.14% (867 of 941 households, across 12 habitations; Jal Jeevan Mission)","populationCensus2011":2951,"householdsCensus2011":707,"pagePath":"/atlas/tn/krishnagiri/panchayats/225016","pageLabel":"Open this panchayat's water page","shedId":"SB115"},"geometry":{"type":"Polygon","coordinates":[[[77.6532,12.6022],[77.6552,12.6014],[77.656,12.602],[77.6557,12.606],[77.6538,12.6046],[77.6513,12.6044],[77.651,12.6021],[77.6503,12.6011],[77.6468,12.6005],[77.6448,12.6017],[77.6424,12.6024],[77.6416,12.6048],[77.6397,12.6062],[77.6401,12.6083],[77.6482,12.6068],[77.6495,12.6093],[77.6508,12.6107],[77.6532,12.6098],[77.6546,12.6106],[77.6554,12.6105],[77.6572,12.6086],[77.6592,12.6098],[77.6618,12.609],[77.6645,12.6092],[77.6652,12.6143],[77.665,12.6193],[77.6658,12.6203],[77.6689,12.6143],[77.6723,12.6123],[77.6781,12.6116],[77.6817,12.6119],[77.6825,12.6127],[77.6834,12.6126],[77.6856,12.6113],[77.6918,12.6091],[77.6938,12.6067],[77.694,12.6032],[77.6937,12.6023],[77.6925,12.6015],[77.6917,12.5986],[77.6884,12.5966],[77.6848,12.5974],[77.6836,12.5969],[77.6821,12.5941],[77.6807,12.5897],[77.6794,12.5887],[77.678,12.5892],[77.6757,12.5917],[77.675,12.5954],[77.6706,12.5971],[77.6699,12.5978],[77.6668,12.5986],[77.6595,12.5897],[77.6582,12.5871],[77.6571,12.5881],[77.657,12.5911],[77.6553,12.595],[77.653,12.596],[77.6526,12.6017],[77.6532,12.6022]]]}},{"type":"Feature","properties":{"name":"Doddamanchi","level":"village panchayat","parentBlock":"Thally","parentDistrict":"Krishnagiri","lgdGramPanchayatCode":"225015","householdsWithTapConnection":"81.06% (1,275 of 1,573 households, across 42 habitations; Jal Jeevan Mission)","populationCensus2011":5947,"householdsCensus2011":1225,"pagePath":"/atlas/tn/krishnagiri/panchayats/225015","pageLabel":"Open this panchayat's water page","shedId":"SB115"},"geometry":{"type":"MultiPolygon","coordinates":[[[[77.8681,12.3248],[77.8718,12.3247],[77.871,12.3222],[77.8709,12.3169],[77.8732,12.3129],[77.8758,12.3037],[77.8754,12.2955],[77.875,12.2937],[77.8736,12.292],[77.8744,12.2881],[77.874,12.2865],[77.8732,12.2847],[77.8705,12.2826],[77.8631,12.2863],[77.859,12.2866],[77.8556,12.2862],[77.853,12.2832],[77.8521,12.2829],[77.8507,12.2846],[77.8501,12.2863],[77.8495,12.2959],[77.8496,12.2965],[77.8525,12.2976],[77.8538,12.2988],[77.8539,12.3045],[77.8524,12.3081],[77.8558,12.3053],[77.8558,12.3044],[77.8564,12.3039],[77.8582,12.3056],[77.8613,12.3059],[77.8632,12.3072],[77.8622,12.3117],[77.8633,12.3187],[77.8628,12.3209],[77.86,12.3254],[77.8599,12.3341],[77.8669,12.3302],[77.8681,12.3248]]],[[[77.7948,12.3221],[77.7977,12.3221],[77.8021,12.319],[77.8069,12.3173],[77.8087,12.3176],[77.8094,12.3197],[77.8099,12.3199],[77.8154,12.3206],[77.8193,12.3221],[77.8203,12.3216],[77.8213,12.3193],[77.8222,12.3191],[77.824,12.3211],[77.8259,12.322],[77.8272,12.3219],[77.8295,12.3201],[77.8301,12.3181],[77.8298,12.3152],[77.8255,12.312],[77.8247,12.3109],[77.8239,12.308],[77.8206,12.3015],[77.8185,12.2952],[77.8154,12.2911],[77.8124,12.2933],[77.813,12.2944],[77.8127,12.2956],[77.811,12.2973],[77.8081,12.2991],[77.8049,12.2988],[77.8033,12.3003],[77.8,12.3],[77.7964,12.3021],[77.7983,12.3063],[77.8004,12.3132],[77.7995,12.313],[77.7966,12.3143],[77.796,12.3154],[77.7957,12.3185],[77.7948,12.3193],[77.7935,12.3194],[77.7909,12.3185],[77.7898,12.3195],[77.7896,12.3206],[77.7911,12.3229],[77.7948,12.3221]]],[[[77.8266,12.2656],[77.8243,12.2661],[77.8212,12.2683],[77.8199,12.2701],[77.8199,12.2718],[77.8224,12.2806],[77.8233,12.2812],[77.8291,12.2788],[77.8294,12.2745],[77.8285,12.2722],[77.8269,12.2703],[77.8266,12.2656]]]]}},{"type":"Feature","properties":{"name":"Kakkadasam","level":"village panchayat","parentBlock":"Thally","parentDistrict":"Krishnagiri","lgdGramPanchayatCode":"225020","householdsWithTapConnection":"87.06% (942 of 1,082 households, across 9 habitations; Jal Jeevan Mission)","populationCensus2011":3762,"householdsCensus2011":884,"pagePath":"/atlas/tn/krishnagiri/panchayats/225020","pageLabel":"Open this panchayat's water page","shedId":"SB115"},"geometry":{"type":"Polygon","coordinates":[[[77.726,12.5722],[77.7254,12.57],[77.7258,12.5688],[77.7296,12.5684],[77.7315,12.5661],[77.7341,12.566],[77.7357,12.5667],[77.737,12.5666],[77.7382,12.5658],[77.739,12.5638],[77.7391,12.5608],[77.7365,12.5595],[77.734,12.5594],[77.7331,12.557],[77.7318,12.5554],[77.7313,12.5495],[77.7296,12.5484],[77.728,12.5486],[77.7279,12.5494],[77.7269,12.5504],[77.724,12.5505],[77.7232,12.5513],[77.7202,12.5522],[77.7165,12.5522],[77.716,12.553],[77.717,12.5576],[77.7127,12.5572],[77.7124,12.5618],[77.7118,12.5624],[77.7094,12.5622],[77.7057,12.5609],[77.6996,12.5609],[77.6992,12.5631],[77.6971,12.565],[77.7083,12.5712],[77.7114,12.574],[77.7133,12.575],[77.7203,12.5739],[77.726,12.5722]]]}},{"type":"Feature","properties":{"name":"Agalakotta","level":"village panchayat","parentBlock":"Thally","parentDistrict":"Krishnagiri","lgdGramPanchayatCode":"225003","householdsWithTapConnection":"50.49% (721 of 1,428 households, across 41 habitations; Jal Jeevan Mission)","populationCensus2011":4435,"householdsCensus2011":1026,"pagePath":"/atlas/tn/krishnagiri/panchayats/225003","pageLabel":"Open this panchayat's water page","shedId":"SB115"},"geometry":{"type":"Polygon","coordinates":[[[77.6614,12.5327],[77.6611,12.5306],[77.6597,12.5297],[77.6595,12.5286],[77.6606,12.5255],[77.6629,12.5229],[77.6645,12.5219],[77.6639,12.5192],[77.6646,12.5162],[77.6661,12.5148],[77.6716,12.5137],[77.6733,12.5142],[77.675,12.5137],[77.6731,12.51],[77.6732,12.5091],[77.676,12.5095],[77.6779,12.5077],[77.6784,12.506],[77.6775,12.5041],[77.6776,12.5009],[77.6788,12.5005],[77.6793,12.4979],[77.6792,12.4944],[77.6784,12.4923],[77.6771,12.4907],[77.6749,12.4898],[77.6713,12.4846],[77.6718,12.4814],[77.6738,12.4799],[77.6687,12.4763],[77.6638,12.4749],[77.6614,12.473],[77.6569,12.4763],[77.6567,12.4769],[77.6582,12.4777],[77.6581,12.4786],[77.6548,12.4821],[77.6541,12.4853],[77.6542,12.4872],[77.6572,12.4887],[77.663,12.4881],[77.665,12.4883],[77.6661,12.49],[77.6672,12.4954],[77.6681,12.4967],[77.6618,12.4956],[77.6599,12.4932],[77.6586,12.4926],[77.6572,12.4926],[77.6545,12.4936],[77.654,12.4957],[77.6546,12.4973],[77.6573,12.4985],[77.6582,12.5001],[77.6572,12.503],[77.6544,12.5071],[77.6474,12.5093],[77.6459,12.5092],[77.6445,12.5085],[77.6423,12.5085],[77.6426,12.5111],[77.6447,12.5177],[77.6447,12.5207],[77.6472,12.5253],[77.6481,12.5281],[77.6482,12.5307],[77.6477,12.533],[77.6504,12.5321],[77.654,12.5346],[77.6567,12.5349],[77.6585,12.5345],[77.6614,12.5327]]]}},{"type":"Feature","properties":{"name":"Kottamadugu","level":"village panchayat","parentBlock":"Thally","parentDistrict":"Krishnagiri","lgdGramPanchayatCode":"225028","householdsWithTapConnection":"50.13% (194 of 387 households, across 7 habitations; Jal Jeevan Mission)","pagePath":"/atlas/tn/krishnagiri/panchayats/225028","pageLabel":"Open this panchayat's water page","shedId":"SB115"},"geometry":{"type":"Polygon","coordinates":[[[77.6641,12.6312],[77.6642,12.63],[77.6655,12.6278],[77.6655,12.6266],[77.6672,12.6242],[77.6672,12.6231],[77.665,12.6193],[77.6652,12.6143],[77.6645,12.6092],[77.6618,12.609],[77.6592,12.6098],[77.6572,12.6086],[77.6554,12.6105],[77.6546,12.6106],[77.6532,12.6098],[77.6508,12.6107],[77.6491,12.6087],[77.6486,12.6071],[77.6474,12.6068],[77.6401,12.6083],[77.6398,12.6088],[77.6338,12.6097],[77.6302,12.6116],[77.6285,12.6119],[77.6297,12.6134],[77.6303,12.616],[77.6325,12.6163],[77.6348,12.6213],[77.6373,12.6224],[77.6375,12.6249],[77.6362,12.6263],[77.6362,12.6271],[77.6384,12.6324],[77.6395,12.6333],[77.6421,12.6332],[77.6433,12.6322],[77.6449,12.6322],[77.6456,12.6334],[77.6463,12.6334],[77.6472,12.6323],[77.6467,12.6275],[77.6469,12.6238],[77.6487,12.6232],[77.649,12.6227],[77.65,12.623],[77.654,12.6218],[77.6556,12.6221],[77.656,12.6315],[77.6604,12.6317],[77.6616,12.6311],[77.6641,12.6312]]]}},{"type":"Feature","properties":{"name":"Kuppati","level":"village panchayat","parentBlock":"Thally","parentDistrict":"Krishnagiri","lgdGramPanchayatCode":"225030","householdsWithTapConnection":"95.21% (795 of 835 households, across 10 habitations; Jal Jeevan Mission)","populationCensus2011":2645,"householdsCensus2011":714,"pagePath":"/atlas/tn/krishnagiri/panchayats/225030","pageLabel":"Open this panchayat's water page","shedId":"SB115"},"geometry":{"type":"Polygon","coordinates":[[[77.7143,12.591],[77.7152,12.5875],[77.7114,12.5854],[77.7106,12.5842],[77.7109,12.5821],[77.7126,12.5805],[77.713,12.5749],[77.7083,12.5712],[77.7014,12.5675],[77.7006,12.5692],[77.6978,12.5706],[77.6971,12.5715],[77.6976,12.5744],[77.6968,12.5756],[77.6972,12.5775],[77.6963,12.5781],[77.6954,12.5778],[77.6951,12.579],[77.6886,12.58],[77.6878,12.5807],[77.6874,12.5843],[77.6862,12.5866],[77.6847,12.5883],[77.6824,12.5898],[77.6807,12.5897],[77.6821,12.5941],[77.6836,12.5969],[77.6848,12.5974],[77.6884,12.5966],[77.6917,12.5986],[77.6925,12.6015],[77.6937,12.6023],[77.694,12.6032],[77.6936,12.6056],[77.694,12.6065],[77.695,12.6065],[77.6964,12.6046],[77.7005,12.6036],[77.7046,12.5999],[77.7038,12.5968],[77.7014,12.5945],[77.7015,12.593],[77.7004,12.5915],[77.7004,12.5898],[77.7014,12.5885],[77.7026,12.5884],[77.7072,12.5902],[77.7143,12.591]]]}},{"type":"Feature","properties":{"name":"Mallasandiram","level":"village panchayat","parentBlock":"Thally","parentDistrict":"Krishnagiri","lgdGramPanchayatCode":"225033","householdsWithTapConnection":"90.08% (908 of 1,008 households, across 8 habitations; Jal Jeevan Mission)","pagePath":"/atlas/tn/krishnagiri/panchayats/225033","pageLabel":"Open this panchayat's water page","shedId":"SB115"},"geometry":{"type":"Polygon","coordinates":[[[77.7758,12.5551],[77.7722,12.5601],[77.7721,12.5611],[77.7753,12.5607],[77.778,12.5616],[77.7784,12.566],[77.7826,12.5655],[77.786,12.5675],[77.7872,12.5693],[77.7882,12.5699],[77.7895,12.5697],[77.7909,12.5686],[77.7918,12.5659],[77.7942,12.5659],[77.7974,12.5644],[77.8001,12.567],[77.8017,12.5673],[77.8031,12.5667],[77.8039,12.5676],[77.8051,12.5678],[77.8056,12.5689],[77.808,12.5693],[77.8085,12.5713],[77.8072,12.5725],[77.8068,12.5737],[77.8078,12.5792],[77.8145,12.5796],[77.8162,12.5783],[77.8219,12.5801],[77.8248,12.5794],[77.8291,12.5792],[77.8301,12.5782],[77.8308,12.5752],[77.8333,12.576],[77.8425,12.5728],[77.8423,12.5721],[77.8375,12.5684],[77.8307,12.572],[77.829,12.5721],[77.8259,12.5677],[77.8255,12.566],[77.8257,12.5642],[77.825,12.5639],[77.8249,12.5633],[77.8247,12.5592],[77.8235,12.5578],[77.8193,12.5547],[77.818,12.5546],[77.8134,12.5565],[77.8077,12.5576],[77.8058,12.5554],[77.8019,12.5524],[77.7975,12.5536],[77.7903,12.5534],[77.7879,12.5527],[77.7862,12.5515],[77.7842,12.5513],[77.7828,12.5491],[77.7817,12.5488],[77.7804,12.5506],[77.7786,12.552],[77.7779,12.5534],[77.7758,12.5551]]]}},{"type":"Feature","properties":{"name":"Marudhanapalli","level":"village panchayat","parentBlock":"Thally","parentDistrict":"Krishnagiri","lgdGramPanchayatCode":"225036","householdsWithTapConnection":"88.14% (736 of 835 households, across 11 habitations; Jal Jeevan Mission)","populationCensus2011":2898,"householdsCensus2011":736,"pagePath":"/atlas/tn/krishnagiri/panchayats/225036","pageLabel":"Open this panchayat's water page","shedId":"SB115"},"geometry":{"type":"Polygon","coordinates":[[[77.7692,12.5793],[77.7715,12.5755],[77.7722,12.5733],[77.7718,12.5651],[77.7731,12.5648],[77.7753,12.5662],[77.7784,12.566],[77.778,12.5616],[77.7753,12.5607],[77.7721,12.5611],[77.7722,12.5601],[77.7758,12.5551],[77.7779,12.5534],[77.7786,12.552],[77.7804,12.5506],[77.7817,12.5488],[77.7822,12.5488],[77.7858,12.5415],[77.7846,12.5396],[77.7846,12.5381],[77.7838,12.5365],[77.7851,12.5351],[77.7854,12.5335],[77.787,12.5304],[77.7854,12.5284],[77.7848,12.5281],[77.7831,12.5285],[77.7826,12.5274],[77.7818,12.5275],[77.7814,12.5284],[77.7802,12.529],[77.7796,12.5309],[77.7766,12.535],[77.7707,12.5386],[77.7662,12.54],[77.762,12.5473],[77.7601,12.549],[77.7573,12.5505],[77.7549,12.5508],[77.7556,12.5555],[77.7536,12.5562],[77.7477,12.5551],[77.7445,12.5571],[77.7426,12.5596],[77.7446,12.5619],[77.7448,12.5648],[77.7454,12.5658],[77.7463,12.5652],[77.7485,12.5655],[77.7491,12.566],[77.7506,12.5678],[77.7516,12.571],[77.7556,12.5734],[77.7578,12.5777],[77.7596,12.5762],[77.7597,12.577],[77.7605,12.5778],[77.7637,12.5773],[77.7676,12.5791],[77.7683,12.5801],[77.7692,12.5793]]]}},{"type":"Feature","properties":{"name":"Marupalli","level":"village panchayat","parentBlock":"Thally","parentDistrict":"Krishnagiri","lgdGramPanchayatCode":"225035","householdsWithTapConnection":"53.1% (368 of 693 households, across 7 habitations; Jal Jeevan Mission)","populationCensus2011":2732,"householdsCensus2011":610,"pagePath":"/atlas/tn/krishnagiri/panchayats/225035","pageLabel":"Open this panchayat's water page","shedId":"SB115"},"geometry":{"type":"Polygon","coordinates":[[[77.6504,12.5698],[77.6541,12.5711],[77.6556,12.5708],[77.6611,12.5669],[77.6646,12.5658],[77.6662,12.5662],[77.668,12.568],[77.6686,12.5702],[77.6703,12.5714],[77.675,12.5718],[77.6778,12.5712],[77.6783,12.5707],[77.6776,12.5673],[77.6761,12.5638],[77.6716,12.5614],[77.6692,12.5567],[77.6699,12.5544],[77.6687,12.5502],[77.6663,12.5479],[77.6636,12.5472],[77.6619,12.5442],[77.6609,12.5435],[77.659,12.5435],[77.6486,12.5458],[77.6464,12.5457],[77.6446,12.5471],[77.6426,12.5476],[77.6348,12.548],[77.6319,12.5477],[77.6315,12.5501],[77.6332,12.5516],[77.6364,12.5568],[77.6385,12.5578],[77.6396,12.559],[77.6403,12.5628],[77.6429,12.5621],[77.645,12.5622],[77.6464,12.5624],[77.6481,12.5639],[77.6436,12.5641],[77.6407,12.5648],[77.6416,12.5677],[77.6417,12.5726],[77.648,12.5713],[77.6504,12.5698]]]}},{"type":"Feature","properties":{"name":"Settipalli","level":"village panchayat","parentBlock":"Thally","parentDistrict":"Krishnagiri","lgdGramPanchayatCode":"225045","householdsWithTapConnection":"53.81% (226 of 420 households, across 4 habitations; Jal Jeevan Mission)","populationCensus2011":1696,"householdsCensus2011":401,"pagePath":"/atlas/tn/krishnagiri/panchayats/225045","pageLabel":"Open this panchayat's water page","shedId":"SB115"},"geometry":{"type":"Polygon","coordinates":[[[77.6853,12.5256],[77.6852,12.5234],[77.6832,12.5209],[77.6877,12.52],[77.6932,12.5179],[77.6972,12.5193],[77.6991,12.5178],[77.6983,12.5145],[77.6989,12.5114],[77.6989,12.5106],[77.6983,12.5104],[77.6985,12.5035],[77.6966,12.5025],[77.6963,12.5003],[77.6949,12.499],[77.6928,12.4999],[77.6923,12.5015],[77.6915,12.502],[77.6884,12.5014],[77.6857,12.5023],[77.6806,12.5029],[77.6793,12.5019],[77.6788,12.5005],[77.6776,12.5009],[77.6775,12.5041],[77.6784,12.506],[77.6779,12.5077],[77.6763,12.5094],[77.6732,12.5091],[77.6731,12.5095],[77.675,12.5137],[77.6736,12.5142],[77.6716,12.5137],[77.6656,12.515],[77.6646,12.5162],[77.6639,12.5192],[77.6645,12.5219],[77.6629,12.5229],[77.6606,12.5255],[77.6595,12.5291],[77.6597,12.5297],[77.6611,12.5306],[77.6615,12.533],[77.6655,12.5339],[77.6681,12.5358],[77.6695,12.5334],[77.6699,12.5304],[77.6727,12.5273],[77.6769,12.5265],[77.6829,12.5268],[77.684,12.5266],[77.6853,12.5256]]]}},{"type":"Feature","properties":{"name":"Thally","level":"village panchayat","parentBlock":"Thally","parentDistrict":"Krishnagiri","lgdGramPanchayatCode":"225048","householdsWithTapConnection":"40.88% (876 of 2,143 households, across 11 habitations; Jal Jeevan Mission)","populationCensus2011":7646,"householdsCensus2011":1704,"pagePath":"/atlas/tn/krishnagiri/panchayats/225048","pageLabel":"Open this panchayat's water page","shedId":"SB115"},"geometry":{"type":"Polygon","coordinates":[[[77.6468,12.6005],[77.6503,12.6011],[77.651,12.6021],[77.6513,12.6044],[77.6538,12.6046],[77.6557,12.606],[77.656,12.602],[77.6552,12.6014],[77.6532,12.6022],[77.6526,12.6017],[77.653,12.596],[77.6553,12.595],[77.657,12.5911],[77.6571,12.5881],[77.6587,12.5867],[77.659,12.5851],[77.6597,12.5844],[77.6616,12.5844],[77.6629,12.5837],[77.6643,12.5836],[77.666,12.5849],[77.6667,12.587],[77.6685,12.587],[77.6694,12.5878],[77.6707,12.5874],[77.6714,12.5855],[77.6709,12.5851],[77.6688,12.5855],[77.6685,12.5853],[77.6689,12.5843],[77.6671,12.5839],[77.6655,12.5816],[77.6616,12.5816],[77.6587,12.5765],[77.6567,12.5746],[77.6549,12.5717],[77.6534,12.5706],[77.6505,12.5697],[77.6483,12.5712],[77.6418,12.5727],[77.6416,12.5677],[77.6407,12.5648],[77.6436,12.5641],[77.6481,12.5639],[77.6464,12.5624],[77.645,12.5622],[77.6429,12.5621],[77.6403,12.5628],[77.6396,12.559],[77.6385,12.5578],[77.6364,12.5568],[77.6325,12.5508],[77.6265,12.5476],[77.6257,12.5475],[77.6242,12.5483],[77.624,12.5479],[77.626,12.5549],[77.6262,12.5603],[77.6266,12.5604],[77.6264,12.5612],[77.6274,12.5631],[77.6273,12.5655],[77.6266,12.566],[77.6259,12.5649],[77.6247,12.5647],[77.6225,12.5658],[77.619,12.5667],[77.619,12.5676],[77.6206,12.571],[77.6211,12.5749],[77.6246,12.5764],[77.6266,12.5767],[77.6332,12.5761],[77.6344,12.5809],[77.6395,12.5806],[77.6404,12.5825],[77.6402,12.5926],[77.641,12.5925],[77.642,12.5934],[77.6452,12.5926],[77.6455,12.5937],[77.647,12.5938],[77.6503,12.5961],[77.6482,12.5965],[77.6422,12.5963],[77.6406,12.5947],[77.6369,12.5954],[77.6338,12.6027],[77.6308,12.6043],[77.629,12.6059],[77.6283,12.6076],[77.6283,12.6098],[77.6273,12.6121],[77.6302,12.6116],[77.6338,12.6097],[77.6398,12.6088],[77.6401,12.608],[77.6397,12.6062],[77.6416,12.6048],[77.6424,12.6024],[77.6448,12.6017],[77.6468,12.6005]]]}},{"type":"Feature","properties":{"name":"Thally kothanur","level":"village panchayat","parentBlock":"Thally","parentDistrict":"Krishnagiri","lgdGramPanchayatCode":"225047","householdsWithTapConnection":"71.98% (560 of 778 households, across 9 habitations; Jal Jeevan Mission)","pagePath":"/atlas/tn/krishnagiri/panchayats/225047","pageLabel":"Open this panchayat's water page","shedId":"SB115"},"geometry":{"type":"Polygon","coordinates":[[[77.6807,12.5897],[77.6824,12.5898],[77.6847,12.5883],[77.6862,12.5866],[77.6874,12.5843],[77.6878,12.5807],[77.6886,12.58],[77.6951,12.579],[77.6954,12.5778],[77.6963,12.5781],[77.6972,12.5775],[77.6968,12.5756],[77.6976,12.5744],[77.6971,12.5715],[77.6978,12.5706],[77.7006,12.5692],[77.7014,12.5675],[77.6972,12.565],[77.6933,12.5653],[77.6911,12.5649],[77.6892,12.5653],[77.686,12.5639],[77.6813,12.5631],[77.6785,12.565],[77.6768,12.5655],[77.6782,12.5694],[77.6783,12.5707],[77.6778,12.5712],[77.675,12.5718],[77.6703,12.5714],[77.6686,12.5702],[77.668,12.568],[77.6662,12.5662],[77.6646,12.5658],[77.6611,12.5669],[77.6562,12.5705],[77.6541,12.5711],[77.6587,12.5765],[77.6616,12.5816],[77.6655,12.5816],[77.6671,12.5839],[77.6689,12.5843],[77.6685,12.5853],[77.6688,12.5855],[77.6706,12.5851],[77.6714,12.5855],[77.6707,12.5874],[77.6694,12.5878],[77.6685,12.587],[77.6667,12.587],[77.6658,12.5847],[77.6643,12.5836],[77.6633,12.5836],[77.6616,12.5844],[77.6597,12.5844],[77.6582,12.587],[77.6595,12.5897],[77.6668,12.5986],[77.6699,12.5978],[77.6706,12.5971],[77.675,12.5954],[77.6757,12.5917],[77.6784,12.5889],[77.6797,12.5888],[77.6807,12.5897]]]}},{"type":"Feature","properties":{"name":"Unisenatham","level":"village panchayat","parentBlock":"Thally","parentDistrict":"Krishnagiri","lgdGramPanchayatCode":"225050","householdsWithTapConnection":"47.79% (238 of 498 households, across 10 habitations; Jal Jeevan Mission)","populationCensus2011":1934,"householdsCensus2011":408,"pagePath":"/atlas/tn/krishnagiri/panchayats/225050","pageLabel":"Open this panchayat's water page","shedId":"SB115"},"geometry":{"type":"MultiPolygon","coordinates":[[[[77.6572,12.6448],[77.6583,12.6449],[77.6636,12.6432],[77.6641,12.6426],[77.6637,12.6409],[77.6639,12.6405],[77.6648,12.6405],[77.665,12.6395],[77.6639,12.6361],[77.6641,12.6312],[77.6616,12.6311],[77.6604,12.6317],[77.656,12.6315],[77.6556,12.6221],[77.654,12.6218],[77.65,12.623],[77.649,12.6227],[77.6487,12.6232],[77.6469,12.6238],[77.6467,12.6275],[77.6472,12.6323],[77.6463,12.6334],[77.6456,12.6334],[77.6449,12.6322],[77.6433,12.6322],[77.6421,12.6332],[77.6395,12.6333],[77.6384,12.6324],[77.6362,12.6271],[77.6362,12.6263],[77.6375,12.6249],[77.6373,12.6224],[77.6348,12.6213],[77.6325,12.6163],[77.6303,12.616],[77.6297,12.6134],[77.6288,12.612],[77.6273,12.6121],[77.6271,12.6156],[77.6256,12.6204],[77.6254,12.6246],[77.6264,12.626],[77.6297,12.6287],[77.6401,12.6397],[77.6418,12.6425],[77.6433,12.6431],[77.644,12.6449],[77.6454,12.6448],[77.6474,12.6457],[77.6513,12.6456],[77.6518,12.6451],[77.6517,12.6425],[77.6522,12.6417],[77.6541,12.6422],[77.6547,12.6452],[77.6553,12.6458],[77.6565,12.6459],[77.6572,12.6448]]],[[[77.6113,12.6574],[77.6148,12.6559],[77.6163,12.6559],[77.6173,12.6566],[77.6195,12.6557],[77.6207,12.6522],[77.6207,12.65],[77.6184,12.6496],[77.6151,12.6498],[77.6142,12.6493],[77.6136,12.6475],[77.6125,12.6463],[77.61,12.6484],[77.6099,12.6497],[77.6074,12.6491],[77.6063,12.6559],[77.6072,12.6573],[77.6113,12.6574]]]]}},{"type":"Feature","properties":{"name":"Anniyalam","level":"village panchayat","parentBlock":"Thally","parentDistrict":"Krishnagiri","lgdGramPanchayatCode":"225006","householdsWithTapConnection":"88.87% (471 of 530 households, across 6 habitations; Jal Jeevan Mission)","populationCensus2011":2558,"householdsCensus2011":614,"pagePath":"/atlas/tn/krishnagiri/panchayats/225006","pageLabel":"Open this panchayat's water page","shedId":"SB115"},"geometry":{"type":"Polygon","coordinates":[[[77.7578,12.5837],[77.7568,12.5827],[77.7573,12.5813],[77.7569,12.5789],[77.7578,12.5777],[77.7558,12.5737],[77.7521,12.5716],[77.7506,12.5678],[77.7485,12.5655],[77.7459,12.5652],[77.7454,12.5658],[77.7448,12.5648],[77.7446,12.5619],[77.7426,12.5598],[77.743,12.5586],[77.7445,12.5571],[77.7477,12.5551],[77.7536,12.5562],[77.7556,12.5555],[77.7549,12.5508],[77.7542,12.5501],[77.7559,12.5477],[77.7558,12.5463],[77.7552,12.5456],[77.7539,12.5462],[77.752,12.5462],[77.7509,12.5455],[77.7482,12.5413],[77.7474,12.5415],[77.7472,12.5438],[77.7465,12.5438],[77.7459,12.5413],[77.7417,12.5407],[77.7414,12.5379],[77.7354,12.5393],[77.7314,12.5391],[77.73,12.5423],[77.7304,12.5441],[77.7299,12.5459],[77.7313,12.5495],[77.7318,12.5554],[77.7331,12.557],[77.734,12.5594],[77.7374,12.5598],[77.7391,12.5608],[77.7393,12.5614],[77.7386,12.5651],[77.7377,12.5663],[77.7357,12.5667],[77.7341,12.566],[77.7315,12.5661],[77.7296,12.5684],[77.7255,12.569],[77.7258,12.5717],[77.7283,12.5776],[77.7297,12.5791],[77.7317,12.5797],[77.7325,12.5789],[77.7356,12.5777],[77.7363,12.5766],[77.7369,12.5765],[77.7381,12.5772],[77.7393,12.5812],[77.7409,12.5809],[77.7432,12.5789],[77.7449,12.5783],[77.7466,12.5794],[77.7467,12.582],[77.7477,12.5823],[77.7496,12.5815],[77.7498,12.5834],[77.7511,12.5843],[77.7578,12.5837]]]}},{"type":"Feature","properties":{"name":"Arasakuppam","level":"village panchayat","parentBlock":"Thally","parentDistrict":"Krishnagiri","lgdGramPanchayatCode":"225007","householdsWithTapConnection":"90.4% (913 of 1,010 households, across 10 habitations; Jal Jeevan Mission)","populationCensus2011":4196,"householdsCensus2011":988,"pagePath":"/atlas/tn/krishnagiri/panchayats/225007","pageLabel":"Open this panchayat's water page","shedId":"SB115"},"geometry":{"type":"Polygon","coordinates":[[[77.8269,12.5592],[77.8296,12.5574],[77.8296,12.5552],[77.8289,12.554],[77.8339,12.5529],[77.8356,12.5514],[77.8361,12.5468],[77.8325,12.5412],[77.8302,12.5398],[77.8286,12.5371],[77.8278,12.537],[77.8261,12.5357],[77.825,12.5317],[77.8214,12.5303],[77.8201,12.5263],[77.8184,12.5244],[77.8166,12.5251],[77.8129,12.5255],[77.8069,12.529],[77.807,12.5302],[77.8088,12.5323],[77.8135,12.5361],[77.8159,12.5373],[77.8162,12.5391],[77.8146,12.5408],[77.8138,12.5408],[77.8126,12.5397],[77.8105,12.5401],[77.8099,12.5376],[77.8087,12.5354],[77.8068,12.5334],[77.8067,12.5314],[77.8059,12.5305],[77.804,12.5314],[77.8043,12.5333],[77.8024,12.533],[77.8017,12.5343],[77.7942,12.5352],[77.7937,12.5357],[77.7935,12.5383],[77.7928,12.5389],[77.7923,12.5388],[77.7918,12.5364],[77.7905,12.5363],[77.7897,12.539],[77.7904,12.5397],[77.7903,12.5408],[77.7894,12.5413],[77.7858,12.5415],[77.7822,12.5488],[77.7842,12.5513],[77.7862,12.5515],[77.7879,12.5527],[77.7903,12.5534],[77.7975,12.5536],[77.8019,12.5524],[77.8058,12.5554],[77.8077,12.5576],[77.8134,12.5565],[77.8188,12.5546],[77.8203,12.5552],[77.8247,12.5592],[77.8269,12.5592]]]}},{"type":"Feature","properties":{"name":"Ballapalli","level":"village panchayat","parentBlock":"Thally","parentDistrict":"Krishnagiri","lgdGramPanchayatCode":"225009","householdsWithTapConnection":"75.12% (489 of 651 households, across 4 habitations; Jal Jeevan Mission)","populationCensus2011":2146,"householdsCensus2011":522,"pagePath":"/atlas/tn/krishnagiri/panchayats/225009","pageLabel":"Open this panchayat's water page","shedId":"SB115"},"geometry":{"type":"Polygon","coordinates":[[[77.7034,12.5185],[77.7029,12.5203],[77.7022,12.5208],[77.7013,12.5204],[77.7008,12.5188],[77.6995,12.5177],[77.6972,12.5193],[77.6932,12.5179],[77.6877,12.52],[77.6834,12.5208],[77.6832,12.5213],[77.6852,12.5234],[77.6853,12.5256],[77.6867,12.5273],[77.688,12.533],[77.6894,12.5355],[77.695,12.5397],[77.6961,12.541],[77.6994,12.5428],[77.7003,12.5443],[77.7026,12.544],[77.7062,12.5451],[77.7074,12.5462],[77.7081,12.548],[77.7081,12.5497],[77.7071,12.5516],[77.7072,12.5524],[77.7089,12.5532],[77.7106,12.5553],[77.7124,12.5558],[77.7127,12.5572],[77.7167,12.5578],[77.717,12.5576],[77.716,12.5521],[77.7171,12.55],[77.7166,12.5496],[77.7128,12.5498],[77.7115,12.5491],[77.7092,12.5446],[77.7097,12.5418],[77.7125,12.5413],[77.713,12.5402],[77.7162,12.5398],[77.7209,12.5382],[77.7261,12.5382],[77.7234,12.5354],[77.7211,12.5341],[77.7206,12.5328],[77.7184,12.5317],[77.7179,12.5263],[77.7169,12.5255],[77.7173,12.524],[77.7168,12.5233],[77.7185,12.52],[77.7185,12.517],[77.7133,12.5173],[77.7117,12.518],[77.708,12.5183],[77.7054,12.5179],[77.7034,12.5185]]]}},{"type":"Feature","properties":{"name":"Binnamangalam","level":"village panchayat","parentBlock":"Thally","parentDistrict":"Krishnagiri","lgdGramPanchayatCode":"225010","householdsWithTapConnection":"90.76% (511 of 563 households, across 7 habitations; Jal Jeevan Mission)","populationCensus2011":2463,"householdsCensus2011":590,"pagePath":"/atlas/tn/krishnagiri/panchayats/225010","pageLabel":"Open this panchayat's water page","shedId":"SB115"},"geometry":{"type":"Polygon","coordinates":[[[77.6977,12.6296],[77.6954,12.6288],[77.6953,12.6261],[77.6938,12.6241],[77.6932,12.624],[77.6905,12.6259],[77.6879,12.6254],[77.6885,12.6215],[77.6884,12.617],[77.686,12.6141],[77.6811,12.6118],[77.6781,12.6116],[77.6723,12.6123],[77.6689,12.6143],[77.6658,12.6203],[77.6672,12.6231],[77.6672,12.6242],[77.6656,12.6264],[77.6655,12.6278],[77.6642,12.63],[77.6641,12.6372],[77.665,12.6395],[77.6688,12.6373],[77.6722,12.6379],[77.6809,12.6359],[77.6848,12.6418],[77.6872,12.6465],[77.6963,12.6416],[77.6972,12.6406],[77.6976,12.639],[77.7,12.6365],[77.7009,12.6326],[77.699,12.6322],[77.6977,12.6296]]]}},{"type":"Feature","properties":{"name":"Achubalu","level":"village panchayat","parentBlock":"Thally","parentDistrict":"Krishnagiri","lgdGramPanchayatCode":"225002","householdsWithTapConnection":"68.6% (1,123 of 1,637 households, across 34 habitations; Jal Jeevan Mission)","populationCensus2011":5165,"householdsCensus2011":1156,"pagePath":"/atlas/tn/krishnagiri/panchayats/225002","pageLabel":"Open this panchayat's water page","shedId":"SB115"},"geometry":{"type":"Polygon","coordinates":[[[77.6266,12.5604],[77.6262,12.5603],[77.626,12.5549],[77.624,12.5479],[77.6176,12.5423],[77.6153,12.5363],[77.6131,12.5359],[77.6113,12.534],[77.6047,12.5333],[77.6028,12.523],[77.6012,12.5234],[77.5979,12.5225],[77.5946,12.5239],[77.5929,12.5231],[77.5924,12.5215],[77.5905,12.5227],[77.5879,12.5206],[77.5884,12.527],[77.5867,12.5299],[77.5859,12.5339],[77.5857,12.5422],[77.5864,12.5457],[77.5804,12.5517],[77.5848,12.5526],[77.5871,12.5568],[77.5914,12.562],[77.5933,12.5654],[77.5991,12.5714],[77.6003,12.574],[77.6014,12.5799],[77.6015,12.5808],[77.6003,12.584],[77.6019,12.5902],[77.6037,12.5911],[77.6087,12.5911],[77.6106,12.5896],[77.6117,12.5866],[77.6116,12.583],[77.6102,12.5794],[77.6083,12.5769],[77.6133,12.5758],[77.6213,12.5751],[77.6205,12.5722],[77.6206,12.571],[77.619,12.5676],[77.619,12.5667],[77.6225,12.5658],[77.6247,12.5647],[77.6259,12.5649],[77.6266,12.566],[77.6272,12.5659],[77.6274,12.5631],[77.6264,12.5612],[77.6266,12.5604]]]}},{"type":"Feature","properties":{"name":"Sarandapalli","level":"village panchayat","parentBlock":"Thally","parentDistrict":"Krishnagiri","lgdGramPanchayatCode":"225044","householdsWithTapConnection":"69.73% (341 of 489 households, across 9 habitations; Jal Jeevan Mission)","populationCensus2011":2004,"householdsCensus2011":480,"pagePath":"/atlas/tn/krishnagiri/panchayats/225044","pageLabel":"Open this panchayat's water page","shedId":"SB115"},"geometry":{"type":"Polygon","coordinates":[[[77.7124,12.5618],[77.7124,12.5558],[77.7106,12.5553],[77.7089,12.5532],[77.7072,12.5524],[77.7071,12.5516],[77.7081,12.5497],[77.7081,12.548],[77.7074,12.5462],[77.7062,12.5451],[77.7043,12.5443],[77.7003,12.5443],[77.6994,12.5428],[77.6961,12.541],[77.695,12.5397],[77.6894,12.5355],[77.688,12.533],[77.6867,12.5273],[77.6853,12.5256],[77.684,12.5266],[77.6812,12.527],[77.6774,12.5265],[77.6735,12.5269],[77.6721,12.5277],[77.6716,12.5288],[77.6699,12.5304],[77.6695,12.5334],[77.6681,12.5359],[77.6698,12.5394],[77.6711,12.5409],[77.6735,12.5421],[77.6748,12.542],[77.6758,12.5427],[77.6824,12.5445],[77.6893,12.55],[77.6968,12.5517],[77.6984,12.5548],[77.6989,12.5591],[77.6996,12.5609],[77.7057,12.5609],[77.7094,12.5622],[77.7118,12.5624],[77.7124,12.5618]]]}},{"type":"Feature","properties":{"name":"Kundhumaranapalli","level":"village panchayat","parentBlock":"Kelamangalam","parentDistrict":"Krishnagiri","lgdGramPanchayatCode":"224893","householdsWithTapConnection":"78.13% (725 of 928 households, across 8 habitations; Jal Jeevan Mission)","populationCensus2011":3867,"householdsCensus2011":863,"pagePath":"/atlas/tn/krishnagiri/panchayats/224893","pageLabel":"Open this panchayat's water page","shedId":"SB115"},"geometry":{"type":"Polygon","coordinates":[[[77.8602,12.6201],[77.864,12.6199],[77.8626,12.6184],[77.8623,12.6173],[77.8624,12.6151],[77.8609,12.6142],[77.8609,12.612],[77.8605,12.6115],[77.8577,12.6097],[77.8561,12.6098],[77.854,12.6113],[77.8517,12.6115],[77.8511,12.611],[77.851,12.6094],[77.85,12.6074],[77.8443,12.6028],[77.8431,12.6048],[77.8431,12.6069],[77.8421,12.6091],[77.8414,12.6138],[77.8369,12.6158],[77.8373,12.6177],[77.8366,12.6202],[77.8357,12.6211],[77.8357,12.6229],[77.8349,12.6237],[77.8321,12.6249],[77.8304,12.631],[77.8264,12.6344],[77.826,12.6404],[77.8266,12.6442],[77.8256,12.6485],[77.8289,12.651],[77.8312,12.6517],[77.8334,12.6518],[77.8337,12.6509],[77.835,12.6503],[77.8391,12.6505],[77.8453,12.6495],[77.8465,12.6462],[77.8541,12.6395],[77.8563,12.6353],[77.8566,12.6317],[77.856,12.6255],[77.8567,12.6233],[77.8602,12.6201]]]}},{"type":"Feature","properties":{"name":"Hosapuram settipalli","level":"village panchayat","parentBlock":"Kelamangalam","parentDistrict":"Krishnagiri","lgdGramPanchayatCode":"224888","pagePath":"/atlas/tn/krishnagiri/panchayats/224888","pageLabel":"Open this panchayat's water page","shedId":"SB115"},"geometry":{"type":"Polygon","coordinates":[[[77.8256,12.6485],[77.8266,12.6442],[77.826,12.6404],[77.8264,12.6344],[77.8304,12.631],[77.8321,12.6249],[77.8349,12.6237],[77.8357,12.6229],[77.8357,12.6211],[77.8366,12.6202],[77.8373,12.6177],[77.8369,12.6158],[77.8414,12.6138],[77.8421,12.6091],[77.8431,12.6069],[77.8431,12.6048],[77.8445,12.6027],[77.8444,12.6023],[77.8435,12.6022],[77.8383,12.6043],[77.8361,12.6046],[77.8349,12.6026],[77.8305,12.6015],[77.831,12.5988],[77.83,12.5977],[77.8294,12.5977],[77.8253,12.6008],[77.821,12.6024],[77.8208,12.6038],[77.8185,12.6083],[77.819,12.6185],[77.8174,12.6244],[77.8168,12.6252],[77.8152,12.6242],[77.8144,12.6245],[77.8102,12.6287],[77.8155,12.6332],[77.8178,12.6345],[77.8181,12.6395],[77.817,12.6429],[77.8177,12.6487],[77.8205,12.6482],[77.8256,12.6485]]]}},{"type":"Feature","properties":{"name":"Thavarakarai","level":"village panchayat","parentBlock":"Kelamangalam","parentDistrict":"Krishnagiri","lgdGramPanchayatCode":"224903","householdsWithTapConnection":"51.5% (310 of 602 households, across 7 habitations; Jal Jeevan Mission)","populationCensus2011":2382,"householdsCensus2011":541,"pagePath":"/atlas/tn/krishnagiri/panchayats/224903","pageLabel":"Open this panchayat's water page","shedId":"SB115"},"geometry":{"type":"Polygon","coordinates":[[[77.7355,12.5027],[77.7425,12.5034],[77.7472,12.5051],[77.7495,12.5076],[77.7482,12.5114],[77.7448,12.5145],[77.7441,12.5183],[77.7396,12.5183],[77.7348,12.527],[77.7354,12.5283],[77.7382,12.5297],[77.7396,12.5315],[77.7415,12.5324],[77.7423,12.531],[77.7471,12.529],[77.7494,12.526],[77.7536,12.5266],[77.7564,12.5255],[77.7592,12.5255],[77.7608,12.5242],[77.7627,12.5242],[77.7636,12.5235],[77.765,12.524],[77.7656,12.5234],[77.7659,12.5206],[77.7678,12.5205],[77.7678,12.5173],[77.7672,12.5158],[77.7643,12.5138],[77.7638,12.5124],[77.7639,12.5116],[77.768,12.5075],[77.7689,12.506],[77.7686,12.5016],[77.767,12.4967],[77.7632,12.4997],[77.7622,12.4985],[77.7612,12.4984],[77.7605,12.5008],[77.7554,12.5028],[77.7516,12.5054],[77.7514,12.5049],[77.7485,12.5033],[77.7482,12.5013],[77.7503,12.4964],[77.7472,12.4926],[77.7462,12.4869],[77.7444,12.4875],[77.7418,12.4874],[77.7399,12.4883],[77.738,12.4885],[77.734,12.4876],[77.732,12.4891],[77.7296,12.4901],[77.7276,12.4902],[77.7271,12.4946],[77.7308,12.4978],[77.7338,12.4988],[77.735,12.5],[77.7355,12.5027]]]}},{"type":"Feature","properties":{"name":"Saragapalli","level":"village panchayat","parentBlock":"Thally","parentDistrict":"Krishnagiri","lgdGramPanchayatCode":"225043","householdsWithTapConnection":"78.86% (694 of 880 households, across 5 habitations; Jal Jeevan Mission)","populationCensus2011":2862,"householdsCensus2011":709,"pagePath":"/atlas/tn/krishnagiri/panchayats/225043","pageLabel":"Open this panchayat's water page","shedId":"SB115"},"geometry":{"type":"Polygon","coordinates":[[[77.7449,12.6257],[77.7483,12.6248],[77.7542,12.6208],[77.758,12.6191],[77.759,12.6212],[77.7643,12.6207],[77.7639,12.6185],[77.7645,12.6153],[77.7664,12.6138],[77.7658,12.6112],[77.7695,12.6094],[77.7698,12.6077],[77.7721,12.6064],[77.7725,12.6056],[77.7724,12.6038],[77.7736,12.603],[77.7729,12.6],[77.7717,12.5999],[77.7714,12.599],[77.7699,12.5991],[77.7695,12.5953],[77.769,12.5948],[77.7679,12.5948],[77.7676,12.5911],[77.7639,12.5929],[77.7637,12.5949],[77.7625,12.5953],[77.7606,12.5971],[77.758,12.597],[77.7554,12.596],[77.7496,12.5902],[77.7477,12.5891],[77.7452,12.5867],[77.7435,12.5871],[77.7399,12.5893],[77.737,12.5922],[77.7366,12.5945],[77.739,12.6015],[77.7395,12.6078],[77.7421,12.608],[77.7434,12.6101],[77.7428,12.6133],[77.7437,12.6243],[77.7439,12.6254],[77.7449,12.6257]]]}},{"type":"Feature","properties":{"name":"Bithireddy","level":"village panchayat","parentBlock":"Kelamangalam","parentDistrict":"Krishnagiri","lgdGramPanchayatCode":"224882","householdsWithTapConnection":"56.92% (481 of 845 households, across 8 habitations; Jal Jeevan Mission)","populationCensus2011":3076,"householdsCensus2011":693,"pagePath":"/atlas/tn/krishnagiri/panchayats/224882","pageLabel":"Open this panchayat's water page","shedId":"SB115"},"geometry":{"type":"Polygon","coordinates":[[[77.8553,12.5422],[77.8538,12.5398],[77.8546,12.5354],[77.854,12.5342],[77.8527,12.5342],[77.8514,12.5354],[77.85,12.5357],[77.85,12.5372],[77.8474,12.5389],[77.8474,12.5435],[77.8464,12.5446],[77.8455,12.5452],[77.8424,12.5457],[77.8409,12.5439],[77.8403,12.5454],[77.8359,12.5463],[77.8361,12.5489],[77.8351,12.552],[77.8339,12.5529],[77.8289,12.554],[77.8296,12.5552],[77.8294,12.5577],[77.8269,12.5592],[77.8247,12.5592],[77.8246,12.56],[77.825,12.5608],[77.825,12.5639],[77.8257,12.5642],[77.8255,12.566],[77.8259,12.5677],[77.829,12.5721],[77.8307,12.572],[77.8375,12.5684],[77.8447,12.5743],[77.8483,12.5741],[77.8524,12.5755],[77.8561,12.5747],[77.8562,12.5733],[77.8574,12.5716],[77.8576,12.5693],[77.8566,12.5684],[77.8547,12.5681],[77.8536,12.5657],[77.8535,12.5641],[77.8547,12.5619],[77.8546,12.5608],[77.8525,12.5593],[77.851,12.5597],[77.8502,12.5591],[77.8502,12.5583],[77.8517,12.5572],[77.852,12.556],[77.8497,12.5551],[77.8482,12.5538],[77.848,12.5518],[77.8484,12.5507],[77.8479,12.5484],[77.8481,12.5476],[77.8502,12.5462],[77.8527,12.5428],[77.8535,12.5425],[77.8546,12.543],[77.8553,12.5422]]]}},{"type":"Feature","properties":{"name":"Bevanatham","level":"village panchayat","parentBlock":"Kelamangalam","parentDistrict":"Krishnagiri","lgdGramPanchayatCode":"224881","householdsWithTapConnection":"51.23% (478 of 933 households, across 9 habitations; Jal Jeevan Mission)","pagePath":"/atlas/tn/krishnagiri/panchayats/224881","pageLabel":"Open this panchayat's water page","shedId":"SB115"},"geometry":{"type":"MultiPolygon","coordinates":[[[[77.8604,12.5091],[77.8612,12.5146],[77.866,12.519],[77.8688,12.5224],[77.8717,12.527],[77.874,12.5266],[77.8777,12.5243],[77.8792,12.5239],[77.8785,12.5182],[77.8771,12.5162],[77.8749,12.5145],[77.8761,12.5062],[77.8759,12.5044],[77.8782,12.4998],[77.8746,12.4982],[77.8733,12.4948],[77.8693,12.4886],[77.8681,12.4885],[77.8666,12.4875],[77.865,12.4874],[77.8628,12.4886],[77.8591,12.4895],[77.855,12.4931],[77.8546,12.4926],[77.854,12.4929],[77.8513,12.4975],[77.8506,12.4979],[77.8492,12.4975],[77.8475,12.496],[77.8465,12.4973],[77.8526,12.4999],[77.854,12.4982],[77.8574,12.5018],[77.8604,12.5091]]],[[[77.8359,12.5463],[77.8403,12.5454],[77.8409,12.5439],[77.8424,12.5457],[77.8455,12.5452],[77.8464,12.5446],[77.8474,12.5435],[77.8474,12.5389],[77.85,12.5372],[77.85,12.5357],[77.8514,12.5354],[77.8527,12.5342],[77.854,12.5342],[77.8546,12.5354],[77.8545,12.5375],[77.8538,12.5392],[77.854,12.5405],[77.8553,12.5422],[77.8564,12.5426],[77.8567,12.5411],[77.8599,12.5393],[77.8605,12.5383],[77.8613,12.5328],[77.862,12.5322],[77.8652,12.5318],[77.8656,12.5321],[77.8658,12.5341],[77.867,12.5343],[77.8681,12.5335],[77.8684,12.5316],[77.8705,12.5307],[77.8713,12.5297],[77.8672,12.5302],[77.8546,12.5305],[77.8415,12.5226],[77.8327,12.5219],[77.8257,12.5229],[77.8231,12.5216],[77.8215,12.5229],[77.8189,12.5228],[77.8184,12.5234],[77.8184,12.5245],[77.8201,12.5263],[77.8214,12.5303],[77.825,12.5317],[77.8261,12.5357],[77.8278,12.537],[77.8286,12.5371],[77.8302,12.5398],[77.8325,12.5412],[77.8359,12.5463]]]]}},{"type":"Feature","properties":{"name":"Devaganapalli","level":"village panchayat","parentBlock":"Thally","parentDistrict":"Krishnagiri","lgdGramPanchayatCode":"225013","householdsWithTapConnection":"100% (521 of 521 households, across 8 habitations; Jal Jeevan Mission)","populationCensus2011":3421,"householdsCensus2011":705,"pagePath":"/atlas/tn/krishnagiri/panchayats/225013","pageLabel":"Open this panchayat's water page","shedId":"SB115"},"geometry":{"type":"Polygon","coordinates":[[[77.7107,12.631],[77.712,12.6304],[77.7119,12.6298],[77.7105,12.6278],[77.7099,12.6242],[77.709,12.6219],[77.7078,12.6206],[77.7116,12.6178],[77.7169,12.6149],[77.7201,12.6109],[77.7268,12.6086],[77.7262,12.6076],[77.726,12.605],[77.7264,12.6033],[77.7264,12.5958],[77.7349,12.5916],[77.7319,12.5854],[77.7313,12.5809],[77.7317,12.5797],[77.7288,12.5784],[77.726,12.5722],[77.7203,12.5739],[77.7153,12.5749],[77.713,12.5749],[77.7126,12.5805],[77.7109,12.5821],[77.7106,12.5842],[77.7114,12.5854],[77.7152,12.5875],[77.7143,12.591],[77.7072,12.5902],[77.7026,12.5884],[77.7014,12.5885],[77.7004,12.5898],[77.7004,12.5915],[77.7015,12.593],[77.7014,12.5945],[77.7038,12.5968],[77.7045,12.6001],[77.7005,12.6036],[77.6964,12.6046],[77.695,12.6065],[77.6938,12.6064],[77.6931,12.608],[77.6918,12.6091],[77.6827,12.6127],[77.6864,12.6144],[77.6884,12.617],[77.6885,12.6215],[77.6879,12.6254],[77.6905,12.6259],[77.6932,12.624],[77.6938,12.6241],[77.6953,12.6261],[77.6954,12.6288],[77.697,12.6293],[77.7059,12.6221],[77.7107,12.631]]]}},{"type":"Feature","properties":{"name":"Madhagondapalli","level":"village panchayat","parentBlock":"Thally","parentDistrict":"Krishnagiri","lgdGramPanchayatCode":"225031","householdsWithTapConnection":"70.18% (1,052 of 1,499 households, across 4 habitations; Jal Jeevan Mission)","populationCensus2011":4979,"householdsCensus2011":1148,"pagePath":"/atlas/tn/krishnagiri/panchayats/225031","pageLabel":"Open this panchayat's water page","shedId":"SB115"},"geometry":{"type":"Polygon","coordinates":[[[77.7512,12.6422],[77.7522,12.6405],[77.7561,12.6389],[77.7564,12.6355],[77.7575,12.635],[77.7579,12.634],[77.7577,12.6319],[77.7599,12.6319],[77.7637,12.6292],[77.7638,12.6274],[77.7653,12.6263],[77.765,12.6229],[77.7643,12.6207],[77.759,12.6212],[77.758,12.6191],[77.7542,12.6208],[77.7473,12.6253],[77.7442,12.6257],[77.7437,12.6243],[77.7428,12.6133],[77.7434,12.6101],[77.7424,12.6082],[77.7416,12.6079],[77.7327,12.6084],[77.7316,12.6092],[77.7268,12.6086],[77.7201,12.6109],[77.7175,12.6144],[77.7139,12.6166],[77.7152,12.6183],[77.7174,12.619],[77.7183,12.622],[77.7196,12.6223],[77.7211,12.6281],[77.7226,12.6284],[77.7245,12.628],[77.7259,12.6286],[77.7276,12.6309],[77.7328,12.6346],[77.7384,12.6327],[77.7404,12.6344],[77.7455,12.6353],[77.7474,12.6369],[77.7489,12.6375],[77.75,12.6399],[77.7502,12.6422],[77.7512,12.6422]]]}},{"type":"Feature","properties":{"name":"Jakirkodipalli","level":"village panchayat","parentBlock":"Thally","parentDistrict":"Krishnagiri","lgdGramPanchayatCode":"225018","householdsWithTapConnection":"80.66% (342 of 424 households, across 4 habitations; Jal Jeevan Mission)","pagePath":"/atlas/tn/krishnagiri/panchayats/225018","pageLabel":"Open this panchayat's water page","shedId":"SB115"},"geometry":{"type":"Polygon","coordinates":[[[77.7353,12.6502],[77.7451,12.6445],[77.7457,12.6432],[77.7502,12.6422],[77.75,12.6399],[77.7489,12.6375],[77.7474,12.6369],[77.7455,12.6353],[77.7404,12.6344],[77.7384,12.6327],[77.7328,12.6346],[77.7276,12.6309],[77.7259,12.6286],[77.7245,12.628],[77.7214,12.6283],[77.7196,12.6223],[77.7183,12.622],[77.7174,12.619],[77.7152,12.6183],[77.7139,12.6166],[77.708,12.6204],[77.7098,12.6239],[77.7105,12.6278],[77.712,12.6302],[77.7073,12.6327],[77.706,12.6339],[77.706,12.6366],[77.7081,12.6426],[77.709,12.6424],[77.7106,12.6401],[77.7127,12.64],[77.716,12.6424],[77.718,12.6452],[77.7196,12.6445],[77.7231,12.6416],[77.7243,12.6437],[77.7259,12.6435],[77.7262,12.6447],[77.7269,12.6449],[77.7289,12.6443],[77.7313,12.6483],[77.7342,12.6501],[77.7353,12.6502]]]}},{"type":"Feature","properties":{"name":"Sathanur","level":"village panchayat","parentBlock":"Thally","parentDistrict":"Krishnagiri","lgdGramPanchayatCode":"225042","householdsWithTapConnection":"68.97% (429 of 622 households, across 5 habitations; Jal Jeevan Mission)","populationCensus2011":2330,"householdsCensus2011":508,"pagePath":"/atlas/tn/krishnagiri/panchayats/225042","pageLabel":"Open this panchayat's water page","shedId":"SB115"},"geometry":{"type":"Polygon","coordinates":[[[77.7127,12.6631],[77.7134,12.662],[77.7144,12.6624],[77.7148,12.6618],[77.7166,12.662],[77.7163,12.6603],[77.7181,12.6602],[77.718,12.6579],[77.719,12.6579],[77.7185,12.6536],[77.7168,12.652],[77.7169,12.6474],[77.7175,12.645],[77.716,12.6424],[77.7127,12.64],[77.7106,12.6401],[77.709,12.6424],[77.7081,12.6426],[77.706,12.6366],[77.706,12.6339],[77.7073,12.6327],[77.7106,12.631],[77.7059,12.6221],[77.697,12.6292],[77.6977,12.6296],[77.699,12.6322],[77.7009,12.6326],[77.7003,12.6358],[77.6976,12.639],[77.6972,12.6406],[77.6963,12.6416],[77.6872,12.6465],[77.6868,12.6533],[77.6884,12.6595],[77.6898,12.6592],[77.6916,12.6608],[77.6944,12.6613],[77.7002,12.6608],[77.7046,12.6619],[77.7062,12.6614],[77.7074,12.6622],[77.7082,12.6609],[77.7095,12.6607],[77.7109,12.6613],[77.7112,12.6604],[77.7122,12.6629],[77.7127,12.6631]]]}},{"type":"Feature","properties":{"name":"Doddathimmanahalli","level":"village panchayat","parentBlock":"Kelamangalam","parentDistrict":"Krishnagiri","lgdGramPanchayatCode":"224886","householdsWithTapConnection":"69.94% (1,680 of 2,402 households, across 18 habitations; Jal Jeevan Mission)","populationCensus2011":8286,"householdsCensus2011":1949,"pagePath":"/atlas/tn/krishnagiri/panchayats/224886","pageLabel":"Open this panchayat's water page","shedId":"SB115"},"geometry":{"type":"Polygon","coordinates":[[[77.9779,12.5641],[77.979,12.5619],[77.982,12.5591],[77.985,12.559],[77.9872,12.558],[77.988,12.5582],[77.9882,12.5591],[77.9892,12.559],[77.9917,12.5564],[77.9921,12.5549],[77.9939,12.5527],[77.9959,12.5512],[77.9978,12.551],[77.9997,12.5492],[78.0005,12.5491],[78.0008,12.5496],[78.0024,12.5501],[78.0032,12.5476],[78.0049,12.5481],[78.0094,12.5482],[78.0102,12.5475],[78.0103,12.5458],[78.009,12.5444],[78.0077,12.5438],[78.0061,12.5419],[78.0043,12.5414],[78.0014,12.5416],[78.0016,12.5376],[78.0024,12.5356],[78.0046,12.5347],[78.0062,12.5347],[78.0074,12.5339],[78.0127,12.5359],[78.0135,12.5358],[78.0147,12.5351],[78.0149,12.534],[78.0167,12.532],[78.0184,12.5269],[78.0188,12.5227],[78.0182,12.5207],[78.0183,12.5174],[78.0196,12.5151],[78.019,12.5095],[78.0168,12.5089],[78.0162,12.5055],[78.0146,12.5044],[78.0146,12.5033],[78.0134,12.5027],[78.012,12.5032],[78.0069,12.5032],[78.0055,12.5025],[78.0037,12.4995],[77.9986,12.4966],[77.9977,12.4966],[77.9958,12.4973],[77.991,12.501],[77.9889,12.5032],[77.9867,12.5074],[77.9816,12.5098],[77.9811,12.5096],[77.9793,12.5062],[77.9788,12.5029],[77.9793,12.5015],[77.979,12.5007],[77.9824,12.4996],[77.9832,12.4986],[77.9831,12.4978],[77.9817,12.4972],[77.9797,12.497],[77.9768,12.4975],[77.9748,12.4968],[77.9712,12.4968],[77.9695,12.4963],[77.967,12.499],[77.9669,12.5021],[77.9687,12.5064],[77.9733,12.5131],[77.9733,12.5142],[77.9727,12.5148],[77.9738,12.5169],[77.975,12.5221],[77.9757,12.5228],[77.9766,12.5252],[77.9771,12.5298],[77.9758,12.5354],[77.9768,12.5402],[77.9767,12.541],[77.9748,12.5423],[77.9763,12.5441],[77.9771,12.5531],[77.9766,12.5562],[77.9737,12.5595],[77.9763,12.5606],[77.9775,12.5641],[77.9779,12.5641]]]}}]}