{"nvdm":"1.0","dataset":"basins/admin-gp","scope":{"kind":"basin","id":"krishnagiri-rivers"},"provenance":{"sources":[{"id":"tngis-open-geoserver","title":"TNGIS open GeoServer (WFS): district, taluk, block and village panchayat boundaries, TN WRD sub-basins and reservoirs, micro-watershed atlas, all-water-bodies and all-tanks registers, mine leases, industry register matched to land parcels","publisher":"Tamil Nadu e-Governance Agency (TNGIS)","license":"Tamil Nadu government data on an open GeoServer (WFS, no login); published with TNGIS's permission and with attribution.","role":"input","url":"https://tngis.tn.gov.in/tngismaps/ows"}],"method":"derived","produced_at":"2026-09-18","produced_by":"scripts/build_krishnagiri_rivers_basin.py","internal_inputs":["public/data/basins/krishnagiri-rivers/sub-hydrosheds.geojson","public/data/atlas/tn/krishnagiri/briefs/6510.json","public/data/atlas/tn/krishnagiri/briefs/6511.json","public/data/atlas/tn/krishnagiri/briefs/6512.json","public/data/atlas/tn/krishnagiri/briefs/6513.json","public/data/atlas/tn/krishnagiri/briefs/6514.json","public/data/atlas/tn/krishnagiri/briefs/6515.json","public/data/atlas/tn/krishnagiri/briefs/6516.json","public/data/atlas/tn/krishnagiri/briefs/6517.json","public/data/atlas/tn/krishnagiri/briefs/6518.json","public/data/atlas/tn/krishnagiri/briefs/6519.json","public/data/atlas/tn/krishnagiri/census-2011/6510.json","public/data/atlas/tn/krishnagiri/census-2011/6511.json","public/data/atlas/tn/krishnagiri/census-2011/6512.json","public/data/atlas/tn/krishnagiri/census-2011/6513.json","public/data/atlas/tn/krishnagiri/census-2011/6514.json","public/data/atlas/tn/krishnagiri/census-2011/6515.json","public/data/atlas/tn/krishnagiri/census-2011/6516.json","public/data/atlas/tn/krishnagiri/census-2011/6517.json","public/data/atlas/tn/krishnagiri/census-2011/6518.json","public/data/atlas/tn/krishnagiri/census-2011/6519.json"],"note":"Krishnagiri district's rivers, groundwater and industry (scope krishnagiri-rivers; the district's own scope id is tn-krishnagiri). The district boundary is the frame and TN WRD's sub-basins, clipped to it, are the catchments (shedId): the Thenpennai's to the east, the Cauvery's Chinnar and Dodda Halla to the south-west. The industry register holds only units TNGIS matched to a land parcel, so every count is a lower bound; sector comes from the reviewed TNPCB type-code lookup pipeline-inputs/basins/krishnagiri-rivers/tnpcb-type-sectors.json."},"type":"FeatureCollection","features":[{"type":"Feature","properties":{"name":"Naickanoor","level":"village panchayat","parentBlock":"Uthangarai","parentDistrict":"Krishnagiri","lgdGramPanchayatCode":"225073","householdsWithTapConnection":"77.89% (821 of 1,054 households, across 13 habitations; Jal Jeevan Mission)","pagePath":"/atlas/tn/krishnagiri/panchayats/225073","pageLabel":"Open this panchayat's water page","shedId":"SBP18"},"geometry":{"type":"Polygon","coordinates":[[[78.6185,12.2371],[78.6226,12.2356],[78.627,12.2327],[78.6297,12.2318],[78.6319,12.232],[78.6304,12.2262],[78.6283,12.223],[78.6288,12.2212],[78.6286,12.2193],[78.6265,12.2179],[78.6224,12.2186],[78.6131,12.2183],[78.6137,12.2205],[78.6151,12.2225],[78.6147,12.2232],[78.6145,12.2297],[78.6153,12.2299],[78.6155,12.2319],[78.6151,12.2329],[78.6133,12.2346],[78.6147,12.237],[78.6185,12.2371]]]}},{"type":"Feature","properties":{"name":"Nadupatti","level":"village panchayat","parentBlock":"Uthangarai","parentDistrict":"Krishnagiri","lgdGramPanchayatCode":"225072","householdsWithTapConnection":"93.01% (1,157 of 1,244 households, across 14 habitations; Jal Jeevan Mission)","populationCensus2011":4505,"householdsCensus2011":1088,"pagePath":"/atlas/tn/krishnagiri/panchayats/225072","pageLabel":"Open this panchayat's water page","shedId":"SBP18"},"geometry":{"type":"Polygon","coordinates":[[[78.6026,12.2197],[78.6056,12.2198],[78.6071,12.2187],[78.6078,12.2191],[78.6093,12.2179],[78.6097,12.2185],[78.6153,12.2182],[78.6224,12.2186],[78.6265,12.2179],[78.6249,12.2106],[78.6226,12.207],[78.6236,12.2062],[78.6252,12.207],[78.6254,12.2036],[78.6245,12.2029],[78.6215,12.2027],[78.6205,12.1999],[78.6183,12.1967],[78.6183,12.19],[78.6178,12.1874],[78.6209,12.1863],[78.6222,12.1824],[78.6202,12.1834],[78.6106,12.1812],[78.6026,12.1746],[78.5999,12.1714],[78.5966,12.1737],[78.5957,12.175],[78.5902,12.1766],[78.5898,12.1789],[78.5902,12.1811],[78.5912,12.1822],[78.5912,12.1828],[78.5907,12.1841],[78.5895,12.1847],[78.5895,12.1853],[78.5908,12.1872],[78.5913,12.1909],[78.596,12.2008],[78.5965,12.2063],[78.5962,12.2085],[78.5967,12.2111],[78.5936,12.2141],[78.5952,12.2178],[78.5953,12.2222],[78.6026,12.2197]]]}},{"type":"Feature","properties":{"name":"Vella kuttai","level":"village panchayat","parentBlock":"Uthangarai","parentDistrict":"Krishnagiri","lgdGramPanchayatCode":"225084","householdsWithTapConnection":"77.89% (821 of 1,054 households, across 13 habitations; Jal Jeevan Mission)","populationCensus2011":3207,"householdsCensus2011":845,"pagePath":"/atlas/tn/krishnagiri/panchayats/225084","pageLabel":"Open this panchayat's water page","shedId":"SBP18"},"geometry":{"type":"Polygon","coordinates":[[[78.6319,12.232],[78.6297,12.2318],[78.627,12.2327],[78.6226,12.2356],[78.6185,12.2371],[78.6158,12.2372],[78.6189,12.2407],[78.6207,12.2444],[78.6246,12.2444],[78.6268,12.2432],[78.6273,12.2439],[78.6274,12.2462],[78.6291,12.2464],[78.6292,12.2471],[78.6301,12.2468],[78.631,12.2478],[78.6319,12.2479],[78.6332,12.2497],[78.6336,12.2486],[78.6345,12.249],[78.6354,12.2477],[78.636,12.2477],[78.6376,12.2499],[78.6379,12.2539],[78.6438,12.2552],[78.6443,12.2563],[78.646,12.2572],[78.6477,12.259],[78.6481,12.2579],[78.6512,12.2549],[78.6528,12.2516],[78.6528,12.2506],[78.6427,12.2475],[78.6388,12.2474],[78.6361,12.2463],[78.635,12.245],[78.6366,12.2438],[78.6361,12.2426],[78.6363,12.2401],[78.6353,12.2389],[78.6334,12.2347],[78.6334,12.2334],[78.6319,12.232]]]}},{"type":"Feature","properties":{"name":"Singarapettai","level":"village panchayat","parentBlock":"Uthangarai","parentDistrict":"Krishnagiri","lgdGramPanchayatCode":"225080","householdsWithTapConnection":"90.28% (2,416 of 2,676 households, across 20 habitations; Jal Jeevan Mission)","populationCensus2011":11316,"householdsCensus2011":2783,"pagePath":"/atlas/tn/krishnagiri/panchayats/225080","pageLabel":"Open this panchayat's water page","shedId":"SBP18"},"geometry":{"type":"Polygon","coordinates":[[[78.6426,12.2832],[78.6422,12.282],[78.6436,12.2814],[78.6429,12.2799],[78.6423,12.28],[78.6417,12.278],[78.6429,12.2776],[78.6429,12.2771],[78.6408,12.2721],[78.6396,12.2722],[78.6393,12.2716],[78.6393,12.2704],[78.6403,12.2695],[78.6404,12.2684],[78.6379,12.2638],[78.6348,12.2621],[78.6477,12.2593],[78.6477,12.2589],[78.646,12.2572],[78.6443,12.2563],[78.6438,12.2552],[78.6379,12.2539],[78.6376,12.2499],[78.636,12.2477],[78.6354,12.2477],[78.6345,12.249],[78.6336,12.2486],[78.6332,12.2497],[78.6319,12.2479],[78.631,12.2478],[78.6301,12.2468],[78.6292,12.2471],[78.6291,12.2464],[78.6274,12.2462],[78.6273,12.2439],[78.6268,12.2432],[78.6246,12.2444],[78.6207,12.2444],[78.6189,12.2407],[78.6155,12.2368],[78.6145,12.2368],[78.6134,12.2349],[78.6133,12.2344],[78.6155,12.2322],[78.6153,12.2299],[78.6146,12.2299],[78.6145,12.2294],[78.607,12.2328],[78.6056,12.2342],[78.6046,12.2341],[78.6036,12.2356],[78.5999,12.2374],[78.6053,12.2428],[78.6034,12.2433],[78.5999,12.2458],[78.5983,12.2481],[78.5991,12.2575],[78.602,12.2592],[78.6047,12.2628],[78.6089,12.2618],[78.6098,12.262],[78.6151,12.2654],[78.6167,12.2679],[78.6236,12.2655],[78.627,12.2691],[78.6313,12.2715],[78.6359,12.2771],[78.6375,12.2779],[78.6395,12.2804],[78.6391,12.2809],[78.6393,12.2815],[78.6416,12.2831],[78.6426,12.2832]]]}}]}