{"type": "FeatureCollection", "_meta": {"district_id": "mumbai", "generated_at": "2026-06-23T06:57:03Z", "pipeline_version": "v1.1.0", "algorithm": "d8_steepest_descent_v1", "inputs_hash": "fb240355feb1180fdf895034c4986bd3122814b0a074fb4f889b27a002301bf1", "feature_type": "edges"}, "features": [{"type": "Feature", "geometry": {"type": "LineString", "coordinates": [[73.2322700060241, 18.91827971927711], [73.2288305, 18.912196573493976]]}, "properties": {"from_osm_id": 1844552, "to_osm_id": 263926934, "distance_km": 0.767, "elevation_drop_m": 27.0, "score_m_per_km": 35.2, "confidence": "high", "status": "predicted"}}, {"type": "Feature", "geometry": {"type": "LineString", "coordinates": [[73.25677783597445, 18.933634999297123], [73.26917086666667, 18.910703774999998]]}, "properties": {"from_osm_id": 1844556, "to_osm_id": 263926937, "distance_km": 2.864, "elevation_drop_m": 2.0, "score_m_per_km": 0.7, "confidence": "low", "status": "predicted"}}, {"type": "Feature", "geometry": {"type": "LineString", "coordinates": [[73.10064485787234, 19.070364437765956], [73.08779747142857, 19.064195299999998]]}, "properties": {"from_osm_id": 2310481, "to_osm_id": 55447772, "distance_km": 1.514, "elevation_drop_m": 4.0, "score_m_per_km": 2.64, "confidence": "medium", "status": "predicted"}}, {"type": "Feature", "geometry": {"type": "LineString", "coordinates": [[73.04696856956522, 19.294736004347826], [73.03899838888888, 19.31335553888889]]}, "properties": {"from_osm_id": 28217992, "to_osm_id": 784844059, "distance_km": 2.233, "elevation_drop_m": 1.0, "score_m_per_km": 0.45, "confidence": "low", "status": "predicted"}}, {"type": "Feature", "geometry": {"type": "LineString", "coordinates": [[73.05799958548387, 19.279539461290323], [73.04696856956522, 19.294736004347826]]}, "properties": {"from_osm_id": 28218023, "to_osm_id": 28217992, "distance_km": 2.048, "elevation_drop_m": 11.0, "score_m_per_km": 5.37, "confidence": "high", "status": "predicted"}}, {"type": "Feature", "geometry": {"type": "LineString", "coordinates": [[72.96799430909091, 19.19617699090909], [72.97975173333333, 19.204906033333334]]}, "properties": {"from_osm_id": 35357668, "to_osm_id": 204345421, "distance_km": 1.57, "elevation_drop_m": 10.0, "score_m_per_km": 6.37, "confidence": "high", "status": "predicted"}}, {"type": "Feature", "geometry": {"type": "LineString", "coordinates": [[72.95604497037037, 19.221748512962964], [72.98218579056604, 19.21622279433962]]}, "properties": {"from_osm_id": 37813439, "to_osm_id": 1082543998, "distance_km": 2.813, "elevation_drop_m": 42.0, "score_m_per_km": 14.93, "confidence": "high", "status": "predicted"}}, {"type": "Feature", "geometry": {"type": "LineString", "coordinates": [[73.28224634705882, 19.14126655882353], [73.26312521666667, 19.157589041666668]]}, "properties": {"from_osm_id": 47351897, "to_osm_id": 1366187666, "distance_km": 2.707, "elevation_drop_m": 16.0, "score_m_per_km": 5.91, "confidence": "high", "status": "predicted"}}, {"type": "Feature", "geometry": {"type": "LineString", "coordinates": [[73.16950953749999, 18.9694955525], [73.16074583333334, 18.964868411111112]]}, "properties": {"from_osm_id": 54179769, "to_osm_id": 396548556, "distance_km": 1.055, "elevation_drop_m": 1.0, "score_m_per_km": 0.95, "confidence": "low", "status": "predicted"}}, {"type": "Feature", "geometry": {"type": "LineString", "coordinates": [[73.111196472, 18.993353572], [73.10846991764707, 19.010800752941176]]}, "properties": {"from_osm_id": 54228760, "to_osm_id": 461278314, "distance_km": 1.961, "elevation_drop_m": 5.0, "score_m_per_km": 2.55, "confidence": "medium", "status": "predicted"}}, {"type": "Feature", "geometry": {"type": "LineString", "coordinates": [[73.08779747142857, 19.064195299999998], [73.08481189837399, 19.049267898373984]]}, "properties": {"from_osm_id": 55447772, "to_osm_id": 1246853512, "distance_km": 1.689, "elevation_drop_m": 1.0, "score_m_per_km": 0.59, "confidence": "low", "status": "predicted"}}, {"type": "Feature", "geometry": {"type": "LineString", "coordinates": [[73.09325399923664, 19.031375586259543], [73.08481189837399, 19.049267898373984]]}, "properties": {"from_osm_id": 55450604, "to_osm_id": 1246853512, "distance_km": 2.178, "elevation_drop_m": 1.0, "score_m_per_km": 0.46, "confidence": "low", "status": "predicted"}}, {"type": "Feature", "geometry": {"type": "LineString", "coordinates": [[73.20982025102042, 19.174377805714286], [73.22287938000001, 19.181788388]]}, "properties": {"from_osm_id": 136885813, "to_osm_id": 30743355, "distance_km": 1.6, "elevation_drop_m": 16.0, "score_m_per_km": 10.0, "confidence": "high", "status": "predicted"}}, {"type": "Feature", "geometry": {"type": "LineString", "coordinates": [[73.01725008333334, 19.06957795], [72.99877114375, 19.089210325]]}, "properties": {"from_osm_id": 151768177, "to_osm_id": 607636988, "distance_km": 2.922, "elevation_drop_m": 28.0, "score_m_per_km": 9.58, "confidence": "high", "status": "predicted"}}, {"type": "Feature", "geometry": {"type": "LineString", "coordinates": [[72.95739111111112, 19.189801833333334], [72.975394665625, 19.1932244171875]]}, "properties": {"from_osm_id": 151861332, "to_osm_id": 8728646, "distance_km": 1.929, "elevation_drop_m": 18.0, "score_m_per_km": 9.33, "confidence": "high", "status": "predicted"}}, {"type": "Feature", "geometry": {"type": "LineString", "coordinates": [[72.97975173333333, 19.204906033333334], [72.99843600909091, 19.221619418181817]]}, "properties": {"from_osm_id": 204345421, "to_osm_id": 926837870, "distance_km": 2.702, "elevation_drop_m": 17.0, "score_m_per_km": 6.29, "confidence": "high", "status": "predicted"}}, {"type": "Feature", "geometry": {"type": "LineString", "coordinates": [[73.02875308, 19.16566696], [73.04023665999999, 19.157703073333334]]}, "properties": {"from_osm_id": 207612042, "to_osm_id": 1117438255, "distance_km": 1.496, "elevation_drop_m": 5.0, "score_m_per_km": 3.34, "confidence": "medium", "status": "predicted"}}, {"type": "Feature", "geometry": {"type": "LineString", "coordinates": [[73.01451562424242, 19.095529], [72.99877114375, 19.089210325]]}, "properties": {"from_osm_id": 220421975, "to_osm_id": 607636988, "distance_km": 1.797, "elevation_drop_m": 22.0, "score_m_per_km": 12.24, "confidence": "high", "status": "predicted"}}, {"type": "Feature", "geometry": {"type": "LineString", "coordinates": [[72.90189045, 19.137873035714286], [72.90588984249293, 19.128151241076488]]}, "properties": {"from_osm_id": 222337678, "to_osm_id": 8546709, "distance_km": 1.16, "elevation_drop_m": 16.0, "score_m_per_km": 13.8, "confidence": "high", "status": "predicted"}}, {"type": "Feature", "geometry": {"type": "LineString", "coordinates": [[72.96829983571429, 19.201390464285712], [72.975394665625, 19.1932244171875]]}, "properties": {"from_osm_id": 227785907, "to_osm_id": 8728646, "distance_km": 1.175, "elevation_drop_m": 12.0, "score_m_per_km": 10.22, "confidence": "high", "status": "predicted"}}, {"type": "Feature", "geometry": {"type": "LineString", "coordinates": [[72.790813775, 19.37597563125], [72.80780557142857, 19.38127012857143]]}, "properties": {"from_osm_id": 229101206, "to_osm_id": 851763910, "distance_km": 1.877, "elevation_drop_m": 8.0, "score_m_per_km": 4.26, "confidence": "medium", "status": "predicted"}}, {"type": "Feature", "geometry": {"type": "LineString", "coordinates": [[73.3458818, 19.10518195], [73.3259486372549, 19.110571673202614]]}, "properties": {"from_osm_id": 255216714, "to_osm_id": 136886034, "distance_km": 2.178, "elevation_drop_m": 10.0, "score_m_per_km": 4.59, "confidence": "medium", "status": "predicted"}}, {"type": "Feature", "geometry": {"type": "LineString", "coordinates": [[73.01157911199999, 19.175091832], [72.99677386666666, 19.17699646666667]]}, "properties": {"from_osm_id": 257468901, "to_osm_id": 603987192, "distance_km": 1.569, "elevation_drop_m": 29.0, "score_m_per_km": 18.48, "confidence": "high", "status": "predicted"}}, {"type": "Feature", "geometry": {"type": "LineString", "coordinates": [[73.01305686129032, 19.092194612903224], [72.99877114375, 19.089210325]]}, "properties": {"from_osm_id": 257479188, "to_osm_id": 607636988, "distance_km": 1.537, "elevation_drop_m": 20.0, "score_m_per_km": 13.01, "confidence": "high", "status": "predicted"}}, {"type": "Feature", "geometry": {"type": "LineString", "coordinates": [[72.79947168461538, 19.416638753846154], [72.7961575480916, 19.405482632824427]]}, "properties": {"from_osm_id": 257583232, "to_osm_id": 1385258788, "distance_km": 1.288, "elevation_drop_m": 1.0, "score_m_per_km": 0.78, "confidence": "low", "status": "predicted"}}, {"type": "Feature", "geometry": {"type": "LineString", "coordinates": [[72.83241800555555, 19.455513444444446], [72.8131432882353, 19.4560848]]}, "properties": {"from_osm_id": 257587110, "to_osm_id": 119426031, "distance_km": 2.022, "elevation_drop_m": 26.0, "score_m_per_km": 12.86, "confidence": "high", "status": "predicted"}}, {"type": "Feature", "geometry": {"type": "LineString", "coordinates": [[72.87561125294118, 19.033445811764707], [72.85445992291666, 19.05035841875]]}, "properties": {"from_osm_id": 260760430, "to_osm_id": 420108334, "distance_km": 2.912, "elevation_drop_m": 1.0, "score_m_per_km": 0.34, "confidence": "low", "status": "predicted"}}, {"type": "Feature", "geometry": {"type": "LineString", "coordinates": [[73.282205148, 18.907774044], [73.28537873513514, 18.905478530405404]]}, "properties": {"from_osm_id": 263926932, "to_osm_id": 263926935, "distance_km": 0.42, "elevation_drop_m": 13.0, "score_m_per_km": 30.93, "confidence": "high", "status": "predicted"}}, {"type": "Feature", "geometry": {"type": "LineString", "coordinates": [[73.28537873513514, 18.905478530405404], [73.2764776248, 18.9032410608]]}, "properties": {"from_osm_id": 263926935, "to_osm_id": 136893530, "distance_km": 0.969, "elevation_drop_m": 11.0, "score_m_per_km": 11.35, "confidence": "high", "status": "predicted"}}, {"type": "Feature", "geometry": {"type": "LineString", "coordinates": [[73.29118650277778, 18.929883616666665], [73.28537873513514, 18.905478530405404]]}, "properties": {"from_osm_id": 264254938, "to_osm_id": 263926935, "distance_km": 2.782, "elevation_drop_m": 51.0, "score_m_per_km": 18.33, "confidence": "high", "status": "predicted"}}, {"type": "Feature", "geometry": {"type": "LineString", "coordinates": [[72.8131465881356, 19.195577654237287], [72.81877549411765, 19.216988752941177]]}, "properties": {"from_osm_id": 269220482, "to_osm_id": 802269722, "distance_km": 2.453, "elevation_drop_m": 11.0, "score_m_per_km": 4.48, "confidence": "medium", "status": "predicted"}}, {"type": "Feature", "geometry": {"type": "LineString", "coordinates": [[72.91762012222222, 19.037585622222224], [72.93034572210145, 19.055257061231885]]}, "properties": {"from_osm_id": 301041969, "to_osm_id": 22824931, "distance_km": 2.377, "elevation_drop_m": 42.0, "score_m_per_km": 17.67, "confidence": "high", "status": "predicted"}}, {"type": "Feature", "geometry": {"type": "LineString", "coordinates": [[72.8963974952381, 19.116558885714284], [72.89984866285714, 19.116418577142856]]}, "properties": {"from_osm_id": 360330511, "to_osm_id": 360330512, "distance_km": 0.363, "elevation_drop_m": 5.0, "score_m_per_km": 13.78, "confidence": "high", "status": "predicted"}}, {"type": "Feature", "geometry": {"type": "LineString", "coordinates": [[73.0124697047619, 19.10937745238095], [72.99877114375, 19.089210325]]}, "properties": {"from_osm_id": 395235868, "to_osm_id": 607636988, "distance_km": 2.665, "elevation_drop_m": 26.0, "score_m_per_km": 9.76, "confidence": "high", "status": "predicted"}}, {"type": "Feature", "geometry": {"type": "LineString", "coordinates": [[72.851575825, 19.050688758333333], [72.84744238513514, 19.047704841891893]]}, "properties": {"from_osm_id": 420108336, "to_osm_id": 1186783936, "distance_km": 0.547, "elevation_drop_m": 2.0, "score_m_per_km": 3.66, "confidence": "medium", "status": "predicted"}}, {"type": "Feature", "geometry": {"type": "LineString", "coordinates": [[72.81488646, 19.14782758], [72.81277608, 19.14847674]]}, "properties": {"from_osm_id": 420141883, "to_osm_id": 420141886, "distance_km": 0.233, "elevation_drop_m": 4.0, "score_m_per_km": 17.16, "confidence": "high", "status": "predicted"}}, {"type": "Feature", "geometry": {"type": "LineString", "coordinates": [[72.81368266, 19.14917734], [72.81262504, 19.15034858]]}, "properties": {"from_osm_id": 420141885, "to_osm_id": 420141888, "distance_km": 0.171, "elevation_drop_m": 4.0, "score_m_per_km": 23.37, "confidence": "high", "status": "predicted"}}, {"type": "Feature", "geometry": {"type": "LineString", "coordinates": [[72.81277608, 19.14847674], [72.81173390000001, 19.14965942]]}, "properties": {"from_osm_id": 420141886, "to_osm_id": 420141884, "distance_km": 0.171, "elevation_drop_m": 1.0, "score_m_per_km": 5.84, "confidence": "high", "status": "predicted"}}, {"type": "Feature", "geometry": {"type": "LineString", "coordinates": [[72.81399864, 19.147102280000002], [72.81277608, 19.14847674]]}, "properties": {"from_osm_id": 420141887, "to_osm_id": 420141886, "distance_km": 0.2, "elevation_drop_m": 2.0, "score_m_per_km": 10.02, "confidence": "high", "status": "predicted"}}, {"type": "Feature", "geometry": {"type": "LineString", "coordinates": [[72.90232453333334, 19.00654280925926], [72.89724073636363, 18.999336781818183]]}, "properties": {"from_osm_id": 430014293, "to_osm_id": 430012281, "distance_km": 0.963, "elevation_drop_m": 1.0, "score_m_per_km": 1.04, "confidence": "medium", "status": "predicted"}}, {"type": "Feature", "geometry": {"type": "LineString", "coordinates": [[72.96140546666668, 19.1427218625], [72.96047578666666, 19.139277593333336]]}, "properties": {"from_osm_id": 431485388, "to_osm_id": 431485386, "distance_km": 0.395, "elevation_drop_m": 1.0, "score_m_per_km": 2.53, "confidence": "medium", "status": "predicted"}}, {"type": "Feature", "geometry": {"type": "LineString", "coordinates": [[72.95838529999999, 19.141576529166667], [72.95991415833333, 19.142164408333333]]}, "properties": {"from_osm_id": 431485389, "to_osm_id": 431485387, "distance_km": 0.173, "elevation_drop_m": 1.0, "score_m_per_km": 5.77, "confidence": "high", "status": "predicted"}}, {"type": "Feature", "geometry": {"type": "LineString", "coordinates": [[73.10846991764707, 19.010800752941176], [73.09325399923664, 19.031375586259543]]}, "properties": {"from_osm_id": 461278314, "to_osm_id": 55450604, "distance_km": 2.792, "elevation_drop_m": 1.0, "score_m_per_km": 0.36, "confidence": "low", "status": "predicted"}}, {"type": "Feature", "geometry": {"type": "LineString", "coordinates": [[73.0662177375, 19.059467680555557], [73.07473114772728, 19.05633436590909]]}, "properties": {"from_osm_id": 468222949, "to_osm_id": 1080179515, "distance_km": 0.96, "elevation_drop_m": 7.0, "score_m_per_km": 7.29, "confidence": "high", "status": "predicted"}}, {"type": "Feature", "geometry": {"type": "LineString", "coordinates": [[73.08073377857143, 19.166050317857145], [73.07003539047619, 19.16441377619048]]}, "properties": {"from_osm_id": 520519052, "to_osm_id": 957830624, "distance_km": 1.138, "elevation_drop_m": 5.0, "score_m_per_km": 4.39, "confidence": "medium", "status": "predicted"}}, {"type": "Feature", "geometry": {"type": "LineString", "coordinates": [[73.01209908, 19.020275595999998], [73.00982189156628, 19.02635709518072]]}, "properties": {"from_osm_id": 555712932, "to_osm_id": 510511578, "distance_km": 0.717, "elevation_drop_m": 3.0, "score_m_per_km": 4.18, "confidence": "medium", "status": "predicted"}}, {"type": "Feature", "geometry": {"type": "LineString", "coordinates": [[73.03203416666666, 19.013781913333332], [73.02721665600001, 19.010677624]]}, "properties": {"from_osm_id": 560007348, "to_osm_id": 561157349, "distance_km": 0.613, "elevation_drop_m": 6.0, "score_m_per_km": 9.79, "confidence": "high", "status": "predicted"}}, {"type": "Feature", "geometry": {"type": "LineString", "coordinates": [[73.02703488888889, 19.01804675925926], [73.02664044285714, 19.0128264]]}, "properties": {"from_osm_id": 560453405, "to_osm_id": 536026257, "distance_km": 0.582, "elevation_drop_m": 1.0, "score_m_per_km": 1.72, "confidence": "medium", "status": "predicted"}}, {"type": "Feature", "geometry": {"type": "LineString", "coordinates": [[73.0457015235294, 19.020066852941177], [73.07079258275861, 19.025709331896554]]}, "properties": {"from_osm_id": 562697012, "to_osm_id": 13327872, "distance_km": 2.711, "elevation_drop_m": 11.0, "score_m_per_km": 4.06, "confidence": "medium", "status": "predicted"}}, {"type": "Feature", "geometry": {"type": "LineString", "coordinates": [[73.01046266521739, 19.021740589130435], [73.00574222750001, 19.016261565]]}, "properties": {"from_osm_id": 563261645, "to_osm_id": 560452309, "distance_km": 0.786, "elevation_drop_m": 3.0, "score_m_per_km": 3.82, "confidence": "medium", "status": "predicted"}}, {"type": "Feature", "geometry": {"type": "LineString", "coordinates": [[73.02392834, 18.96101925], [73.018560555, 18.969284885]]}, "properties": {"from_osm_id": 564262143, "to_osm_id": 564925957, "distance_km": 1.079, "elevation_drop_m": 7.0, "score_m_per_km": 6.49, "confidence": "high", "status": "predicted"}}, {"type": "Feature", "geometry": {"type": "LineString", "coordinates": [[73.00043053636364, 19.196483877272726], [72.9804434625, 19.19977249375]]}, "properties": {"from_osm_id": 597632414, "to_osm_id": 35374738, "distance_km": 2.13, "elevation_drop_m": 4.0, "score_m_per_km": 1.88, "confidence": "medium", "status": "predicted"}}, {"type": "Feature", "geometry": {"type": "LineString", "coordinates": [[72.99677386666666, 19.17699646666667], [72.975394665625, 19.1932244171875]]}, "properties": {"from_osm_id": 603987192, "to_osm_id": 8728646, "distance_km": 2.88, "elevation_drop_m": 6.0, "score_m_per_km": 2.08, "confidence": "medium", "status": "predicted"}}, {"type": "Feature", "geometry": {"type": "LineString", "coordinates": [[73.09560713333333, 19.0794873], [73.08779747142857, 19.064195299999998]]}, "properties": {"from_osm_id": 604555767, "to_osm_id": 55447772, "distance_km": 1.888, "elevation_drop_m": 3.0, "score_m_per_km": 1.59, "confidence": "medium", "status": "predicted"}}, {"type": "Feature", "geometry": {"type": "LineString", "coordinates": [[72.8622461, 19.0059343125], [72.86988214166666, 19.014120074999997]]}, "properties": {"from_osm_id": 626382666, "to_osm_id": 626382665, "distance_km": 1.214, "elevation_drop_m": 2.0, "score_m_per_km": 1.65, "confidence": "medium", "status": "predicted"}}, {"type": "Feature", "geometry": {"type": "LineString", "coordinates": [[72.88193435333332, 19.08409934666667], [72.90453324, 19.07237088]]}, "properties": {"from_osm_id": 724546372, "to_osm_id": 1162263395, "distance_km": 2.709, "elevation_drop_m": 4.0, "score_m_per_km": 1.48, "confidence": "medium", "status": "predicted"}}, {"type": "Feature", "geometry": {"type": "LineString", "coordinates": [[72.9305611125, 19.34421869375], [72.93747419444445, 19.320703177777776]]}, "properties": {"from_osm_id": 784844066, "to_osm_id": 1161319547, "distance_km": 2.714, "elevation_drop_m": 2.0, "score_m_per_km": 0.74, "confidence": "low", "status": "predicted"}}, {"type": "Feature", "geometry": {"type": "LineString", "coordinates": [[72.92652627894736, 19.35857247105263], [72.91054805, 19.353996405]]}, "properties": {"from_osm_id": 784844070, "to_osm_id": 1390358366, "distance_km": 1.752, "elevation_drop_m": 10.0, "score_m_per_km": 5.71, "confidence": "high", "status": "predicted"}}, {"type": "Feature", "geometry": {"type": "LineString", "coordinates": [[72.8349558675, 19.124558065], [72.81772637692308, 19.144676792307692]]}, "properties": {"from_osm_id": 792136331, "to_osm_id": 202556930, "distance_km": 2.878, "elevation_drop_m": 6.0, "score_m_per_km": 2.09, "confidence": "medium", "status": "predicted"}}, {"type": "Feature", "geometry": {"type": "LineString", "coordinates": [[72.81877549411765, 19.216988752941177], [72.81137947142858, 19.233720521428573]]}, "properties": {"from_osm_id": 802269722, "to_osm_id": 914409713, "distance_km": 2.016, "elevation_drop_m": 2.0, "score_m_per_km": 0.99, "confidence": "low", "status": "predicted"}}, {"type": "Feature", "geometry": {"type": "LineString", "coordinates": [[72.99040032666667, 19.06390766666667], [72.98519342264152, 19.06327662264151]]}, "properties": {"from_osm_id": 807139461, "to_osm_id": 8462130, "distance_km": 0.552, "elevation_drop_m": 4.0, "score_m_per_km": 7.25, "confidence": "high", "status": "predicted"}}, {"type": "Feature", "geometry": {"type": "LineString", "coordinates": [[72.99194202, 19.06469126], [72.98519342264152, 19.06327662264151]]}, "properties": {"from_osm_id": 807139462, "to_osm_id": 8462130, "distance_km": 0.726, "elevation_drop_m": 4.0, "score_m_per_km": 5.51, "confidence": "high", "status": "predicted"}}, {"type": "Feature", "geometry": {"type": "LineString", "coordinates": [[73.01186668, 19.04777522], [72.99194202, 19.06469126]]}, "properties": {"from_osm_id": 843396130, "to_osm_id": 807139462, "distance_km": 2.815, "elevation_drop_m": 4.0, "score_m_per_km": 1.42, "confidence": "medium", "status": "predicted"}}, {"type": "Feature", "geometry": {"type": "LineString", "coordinates": [[73.00804033, 19.15405165285714], [72.99677386666666, 19.17699646666667]]}, "properties": {"from_osm_id": 843580056, "to_osm_id": 603987192, "distance_km": 2.812, "elevation_drop_m": 51.0, "score_m_per_km": 18.13, "confidence": "high", "status": "predicted"}}, {"type": "Feature", "geometry": {"type": "LineString", "coordinates": [[72.79283347586207, 19.2642672], [72.80008595416666, 19.27253649861111]]}, "properties": {"from_osm_id": 848469083, "to_osm_id": 942608439, "distance_km": 1.194, "elevation_drop_m": 6.0, "score_m_per_km": 5.03, "confidence": "high", "status": "predicted"}}, {"type": "Feature", "geometry": {"type": "LineString", "coordinates": [[72.810335, 19.23444499090909], [72.81137947142858, 19.233720521428573]]}, "properties": {"from_osm_id": 914409714, "to_osm_id": 914409713, "distance_km": 0.136, "elevation_drop_m": 1.0, "score_m_per_km": 7.35, "confidence": "high", "status": "predicted"}}, {"type": "Feature", "geometry": {"type": "LineString", "coordinates": [[73.08907867368421, 19.067862931578947], [73.08779747142857, 19.064195299999998]]}, "properties": {"from_osm_id": 917354054, "to_osm_id": 55447772, "distance_km": 0.429, "elevation_drop_m": 3.0, "score_m_per_km": 6.99, "confidence": "high", "status": "predicted"}}, {"type": "Feature", "geometry": {"type": "LineString", "coordinates": [[73.11413284848484, 19.167401098484845], [73.11189897931035, 19.16517470689655]]}, "properties": {"from_osm_id": 935392866, "to_osm_id": 20724809, "distance_km": 0.341, "elevation_drop_m": 2.0, "score_m_per_km": 5.86, "confidence": "high", "status": "predicted"}}, {"type": "Feature", "geometry": {"type": "LineString", "coordinates": [[73.06261984, 19.06137166], [73.08779747142857, 19.064195299999998]]}, "properties": {"from_osm_id": 940795185, "to_osm_id": 55447772, "distance_km": 2.665, "elevation_drop_m": 15.0, "score_m_per_km": 5.63, "confidence": "high", "status": "predicted"}}, {"type": "Feature", "geometry": {"type": "LineString", "coordinates": [[73.0564926152174, 19.07680434130435], [73.07461493793105, 19.076326110344827]]}, "properties": {"from_osm_id": 940795193, "to_osm_id": 1390763355, "distance_km": 1.905, "elevation_drop_m": 32.0, "score_m_per_km": 16.8, "confidence": "high", "status": "predicted"}}, {"type": "Feature", "geometry": {"type": "LineString", "coordinates": [[73.12981275869565, 19.188169097826087], [73.13635956923078, 19.207839046153847]]}, "properties": {"from_osm_id": 948434260, "to_osm_id": 1123967302, "distance_km": 2.293, "elevation_drop_m": 13.0, "score_m_per_km": 5.67, "confidence": "high", "status": "predicted"}}, {"type": "Feature", "geometry": {"type": "LineString", "coordinates": [[73.10564215000001, 19.010594033333334], [73.09325399923664, 19.031375586259543]]}, "properties": {"from_osm_id": 951303236, "to_osm_id": 55450604, "distance_km": 2.653, "elevation_drop_m": 1.0, "score_m_per_km": 0.38, "confidence": "low", "status": "predicted"}}, {"type": "Feature", "geometry": {"type": "LineString", "coordinates": [[73.15798012352941, 19.313873264705883], [73.15133933199999, 19.300105832]]}, "properties": {"from_osm_id": 956640511, "to_osm_id": 956640586, "distance_km": 1.682, "elevation_drop_m": 9.0, "score_m_per_km": 5.35, "confidence": "high", "status": "predicted"}}, {"type": "Feature", "geometry": {"type": "LineString", "coordinates": [[73.05062315829385, 19.168998449763034], [73.05937850265781, 19.171068624584716]]}, "properties": {"from_osm_id": 956683864, "to_osm_id": 22476022, "distance_km": 0.948, "elevation_drop_m": 4.0, "score_m_per_km": 4.22, "confidence": "medium", "status": "predicted"}}, {"type": "Feature", "geometry": {"type": "LineString", "coordinates": [[73.00336503529412, 18.931103455882354], [72.99137009655172, 18.907543389655174]]}, "properties": {"from_osm_id": 990159848, "to_osm_id": 1249405252, "distance_km": 2.908, "elevation_drop_m": 6.0, "score_m_per_km": 2.06, "confidence": "medium", "status": "predicted"}}, {"type": "Feature", "geometry": {"type": "LineString", "coordinates": [[73.07473114772728, 19.05633436590909], [73.08779747142857, 19.064195299999998]]}, "properties": {"from_osm_id": 1080179515, "to_osm_id": 55447772, "distance_km": 1.628, "elevation_drop_m": 4.0, "score_m_per_km": 2.46, "confidence": "medium", "status": "predicted"}}, {"type": "Feature", "geometry": {"type": "LineString", "coordinates": [[72.98218579056604, 19.21622279433962], [72.99843600909091, 19.221619418181817]]}, "properties": {"from_osm_id": 1082543998, "to_osm_id": 926837870, "distance_km": 1.809, "elevation_drop_m": 17.0, "score_m_per_km": 9.4, "confidence": "high", "status": "predicted"}}, {"type": "Feature", "geometry": {"type": "LineString", "coordinates": [[73.04023665999999, 19.157703073333334], [73.05937850265781, 19.171068624584716]]}, "properties": {"from_osm_id": 1117438255, "to_osm_id": 22476022, "distance_km": 2.5, "elevation_drop_m": 2.0, "score_m_per_km": 0.8, "confidence": "low", "status": "predicted"}}, {"type": "Feature", "geometry": {"type": "LineString", "coordinates": [[73.08248532727272, 19.037409236363636], [73.07079258275861, 19.025709331896554]]}, "properties": {"from_osm_id": 1153925222, "to_osm_id": 13327872, "distance_km": 1.79, "elevation_drop_m": 10.0, "score_m_per_km": 5.59, "confidence": "high", "status": "predicted"}}, {"type": "Feature", "geometry": {"type": "LineString", "coordinates": [[72.90453324, 19.07237088], [72.93065948, 19.0770897]]}, "properties": {"from_osm_id": 1162263395, "to_osm_id": 122289565, "distance_km": 2.795, "elevation_drop_m": 3.0, "score_m_per_km": 1.07, "confidence": "medium", "status": "predicted"}}, {"type": "Feature", "geometry": {"type": "LineString", "coordinates": [[73.0792125576923, 19.054117605128205], [73.08481189837399, 19.049267898373984]]}, "properties": {"from_osm_id": 1165101659, "to_osm_id": 1246853512, "distance_km": 0.798, "elevation_drop_m": 4.0, "score_m_per_km": 5.01, "confidence": "high", "status": "predicted"}}, {"type": "Feature", "geometry": {"type": "LineString", "coordinates": [[73.01098308876405, 19.02805849775281], [73.00982189156628, 19.02635709518072]]}, "properties": {"from_osm_id": 1197252661, "to_osm_id": 510511578, "distance_km": 0.225, "elevation_drop_m": 1.0, "score_m_per_km": 4.44, "confidence": "medium", "status": "predicted"}}, {"type": "Feature", "geometry": {"type": "LineString", "coordinates": [[72.84108374347826, 19.243877295652172], [72.83926353076923, 19.246427215384617]]}, "properties": {"from_osm_id": 1218203178, "to_osm_id": 1218203175, "distance_km": 0.342, "elevation_drop_m": 1.0, "score_m_per_km": 2.92, "confidence": "medium", "status": "predicted"}}, {"type": "Feature", "geometry": {"type": "LineString", "coordinates": [[73.10364073432835, 19.034839110447763], [73.07813963589743, 19.033600707692308]]}, "properties": {"from_osm_id": 1242489351, "to_osm_id": 1034603103, "distance_km": 2.684, "elevation_drop_m": 3.0, "score_m_per_km": 1.12, "confidence": "medium", "status": "predicted"}}, {"type": "Feature", "geometry": {"type": "LineString", "coordinates": [[73.08481189837399, 19.049267898373984], [73.07813963589743, 19.033600707692308]]}, "properties": {"from_osm_id": 1246853512, "to_osm_id": 1034603103, "distance_km": 1.878, "elevation_drop_m": 1.0, "score_m_per_km": 0.53, "confidence": "low", "status": "predicted"}}, {"type": "Feature", "geometry": {"type": "LineString", "coordinates": [[72.85805916562501, 19.383775325], [72.85848409130435, 19.381521352173912]]}, "properties": {"from_osm_id": 1305306297, "to_osm_id": 1305306303, "distance_km": 0.255, "elevation_drop_m": 10.0, "score_m_per_km": 39.28, "confidence": "high", "status": "predicted"}}, {"type": "Feature", "geometry": {"type": "LineString", "coordinates": [[72.86164728, 19.379941692], [72.85848409130435, 19.381521352173912]]}, "properties": {"from_osm_id": 1305306300, "to_osm_id": 1305306303, "distance_km": 0.375, "elevation_drop_m": 15.0, "score_m_per_km": 39.95, "confidence": "high", "status": "predicted"}}, {"type": "Feature", "geometry": {"type": "LineString", "coordinates": [[72.96082517857143, 19.32763757142857], [72.93747419444445, 19.320703177777776]]}, "properties": {"from_osm_id": 1305306336, "to_osm_id": 1161319547, "distance_km": 2.569, "elevation_drop_m": 6.0, "score_m_per_km": 2.34, "confidence": "medium", "status": "predicted"}}, {"type": "Feature", "geometry": {"type": "LineString", "coordinates": [[72.96024786860465, 19.334891448837208], [72.96082517857143, 19.32763757142857]]}, "properties": {"from_osm_id": 1305306342, "to_osm_id": 1305306336, "distance_km": 0.809, "elevation_drop_m": 4.0, "score_m_per_km": 4.95, "confidence": "medium", "status": "predicted"}}, {"type": "Feature", "geometry": {"type": "LineString", "coordinates": [[72.95918443170733, 19.338017929268293], [72.96082517857143, 19.32763757142857]]}, "properties": {"from_osm_id": 1305306346, "to_osm_id": 1305306336, "distance_km": 1.167, "elevation_drop_m": 4.0, "score_m_per_km": 3.43, "confidence": "medium", "status": "predicted"}}, {"type": "Feature", "geometry": {"type": "LineString", "coordinates": [[72.95747772631579, 19.33945910526316], [72.93747419444445, 19.320703177777776]]}, "properties": {"from_osm_id": 1305306348, "to_osm_id": 1161319547, "distance_km": 2.959, "elevation_drop_m": 11.0, "score_m_per_km": 3.72, "confidence": "medium", "status": "predicted"}}, {"type": "Feature", "geometry": {"type": "LineString", "coordinates": [[72.95877684782609, 19.34140763478261], [72.978405205, 19.327006115]]}, "properties": {"from_osm_id": 1305306349, "to_osm_id": 953831721, "distance_km": 2.609, "elevation_drop_m": 14.0, "score_m_per_km": 5.37, "confidence": "high", "status": "predicted"}}, {"type": "Feature", "geometry": {"type": "LineString", "coordinates": [[72.96136199285714, 19.338349873809523], [72.95918443170733, 19.338017929268293]]}, "properties": {"from_osm_id": 1305306351, "to_osm_id": 1305306346, "distance_km": 0.231, "elevation_drop_m": 7.0, "score_m_per_km": 30.25, "confidence": "high", "status": "predicted"}}, {"type": "Feature", "geometry": {"type": "LineString", "coordinates": [[72.96227305454546, 19.3390206], [72.95918443170733, 19.338017929268293]]}, "properties": {"from_osm_id": 1305306353, "to_osm_id": 1305306346, "distance_km": 0.343, "elevation_drop_m": 9.0, "score_m_per_km": 26.26, "confidence": "high", "status": "predicted"}}, {"type": "Feature", "geometry": {"type": "LineString", "coordinates": [[72.96696747288135, 19.341347991525424], [72.96563648095238, 19.347202066666664]]}, "properties": {"from_osm_id": 1305306358, "to_osm_id": 1305306367, "distance_km": 0.666, "elevation_drop_m": 19.0, "score_m_per_km": 28.54, "confidence": "high", "status": "predicted"}}, {"type": "Feature", "geometry": {"type": "LineString", "coordinates": [[72.97168204411764, 19.347202629411765], [72.97038469499999, 19.3473211375]]}, "properties": {"from_osm_id": 1305306363, "to_osm_id": 1305306364, "distance_km": 0.137, "elevation_drop_m": 7.0, "score_m_per_km": 51.19, "confidence": "high", "status": "predicted"}}, {"type": "Feature", "geometry": {"type": "LineString", "coordinates": [[72.97038469499999, 19.3473211375], [72.96563648095238, 19.347202066666664]]}, "properties": {"from_osm_id": 1305306364, "to_osm_id": 1305306367, "distance_km": 0.498, "elevation_drop_m": 9.0, "score_m_per_km": 18.06, "confidence": "high", "status": "predicted"}}, {"type": "Feature", "geometry": {"type": "LineString", "coordinates": [[72.96563648095238, 19.347202066666664], [72.95877684782609, 19.34140763478261]]}, "properties": {"from_osm_id": 1305306367, "to_osm_id": 1305306349, "distance_km": 0.966, "elevation_drop_m": 10.0, "score_m_per_km": 10.35, "confidence": "high", "status": "predicted"}}, {"type": "Feature", "geometry": {"type": "LineString", "coordinates": [[72.72527445561498, 19.567026413368982], [72.72458517333332, 19.565892416666667]]}, "properties": {"from_osm_id": 1305306388, "to_osm_id": 1305306389, "distance_km": 0.145, "elevation_drop_m": 3.0, "score_m_per_km": 20.65, "confidence": "high", "status": "predicted"}}, {"type": "Feature", "geometry": {"type": "LineString", "coordinates": [[72.75632792727272, 19.549147736363636], [72.750810675, 19.546415758333335]]}, "properties": {"from_osm_id": 1305306407, "to_osm_id": 1305306409, "distance_km": 0.653, "elevation_drop_m": 1.0, "score_m_per_km": 1.53, "confidence": "medium", "status": "predicted"}}, {"type": "Feature", "geometry": {"type": "LineString", "coordinates": [[72.750810675, 19.546415758333335], [72.76545885529411, 19.547452811764703]]}, "properties": {"from_osm_id": 1305306409, "to_osm_id": 1305306398, "distance_km": 1.539, "elevation_drop_m": 12.0, "score_m_per_km": 7.8, "confidence": "high", "status": "predicted"}}, {"type": "Feature", "geometry": {"type": "LineString", "coordinates": [[73.08059338333334, 19.084361627777778], [73.08779747142857, 19.064195299999998]]}, "properties": {"from_osm_id": 1358944358, "to_osm_id": 55447772, "distance_km": 2.367, "elevation_drop_m": 8.0, "score_m_per_km": 3.38, "confidence": "medium", "status": "predicted"}}, {"type": "Feature", "geometry": {"type": "LineString", "coordinates": [[73.26780726648352, 19.33443999945055], [73.27240356363636, 19.337433982828284]]}, "properties": {"from_osm_id": 1370251431, "to_osm_id": 1370252699, "distance_km": 0.586, "elevation_drop_m": 10.0, "score_m_per_km": 17.06, "confidence": "high", "status": "predicted"}}, {"type": "Feature", "geometry": {"type": "LineString", "coordinates": [[72.7961575480916, 19.405482632824427], [72.77857577692308, 19.397883253846153]]}, "properties": {"from_osm_id": 1385258788, "to_osm_id": 1458682047, "distance_km": 2.028, "elevation_drop_m": 2.0, "score_m_per_km": 0.99, "confidence": "low", "status": "predicted"}}, {"type": "Feature", "geometry": {"type": "LineString", "coordinates": [[72.80290532000001, 19.412146273333335], [72.79947168461538, 19.416638753846154]]}, "properties": {"from_osm_id": 1385724282, "to_osm_id": 257583232, "distance_km": 0.616, "elevation_drop_m": 1.0, "score_m_per_km": 1.62, "confidence": "medium", "status": "predicted"}}, {"type": "Feature", "geometry": {"type": "LineString", "coordinates": [[72.96657191923077, 19.343338765384615], [72.95877684782609, 19.34140763478261]]}, "properties": {"from_osm_id": 1390358491, "to_osm_id": 1305306349, "distance_km": 0.846, "elevation_drop_m": 23.0, "score_m_per_km": 27.2, "confidence": "high", "status": "predicted"}}, {"type": "Feature", "geometry": {"type": "LineString", "coordinates": [[73.07080121660232, 19.029987416602314], [73.07813963589743, 19.033600707692308]]}, "properties": {"from_osm_id": 1390780598, "to_osm_id": 1034603103, "distance_km": 0.87, "elevation_drop_m": 2.0, "score_m_per_km": 2.3, "confidence": "medium", "status": "predicted"}}, {"type": "Feature", "geometry": {"type": "LineString", "coordinates": [[73.01141485555556, 19.129143355555556], [73.000425365625, 19.1356221125]]}, "properties": {"from_osm_id": 1418993598, "to_osm_id": 38587171, "distance_km": 1.361, "elevation_drop_m": 5.0, "score_m_per_km": 3.67, "confidence": "medium", "status": "predicted"}}, {"type": "Feature", "geometry": {"type": "LineString", "coordinates": [[72.992731675, 19.083106725], [72.991761325, 19.081333558333334]]}, "properties": {"from_osm_id": 1447091509, "to_osm_id": 257479176, "distance_km": 0.222, "elevation_drop_m": 2.0, "score_m_per_km": 9.01, "confidence": "high", "status": "predicted"}}, {"type": "Feature", "geometry": {"type": "LineString", "coordinates": [[72.81254093636363, 19.35538241818182], [72.80780557142857, 19.38127012857143]]}, "properties": {"from_osm_id": 1482138996, "to_osm_id": 851763910, "distance_km": 2.921, "elevation_drop_m": 9.0, "score_m_per_km": 3.08, "confidence": "medium", "status": "predicted"}}]}
