{"nvdm":"1.0","dataset":"basins/groundwater-taluks","scope":{"kind":"basin","id":"erode-rivers"},"provenance":{"sources":[{"id":"ingres-gw-assessment-tn","title":"IN-GRES dynamic groundwater assessment 2024-2025, stage of extraction by taluk","publisher":"CGWB with IIT Hyderabad (IN-GRES)","license":"no explicit licence: the IN-GRES portal publishes no terms of use, no disclaimer and no copyright or licence statement anywhere; nothing has been established about who may redistribute this material or on what terms","role":"input","url":"https://ingres.iith.ac.in/","as_of":"2025"},{"id":"tngis-open-geoserver","title":"TNGIS open GeoServer (WFS): district, taluk, block and village panchayat boundaries, TN WRD sub-basins and reservoirs, micro-watershed atlas, all-water-bodies register, named tanks, mine leases, industry register matched to land parcels","publisher":"Tamil Nadu e-Governance Agency (TNGIS)","license":"Tamil Nadu government data on an open GeoServer (WFS, no login); published with TNGIS's permission and with attribution.","role":"input","url":"https://tngis.tn.gov.in/tngismaps/ows"}],"method":"derived","produced_at":"2026-09-17","produced_by":"scripts/build_erode_rivers_basin.py","internal_inputs":["public/data/atlas/tn/erode/groundwater-taluks.json","public/data/basins/erode-rivers/sub-hydrosheds.geojson"],"note":"Erode district's rivers, groundwater and industry (scope erode-rivers; the district's own scope id is tn-erode). The district boundary is the frame and TN WRD's sub-basins, clipped to it, are the catchments (shedId). The industry register holds only units TNGIS matched to a land parcel, so every count is a lower bound; sector comes from the reviewed TNPCB type-code lookup pipeline-inputs/basins/erode-rivers/tnpcb-type-sectors.json."},"type":"FeatureCollection","features":[{"type":"Feature","properties":{"name":"Sathyamangalam taluk","kind":"critical","category":"Critical","stageOfExtractionPct":95.0,"annualRechargeHam":2845.8,"availableForFutureUseHam":1842.8,"assessmentYear":"2024-2025","shedId":"SB120"},"geometry":{"type":"Polygon","coordinates":[[[77.3692,11.7868],[77.388,11.7885],[77.3944,11.7877],[77.4136,11.7747],[77.4222,11.7724],[77.4226,11.7617],[77.4269,11.7611],[77.4248,11.7595],[77.4266,11.7558],[77.4253,11.7523],[77.4206,11.7494],[77.4153,11.741],[77.4185,11.7349],[77.4188,11.7299],[77.423,11.7286],[77.4263,11.7338],[77.4286,11.7321],[77.4347,11.7324],[77.4336,11.7261],[77.435,11.7235],[77.4342,11.7158],[77.4386,11.7149],[77.4395,11.7194],[77.4428,11.7173],[77.4427,11.7134],[77.4401,11.7127],[77.4386,11.7104],[77.4411,11.7074],[77.4364,11.707],[77.4354,11.7031],[77.4415,11.6812],[77.4396,11.6789],[77.4392,11.6747],[77.4437,11.6714],[77.4498,11.6697],[77.4535,11.6661],[77.4488,11.6575],[77.4373,11.648],[77.4373,11.6452],[77.4402,11.6411],[77.4402,11.6389],[77.438,11.6365],[77.458,11.6077],[77.4565,11.6045],[77.451,11.5599],[77.4448,11.5617],[77.4419,11.5663],[77.4389,11.563],[77.4394,11.557],[77.431,11.5483],[77.4301,11.5392],[77.4215,11.5369],[77.4212,11.536],[77.4235,11.5346],[77.4227,11.5335],[77.41,11.5231],[77.4071,11.5224],[77.4058,11.5235],[77.3965,11.5239],[77.3934,11.5257],[77.394,11.5263],[77.3898,11.5276],[77.3851,11.5341],[77.3792,11.5308],[77.3679,11.5309],[77.3677,11.5367],[77.3702,11.5508],[77.3719,11.5529],[77.3742,11.5704],[77.3744,11.5741],[77.3724,11.5773],[77.3672,11.5754],[77.3652,11.5677],[77.3579,11.5506],[77.3524,11.5456],[77.3435,11.5281],[77.3359,11.5272],[77.335,11.5348],[77.3333,11.5328],[77.3312,11.5331],[77.3317,11.5304],[77.3306,11.528],[77.3282,11.5279],[77.3245,11.5319],[77.3217,11.532],[77.3212,11.5285],[77.3183,11.5256],[77.3173,11.5166],[77.3189,11.5151],[77.3156,11.5084],[77.3134,11.509],[77.3134,11.5124],[77.3051,11.5078],[77.3031,11.5086],[77.3007,11.52],[77.2989,11.5211],[77.2968,11.5158],[77.2961,11.508],[77.2951,11.5063],[77.2926,11.5068],[77.2893,11.502],[77.2931,11.4963],[77.2868,11.4972],[77.2865,11.5016],[77.2848,11.5018],[77.2843,11.4927],[77.2812,11.4851],[77.284,11.4825],[77.2846,11.4791],[77.2949,11.4734],[77.2968,11.474],[77.2936,11.4607],[77.299,11.4593],[77.2993,11.4563],[77.294,11.4528],[77.2894,11.4391],[77.2822,11.4408],[77.2814,11.4391],[77.2835,11.4383],[77.2824,11.4355],[77.2753,11.4354],[77.2738,11.4361],[77.2742,11.44],[77.271,11.4364],[77.2706,11.4307],[77.2678,11.4287],[77.2635,11.4294],[77.2628,11.4335],[77.2585,11.437],[77.2559,11.4376],[77.2537,11.4413],[77.2528,11.4399],[77.2488,11.4402],[77.248,11.4384],[77.2456,11.4379],[77.2456,11.4261],[77.2477,11.4229],[77.2441,11.4183],[77.245,11.4171],[77.2488,11.4178],[77.2494,11.415],[77.2516,11.415],[77.2523,11.4191],[77.2551,11.4196],[77.2547,11.418],[77.257,11.4148],[77.2554,11.414],[77.2558,11.4098],[77.2524,11.4069],[77.2502,11.3951],[77.2483,11.3947],[77.2481,11.3935],[77.2461,11.3951],[77.246,11.3928],[77.2437,11.3926],[77.2437,11.3899],[77.2503,11.3901],[77.2557,11.392],[77.2569,11.3878],[77.2557,11.3866],[77.2608,11.3847],[77.2619,11.39],[77.2657,11.3896],[77.2682,11.383],[77.265,11.3823],[77.2631,11.3721],[77.2564,11.3705],[77.2541,11.3663],[77.2523,11.367],[77.2506,11.366],[77.2506,11.3643],[77.2532,11.3616],[77.244,11.3571],[77.2415,11.3546],[77.2386,11.3551],[77.235,11.3518],[77.2299,11.3522],[77.2288,11.3508],[77.22,11.3524],[77.2181,11.35],[77.2115,11.3481],[77.2099,11.3438],[77.2023,11.3437],[77.2019,11.3421],[77.1999,11.3432],[77.1976,11.3384],[77.1893,11.3415],[77.1791,11.3413],[77.1763,11.3318],[77.1772,11.3302],[77.1822,11.329],[77.1817,11.327],[77.1848,11.3196],[77.1835,11.318],[77.1831,11.3136],[77.1776,11.3168],[77.1692,11.3163],[77.1604,11.3319],[77.156,11.3344],[77.1431,11.3361],[77.1397,11.3402],[77.1372,11.3442],[77.1392,11.3439],[77.139,11.3448],[77.1358,11.3467],[77.1361,11.3489],[77.1336,11.3514],[77.1327,11.3554],[77.1293,11.3545],[77.1316,11.3566],[77.131,11.3609],[77.1332,11.3639],[77.1306,11.3649],[77.1293,11.367],[77.1305,11.3757],[77.128,11.3762],[77.1278,11.3792],[77.1187,11.3786],[77.1136,11.3804],[77.1117,11.3868],[77.1105,11.4056],[77.1093,11.4065],[77.0909,11.4031],[77.0934,11.3989],[77.0883,11.3978],[77.089,11.3923],[77.0861,11.3918],[77.0803,11.3878],[77.0771,11.3912],[77.0747,11.3915],[77.0757,11.3889],[77.0707,11.3857],[77.0689,11.3894],[77.0704,11.3989],[77.0692,11.4014],[77.0633,11.4005],[77.0602,11.4042],[77.0558,11.4041],[77.0529,11.4025],[77.0449,11.4027],[77.0442,11.3979],[77.0359,11.3921],[77.0318,11.3846],[77.0289,11.3851],[77.0256,11.3881],[77.0221,11.3865],[77.0254,11.3734],[77.0216,11.3701],[77.0189,11.3692],[77.0146,11.3703],[77.0135,11.3682],[76.9921,11.3767],[76.9869,11.3814],[76.9809,11.3825],[76.9791,11.3784],[76.9713,11.3858],[76.9644,11.3851],[76.9607,11.3829],[76.9591,11.3797],[76.956,11.3807],[76.9678,11.3924],[76.9684,11.3965],[76.9701,11.3985],[76.9755,11.397],[76.9806,11.4023],[76.9795,11.4052],[76.9766,11.4076],[76.9763,11.4119],[76.9798,11.4342],[76.9823,11.4403],[76.9979,11.4411],[76.9977,11.4378],[76.9991,11.4349],[77.007,11.4345],[77.0114,11.4434],[77.0117,11.4527],[77.0055,11.4606],[76.9975,11.4773],[76.9908,11.4817],[76.9917,11.4923],[76.9937,11.4968],[76.9931,11.4984],[76.9958,11.5],[76.9973,11.503],[76.9972,11.5134],[77.0048,11.5143],[77.0104,11.5191],[77.013,11.5257],[77.0151,11.5269],[77.0177,11.5266],[77.0213,11.5223],[77.03,11.5237],[77.0333,11.5207],[77.0338,11.5183],[77.0358,11.5175],[77.0407,11.5167],[77.0453,11.5178],[77.0513,11.5165],[77.0597,11.5103],[77.0616,11.5121],[77.0724,11.5144],[77.0831,11.5088],[77.1128,11.5089],[77.1144,11.5162],[77.112,11.5254],[77.1132,11.5299],[77.1104,11.5369],[77.1204,11.5385],[77.1213,11.5425],[77.1372,11.5419],[77.1386,11.5437],[77.1569,11.5449],[77.1587,11.5474],[77.1648,11.5474],[77.1693,11.5554],[77.1843,11.5617],[77.188,11.5673],[77.1979,11.5764],[77.2032,11.5755],[77.2047,11.5814],[77.2081,11.5824],[77.2135,11.5788],[77.2198,11.5832],[77.2331,11.5957],[77.2418,11.6079],[77.2461,11.6191],[77.2481,11.6291],[77.2445,11.6325],[77.2374,11.6473],[77.2383,11.6656],[77.2418,11.6764],[77.2374,11.6763],[77.2272,11.6869],[77.2333,11.6986],[77.243,11.7039],[77.264,11.6986],[77.2702,11.6936],[77.2716,11.6866],[77.2746,11.6834],[77.2859,11.6806],[77.2954,11.6874],[77.2989,11.686],[77.3055,11.6883],[77.3131,11.6957],[77.3062,11.7037],[77.3087,11.7152],[77.3149,11.7179],[77.3186,11.7179],[77.3213,11.7308],[77.3349,11.7419],[77.3411,11.7515],[77.3374,11.7588],[77.3358,11.767],[77.3275,11.7751],[77.3351,11.7713],[77.3388,11.772],[77.3604,11.7795],[77.3648,11.7904],[77.369,11.7895],[77.3692,11.7868]]]}},{"type":"Feature","properties":{"name":"Bhavani taluk","kind":"safe","category":"Safe","stageOfExtractionPct":50.0,"annualRechargeHam":2194.6,"availableForFutureUseHam":5931.3,"assessmentYear":"2024-2025","shedId":"SB120"},"geometry":{"type":"Polygon","coordinates":[[[77.6081,11.5218],[77.6063,11.5292],[77.604,11.5322],[77.6091,11.5343],[77.6115,11.542],[77.6184,11.5443],[77.6223,11.5431],[77.6309,11.5447],[77.6376,11.5429],[77.6365,11.5505],[77.6373,11.5543],[77.6361,11.5556],[77.6325,11.5539],[77.633,11.5581],[77.6362,11.5576],[77.6376,11.5655],[77.6292,11.5683],[77.6258,11.565],[77.6238,11.5655],[77.6222,11.5679],[77.6196,11.5672],[77.6211,11.574],[77.6249,11.5763],[77.6342,11.5773],[77.6482,11.582],[77.6491,11.5833],[77.6586,11.5844],[77.6634,11.5837],[77.6645,11.5795],[77.6697,11.5759],[77.6766,11.5754],[77.6784,11.5766],[77.6801,11.5822],[77.6866,11.5826],[77.6872,11.591],[77.6896,11.5944],[77.6892,11.5989],[77.686,11.6053],[77.6889,11.6087],[77.691,11.6092],[77.6973,11.6074],[77.7014,11.603],[77.7022,11.6001],[77.7106,11.5984],[77.7114,11.5956],[77.7159,11.5961],[77.7176,11.5966],[77.7216,11.6123],[77.7256,11.6105],[77.734,11.6115],[77.7336,11.6174],[77.7349,11.6177],[77.7355,11.6206],[77.7372,11.6203],[77.7391,11.6235],[77.7412,11.623],[77.7417,11.6217],[77.7361,11.6164],[77.7361,11.6123],[77.7346,11.6097],[77.7382,11.6078],[77.735,11.6022],[77.7347,11.5989],[77.7367,11.5903],[77.7399,11.5851],[77.7409,11.5789],[77.7452,11.5706],[77.7451,11.5684],[77.7431,11.5639],[77.7399,11.5617],[77.7326,11.5526],[77.7239,11.5364],[77.7246,11.5313],[77.7323,11.519],[77.7325,11.5109],[77.7301,11.5081],[77.7218,11.5039],[77.7183,11.4973],[77.7113,11.4915],[77.7021,11.4811],[77.6979,11.4728],[77.6971,11.4633],[77.686,11.4416],[77.685,11.4331],[77.6818,11.4334],[77.6812,11.439],[77.6748,11.4441],[77.6748,11.4466],[77.6781,11.4509],[77.6783,11.4527],[77.6767,11.4546],[77.6722,11.4551],[77.6677,11.4573],[77.6628,11.4575],[77.6588,11.4611],[77.6509,11.4601],[77.647,11.4618],[77.644,11.4491],[77.6411,11.4425],[77.6433,11.4288],[77.6416,11.4221],[77.6396,11.4209],[77.6413,11.4124],[77.6453,11.4073],[77.6457,11.3999],[77.6243,11.4008],[77.6222,11.4039],[77.6184,11.4046],[77.6165,11.408],[77.616,11.4065],[77.6125,11.4062],[77.6088,11.4031],[77.6061,11.4032],[77.605,11.4033],[77.6064,11.4073],[77.6035,11.4071],[77.6015,11.4048],[77.6013,11.4083],[77.5994,11.4051],[77.5978,11.405],[77.5982,11.4062],[77.5968,11.4066],[77.5963,11.4089],[77.5926,11.4078],[77.5887,11.4091],[77.583,11.3972],[77.579,11.3974],[77.5773,11.394],[77.5696,11.3887],[77.5674,11.385],[77.5633,11.3863],[77.5607,11.3841],[77.5555,11.3834],[77.5524,11.3787],[77.5499,11.3773],[77.5438,11.379],[77.5407,11.3813],[77.532,11.3827],[77.5253,11.3888],[77.5212,11.3896],[77.5202,11.4001],[77.5211,11.4063],[77.5191,11.4076],[77.5181,11.4125],[77.5148,11.4136],[77.5044,11.4132],[77.495,11.4152],[77.4949,11.4217],[77.4986,11.4288],[77.5035,11.4328],[77.5069,11.4336],[77.51,11.4429],[77.5074,11.451],[77.5083,11.4618],[77.513,11.4672],[77.5276,11.4709],[77.5302,11.4872],[77.5322,11.4914],[77.5372,11.4916],[77.5454,11.4892],[77.5489,11.4844],[77.5486,11.4803],[77.5563,11.4756],[77.5622,11.4753],[77.562,11.4802],[77.5667,11.481],[77.5653,11.4858],[77.5714,11.4906],[77.5729,11.4948],[77.5891,11.4996],[77.5916,11.5017],[77.5949,11.5017],[77.5947,11.505],[77.5981,11.5073],[77.5988,11.5145],[77.6026,11.5166],[77.6032,11.5203],[77.6081,11.5218]]]}},{"type":"Feature","properties":{"name":"Gobichettipalayam taluk","kind":"safe","category":"Safe","stageOfExtractionPct":51.9,"annualRechargeHam":2027.7,"availableForFutureUseHam":7525.5,"assessmentYear":"2024-2025","shedId":"SB120"},"geometry":{"type":"Polygon","coordinates":[[[77.3744,11.5741],[77.3719,11.5529],[77.3702,11.5508],[77.3677,11.5367],[77.3679,11.5309],[77.3792,11.5308],[77.3851,11.5341],[77.3898,11.5276],[77.394,11.5263],[77.3934,11.5257],[77.3965,11.5239],[77.4058,11.5235],[77.4071,11.5224],[77.41,11.5231],[77.4227,11.5335],[77.4235,11.5346],[77.4212,11.536],[77.4215,11.5369],[77.4301,11.5392],[77.431,11.5483],[77.4394,11.557],[77.4389,11.563],[77.4419,11.5663],[77.4448,11.5617],[77.4502,11.5596],[77.4842,11.5503],[77.4925,11.5515],[77.4904,11.5416],[77.4909,11.5387],[77.495,11.5344],[77.4951,11.5322],[77.4973,11.5293],[77.5005,11.5283],[77.5026,11.5246],[77.5091,11.5218],[77.5105,11.5147],[77.5146,11.5145],[77.5195,11.5201],[77.5238,11.5223],[77.5263,11.5192],[77.5268,11.5155],[77.5297,11.5104],[77.5304,11.5023],[77.5331,11.5009],[77.5357,11.4916],[77.5322,11.4914],[77.5302,11.4872],[77.5276,11.4709],[77.513,11.4672],[77.5083,11.4618],[77.5074,11.451],[77.5101,11.4436],[77.5081,11.4363],[77.5069,11.4336],[77.5035,11.4328],[77.4991,11.4295],[77.4949,11.4217],[77.495,11.4152],[77.5002,11.41378],[77.5,11.4106],[77.5014,11.4099],[77.5012,11.4086],[77.4976,11.4083],[77.4956,11.3981],[77.4974,11.396],[77.4965,11.3943],[77.4978,11.3927],[77.4989,11.3823],[77.5019,11.3779],[77.5043,11.377],[77.5069,11.3718],[77.5062,11.3658],[77.5031,11.3625],[77.5002,11.3649],[77.4958,11.3643],[77.4929,11.3621],[77.4883,11.3616],[77.4883,11.3597],[77.4845,11.3595],[77.4825,11.3614],[77.4805,11.361],[77.4807,11.3554],[77.4754,11.3407],[77.469,11.3365],[77.4685,11.3344],[77.4641,11.3341],[77.4626,11.3312],[77.4542,11.3314],[77.4515,11.3364],[77.4472,11.3367],[77.4444,11.335],[77.4408,11.3348],[77.4407,11.3322],[77.4372,11.3299],[77.4379,11.3331],[77.4355,11.3341],[77.4356,11.3374],[77.4389,11.3381],[77.4404,11.3425],[77.4372,11.3453],[77.4398,11.3529],[77.4374,11.3535],[77.4365,11.3571],[77.4374,11.3605],[77.4281,11.3628],[77.4275,11.3616],[77.4253,11.3616],[77.4162,11.3629],[77.4147,11.3643],[77.4141,11.3702],[77.4164,11.3727],[77.4193,11.3808],[77.4158,11.3859],[77.4148,11.3934],[77.4107,11.392],[77.4016,11.3939],[77.4005,11.3902],[77.3955,11.3893],[77.3942,11.3854],[77.3966,11.3804],[77.3965,11.3763],[77.3836,11.38],[77.3807,11.3819],[77.3777,11.3819],[77.3762,11.378],[77.3759,11.3681],[77.3732,11.3704],[77.3688,11.3703],[77.3675,11.3825],[77.3662,11.384],[77.3624,11.3836],[77.3584,11.3853],[77.3593,11.398],[77.3557,11.3979],[77.3517,11.4027],[77.3547,11.4145],[77.3529,11.4267],[77.3581,11.4257],[77.3648,11.4258],[77.368,11.4273],[77.3712,11.4267],[77.3714,11.431],[77.3735,11.4327],[77.3707,11.4412],[77.3626,11.4441],[77.362,11.4423],[77.3598,11.443],[77.3596,11.4498],[77.3585,11.4465],[77.3562,11.4479],[77.3568,11.4431],[77.3564,11.4413],[77.3551,11.4418],[77.355,11.4479],[77.3564,11.4498],[77.3444,11.4514],[77.3432,11.4528],[77.3461,11.4534],[77.3458,11.4571],[77.344,11.4569],[77.3422,11.4585],[77.3403,11.4532],[77.3305,11.4506],[77.3311,11.4485],[77.3215,11.448],[77.3214,11.4465],[77.3116,11.4434],[77.3084,11.4358],[77.3058,11.4355],[77.305,11.4335],[77.3004,11.433],[77.2958,11.4355],[77.2948,11.4402],[77.2938,11.4402],[77.2928,11.4375],[77.2891,11.438],[77.2884,11.437],[77.2861,11.4376],[77.2846,11.4402],[77.2894,11.4391],[77.294,11.4528],[77.2993,11.4563],[77.2994,11.4586],[77.2936,11.4607],[77.2968,11.474],[77.2949,11.4734],[77.2846,11.4791],[77.284,11.4825],[77.2813,11.4846],[77.2843,11.4927],[77.2848,11.5018],[77.2865,11.5016],[77.2868,11.4972],[77.2931,11.4963],[77.2893,11.502],[77.2926,11.5068],[77.2951,11.5063],[77.2961,11.508],[77.2968,11.5158],[77.2989,11.5211],[77.3007,11.52],[77.3031,11.5086],[77.3051,11.5078],[77.3134,11.5124],[77.3134,11.509],[77.3156,11.5084],[77.3189,11.5151],[77.3173,11.5166],[77.3183,11.5256],[77.3212,11.5285],[77.3217,11.532],[77.3245,11.5319],[77.3282,11.5279],[77.3306,11.528],[77.3317,11.5304],[77.3312,11.5331],[77.3333,11.5328],[77.335,11.5348],[77.3359,11.5272],[77.3435,11.5281],[77.3524,11.5456],[77.3579,11.5506],[77.3652,11.5677],[77.3672,11.5754],[77.3724,11.5773],[77.3744,11.5741]]]}},{"type":"Feature","properties":{"name":"Perundurai taluk","kind":"over-exploited","category":"Over Exploited","stageOfExtractionPct":103.6,"annualRechargeHam":2911.2,"availableForFutureUseHam":1554.5,"assessmentYear":"2024-2025","shedId":"SB126"},"geometry":{"type":"Polygon","coordinates":[[[77.5002,11.4138],[77.5164,11.4135],[77.5181,11.4125],[77.5191,11.4076],[77.5211,11.4063],[77.5202,11.4001],[77.5212,11.3896],[77.5253,11.3888],[77.532,11.3827],[77.5407,11.3813],[77.5489,11.3774],[77.5514,11.3777],[77.5555,11.3834],[77.5607,11.3841],[77.5633,11.3863],[77.5674,11.385],[77.5696,11.3887],[77.5773,11.394],[77.579,11.3974],[77.583,11.3972],[77.5887,11.4091],[77.5926,11.4078],[77.5963,11.4089],[77.5968,11.4066],[77.5982,11.4062],[77.5978,11.405],[77.5994,11.4051],[77.6013,11.4083],[77.6015,11.4048],[77.6035,11.4071],[77.6064,11.4073],[77.605,11.4033],[77.6061,11.4032],[77.6088,11.4031],[77.6125,11.4062],[77.616,11.4065],[77.6165,11.408],[77.6184,11.4046],[77.6222,11.4039],[77.623,11.4013],[77.629,11.4005],[77.6292,11.3948],[77.6257,11.3877],[77.6267,11.3807],[77.625,11.3795],[77.6227,11.374],[77.618,11.3591],[77.6228,11.3536],[77.6256,11.3528],[77.6248,11.3496],[77.6278,11.345],[77.6269,11.3422],[77.6295,11.3423],[77.6291,11.3378],[77.6312,11.3376],[77.6308,11.3328],[77.6194,11.3194],[77.6166,11.3067],[77.6189,11.2956],[77.6144,11.2915],[77.6117,11.28],[77.6129,11.2785],[77.6188,11.2766],[77.6198,11.2811],[77.6247,11.2867],[77.6332,11.2868],[77.6335,11.2834],[77.6344,11.2835],[77.6346,11.2872],[77.6365,11.2867],[77.6379,11.2874],[77.6375,11.2884],[77.6391,11.2883],[77.6399,11.285],[77.6417,11.2854],[77.6417,11.2883],[77.6443,11.2898],[77.6501,11.2875],[77.6527,11.2824],[77.6554,11.2818],[77.658,11.2859],[77.6616,11.2879],[77.6625,11.2957],[77.6606,11.2981],[77.6609,11.3075],[77.6636,11.3076],[77.6664,11.3096],[77.6677,11.3134],[77.6715,11.3155],[77.6766,11.313],[77.6766,11.308],[77.6788,11.3059],[77.6783,11.2994],[77.6757,11.2986],[77.6774,11.2956],[77.6766,11.2896],[77.6774,11.2871],[77.6801,11.2867],[77.6805,11.2847],[77.6839,11.2844],[77.6827,11.2792],[77.68,11.2791],[77.6786,11.2764],[77.6794,11.2738],[77.6809,11.2731],[77.6804,11.2719],[77.6827,11.271],[77.6838,11.2726],[77.6849,11.2836],[77.6888,11.2854],[77.6899,11.2872],[77.6929,11.2861],[77.6928,11.2839],[77.6913,11.284],[77.6879,11.2699],[77.6851,11.2676],[77.6807,11.2569],[77.6794,11.2576],[77.6806,11.2643],[77.6801,11.2652],[77.6779,11.2639],[77.6773,11.266],[77.6751,11.2671],[77.6745,11.2658],[77.6768,11.2652],[77.6761,11.2641],[77.6735,11.2634],[77.6716,11.2592],[77.6697,11.2592],[77.6697,11.2616],[77.6676,11.2614],[77.6667,11.2599],[77.6669,11.258],[77.6683,11.2574],[77.6669,11.2564],[77.6676,11.2546],[77.6663,11.2538],[77.665,11.2547],[77.6681,11.2467],[77.6724,11.2467],[77.6716,11.2427],[77.6755,11.2434],[77.6755,11.2406],[77.674,11.2387],[77.6766,11.2386],[77.6767,11.2366],[77.6788,11.2351],[77.6794,11.2372],[77.6806,11.2372],[77.6814,11.2348],[77.6832,11.2349],[77.684,11.239],[77.6855,11.2383],[77.6857,11.2362],[77.6877,11.236],[77.6865,11.2255],[77.6882,11.2172],[77.6718,11.2189],[77.6597,11.2169],[77.6585,11.2024],[77.6475,11.2033],[77.6459,11.1957],[77.6405,11.191],[77.6468,11.1818],[77.6468,11.1781],[77.6488,11.1779],[77.6498,11.1752],[77.6452,11.1625],[77.648,11.1586],[77.6514,11.1567],[77.6526,11.139],[77.6508,11.1349],[77.6505,11.13],[77.6597,11.1292],[77.6582,11.1223],[77.6594,11.1201],[77.6551,11.1106],[77.6528,11.1165],[77.6436,11.1175],[77.6373,11.1255],[77.6303,11.1267],[77.6248,11.1262],[77.6216,11.1279],[77.6128,11.1263],[77.6073,11.122],[77.6059,11.1187],[77.6012,11.1168],[77.5977,11.1136],[77.5942,11.1137],[77.5883,11.1217],[77.5847,11.123],[77.58,11.121],[77.5741,11.1206],[77.5656,11.1137],[77.5605,11.1126],[77.5557,11.1097],[77.5489,11.1109],[77.537,11.1091],[77.5308,11.1051],[77.5212,11.1073],[77.5119,11.1069],[77.5037,11.1085],[77.5012,11.1077],[77.5052,11.123],[77.5025,11.13],[77.4948,11.1406],[77.4959,11.147],[77.4916,11.1476],[77.4906,11.1447],[77.4884,11.145],[77.4875,11.143],[77.4831,11.1441],[77.484,11.1421],[77.4822,11.1417],[77.4802,11.146],[77.4827,11.1482],[77.4826,11.1518],[77.4809,11.1537],[77.482,11.154],[77.4837,11.1617],[77.4781,11.1605],[77.4752,11.1653],[77.4746,11.1631],[77.4764,11.1631],[77.4746,11.1618],[77.475,11.1609],[77.4709,11.1604],[77.4705,11.1628],[77.472,11.1628],[77.4719,11.1638],[77.4677,11.1641],[77.4704,11.1703],[77.47,11.1743],[77.4725,11.1816],[77.4722,11.1846],[77.4804,11.1796],[77.486,11.178],[77.4892,11.1804],[77.4957,11.1798],[77.506,11.1814],[77.5085,11.1803],[77.5124,11.1818],[77.513,11.1979],[77.5167,11.2035],[77.5163,11.2053],[77.513,11.2045],[77.5126,11.2006],[77.5104,11.1994],[77.5072,11.2],[77.5065,11.2022],[77.502,11.2017],[77.5001,11.2045],[77.4937,11.2043],[77.4936,11.208],[77.4975,11.2077],[77.5019,11.21],[77.5024,11.2153],[77.4913,11.217],[77.4936,11.2204],[77.4974,11.2202],[77.4986,11.222],[77.4941,11.2247],[77.491,11.225],[77.4917,11.2285],[77.4883,11.226],[77.4839,11.2263],[77.486,11.2347],[77.4856,11.2369],[77.4838,11.2362],[77.4841,11.2411],[77.4806,11.2398],[77.4786,11.2428],[77.4745,11.2435],[77.4743,11.246],[77.4662,11.2469],[77.4661,11.251],[77.4638,11.2512],[77.4645,11.2568],[77.4614,11.2595],[77.4663,11.2657],[77.4677,11.2717],[77.4649,11.279],[77.4619,11.2793],[77.4637,11.2847],[77.4598,11.2849],[77.4583,11.2876],[77.4585,11.2912],[77.4558,11.2942],[77.457,11.2961],[77.4564,11.3005],[77.4586,11.3004],[77.4598,11.2982],[77.4612,11.2999],[77.4578,11.3037],[77.4567,11.3033],[77.4585,11.306],[77.4567,11.3066],[77.4577,11.309],[77.452,11.3153],[77.4507,11.3133],[77.4515,11.3109],[77.4547,11.3092],[77.449,11.3072],[77.4496,11.3109],[77.4477,11.313],[77.4462,11.3103],[77.4431,11.3102],[77.4429,11.3074],[77.4312,11.3163],[77.4241,11.3169],[77.4242,11.3273],[77.4253,11.3291],[77.4282,11.3302],[77.4299,11.3346],[77.4311,11.3344],[77.4325,11.3439],[77.4341,11.3453],[77.4381,11.3454],[77.4404,11.3425],[77.4389,11.3381],[77.4356,11.3374],[77.4355,11.3341],[77.4379,11.3331],[77.4372,11.3299],[77.4407,11.3322],[77.4408,11.3348],[77.4444,11.335],[77.4472,11.3367],[77.4515,11.3364],[77.4542,11.3314],[77.4626,11.3312],[77.4641,11.3341],[77.4685,11.3344],[77.469,11.3365],[77.4754,11.3407],[77.4807,11.3554],[77.4805,11.361],[77.4825,11.3614],[77.4845,11.3595],[77.4883,11.3597],[77.4883,11.3616],[77.4929,11.3621],[77.4958,11.3643],[77.5002,11.3649],[77.5031,11.3625],[77.5054,11.3645],[77.5069,11.3718],[77.5043,11.377],[77.5019,11.3779],[77.4989,11.3823],[77.4978,11.3927],[77.4965,11.3943],[77.4974,11.396],[77.4956,11.3981],[77.4976,11.4083],[77.5012,11.4086],[77.5014,11.4099],[77.5,11.4106],[77.5002,11.4138]],[[77.6814,11.23],[77.6793,11.2285],[77.6776,11.2299],[77.6768,11.2268],[77.6835,11.2217],[77.6843,11.2225],[77.6829,11.2266],[77.6833,11.2317],[77.6816,11.2323],[77.6814,11.23]],[[77.6341,11.2775],[77.6345,11.2726],[77.6306,11.2741],[77.6269,11.2735],[77.6253,11.2661],[77.6283,11.2632],[77.6292,11.259],[77.6311,11.2597],[77.6317,11.2557],[77.6353,11.2531],[77.6364,11.2539],[77.635,11.2596],[77.6384,11.261],[77.6384,11.263],[77.6408,11.2644],[77.638,11.2662],[77.6359,11.2759],[77.6341,11.2775]]]}},{"type":"Feature","properties":{"name":"Erode taluk","kind":"semi-critical","category":"Semi Critical","stageOfExtractionPct":71.4,"annualRechargeHam":955.9,"availableForFutureUseHam":1531.6,"assessmentYear":"2024-2025","shedId":"SB123"},"geometry":{"type":"MultiPolygon","coordinates":[[[[77.647,11.4617],[77.6509,11.4601],[77.6588,11.4611],[77.6628,11.4575],[77.6761,11.4548],[77.6783,11.4527],[77.6746,11.4449],[77.6812,11.439],[77.6818,11.4334],[77.685,11.4331],[77.6827,11.4229],[77.6842,11.417],[77.6942,11.4094],[77.7007,11.3974],[77.7095,11.3895],[77.7156,11.3797],[77.7267,11.3715],[77.7361,11.3692],[77.7413,11.3657],[77.7507,11.3535],[77.7523,11.3456],[77.7574,11.3341],[77.7669,11.3274],[77.7752,11.3175],[77.777,11.3135],[77.7722,11.3112],[77.7772,11.3026],[77.7753,11.3023],[77.7736,11.3069],[77.7701,11.3085],[77.7714,11.3111],[77.7707,11.3136],[77.7691,11.3151],[77.7648,11.3149],[77.7673,11.318],[77.7664,11.321],[77.7617,11.3245],[77.7587,11.3227],[77.7595,11.325],[77.7559,11.3267],[77.7561,11.3228],[77.7526,11.3189],[77.7383,11.3197],[77.7338,11.3183],[77.7328,11.317],[77.7334,11.3115],[77.7303,11.3114],[77.7288,11.3096],[77.7272,11.3111],[77.7266,11.3104],[77.7243,11.2999],[77.7249,11.294],[77.7228,11.2935],[77.7223,11.2915],[77.7192,11.2914],[77.7178,11.2927],[77.7167,11.2914],[77.7105,11.2924],[77.7079,11.2901],[77.7046,11.2906],[77.7032,11.2893],[77.697,11.2884],[77.696,11.2837],[77.6928,11.2837],[77.6928,11.2863],[77.6899,11.2872],[77.6852,11.2834],[77.6834,11.2848],[77.6805,11.2847],[77.6801,11.2867],[77.6774,11.2871],[77.6766,11.2896],[77.6774,11.2956],[77.6757,11.2986],[77.6783,11.2994],[77.6788,11.3059],[77.6766,11.308],[77.6766,11.313],[77.6715,11.3155],[77.6677,11.3134],[77.6664,11.3096],[77.6636,11.3076],[77.6609,11.3075],[77.6606,11.2981],[77.6625,11.2957],[77.6616,11.2879],[77.6568,11.2847],[77.6559,11.2821],[77.6527,11.2824],[77.6501,11.2875],[77.6443,11.2898],[77.6417,11.2883],[77.6417,11.2854],[77.6399,11.285],[77.6391,11.2883],[77.6375,11.2884],[77.6379,11.2874],[77.6365,11.2867],[77.6346,11.2872],[77.6344,11.2835],[77.6314,11.287],[77.6247,11.2867],[77.6198,11.2811],[77.6188,11.2766],[77.6129,11.2785],[77.6117,11.2805],[77.6144,11.2915],[77.6189,11.2956],[77.6166,11.3067],[77.6194,11.3194],[77.6299,11.3309],[77.6313,11.3367],[77.6309,11.3379],[77.6291,11.3378],[77.6295,11.3423],[77.6269,11.3422],[77.6278,11.345],[77.6248,11.3496],[77.6256,11.3528],[77.6228,11.3536],[77.618,11.3591],[77.6189,11.3635],[77.625,11.3795],[77.6267,11.3807],[77.6257,11.3877],[77.6292,11.3948],[77.629,11.4005],[77.6457,11.3999],[77.6453,11.4073],[77.6413,11.4124],[77.6396,11.4209],[77.6416,11.4221],[77.6433,11.4288],[77.6411,11.4425],[77.644,11.4491],[77.647,11.4617]]],[[[77.6353,11.2773],[77.6375,11.2672],[77.6408,11.2644],[77.6384,11.263],[77.6384,11.261],[77.635,11.2596],[77.6364,11.2539],[77.6353,11.2531],[77.6317,11.2557],[77.6311,11.2597],[77.6292,11.259],[77.6283,11.2632],[77.6253,11.2661],[77.6269,11.2735],[77.6306,11.2741],[77.6345,11.2726],[77.634,11.2773],[77.6353,11.2773]]]]}},{"type":"Feature","properties":{"name":"Anthiyur taluk","kind":"semi-critical","category":"Semi Critical","stageOfExtractionPct":84.0,"annualRechargeHam":1802.1,"availableForFutureUseHam":2190.2,"assessmentYear":"2024-2025","shedId":"SB123"},"geometry":{"type":"Polygon","coordinates":[[[77.6081,11.5218],[77.6032,11.5203],[77.6026,11.5166],[77.5988,11.5145],[77.5981,11.5073],[77.5947,11.505],[77.5949,11.5017],[77.5916,11.5017],[77.5891,11.4996],[77.5729,11.4948],[77.5714,11.4906],[77.5653,11.4858],[77.5667,11.481],[77.562,11.4802],[77.5622,11.4753],[77.5563,11.4756],[77.5486,11.4803],[77.5489,11.4844],[77.5454,11.4892],[77.5353,11.4921],[77.5331,11.5009],[77.5304,11.5023],[77.5297,11.5104],[77.5244,11.522],[77.5227,11.5222],[77.5146,11.5145],[77.5119,11.5139],[77.5096,11.5163],[77.5091,11.5218],[77.5026,11.5246],[77.5005,11.5283],[77.4973,11.5293],[77.4951,11.5322],[77.495,11.5344],[77.4904,11.5401],[77.4925,11.5515],[77.4842,11.5503],[77.451,11.5599],[77.4565,11.6045],[77.458,11.6077],[77.438,11.6365],[77.4402,11.6389],[77.4402,11.6411],[77.4373,11.6452],[77.4372,11.6475],[77.4488,11.6575],[77.4521,11.662],[77.4535,11.6667],[77.4503,11.6681],[77.4492,11.67],[77.441,11.6727],[77.4392,11.6747],[77.4396,11.6789],[77.4415,11.6812],[77.4354,11.7031],[77.4364,11.707],[77.4411,11.7074],[77.4386,11.7104],[77.4401,11.7127],[77.4427,11.7134],[77.4426,11.7177],[77.4395,11.7194],[77.4386,11.7149],[77.4342,11.7158],[77.435,11.7235],[77.4336,11.7261],[77.4347,11.7324],[77.4286,11.7321],[77.4263,11.7338],[77.4237,11.729],[77.4202,11.7288],[77.4188,11.7299],[77.4185,11.7349],[77.4153,11.741],[77.4206,11.7494],[77.4261,11.7535],[77.4266,11.7558],[77.4248,11.7595],[77.4287,11.762],[77.428,11.767],[77.4336,11.7779],[77.4422,11.7833],[77.4396,11.7856],[77.44,11.7881],[77.4466,11.7903],[77.4498,11.796],[77.4498,11.8006],[77.4528,11.8081],[77.4521,11.8133],[77.4534,11.8185],[77.457,11.829],[77.4603,11.8319],[77.4633,11.8416],[77.4664,11.8463],[77.4662,11.8501],[77.4614,11.8537],[77.463,11.8589],[77.4599,11.8635],[77.4628,11.8648],[77.4658,11.8742],[77.4604,11.8817],[77.4631,11.8844],[77.4622,11.888],[77.464,11.8941],[77.4616,11.9],[77.4637,11.9008],[77.4743,11.8988],[77.4741,11.8944],[77.4767,11.8909],[77.4784,11.8907],[77.4806,11.8934],[77.484,11.8881],[77.4862,11.8874],[77.4831,11.8996],[77.4906,11.9085],[77.4909,11.9107],[77.4886,11.9124],[77.4919,11.9212],[77.4929,11.9413],[77.4954,11.9441],[77.5004,11.94],[77.5049,11.9412],[77.5123,11.9379],[77.5183,11.9383],[77.5282,11.9338],[77.5335,11.9339],[77.538,11.9324],[77.5425,11.9382],[77.561,11.942],[77.5753,11.9365],[77.5859,11.9369],[77.5884,11.9394],[77.5936,11.9403],[77.6034,11.9377],[77.6069,11.9421],[77.6125,11.9424],[77.624,11.9473],[77.6288,11.9464],[77.6394,11.9481],[77.6423,11.9501],[77.6472,11.9505],[77.6487,11.9537],[77.652,11.9549],[77.6562,11.9535],[77.6574,11.9499],[77.6605,11.9495],[77.6691,11.9491],[77.6726,11.9516],[77.6753,11.9519],[77.6737,11.9472],[77.675,11.9399],[77.6837,11.9215],[77.6837,11.9184],[77.6785,11.905],[77.6813,11.8974],[77.6834,11.8956],[77.6854,11.8845],[77.685,11.8769],[77.6614,11.8777],[77.6601,11.8574],[77.6619,11.8517],[77.6465,11.8233],[77.6457,11.8194],[77.6521,11.8122],[77.6607,11.8132],[77.6652,11.8235],[77.6906,11.8173],[77.6996,11.8098],[77.7098,11.8095],[77.7089,11.7969],[77.7216,11.7941],[77.7152,11.7768],[77.7074,11.7608],[77.7077,11.7562],[77.698,11.734],[77.6988,11.7277],[77.6959,11.7198],[77.6909,11.7157],[77.6936,11.7106],[77.6933,11.7073],[77.695,11.706],[77.6898,11.6934],[77.6958,11.695],[77.6972,11.6932],[77.6938,11.6734],[77.6888,11.6637],[77.6886,11.6517],[77.6948,11.6403],[77.6944,11.6388],[77.6994,11.6365],[77.6994,11.6342],[77.7032,11.6333],[77.7108,11.6392],[77.7156,11.6413],[77.7172,11.6454],[77.7142,11.6481],[77.7169,11.6498],[77.7181,11.6493],[77.7208,11.6518],[77.7239,11.6495],[77.7272,11.6542],[77.7294,11.6538],[77.7309,11.6563],[77.7355,11.6574],[77.7402,11.6536],[77.7448,11.6541],[77.7512,11.6621],[77.7697,11.6961],[77.7758,11.6955],[77.7718,11.6836],[77.7668,11.6759],[77.7659,11.6662],[77.7621,11.6587],[77.7605,11.6483],[77.7498,11.6329],[77.749,11.6228],[77.743,11.6163],[77.7382,11.6078],[77.7346,11.6097],[77.7361,11.6123],[77.7361,11.6164],[77.7417,11.6217],[77.7391,11.6235],[77.7336,11.6174],[77.734,11.6115],[77.7256,11.6105],[77.7216,11.6123],[77.7176,11.5966],[77.7114,11.5956],[77.7106,11.5984],[77.7022,11.6001],[77.7014,11.603],[77.6977,11.6072],[77.691,11.6092],[77.6889,11.6087],[77.686,11.6053],[77.6892,11.5989],[77.6896,11.5944],[77.6872,11.591],[77.6866,11.5826],[77.6801,11.5822],[77.6784,11.5766],[77.6766,11.5754],[77.6697,11.5759],[77.6645,11.5795],[77.6634,11.5837],[77.6592,11.5844],[77.6491,11.5833],[77.6482,11.582],[77.6342,11.5773],[77.6237,11.5758],[77.6205,11.5735],[77.6196,11.5672],[77.6222,11.5679],[77.6238,11.5655],[77.6258,11.565],[77.6292,11.5683],[77.6366,11.5664],[77.6379,11.5648],[77.6362,11.5576],[77.633,11.5581],[77.6325,11.5564],[77.633,11.5536],[77.6361,11.5556],[77.6373,11.5543],[77.6365,11.5505],[77.6376,11.5429],[77.6309,11.5447],[77.6223,11.5431],[77.6184,11.5443],[77.6115,11.542],[77.6091,11.5343],[77.604,11.5322],[77.6063,11.5292],[77.6081,11.5218]]]}},{"type":"Feature","properties":{"name":"Thalavadi taluk","kind":"safe","category":"Safe","stageOfExtractionPct":62.6,"annualRechargeHam":1783.5,"availableForFutureUseHam":855.9,"assessmentYear":"2024-2025","shedId":"SB127"},"geometry":{"type":"Polygon","coordinates":[[[77.0128,11.8147],[77.0138,11.8062],[77.0163,11.8074],[77.0167,11.8108],[77.0297,11.8046],[77.0304,11.8022],[77.034,11.8],[77.0325,11.796],[77.0351,11.794],[77.0386,11.7939],[77.0352,11.7831],[77.0289,11.7753],[77.035,11.7697],[77.0395,11.7802],[77.0428,11.7818],[77.0458,11.7873],[77.0503,11.7896],[77.0574,11.7889],[77.0621,11.7903],[77.0667,11.788],[77.0701,11.7799],[77.0678,11.7804],[77.0668,11.7784],[77.0611,11.776],[77.0599,11.7718],[77.0564,11.7693],[77.0648,11.7582],[77.0823,11.7399],[77.0804,11.7361],[77.1049,11.7329],[77.1136,11.723],[77.1175,11.7211],[77.118,11.7259],[77.116,11.7258],[77.1172,11.7285],[77.1156,11.728],[77.1152,11.729],[77.1174,11.7318],[77.1141,11.7346],[77.1147,11.7394],[77.1117,11.7427],[77.1112,11.7504],[77.1085,11.7526],[77.1126,11.7566],[77.1117,11.7634],[77.1128,11.7653],[77.1125,11.7689],[77.1108,11.7709],[77.1109,11.7736],[77.1146,11.7735],[77.1159,11.7746],[77.1234,11.7721],[77.1306,11.7737],[77.1381,11.7725],[77.1472,11.7818],[77.182,11.7864],[77.1898,11.7926],[77.2219,11.7956],[77.2384,11.7947],[77.2496,11.8042],[77.2499,11.8131],[77.2616,11.8107],[77.2734,11.8054],[77.2744,11.803],[77.288,11.8005],[77.2938,11.809],[77.3127,11.7936],[77.3284,11.7736],[77.3348,11.7683],[77.3385,11.7558],[77.3411,11.7515],[77.3349,11.7419],[77.3213,11.7308],[77.3186,11.7179],[77.3149,11.7179],[77.3087,11.7152],[77.3062,11.7037],[77.3131,11.6957],[77.3055,11.6883],[77.2989,11.686],[77.2954,11.6874],[77.2859,11.6806],[77.2746,11.6834],[77.2716,11.6866],[77.2702,11.6936],[77.264,11.6986],[77.243,11.7039],[77.2369,11.7014],[77.2325,11.6975],[77.2272,11.6869],[77.2374,11.6763],[77.2418,11.6764],[77.2383,11.6656],[77.2374,11.6473],[77.2445,11.6325],[77.2481,11.6291],[77.2461,11.6191],[77.2418,11.6079],[77.2331,11.5957],[77.2198,11.5832],[77.2135,11.5788],[77.2081,11.5824],[77.2047,11.5814],[77.2032,11.5755],[77.1979,11.5764],[77.188,11.5673],[77.1843,11.5617],[77.1693,11.5554],[77.1648,11.5474],[77.1587,11.5474],[77.1569,11.5449],[77.1386,11.5437],[77.1372,11.5419],[77.1213,11.5425],[77.1204,11.5385],[77.1104,11.5369],[77.1132,11.5299],[77.112,11.5254],[77.1144,11.5162],[77.1128,11.5089],[77.0831,11.5088],[77.0724,11.5144],[77.0616,11.5121],[77.0597,11.5103],[77.0513,11.5165],[77.0453,11.5178],[77.0407,11.5167],[77.0338,11.5183],[77.0333,11.5207],[77.03,11.5237],[77.0213,11.5223],[77.0177,11.5266],[77.0145,11.5273],[77.0065,11.525],[77.0094,11.5298],[77.0053,11.5372],[77.005,11.5401],[77.0071,11.5465],[77.0017,11.5463],[76.9992,11.5477],[76.9942,11.547],[76.9906,11.553],[76.9853,11.5555],[76.9772,11.554],[76.9733,11.5585],[76.9742,11.5638],[76.9734,11.5655],[76.9675,11.5654],[76.9613,11.5714],[76.9557,11.5699],[76.9536,11.5735],[76.9453,11.5735],[76.9408,11.5795],[76.9312,11.5749],[76.9241,11.5786],[76.9209,11.5789],[76.9174,11.5657],[76.9151,11.5679],[76.9108,11.579],[76.9074,11.5811],[76.9049,11.5809],[76.8923,11.5728],[76.8831,11.5738],[76.8744,11.5811],[76.8579,11.5774],[76.8522,11.578],[76.8467,11.5822],[76.8478,11.5889],[76.8472,11.5949],[76.8527,11.5966],[76.8564,11.5993],[76.8572,11.6055],[76.8556,11.6076],[76.8577,11.6102],[76.8581,11.6141],[76.856,11.6157],[76.8502,11.6163],[76.8489,11.6189],[76.8521,11.6217],[76.8495,11.6211],[76.8486,11.6232],[76.8496,11.6244],[76.8466,11.6247],[76.8451,11.6268],[76.8427,11.6271],[76.8448,11.6282],[76.8451,11.6342],[76.8441,11.6326],[76.8405,11.6355],[76.8384,11.6354],[76.8346,11.6395],[76.8379,11.642],[76.8339,11.6479],[76.8362,11.6539],[76.835,11.6555],[76.8377,11.6562],[76.8384,11.6597],[76.8418,11.6622],[76.8414,11.666],[76.8436,11.6682],[76.844,11.6728],[76.8485,11.6797],[76.8527,11.6924],[76.8637,11.7054],[76.8611,11.7073],[76.8618,11.7097],[76.8741,11.7242],[76.8799,11.7269],[76.8883,11.7337],[76.8881,11.7417],[76.8942,11.7542],[76.8952,11.7591],[76.8972,11.7704],[76.8959,11.7757],[76.9071,11.7953],[76.9225,11.7914],[76.9312,11.7924],[76.9422,11.7876],[76.9445,11.7879],[76.9498,11.7916],[76.9536,11.7919],[76.9552,11.7912],[76.9607,11.7813],[76.9697,11.7765],[76.9728,11.7804],[76.9726,11.7842],[76.9748,11.7887],[76.9805,11.7949],[76.9799,11.7982],[76.9834,11.801],[76.9822,11.8036],[76.9819,11.8112],[76.9853,11.8116],[76.994,11.8091],[77.0128,11.8147]]]}},{"type":"Feature","properties":{"name":"Modakurichi taluk","kind":"semi-critical","category":"Semi Critical","stageOfExtractionPct":77.1,"annualRechargeHam":1333.0,"availableForFutureUseHam":2402.0,"assessmentYear":"2024-2025","shedId":"SB123"},"geometry":{"type":"MultiPolygon","coordinates":[[[[77.7589,11.3226],[77.7617,11.3245],[77.7664,11.321],[77.7673,11.318],[77.7648,11.3149],[77.7691,11.3151],[77.7707,11.3136],[77.7714,11.3111],[77.7699,11.3089],[77.7736,11.3069],[77.7761,11.302],[77.7772,11.3026],[77.7764,11.3053],[77.774,11.3072],[77.7722,11.3112],[77.777,11.3135],[77.7819,11.3032],[77.7936,11.2898],[77.8086,11.2675],[77.8262,11.2619],[77.8395,11.2622],[77.8539,11.2537],[77.857,11.2496],[77.8481,11.2421],[77.8464,11.2361],[77.8434,11.2329],[77.8459,11.2277],[77.8396,11.2257],[77.8347,11.2214],[77.8323,11.2084],[77.8342,11.2011],[77.8338,11.1927],[77.8303,11.1919],[77.8303,11.1898],[77.827,11.1842],[77.8297,11.1759],[77.8344,11.1703],[77.8368,11.157],[77.8399,11.1551],[77.8399,11.1517],[77.8423,11.1488],[77.8387,11.1463],[77.8313,11.144],[77.8307,11.1427],[77.8251,11.1478],[77.823,11.1455],[77.8088,11.1493],[77.8051,11.1482],[77.7973,11.1487],[77.7979,11.1452],[77.7945,11.1433],[77.7933,11.1398],[77.7823,11.137],[77.7817,11.1288],[77.78,11.1249],[77.7774,11.1226],[77.7751,11.1228],[77.7738,11.118],[77.7713,11.1173],[77.7554,11.1166],[77.7492,11.1188],[77.7499,11.1303],[77.7424,11.1299],[77.7415,11.1278],[77.7392,11.1277],[77.7359,11.1249],[77.7197,11.1248],[77.721,11.1219],[77.7198,11.1113],[77.7209,11.1043],[77.7109,11.1061],[77.707,11.1099],[77.7004,11.1081],[77.6857,11.1111],[77.6767,11.1105],[77.6718,11.1117],[77.6694,11.1132],[77.6673,11.1171],[77.6594,11.1201],[77.6584,11.1215],[77.6595,11.1294],[77.6505,11.13],[77.6508,11.1349],[77.6526,11.139],[77.6514,11.1567],[77.648,11.1586],[77.6452,11.1625],[77.6498,11.1752],[77.6488,11.1779],[77.6468,11.1781],[77.6467,11.182],[77.6405,11.1902],[77.6459,11.1957],[77.6475,11.2033],[77.6585,11.2024],[77.6597,11.2169],[77.6718,11.2189],[77.6882,11.2172],[77.6865,11.2255],[77.6877,11.236],[77.6857,11.2362],[77.6855,11.2383],[77.684,11.239],[77.6832,11.2349],[77.6814,11.2348],[77.6806,11.2372],[77.6794,11.2372],[77.6788,11.2351],[77.6767,11.2366],[77.6766,11.2386],[77.674,11.2387],[77.6755,11.2406],[77.6755,11.2434],[77.6716,11.2427],[77.6724,11.2467],[77.6681,11.2467],[77.6646,11.2548],[77.6668,11.2559],[77.6651,11.2575],[77.6676,11.2614],[77.6697,11.2616],[77.6697,11.2592],[77.6716,11.2592],[77.6735,11.2634],[77.6768,11.2652],[77.6745,11.2658],[77.6763,11.2671],[77.6779,11.2639],[77.6801,11.2652],[77.6808,11.2639],[77.6794,11.2576],[77.6807,11.2569],[77.6851,11.2676],[77.6879,11.2699],[77.6913,11.284],[77.696,11.2837],[77.697,11.2884],[77.7032,11.2893],[77.7046,11.2906],[77.7079,11.2901],[77.7105,11.2924],[77.7167,11.2914],[77.7178,11.2927],[77.7192,11.2914],[77.7223,11.2915],[77.7228,11.2935],[77.7249,11.294],[77.7243,11.2999],[77.7266,11.3104],[77.7272,11.3111],[77.7288,11.3096],[77.7303,11.3114],[77.7334,11.3115],[77.7328,11.317],[77.7338,11.3183],[77.7383,11.3197],[77.7526,11.3189],[77.7561,11.3228],[77.7559,11.3267],[77.7595,11.325],[77.7589,11.3226]]],[[[77.6829,11.2712],[77.6804,11.2719],[77.6809,11.2731],[77.6794,11.2738],[77.6786,11.2764],[77.68,11.2791],[77.6827,11.2792],[77.6839,11.2844],[77.6849,11.2836],[77.685,11.2786],[77.6829,11.2712]]],[[[77.6833,11.2317],[77.6829,11.2266],[77.6843,11.2225],[77.6835,11.2217],[77.6768,11.2268],[77.6776,11.2299],[77.6804,11.2287],[77.6816,11.2323],[77.6833,11.2317]]]]}},{"type":"Feature","properties":{"name":"Kodumudi taluk","kind":"semi-critical","category":"Semi Critical","stageOfExtractionPct":74.4,"annualRechargeHam":807.9,"availableForFutureUseHam":1754.8,"assessmentYear":"2024-2025","shedId":"SB123"},"geometry":{"type":"Polygon","coordinates":[[[77.8853,11.1518],[77.8819,11.1225],[77.8862,11.1089],[77.8875,11.0904],[77.8898,11.0821],[77.8935,11.078],[77.9022,11.0747],[77.9203,11.0739],[77.9317,11.069],[77.9289,11.0613],[77.9236,11.0562],[77.9207,11.0495],[77.921,11.0477],[77.9185,11.045],[77.9168,11.0441],[77.9104,11.0462],[77.9088,11.0457],[77.9052,11.0423],[77.902,11.0339],[77.8869,11.03],[77.8837,11.025],[77.8813,11.0236],[77.8679,11.0222],[77.8616,11.0291],[77.8553,11.0296],[77.8522,11.034],[77.851,11.0446],[77.8459,11.0474],[77.8403,11.0434],[77.8301,11.0469],[77.8287,11.0528],[77.8297,11.058],[77.8282,11.0613],[77.8224,11.0668],[77.8166,11.0693],[77.8105,11.0688],[77.8086,11.0633],[77.8046,11.0618],[77.7935,11.0661],[77.787,11.0627],[77.7796,11.061],[77.7764,11.0567],[77.7673,11.0616],[77.7653,11.0616],[77.7639,11.065],[77.7538,11.0709],[77.7504,11.0766],[77.7476,11.0771],[77.7381,11.085],[77.7362,11.0853],[77.7322,11.0823],[77.7314,11.077],[77.7298,11.0757],[77.7137,11.077],[77.7109,11.0799],[77.7102,11.0847],[77.7078,11.0887],[77.7012,11.0938],[77.6903,11.0949],[77.6855,11.0976],[77.6743,11.0984],[77.6611,11.102],[77.6547,11.1081],[77.6596,11.1201],[77.6673,11.1171],[77.6694,11.1132],[77.6718,11.1117],[77.6767,11.1105],[77.6857,11.1111],[77.7004,11.1081],[77.707,11.1099],[77.7109,11.1061],[77.7209,11.1043],[77.7198,11.1113],[77.721,11.1219],[77.7197,11.1248],[77.7359,11.1249],[77.7392,11.1277],[77.7415,11.1278],[77.7424,11.1299],[77.7499,11.1303],[77.7492,11.1188],[77.7554,11.1166],[77.7713,11.1173],[77.7738,11.118],[77.7751,11.1228],[77.7774,11.1226],[77.78,11.1249],[77.7817,11.1288],[77.7823,11.137],[77.7933,11.1398],[77.7945,11.1433],[77.7979,11.1452],[77.7973,11.1487],[77.8051,11.1482],[77.8088,11.1493],[77.823,11.1455],[77.8251,11.1478],[77.8307,11.1427],[77.8346,11.1457],[77.8406,11.1473],[77.8423,11.1488],[77.8399,11.1517],[77.8399,11.1551],[77.8368,11.157],[77.8344,11.1703],[77.8297,11.1759],[77.827,11.1842],[77.8303,11.1898],[77.8303,11.1919],[77.8338,11.1927],[77.8342,11.2011],[77.8323,11.2084],[77.8347,11.2214],[77.8396,11.2257],[77.8459,11.2277],[77.8434,11.2329],[77.8464,11.2361],[77.8481,11.2421],[77.857,11.2496],[77.8619,11.2457],[77.8654,11.2407],[77.8669,11.2294],[77.8709,11.2169],[77.8704,11.213],[77.8642,11.2013],[77.8616,11.1871],[77.8621,11.1824],[77.8636,11.178],[77.868,11.1722],[77.8801,11.1632],[77.883,11.1588],[77.8853,11.1518]]]}},{"type":"Feature","properties":{"name":"Nambiyur taluk","kind":"over-exploited","category":"Over Exploited","stageOfExtractionPct":171.4,"annualRechargeHam":1030.9,"availableForFutureUseHam":266.7,"assessmentYear":"2024-2025","shedId":"SB120"},"geometry":{"type":"Polygon","coordinates":[[[77.3422,11.4585],[77.3458,11.4571],[77.3464,11.4546],[77.3461,11.4534],[77.3432,11.4528],[77.3444,11.4514],[77.3564,11.4498],[77.355,11.4479],[77.3544,11.4422],[77.3564,11.4413],[77.3562,11.4479],[77.3585,11.4465],[77.3596,11.4498],[77.3598,11.443],[77.362,11.4423],[77.3626,11.4441],[77.3707,11.4412],[77.3714,11.4366],[77.3736,11.4339],[77.3714,11.431],[77.3712,11.4267],[77.368,11.4273],[77.3648,11.4258],[77.3604,11.4257],[77.3529,11.4267],[77.3547,11.4145],[77.3517,11.4027],[77.3557,11.3979],[77.3593,11.398],[77.3584,11.3853],[77.3624,11.3836],[77.3662,11.384],[77.3675,11.3825],[77.3688,11.3703],[77.3732,11.3704],[77.3759,11.3681],[77.3762,11.378],[77.3777,11.3819],[77.3807,11.3819],[77.3836,11.38],[77.3965,11.3763],[77.3966,11.3804],[77.3942,11.3854],[77.3955,11.3893],[77.4005,11.3902],[77.4016,11.3939],[77.4107,11.392],[77.4136,11.3937],[77.4148,11.3934],[77.4158,11.3859],[77.4193,11.3808],[77.4164,11.3727],[77.4141,11.3702],[77.4147,11.3643],[77.4162,11.3629],[77.4253,11.3616],[77.4275,11.3616],[77.4281,11.3628],[77.4374,11.3605],[77.4365,11.3571],[77.4374,11.3535],[77.4398,11.3529],[77.4394,11.351],[77.4372,11.3453],[77.4341,11.3453],[77.4325,11.3439],[77.4311,11.3344],[77.4299,11.3346],[77.4282,11.3302],[77.4253,11.3291],[77.4242,11.3273],[77.4242,11.3168],[77.4215,11.3127],[77.4162,11.3116],[77.4151,11.3131],[77.3962,11.3192],[77.3961,11.321],[77.3934,11.3227],[77.387,11.3231],[77.3834,11.3313],[77.3794,11.3314],[77.3784,11.3401],[77.3738,11.3396],[77.3696,11.3422],[77.3633,11.3429],[77.3672,11.3289],[77.3661,11.319],[77.3624,11.3198],[77.3606,11.3177],[77.3559,11.3189],[77.3513,11.3175],[77.3427,11.3192],[77.3336,11.3181],[77.3348,11.3155],[77.3339,11.3102],[77.3354,11.3067],[77.3458,11.3025],[77.3458,11.2993],[77.3473,11.2982],[77.3489,11.2917],[77.348,11.284],[77.3453,11.283],[77.3467,11.2794],[77.3446,11.2764],[77.3446,11.2736],[77.3422,11.2743],[77.3408,11.2715],[77.3414,11.2696],[77.3354,11.2649],[77.3351,11.2631],[77.3371,11.2618],[77.3371,11.2588],[77.3332,11.2593],[77.3324,11.258],[77.3168,11.2625],[77.3131,11.2654],[77.3047,11.2671],[77.3007,11.272],[77.2968,11.2745],[77.3083,11.2769],[77.3122,11.2791],[77.3134,11.2834],[77.3019,11.2879],[77.2979,11.2868],[77.2923,11.2888],[77.2866,11.2932],[77.2868,11.298],[77.289,11.3016],[77.2881,11.3176],[77.2891,11.3242],[77.292,11.3316],[77.2919,11.3379],[77.2892,11.3397],[77.2899,11.3453],[77.2881,11.3446],[77.2874,11.3398],[77.2892,11.3366],[77.2885,11.3352],[77.2829,11.3357],[77.2765,11.3323],[77.2632,11.3177],[77.2578,11.3153],[77.2549,11.3159],[77.2542,11.3121],[77.2513,11.3135],[77.2502,11.3172],[77.2531,11.3217],[77.2565,11.3213],[77.2504,11.3293],[77.2513,11.3313],[77.2479,11.3289],[77.2482,11.3261],[77.2384,11.3244],[77.2387,11.3228],[77.2414,11.3222],[77.2418,11.3205],[77.2391,11.3114],[77.2414,11.3068],[77.2227,11.3041],[77.2197,11.3046],[77.2173,11.2996],[77.2118,11.3004],[77.2089,11.2989],[77.2021,11.303],[77.2039,11.3098],[77.2145,11.3085],[77.2182,11.3069],[77.2215,11.308],[77.2197,11.3135],[77.2238,11.3157],[77.2251,11.3149],[77.2252,11.3167],[77.2272,11.3184],[77.231,11.3161],[77.2367,11.3151],[77.2371,11.3216],[77.2358,11.326],[77.2376,11.326],[77.2346,11.3339],[77.2328,11.334],[77.2327,11.3363],[77.229,11.3361],[77.2297,11.3389],[77.224,11.3393],[77.2229,11.3422],[77.2253,11.3441],[77.227,11.3434],[77.2305,11.3471],[77.236,11.3498],[77.235,11.3518],[77.2386,11.3551],[77.2415,11.3546],[77.244,11.3571],[77.2532,11.3616],[77.2506,11.3643],[77.2506,11.366],[77.2523,11.367],[77.2541,11.3663],[77.2564,11.3705],[77.2631,11.3721],[77.265,11.3823],[77.2682,11.383],[77.2657,11.3896],[77.2619,11.39],[77.2608,11.3847],[77.2557,11.3866],[77.2569,11.3878],[77.2557,11.392],[77.2503,11.3901],[77.2437,11.3899],[77.2437,11.3926],[77.246,11.3928],[77.2461,11.3951],[77.2481,11.3935],[77.2483,11.3947],[77.2502,11.3951],[77.2524,11.4069],[77.2558,11.4098],[77.2554,11.414],[77.257,11.4148],[77.2547,11.418],[77.2551,11.4196],[77.2523,11.4191],[77.2516,11.415],[77.2494,11.415],[77.2488,11.4178],[77.245,11.4171],[77.2441,11.4183],[77.2477,11.4229],[77.2456,11.4261],[77.2456,11.4379],[77.248,11.4384],[77.2488,11.4402],[77.2528,11.4399],[77.2537,11.4413],[77.2559,11.4376],[77.2585,11.437],[77.2628,11.4335],[77.2635,11.4294],[77.2678,11.4287],[77.2706,11.4307],[77.271,11.4364],[77.2742,11.44],[77.2738,11.4361],[77.2753,11.4354],[77.2824,11.4355],[77.2835,11.4383],[77.2814,11.4391],[77.2822,11.4408],[77.2884,11.437],[77.2891,11.438],[77.2928,11.4375],[77.2938,11.4402],[77.2948,11.4402],[77.2958,11.4355],[77.3004,11.433],[77.305,11.4335],[77.3058,11.4355],[77.3084,11.4358],[77.3116,11.4434],[77.3214,11.4465],[77.3215,11.448],[77.3311,11.4485],[77.3305,11.4506],[77.3403,11.4532],[77.3422,11.4585]]]}}]}