{"nvdm":"1.0","dataset":"basins/groundwater-wells","scope":{"kind":"basin","id":"erode-rivers"},"provenance":{"sources":[{"id":"nwic-nwdp-groundwater-level","title":"National Water Data Portal: Ground Water Level datasets for Tamil Nadu (CGWB telemetry 2026-2030, Tamil Nadu SW GW telemetry 2026-2030, CGWB manual quarterly 2021-2025)","publisher":"National Water Informatics Centre (NWIC), Ministry of Jal Shakti","license":"Government of India open data portal: its copyright policy permits reproduction free of charge in any format without specific permission, reproduced accurately and with the source prominently acknowledged; cited with attribution","role":"input","url":"https://nwdp.nwic.gov.in/"},{"id":"tngis-open-geoserver","title":"TNGIS open GeoServer (WFS): district, taluk, block and village panchayat boundaries, TN WRD sub-basins and reservoirs, micro-watershed atlas, all-water-bodies register, named tanks, mine leases, industry register matched to land parcels","publisher":"Tamil Nadu e-Governance Agency (TNGIS)","license":"Tamil Nadu government data on an open GeoServer (WFS, no login); published with TNGIS's permission and with attribution.","role":"input","url":"https://tngis.tn.gov.in/tngismaps/ows"}],"method":"derived","produced_at":"2026-09-18","produced_by":"scripts/build_erode_rivers_basin.py","internal_inputs":["public/data/basins/erode-rivers/sub-hydrosheds.geojson"],"note":"Erode district's rivers, groundwater and industry (scope erode-rivers; the district's own scope id is tn-erode). The district boundary is the frame and TN WRD's sub-basins, clipped to it, are the catchments (shedId). The industry register holds only units TNGIS matched to a land parcel, so every count is a lower bound; sector comes from the reviewed TNPCB type-code lookup pipeline-inputs/basins/erode-rivers/tnpcb-type-sectors.json."},"type":"FeatureCollection","features":[{"type":"Feature","properties":{"name":"Alukuli Pz","kind":"cgwb-telemetry","network":"CGWB telemetry, six-hourly, 2026","agency":"CGWB","latestDepthMbgl":8.24,"latestReading":"2026-09-01","shallowestMbgl":0.67,"deepestMbgl":8.24,"firstReading":"2026-01-01","readingsCount":636,"shedId":"SB120"},"geometry":{"type":"Point","coordinates":[77.3578,11.4481]}},{"type":"Feature","properties":{"name":"Ammapet1 1","kind":"cgwb-telemetry","network":"CGWB telemetry, six-hourly, 2026","agency":"CGWB","latestDepthMbgl":8.22,"latestReading":"2026-09-01","shallowestMbgl":5.13,"deepestMbgl":9.57,"firstReading":"2026-01-01","readingsCount":299,"shedId":"SB123"},"geometry":{"type":"Point","coordinates":[77.7167,11.625]}},{"type":"Feature","properties":{"name":"Arachchalur 1","kind":"cgwb-telemetry","network":"CGWB telemetry, six-hourly, 2026","agency":"CGWB","latestDepthMbgl":23.89,"latestReading":"2026-09-09","shallowestMbgl":15.92,"deepestMbgl":26.52,"firstReading":"2026-01-15","readingsCount":681,"shedId":"SB123"},"geometry":{"type":"Point","coordinates":[77.7,11.1667]}},{"type":"Feature","properties":{"name":"Ariyappanpalayam Pz 1","kind":"cgwb-telemetry","network":"CGWB telemetry, six-hourly, 2026","agency":"CGWB","latestDepthMbgl":5.41,"latestReading":"2026-09-09","shallowestMbgl":4.08,"deepestMbgl":5.41,"firstReading":"2026-01-01","readingsCount":878,"shedId":"SB120"},"geometry":{"type":"Point","coordinates":[77.2542,11.4756]}},{"type":"Feature","properties":{"name":"Asanur Pz","kind":"cgwb-telemetry","network":"CGWB telemetry, six-hourly, 2026","agency":"CGWB","latestDepthMbgl":19.97,"latestReading":"2026-09-01","shallowestMbgl":15.78,"deepestMbgl":19.97,"firstReading":"2026-01-01","readingsCount":640,"shedId":"SB127"},"geometry":{"type":"Point","coordinates":[77.1289,11.6739]}},{"type":"Feature","properties":{"name":"Avalpundurai 1","kind":"cgwb-telemetry","network":"CGWB telemetry, six-hourly, 2026","agency":"CGWB","latestDepthMbgl":10.23,"latestReading":"2026-09-01","shallowestMbgl":3.18,"deepestMbgl":10.23,"firstReading":"2026-01-01","readingsCount":640,"shedId":"SB123"},"geometry":{"type":"Point","coordinates":[77.7208,11.2333]}},{"type":"Feature","properties":{"name":"Basuvapatti Pz","kind":"cgwb-telemetry","network":"CGWB telemetry, six-hourly, 2026","agency":"CGWB","latestDepthMbgl":4.6,"latestReading":"2026-09-01","shallowestMbgl":0.74,"deepestMbgl":4.6,"firstReading":"2026-01-01","readingsCount":620,"shedId":"SB126"},"geometry":{"type":"Point","coordinates":[77.6053,11.1381]}},{"type":"Feature","properties":{"name":"Chennampatti Pz 1","kind":"cgwb-telemetry","network":"CGWB telemetry, six-hourly, 2026","agency":"CGWB","latestDepthMbgl":13.02,"latestReading":"2026-09-01","shallowestMbgl":10.35,"deepestMbgl":17.08,"firstReading":"2026-01-01","readingsCount":620,"shedId":"SB123"},"geometry":{"type":"Point","coordinates":[77.6719,11.7011]}},{"type":"Feature","properties":{"name":"Chennimalai1 1","kind":"cgwb-telemetry","network":"CGWB telemetry, six-hourly, 2026","agency":"CGWB","latestDepthMbgl":7.01,"latestReading":"2026-08-01","shallowestMbgl":-1.84,"deepestMbgl":7.01,"firstReading":"2026-01-01","readingsCount":721,"shedId":"SB126"},"geometry":{"type":"Point","coordinates":[77.5917,11.1583]}},{"type":"Feature","properties":{"name":"E.Vellampalayam Pz 1","kind":"cgwb-telemetry","network":"CGWB telemetry, six-hourly, 2026","agency":"CGWB","latestDepthMbgl":5.1,"latestReading":"2026-09-01","shallowestMbgl":1.86,"deepestMbgl":7.6,"firstReading":"2026-01-01","readingsCount":279,"shedId":"SB123"},"geometry":{"type":"Point","coordinates":[77.6806,11.1697]}},{"type":"Feature","properties":{"name":"Erode Pz","kind":"cgwb-telemetry","network":"CGWB telemetry, six-hourly, 2026","agency":"CGWB","latestDepthMbgl":7.78,"latestReading":"2026-09-01","shallowestMbgl":3.85,"deepestMbgl":7.97,"firstReading":"2026-01-01","readingsCount":640,"shedId":"SB123"},"geometry":{"type":"Point","coordinates":[77.7169,11.3661]}},{"type":"Feature","properties":{"name":"Gobichettipalayam 1","kind":"cgwb-telemetry","network":"CGWB telemetry, six-hourly, 2026","agency":"CGWB","tehsil":"Gobichettipalayam","latestDepthMbgl":12.63,"latestReading":"2026-09-08","shallowestMbgl":9.89,"deepestMbgl":13.25,"firstReading":"2026-01-01","readingsCount":751,"shedId":"SB120"},"geometry":{"type":"Point","coordinates":[77.45,11.45]}},{"type":"Feature","properties":{"name":"Guruvareddiyur 1","kind":"cgwb-telemetry","network":"CGWB telemetry, six-hourly, 2026","agency":"CGWB","latestDepthMbgl":24.2,"latestReading":"2026-09-01","shallowestMbgl":15.47,"deepestMbgl":24.75,"firstReading":"2026-01-01","readingsCount":628,"shedId":"SB123"},"geometry":{"type":"Point","coordinates":[77.6833,11.6417]}},{"type":"Feature","properties":{"name":"Kambaliyampatti Pz 1","kind":"cgwb-telemetry","network":"CGWB telemetry, six-hourly, 2026","agency":"CGWB","latestDepthMbgl":77.95,"latestReading":"2026-09-09","shallowestMbgl":0.02,"deepestMbgl":83.27,"firstReading":"2026-01-01","readingsCount":689,"shedId":"SB126"},"geometry":{"type":"Point","coordinates":[77.5253,11.2314]}},{"type":"Feature","properties":{"name":"Kambanaickenpalayam Pz","kind":"cgwb-telemetry","network":"CGWB telemetry, six-hourly, 2026","agency":"CGWB","latestDepthMbgl":22.31,"latestReading":"2026-09-09","shallowestMbgl":13.26,"deepestMbgl":22.31,"firstReading":"2026-01-01","readingsCount":824,"shedId":"SB120"},"geometry":{"type":"Point","coordinates":[77.2953,11.5297]}},{"type":"Feature","properties":{"name":"Kasipalayam Pz 1","kind":"cgwb-telemetry","network":"CGWB telemetry, six-hourly, 2026","agency":"CGWB","latestDepthMbgl":8.28,"latestReading":"2026-09-01","shallowestMbgl":1.76,"deepestMbgl":8.85,"firstReading":"2026-01-01","readingsCount":624,"shedId":"SB120"},"geometry":{"type":"Point","coordinates":[77.3344,11.4544]}},{"type":"Feature","properties":{"name":"Kathampalayam Pz","kind":"cgwb-telemetry","network":"CGWB telemetry, six-hourly, 2026","agency":"CGWB","latestDepthMbgl":24.73,"latestReading":"2026-09-01","shallowestMbgl":14.0,"deepestMbgl":24.74,"firstReading":"2026-01-01","readingsCount":640,"shedId":"SB120"},"geometry":{"type":"Point","coordinates":[77.2411,11.4256]}},{"type":"Feature","properties":{"name":"Kattupalayam Pz 1","kind":"cgwb-telemetry","network":"CGWB telemetry, six-hourly, 2026","agency":"CGWB","latestDepthMbgl":10.49,"latestReading":"2026-09-01","shallowestMbgl":6.42,"deepestMbgl":11.72,"firstReading":"2026-01-01","readingsCount":540,"shedId":"SB120"},"geometry":{"type":"Point","coordinates":[77.5953,11.5453]}},{"type":"Feature","properties":{"name":"Kavilipalayam Pz 1","kind":"cgwb-telemetry","network":"CGWB telemetry, six-hourly, 2026","agency":"CGWB","latestDepthMbgl":9.42,"latestReading":"2026-09-01","shallowestMbgl":4.94,"deepestMbgl":9.42,"firstReading":"2026-01-01","readingsCount":632,"shedId":"SB120"},"geometry":{"type":"Point","coordinates":[77.2278,11.3792]}},{"type":"Feature","properties":{"name":"Kodumudi Pz","kind":"cgwb-telemetry","network":"CGWB telemetry, six-hourly, 2026","agency":"CGWB","tehsil":"Kodumudi","latestDepthMbgl":4.85,"latestReading":"2026-09-09","shallowestMbgl":4.13,"deepestMbgl":6.41,"firstReading":"2026-01-01","readingsCount":863,"shedId":"SB123"},"geometry":{"type":"Point","coordinates":[77.8853,11.0819]}},{"type":"Feature","properties":{"name":"Kosanam Pz","kind":"cgwb-telemetry","network":"CGWB telemetry, six-hourly, 2026","agency":"CGWB","tehsil":"Nambiyur","latestDepthMbgl":94.23,"latestReading":"2026-09-01","shallowestMbgl":83.98,"deepestMbgl":97.63,"firstReading":"2026-01-01","readingsCount":629,"shedId":"SB120"},"geometry":{"type":"Point","coordinates":[77.3578,11.3711]}},{"type":"Feature","properties":{"name":"Kottamangalam 1","kind":"cgwb-telemetry","network":"CGWB telemetry, six-hourly, 2026","agency":"CGWB","latestDepthMbgl":7.87,"latestReading":"2026-09-01","shallowestMbgl":2.16,"deepestMbgl":11.16,"firstReading":"2026-01-01","readingsCount":786,"shedId":"SB120"},"geometry":{"type":"Point","coordinates":[77.1333,11.4583]}},{"type":"Feature","properties":{"name":"Kugalur Pz","kind":"cgwb-telemetry","network":"CGWB telemetry, six-hourly, 2026","agency":"CGWB","tehsil":"Gobichettipalayam","latestDepthMbgl":33.56,"latestReading":"2026-09-09","shallowestMbgl":0.58,"deepestMbgl":33.65,"firstReading":"2026-03-10","readingsCount":517,"shedId":"SB120"},"geometry":{"type":"Point","coordinates":[77.4806,11.4833]}},{"type":"Feature","properties":{"name":"Kurichi Pz 1","kind":"cgwb-telemetry","network":"CGWB telemetry, six-hourly, 2026","agency":"CGWB","latestDepthMbgl":14.62,"latestReading":"2026-09-01","shallowestMbgl":10.3,"deepestMbgl":15.67,"firstReading":"2026-01-01","readingsCount":604,"shedId":"SB123"},"geometry":{"type":"Point","coordinates":[77.695,11.5731]}},{"type":"Feature","properties":{"name":"Malaiyapalayam Pz","kind":"cgwb-telemetry","network":"CGWB telemetry, six-hourly, 2026","agency":"CGWB","tehsil":"Nambiyur","latestDepthMbgl":12.31,"latestReading":"2026-09-01","shallowestMbgl":2.65,"deepestMbgl":14.75,"firstReading":"2026-01-01","readingsCount":622,"shedId":"SB120"},"geometry":{"type":"Point","coordinates":[77.3306,11.2903]}},{"type":"Feature","properties":{"name":"Nallampatti Pz","kind":"cgwb-telemetry","network":"CGWB telemetry, six-hourly, 2026","agency":"CGWB","latestDepthMbgl":7.53,"latestReading":"2026-09-09","shallowestMbgl":6.04,"deepestMbgl":10.08,"firstReading":"2026-01-01","readingsCount":882,"shedId":"SB120"},"geometry":{"type":"Point","coordinates":[77.5417,11.3333]}},{"type":"Feature","properties":{"name":"Pandiyampalayam Pz","kind":"cgwb-telemetry","network":"CGWB telemetry, six-hourly, 2026","agency":"CGWB","latestDepthMbgl":7.07,"latestReading":"2026-09-09","shallowestMbgl":6.99,"deepestMbgl":7.14,"firstReading":"2026-01-01","readingsCount":847,"shedId":"SB120"},"geometry":{"type":"Point","coordinates":[77.5175,11.3983]}},{"type":"Feature","properties":{"name":"Periyapuliyur Pz","kind":"cgwb-telemetry","network":"CGWB telemetry, six-hourly, 2026","agency":"CGWB","latestDepthMbgl":3.8,"latestReading":"2026-09-01","shallowestMbgl":0.9,"deepestMbgl":3.81,"firstReading":"2026-01-01","readingsCount":636,"shedId":"SB120"},"geometry":{"type":"Point","coordinates":[77.6492,11.4283]}},{"type":"Feature","properties":{"name":"Pethampalayam Perundurai Erode Tamil Nadu","kind":"cgwb-telemetry","network":"CGWB telemetry, six-hourly, 2026","agency":"CGWB","latestDepthMbgl":44.11,"latestReading":"2026-09-15","shallowestMbgl":32.1,"deepestMbgl":115.67,"firstReading":"2026-01-01","readingsCount":996,"shedId":"SB120"},"geometry":{"type":"Point","coordinates":[77.51806,11.33167]}},{"type":"Feature","properties":{"name":"Priyakolanalli Pz","kind":"cgwb-telemetry","network":"CGWB telemetry, six-hourly, 2026","agency":"CGWB","tehsil":"Kodumudi","latestDepthMbgl":3.66,"latestReading":"2026-09-09","shallowestMbgl":0.59,"deepestMbgl":5.39,"firstReading":"2026-01-01","readingsCount":878,"shedId":"SB123"},"geometry":{"type":"Point","coordinates":[77.8567,11.1744]}},{"type":"Feature","properties":{"name":"Pungaipuliampatti 1","kind":"cgwb-telemetry","network":"CGWB telemetry, six-hourly, 2026","agency":"CGWB","latestDepthMbgl":5.29,"latestReading":"2026-09-01","shallowestMbgl":0.33,"deepestMbgl":5.32,"firstReading":"2026-01-01","readingsCount":635,"shedId":"SB120"},"geometry":{"type":"Point","coordinates":[77.1667,11.35]}},{"type":"Feature","properties":{"name":"Punnam Pz","kind":"cgwb-telemetry","network":"CGWB telemetry, six-hourly, 2026","agency":"CGWB","latestDepthMbgl":5.41,"latestReading":"2026-09-09","shallowestMbgl":0.03,"deepestMbgl":6.81,"firstReading":"2026-01-01","readingsCount":870,"shedId":"SB120"},"geometry":{"type":"Point","coordinates":[77.6139,11.5072]}},{"type":"Feature","properties":{"name":"Settunampalayam Pz 1","kind":"cgwb-telemetry","network":"CGWB telemetry, six-hourly, 2026","agency":"CGWB","latestDepthMbgl":18.03,"latestReading":"2026-09-04","shallowestMbgl":16.16,"deepestMbgl":18.98,"firstReading":"2026-01-15","readingsCount":196,"shedId":"SB120"},"geometry":{"type":"Point","coordinates":[77.6033,11.52]}},{"type":"Feature","properties":{"name":"Urachikottai 1","kind":"cgwb-telemetry","network":"CGWB telemetry, six-hourly, 2026","agency":"CGWB","latestDepthMbgl":9.23,"latestReading":"2026-09-01","shallowestMbgl":4.25,"deepestMbgl":10.36,"firstReading":"2026-01-01","readingsCount":630,"shedId":"SB123"},"geometry":{"type":"Point","coordinates":[77.6917,11.4847]}},{"type":"Feature","properties":{"name":"Velliyampalayamputhur Pz 1","kind":"cgwb-telemetry","network":"CGWB telemetry, six-hourly, 2026","agency":"CGWB","latestDepthMbgl":16.35,"latestReading":"2026-09-01","shallowestMbgl":12.57,"deepestMbgl":19.66,"firstReading":"2026-01-01","readingsCount":636,"shedId":"SB120"},"geometry":{"type":"Point","coordinates":[77.1564,11.4886]}},{"type":"Feature","properties":{"name":"Athani","kind":"state-telemetry","network":"Tamil Nadu state telemetry, six-hourly, 2026","agency":"Tamil Nadu SW GW","tehsil":"Bhavani","latestDepthMbgl":11.16,"latestReading":"2026-09-15","shallowestMbgl":6.89,"deepestMbgl":13.33,"firstReading":"2026-01-01","readingsCount":935,"shedId":"SB120"},"geometry":{"type":"Point","coordinates":[77.5042,11.546]}},{"type":"Feature","properties":{"name":"B.P.agraharam","kind":"state-telemetry","network":"Tamil Nadu state telemetry, six-hourly, 2026","agency":"Tamil Nadu SW GW","tehsil":"Erode","latestDepthMbgl":3.7,"latestReading":"2026-09-15","shallowestMbgl":3.17,"deepestMbgl":3.83,"firstReading":"2026-01-01","readingsCount":940,"shedId":"SB123"},"geometry":{"type":"Point","coordinates":[77.7083,11.369]}},{"type":"Feature","properties":{"name":"Elavamalai","kind":"state-telemetry","network":"Tamil Nadu state telemetry, six-hourly, 2026","agency":"Tamil Nadu SW GW","tehsil":"Erode","latestDepthMbgl":4.07,"latestReading":"2026-09-15","shallowestMbgl":1.02,"deepestMbgl":4.32,"firstReading":"2026-01-01","readingsCount":945,"shedId":"SB120"},"geometry":{"type":"Point","coordinates":[77.6533,11.428]}},{"type":"Feature","properties":{"name":"Gangapuram","kind":"state-telemetry","network":"Tamil Nadu state telemetry, six-hourly, 2026","agency":"Tamil Nadu SW GW","latestDepthMbgl":3.33,"latestReading":"2026-09-15","shallowestMbgl":2.26,"deepestMbgl":5.52,"firstReading":"2026-01-01","readingsCount":717,"shedId":"SB123"},"geometry":{"type":"Point","coordinates":[77.65367,11.36997]}},{"type":"Feature","properties":{"name":"Hasanur","kind":"state-telemetry","network":"Tamil Nadu state telemetry, six-hourly, 2026","agency":"Tamil Nadu SW GW","tehsil":"Thalavadi","latestDepthMbgl":17.2,"latestReading":"2026-09-15","shallowestMbgl":15.8,"deepestMbgl":17.21,"firstReading":"2026-01-01","readingsCount":929,"shedId":"SB127"},"geometry":{"type":"Point","coordinates":[77.12909,11.67384]}},{"type":"Feature","properties":{"name":"Kadathur(Erumaikaranpalayam)","kind":"state-telemetry","network":"Tamil Nadu state telemetry, six-hourly, 2026","agency":"Tamil Nadu SW GW","latestDepthMbgl":8.31,"latestReading":"2026-09-15","shallowestMbgl":0.22,"deepestMbgl":8.54,"firstReading":"2026-01-01","readingsCount":895,"shedId":"SB120"},"geometry":{"type":"Point","coordinates":[77.27841,11.43214]}},{"type":"Feature","properties":{"name":"Koothampalayam","kind":"state-telemetry","network":"Tamil Nadu state telemetry, six-hourly, 2026","agency":"Tamil Nadu SW GW","tehsil":"Perundurai","latestDepthMbgl":44.03,"latestReading":"2026-09-15","shallowestMbgl":13.82,"deepestMbgl":152.8,"firstReading":"2026-01-07","readingsCount":771,"shedId":"SB126"},"geometry":{"type":"Point","coordinates":[77.5069,11.154]}},{"type":"Feature","properties":{"name":"Kottupullampalayam","kind":"state-telemetry","network":"Tamil Nadu state telemetry, six-hourly, 2026","agency":"Tamil Nadu SW GW","tehsil":"Gobichettipalayam","latestDepthMbgl":49.91,"latestReading":"2026-09-14","shallowestMbgl":5.86,"deepestMbgl":193.73,"firstReading":"2026-01-01","readingsCount":945,"shedId":"SB120"},"geometry":{"type":"Point","coordinates":[77.3842,11.442]}},{"type":"Feature","properties":{"name":"Kumarapalayam","kind":"state-telemetry","network":"Tamil Nadu state telemetry, six-hourly, 2026","agency":"Tamil Nadu SW GW","tehsil":"Sathyamangalam","latestDepthMbgl":10.16,"latestReading":"2026-09-15","shallowestMbgl":8.77,"deepestMbgl":10.52,"firstReading":"2026-01-01","readingsCount":944,"shedId":"SB120"},"geometry":{"type":"Point","coordinates":[77.2653,11.501]}},{"type":"Feature","properties":{"name":"Kurichi","kind":"state-telemetry","network":"Tamil Nadu state telemetry, six-hourly, 2026","agency":"Tamil Nadu SW GW","tehsil":"Bhavani","latestDepthMbgl":6.79,"latestReading":"2026-05-05","shallowestMbgl":3.94,"deepestMbgl":6.79,"firstReading":"2026-01-01","readingsCount":426,"shedId":"SB123"},"geometry":{"type":"Point","coordinates":[77.6928,11.561]}},{"type":"Feature","properties":{"name":"Modakurichi","kind":"state-telemetry","network":"Tamil Nadu state telemetry, six-hourly, 2026","agency":"Tamil Nadu SW GW","tehsil":"Modakkurichi","latestDepthMbgl":1.73,"latestReading":"2026-09-15","shallowestMbgl":1.49,"deepestMbgl":5.17,"firstReading":"2026-01-01","readingsCount":733,"shedId":"SB123"},"geometry":{"type":"Point","coordinates":[77.77778,11.23437]}},{"type":"Feature","properties":{"name":"Mooongilpatty","kind":"state-telemetry","network":"Tamil Nadu state telemetry, six-hourly, 2026","agency":"Tamil Nadu SW GW","tehsil":"Bhavani","latestDepthMbgl":9.28,"latestReading":"2026-09-15","shallowestMbgl":7.84,"deepestMbgl":10.19,"firstReading":"2026-01-01","readingsCount":953,"shedId":"SB120"},"geometry":{"type":"Point","coordinates":[77.5361,11.508]}},{"type":"Feature","properties":{"name":"Nambiyur 1","kind":"state-telemetry","network":"Tamil Nadu state telemetry, six-hourly, 2026","agency":"Tamil Nadu SW GW","tehsil":"Nambiyur","latestDepthMbgl":30.7,"latestReading":"2026-09-15","shallowestMbgl":12.91,"deepestMbgl":30.7,"firstReading":"2026-01-01","readingsCount":922,"shedId":"SB120"},"geometry":{"type":"Point","coordinates":[77.31704,11.35741]}},{"type":"Feature","properties":{"name":"P.Mettupalayam","kind":"state-telemetry","network":"Tamil Nadu state telemetry, six-hourly, 2026","agency":"Tamil Nadu SW GW","tehsil":"Bhavani","latestDepthMbgl":3.02,"latestReading":"2026-09-15","shallowestMbgl":0.82,"deepestMbgl":7.66,"firstReading":"2026-01-01","readingsCount":932,"shedId":"SB120"},"geometry":{"type":"Point","coordinates":[77.5283,11.464]}},{"type":"Feature","properties":{"name":"Periyavilamalai","kind":"state-telemetry","network":"Tamil Nadu state telemetry, six-hourly, 2026","agency":"Tamil Nadu SW GW","latestDepthMbgl":10.34,"latestReading":"2026-09-15","shallowestMbgl":7.12,"deepestMbgl":12.17,"firstReading":"2026-01-01","readingsCount":915,"shedId":"SB123"},"geometry":{"type":"Point","coordinates":[77.59775,11.32988]}},{"type":"Feature","properties":{"name":"Sembulichampalayam","kind":"state-telemetry","network":"Tamil Nadu state telemetry, six-hourly, 2026","agency":"Tamil Nadu SW GW","tehsil":"Anthiyur","latestDepthMbgl":97.34,"latestReading":"2026-09-15","shallowestMbgl":15.16,"deepestMbgl":97.34,"firstReading":"2026-01-01","readingsCount":940,"shedId":"SB120"},"geometry":{"type":"Point","coordinates":[77.61306,11.5486]}},{"type":"Feature","properties":{"name":"Senapathipalayam","kind":"state-telemetry","network":"Tamil Nadu state telemetry, six-hourly, 2026","agency":"Tamil Nadu SW GW","tehsil":"Erode","latestDepthMbgl":2.04,"latestReading":"2026-09-15","shallowestMbgl":1.07,"deepestMbgl":3.14,"firstReading":"2026-01-01","readingsCount":956,"shedId":"SB123"},"geometry":{"type":"Point","coordinates":[77.6958,11.292]}},{"type":"Feature","properties":{"name":"Senthampalayam","kind":"state-telemetry","network":"Tamil Nadu state telemetry, six-hourly, 2026","agency":"Tamil Nadu SW GW","tehsil":"Bhavani","latestDepthMbgl":2.54,"latestReading":"2026-09-15","shallowestMbgl":1.35,"deepestMbgl":2.63,"firstReading":"2026-01-01","readingsCount":954,"shedId":"SB120"},"geometry":{"type":"Point","coordinates":[77.565,11.438]}},{"type":"Feature","properties":{"name":"Siruvalur","kind":"state-telemetry","network":"Tamil Nadu state telemetry, six-hourly, 2026","agency":"Tamil Nadu SW GW","tehsil":"Gobichettipalayam","latestDepthMbgl":44.7,"latestReading":"2026-09-15","shallowestMbgl":17.5,"deepestMbgl":45.38,"firstReading":"2026-01-01","readingsCount":669,"shedId":"SB120"},"geometry":{"type":"Point","coordinates":[77.4625,11.363]}},{"type":"Feature","properties":{"name":"V.Mettupalayam","kind":"state-telemetry","network":"Tamil Nadu state telemetry, six-hourly, 2026","agency":"Tamil Nadu SW GW","tehsil":"Bhavani","latestDepthMbgl":8.62,"latestReading":"2026-09-14","shallowestMbgl":2.67,"deepestMbgl":12.3,"firstReading":"2026-01-01","readingsCount":870,"shedId":"SB123"},"geometry":{"type":"Point","coordinates":[77.7111,11.504]}},{"type":"Feature","properties":{"name":"Vaniputhur","kind":"state-telemetry","network":"Tamil Nadu state telemetry, six-hourly, 2026","agency":"Tamil Nadu SW GW","tehsil":"Gobichettipalayam","latestDepthMbgl":16.5,"latestReading":"2026-08-19","shallowestMbgl":1.88,"deepestMbgl":16.58,"firstReading":"2026-01-01","readingsCount":605,"shedId":"SB120"},"geometry":{"type":"Point","coordinates":[77.36221,11.51061]}},{"type":"Feature","properties":{"name":"Vengambur","kind":"state-telemetry","network":"Tamil Nadu state telemetry, six-hourly, 2026","agency":"Tamil Nadu SW GW","tehsil":"Kodumudi","latestDepthMbgl":6.39,"latestReading":"2026-09-15","shallowestMbgl":5.01,"deepestMbgl":8.83,"firstReading":"2026-01-01","readingsCount":661,"shedId":"SB126"},"geometry":{"type":"Point","coordinates":[77.81,11.0892]}},{"type":"Feature","properties":{"name":"Alampalayam","kind":"cgwb-manual","network":"CGWB manual quarterly, 2021 to 2025","agency":"CGWB","tehsil":"Anthiyur","latestDepthMbgl":8.6,"latestReading":"2023-08-30","shallowestMbgl":3.46,"deepestMbgl":8.6,"firstReading":"2023-01-20","readingsCount":2,"shedId":"SB120"},"geometry":{"type":"Point","coordinates":[77.60444,11.62778]}},{"type":"Feature","properties":{"name":"Alukul","kind":"cgwb-manual","network":"CGWB manual quarterly, 2021 to 2025","agency":"CGWB","tehsil":"Gobichettipalayam","latestDepthMbgl":7.85,"latestReading":"2024-05-30","shallowestMbgl":4.66,"deepestMbgl":7.85,"firstReading":"2023-01-20","readingsCount":5,"shedId":"SB120"},"geometry":{"type":"Point","coordinates":[77.35806,11.45083]}},{"type":"Feature","properties":{"name":"Alukuli Pz","kind":"cgwb-manual","network":"CGWB manual quarterly, 2021 to 2025","agency":"CGWB","latestDepthMbgl":5.75,"latestReading":"2024-11-30","shallowestMbgl":4.8,"deepestMbgl":6.54,"firstReading":"2023-05-31","readingsCount":3,"shedId":"SB120"},"geometry":{"type":"Point","coordinates":[77.3578,11.4481]}},{"type":"Feature","properties":{"name":"Ammapet1","kind":"cgwb-manual","network":"CGWB manual quarterly, 2021 to 2025","agency":"CGWB","tehsil":"Anthiyur","latestDepthMbgl":5.81,"latestReading":"2024-11-30","shallowestMbgl":4.11,"deepestMbgl":9.04,"firstReading":"2021-01-10","readingsCount":12,"shedId":"SB123"},"geometry":{"type":"Point","coordinates":[77.71667,11.625]}},{"type":"Feature","properties":{"name":"Ammapet1 1","kind":"cgwb-manual","network":"CGWB manual quarterly, 2021 to 2025","agency":"CGWB","latestDepthMbgl":10.63,"latestReading":"2024-05-30","shallowestMbgl":10.63,"deepestMbgl":10.63,"firstReading":"2024-05-30","readingsCount":1,"shedId":"SB123"},"geometry":{"type":"Point","coordinates":[77.7167,11.625]}},{"type":"Feature","properties":{"name":"Ammapet2","kind":"cgwb-manual","network":"CGWB manual quarterly, 2021 to 2025","agency":"CGWB","tehsil":"Anthiyur","latestDepthMbgl":6.1,"latestReading":"2024-11-30","shallowestMbgl":1.9,"deepestMbgl":9.16,"firstReading":"2021-01-10","readingsCount":13,"shedId":"SB123"},"geometry":{"type":"Point","coordinates":[77.74444,11.61944]}},{"type":"Feature","properties":{"name":"Arachchalur","kind":"cgwb-manual","network":"CGWB manual quarterly, 2021 to 2025","agency":"CGWB","tehsil":"Erode","latestDepthMbgl":0.64,"latestReading":"2024-11-30","shallowestMbgl":0.64,"deepestMbgl":7.15,"firstReading":"2021-01-10","readingsCount":10,"shedId":"SB123"},"geometry":{"type":"Point","coordinates":[77.7,11.16667]}},{"type":"Feature","properties":{"name":"Arachchalur 1","kind":"cgwb-manual","network":"CGWB manual quarterly, 2021 to 2025","agency":"CGWB","latestDepthMbgl":2.11,"latestReading":"2024-05-30","shallowestMbgl":2.11,"deepestMbgl":2.11,"firstReading":"2024-05-30","readingsCount":1,"shedId":"SB123"},"geometry":{"type":"Point","coordinates":[77.7,11.1667]}},{"type":"Feature","properties":{"name":"Arakkan kottai(Modur Diversion pirivu)","kind":"cgwb-manual","network":"CGWB manual quarterly, 2021 to 2025","agency":"CGWB","latestDepthMbgl":1.88,"latestReading":"2024-11-30","shallowestMbgl":1.68,"deepestMbgl":8.43,"firstReading":"2023-01-01","readingsCount":6,"shedId":"SB120"},"geometry":{"type":"Point","coordinates":[77.34306,11.49694]}},{"type":"Feature","properties":{"name":"Archalur","kind":"cgwb-manual","network":"CGWB manual quarterly, 2021 to 2025","agency":"CGWB","tehsil":"Erode","latestDepthMbgl":5.14,"latestReading":"2024-11-30","shallowestMbgl":3.24,"deepestMbgl":9.35,"firstReading":"2021-01-10","readingsCount":14,"shedId":"SB123"},"geometry":{"type":"Point","coordinates":[77.7,11.1625]}},{"type":"Feature","properties":{"name":"Ariyappanpalayam Pz 1","kind":"cgwb-manual","network":"CGWB manual quarterly, 2021 to 2025","agency":"CGWB","latestDepthMbgl":5.15,"latestReading":"2024-11-30","shallowestMbgl":5.15,"deepestMbgl":5.6,"firstReading":"2023-05-31","readingsCount":3,"shedId":"SB120"},"geometry":{"type":"Point","coordinates":[77.2542,11.4756]}},{"type":"Feature","properties":{"name":"Ariyappanpalayam pz","kind":"cgwb-manual","network":"CGWB manual quarterly, 2021 to 2025","agency":"CGWB","latestDepthMbgl":5.14,"latestReading":"2024-08-30","shallowestMbgl":4.5,"deepestMbgl":5.6,"firstReading":"2023-01-01","readingsCount":5,"shedId":"SB120"},"geometry":{"type":"Point","coordinates":[77.25417,11.47556]}},{"type":"Feature","properties":{"name":"Asanur Pz","kind":"cgwb-manual","network":"CGWB manual quarterly, 2021 to 2025","agency":"CGWB","latestDepthMbgl":16.34,"latestReading":"2024-05-30","shallowestMbgl":14.85,"deepestMbgl":16.34,"firstReading":"2023-05-31","readingsCount":2,"shedId":"SB127"},"geometry":{"type":"Point","coordinates":[77.1289,11.6739]}},{"type":"Feature","properties":{"name":"Asanur1","kind":"cgwb-manual","network":"CGWB manual quarterly, 2021 to 2025","agency":"CGWB","tehsil":"Sathyamangalam","latestDepthMbgl":14.42,"latestReading":"2024-11-30","shallowestMbgl":14.2,"deepestMbgl":16.05,"firstReading":"2023-01-20","readingsCount":6,"shedId":"SB127"},"geometry":{"type":"Point","coordinates":[77.12944,11.67417]}},{"type":"Feature","properties":{"name":"Attani","kind":"cgwb-manual","network":"CGWB manual quarterly, 2021 to 2025","agency":"CGWB","tehsil":"Anthiyur","latestDepthMbgl":8.05,"latestReading":"2024-11-30","shallowestMbgl":6.26,"deepestMbgl":12.18,"firstReading":"2021-01-10","readingsCount":14,"shedId":"SB120"},"geometry":{"type":"Point","coordinates":[77.51667,11.52417]}},{"type":"Feature","properties":{"name":"Avalpundurai","kind":"cgwb-manual","network":"CGWB manual quarterly, 2021 to 2025","agency":"CGWB","tehsil":"Erode","latestDepthMbgl":1.35,"latestReading":"2023-01-20","shallowestMbgl":1.35,"deepestMbgl":2.9,"firstReading":"2021-01-10","readingsCount":8,"shedId":"SB123"},"geometry":{"type":"Point","coordinates":[77.72083,11.23333]}},{"type":"Feature","properties":{"name":"Bangalapudhur","kind":"cgwb-manual","network":"CGWB manual quarterly, 2021 to 2025","agency":"CGWB","tehsil":"Gobichettipalayam","latestDepthMbgl":4.85,"latestReading":"2024-11-30","shallowestMbgl":4.18,"deepestMbgl":9.85,"firstReading":"2021-01-10","readingsCount":15,"shedId":"SB120"},"geometry":{"type":"Point","coordinates":[77.40833,11.50417]}},{"type":"Feature","properties":{"name":"Basuvapatti","kind":"cgwb-manual","network":"CGWB manual quarterly, 2021 to 2025","agency":"CGWB","tehsil":"Perundurai","latestDepthMbgl":5.11,"latestReading":"2024-11-30","shallowestMbgl":2.38,"deepestMbgl":10.22,"firstReading":"2023-01-20","readingsCount":6,"shedId":"SB126"},"geometry":{"type":"Point","coordinates":[77.60528,11.13972]}},{"type":"Feature","properties":{"name":"Basuvapatti Pz","kind":"cgwb-manual","network":"CGWB manual quarterly, 2021 to 2025","agency":"CGWB","latestDepthMbgl":7.05,"latestReading":"2024-05-30","shallowestMbgl":3.0,"deepestMbgl":7.05,"firstReading":"2023-05-31","readingsCount":2,"shedId":"SB126"},"geometry":{"type":"Point","coordinates":[77.6053,11.1381]}},{"type":"Feature","properties":{"name":"Bhavani1","kind":"cgwb-manual","network":"CGWB manual quarterly, 2021 to 2025","agency":"CGWB","tehsil":"Anthiyur","latestDepthMbgl":7.47,"latestReading":"2024-11-30","shallowestMbgl":3.72,"deepestMbgl":8.81,"firstReading":"2021-01-10","readingsCount":15,"shedId":"SB123"},"geometry":{"type":"Point","coordinates":[77.53333,11.80833]}},{"type":"Feature","properties":{"name":"Chennampatti pz","kind":"cgwb-manual","network":"CGWB manual quarterly, 2021 to 2025","agency":"CGWB","tehsil":"Bhavani","latestDepthMbgl":4.02,"latestReading":"2024-11-30","shallowestMbgl":4.02,"deepestMbgl":13.93,"firstReading":"2023-01-01","readingsCount":5,"shedId":"SB123"},"geometry":{"type":"Point","coordinates":[77.67194,11.70111]}},{"type":"Feature","properties":{"name":"Chennimalai1","kind":"cgwb-manual","network":"CGWB manual quarterly, 2021 to 2025","agency":"CGWB","tehsil":"Perundurai","latestDepthMbgl":7.74,"latestReading":"2024-11-30","shallowestMbgl":5.75,"deepestMbgl":18.5,"firstReading":"2021-08-31","readingsCount":8,"shedId":"SB126"},"geometry":{"type":"Point","coordinates":[77.59167,11.15833]}},{"type":"Feature","properties":{"name":"Chennimalai1 1","kind":"cgwb-manual","network":"CGWB manual quarterly, 2021 to 2025","agency":"CGWB","latestDepthMbgl":8.55,"latestReading":"2024-05-30","shallowestMbgl":8.55,"deepestMbgl":8.55,"firstReading":"2024-05-30","readingsCount":1,"shedId":"SB126"},"geometry":{"type":"Point","coordinates":[77.5917,11.1583]}},{"type":"Feature","properties":{"name":"Chennimalai2","kind":"cgwb-manual","network":"CGWB manual quarterly, 2021 to 2025","agency":"CGWB","tehsil":"Perundurai","latestDepthMbgl":5.97,"latestReading":"2024-11-30","shallowestMbgl":2.74,"deepestMbgl":6.85,"firstReading":"2021-01-10","readingsCount":15,"shedId":"SB126"},"geometry":{"type":"Point","coordinates":[77.59722,11.1625]}},{"type":"Feature","properties":{"name":"Chittodu","kind":"cgwb-manual","network":"CGWB manual quarterly, 2021 to 2025","agency":"CGWB","tehsil":"Erode","latestDepthMbgl":4.34,"latestReading":"2024-11-30","shallowestMbgl":2.74,"deepestMbgl":8.54,"firstReading":"2021-01-10","readingsCount":15,"shedId":"SB123"},"geometry":{"type":"Point","coordinates":[77.67778,11.39167]}},{"type":"Feature","properties":{"name":"E.Vellampalayam Pz 1","kind":"cgwb-manual","network":"CGWB manual quarterly, 2021 to 2025","agency":"CGWB","latestDepthMbgl":3.41,"latestReading":"2024-05-30","shallowestMbgl":1.55,"deepestMbgl":3.41,"firstReading":"2023-05-31","readingsCount":3,"shedId":"SB123"},"geometry":{"type":"Point","coordinates":[77.6806,11.1697]}},{"type":"Feature","properties":{"name":"E.Vellampalayam pz","kind":"cgwb-manual","network":"CGWB manual quarterly, 2021 to 2025","agency":"CGWB","tehsil":"Erode","latestDepthMbgl":0.26,"latestReading":"2024-11-30","shallowestMbgl":0.26,"deepestMbgl":6.4,"firstReading":"2023-01-01","readingsCount":4,"shedId":"SB123"},"geometry":{"type":"Point","coordinates":[77.68056,11.16972]}},{"type":"Feature","properties":{"name":"Elmattur","kind":"cgwb-manual","network":"CGWB manual quarterly, 2021 to 2025","agency":"CGWB","tehsil":"Erode","latestDepthMbgl":1.44,"latestReading":"2024-11-30","shallowestMbgl":1.04,"deepestMbgl":6.85,"firstReading":"2021-01-10","readingsCount":15,"shedId":"SB123"},"geometry":{"type":"Point","coordinates":[77.77917,11.19444]}},{"type":"Feature","properties":{"name":"Erode Pz","kind":"cgwb-manual","network":"CGWB manual quarterly, 2021 to 2025","agency":"CGWB","latestDepthMbgl":5.77,"latestReading":"2024-05-30","shallowestMbgl":5.22,"deepestMbgl":5.77,"firstReading":"2023-05-31","readingsCount":2,"shedId":"SB123"},"geometry":{"type":"Point","coordinates":[77.7169,11.3661]}},{"type":"Feature","properties":{"name":"Erode1","kind":"cgwb-manual","network":"CGWB manual quarterly, 2021 to 2025","agency":"CGWB","tehsil":"Erode","latestDepthMbgl":4.15,"latestReading":"2024-11-30","shallowestMbgl":4.15,"deepestMbgl":5.95,"firstReading":"2021-01-10","readingsCount":6,"shedId":"SB123"},"geometry":{"type":"Point","coordinates":[77.71667,11.36667]}},{"type":"Feature","properties":{"name":"Erode2","kind":"cgwb-manual","network":"CGWB manual quarterly, 2021 to 2025","agency":"CGWB","tehsil":"Erode","latestDepthMbgl":6.88,"latestReading":"2024-11-30","shallowestMbgl":3.65,"deepestMbgl":8.37,"firstReading":"2021-01-10","readingsCount":15,"shedId":"SB123"},"geometry":{"type":"Point","coordinates":[77.73333,11.33333]}},{"type":"Feature","properties":{"name":"Gandhinagar Thaneerpanthalpalayam","kind":"cgwb-manual","network":"CGWB manual quarterly, 2021 to 2025","agency":"CGWB","tehsil":"Bhavani","latestDepthMbgl":13.4,"latestReading":"2024-11-30","shallowestMbgl":5.3,"deepestMbgl":19.13,"firstReading":"2023-01-01","readingsCount":6,"shedId":"SB123"},"geometry":{"type":"Point","coordinates":[77.68472,11.65889]}},{"type":"Feature","properties":{"name":"Getticheviyur","kind":"cgwb-manual","network":"CGWB manual quarterly, 2021 to 2025","agency":"CGWB","tehsil":"Gobichettipalayam","latestDepthMbgl":3.7,"latestReading":"2024-11-30","shallowestMbgl":3.7,"deepestMbgl":8.9,"firstReading":"2021-08-31","readingsCount":6,"shedId":"SB120"},"geometry":{"type":"Point","coordinates":[77.41389,11.33333]}},{"type":"Feature","properties":{"name":"Gobichettipalayam","kind":"cgwb-manual","network":"CGWB manual quarterly, 2021 to 2025","agency":"CGWB","tehsil":"Gobichettipalayam","latestDepthMbgl":7.25,"latestReading":"2024-11-30","shallowestMbgl":3.0,"deepestMbgl":17.0,"firstReading":"2021-08-31","readingsCount":11,"shedId":"SB120"},"geometry":{"type":"Point","coordinates":[77.45,11.45]}},{"type":"Feature","properties":{"name":"Gobichettipalayam1","kind":"cgwb-manual","network":"CGWB manual quarterly, 2021 to 2025","agency":"CGWB","tehsil":"Gobichettipalayam","latestDepthMbgl":2.59,"latestReading":"2024-11-30","shallowestMbgl":1.56,"deepestMbgl":7.75,"firstReading":"2021-01-10","readingsCount":15,"shedId":"SB120"},"geometry":{"type":"Point","coordinates":[77.44583,11.45833]}},{"type":"Feature","properties":{"name":"Gobichettipalayam 1","kind":"cgwb-manual","network":"CGWB manual quarterly, 2021 to 2025","agency":"CGWB","tehsil":"Gobichettipalayam","latestDepthMbgl":8.86,"latestReading":"2024-05-30","shallowestMbgl":8.86,"deepestMbgl":8.86,"firstReading":"2024-05-30","readingsCount":1,"shedId":"SB120"},"geometry":{"type":"Point","coordinates":[77.45,11.45]}},{"type":"Feature","properties":{"name":"Gopichettipalayam","kind":"cgwb-manual","network":"CGWB manual quarterly, 2021 to 2025","agency":"CGWB","tehsil":"Gobichettipalayam","latestDepthMbgl":6.62,"latestReading":"2021-01-10","shallowestMbgl":6.62,"deepestMbgl":6.62,"firstReading":"2021-01-10","readingsCount":1,"shedId":"SB120"},"geometry":{"type":"Point","coordinates":[77.42667,11.45083]}},{"type":"Feature","properties":{"name":"Gugalur","kind":"cgwb-manual","network":"CGWB manual quarterly, 2021 to 2025","agency":"CGWB","tehsil":"Gobichettipalayam","latestDepthMbgl":6.18,"latestReading":"2024-11-30","shallowestMbgl":1.75,"deepestMbgl":7.85,"firstReading":"2021-01-10","readingsCount":14,"shedId":"SB120"},"geometry":{"type":"Point","coordinates":[77.48972,11.48889]}},{"type":"Feature","properties":{"name":"Guruvareddiyur","kind":"cgwb-manual","network":"CGWB manual quarterly, 2021 to 2025","agency":"CGWB","tehsil":"Anthiyur","latestDepthMbgl":10.45,"latestReading":"2024-11-30","shallowestMbgl":3.17,"deepestMbgl":18.4,"firstReading":"2021-01-10","readingsCount":15,"shedId":"SB123"},"geometry":{"type":"Point","coordinates":[77.68333,11.64167]}},{"type":"Feature","properties":{"name":"Guvuar dw","kind":"cgwb-manual","network":"CGWB manual quarterly, 2021 to 2025","agency":"CGWB","tehsil":"Bhavani","latestDepthMbgl":27.87,"latestReading":"2024-08-30","shallowestMbgl":3.1,"deepestMbgl":27.87,"firstReading":"2023-01-01","readingsCount":4,"shedId":"SB123"},"geometry":{"type":"Point","coordinates":[77.68222,11.64139]}},{"type":"Feature","properties":{"name":"Indiampalayam","kind":"cgwb-manual","network":"CGWB manual quarterly, 2021 to 2025","agency":"CGWB","tehsil":"Sathyamangalam","latestDepthMbgl":1.45,"latestReading":"2024-11-30","shallowestMbgl":0.58,"deepestMbgl":6.15,"firstReading":"2021-01-10","readingsCount":15,"shedId":"SB120"},"geometry":{"type":"Point","coordinates":[77.26944,11.45]}},{"type":"Feature","properties":{"name":"Ingur New","kind":"cgwb-manual","network":"CGWB manual quarterly, 2021 to 2025","agency":"CGWB","tehsil":"Perundurai","latestDepthMbgl":1.98,"latestReading":"2024-11-30","shallowestMbgl":1.98,"deepestMbgl":4.35,"firstReading":"2023-05-31","readingsCount":5,"shedId":"SB123"},"geometry":{"type":"Point","coordinates":[77.58139,11.22583]}},{"type":"Feature","properties":{"name":"Ingur Pz 2","kind":"cgwb-manual","network":"CGWB manual quarterly, 2021 to 2025","agency":"CGWB","latestDepthMbgl":6.68,"latestReading":"2024-05-30","shallowestMbgl":6.68,"deepestMbgl":6.68,"firstReading":"2024-05-30","readingsCount":1,"shedId":"SB123"},"geometry":{"type":"Point","coordinates":[77.5817,11.2261]}},{"type":"Feature","properties":{"name":"Ingur pz 1","kind":"cgwb-manual","network":"CGWB manual quarterly, 2021 to 2025","agency":"CGWB","tehsil":"Perundurai","latestDepthMbgl":2.45,"latestReading":"2024-11-30","shallowestMbgl":2.45,"deepestMbgl":4.1,"firstReading":"2023-01-01","readingsCount":5,"shedId":"SB123"},"geometry":{"type":"Point","coordinates":[77.58167,11.22611]}},{"type":"Feature","properties":{"name":"Kambaliyampatti Pz 1","kind":"cgwb-manual","network":"CGWB manual quarterly, 2021 to 2025","agency":"CGWB","latestDepthMbgl":3.57,"latestReading":"2024-08-30","shallowestMbgl":1.41,"deepestMbgl":3.57,"firstReading":"2024-05-30","readingsCount":2,"shedId":"SB126"},"geometry":{"type":"Point","coordinates":[77.5253,11.2314]}},{"type":"Feature","properties":{"name":"Kambaliyampatti pz","kind":"cgwb-manual","network":"CGWB manual quarterly, 2021 to 2025","agency":"CGWB","tehsil":"Perundurai","latestDepthMbgl":2.65,"latestReading":"2024-11-30","shallowestMbgl":2.65,"deepestMbgl":5.0,"firstReading":"2023-01-01","readingsCount":5,"shedId":"SB126"},"geometry":{"type":"Point","coordinates":[77.52528,11.23139]}},{"type":"Feature","properties":{"name":"Kambanaickanpalayam","kind":"cgwb-manual","network":"CGWB manual quarterly, 2021 to 2025","agency":"CGWB","tehsil":"Sathyamangalam","latestDepthMbgl":13.48,"latestReading":"2024-11-30","shallowestMbgl":9.37,"deepestMbgl":17.43,"firstReading":"2023-01-20","readingsCount":6,"shedId":"SB120"},"geometry":{"type":"Point","coordinates":[77.29556,11.53083]}},{"type":"Feature","properties":{"name":"Kambanaickenpalayam Pz","kind":"cgwb-manual","network":"CGWB manual quarterly, 2021 to 2025","agency":"CGWB","latestDepthMbgl":16.22,"latestReading":"2024-05-30","shallowestMbgl":16.22,"deepestMbgl":16.22,"firstReading":"2024-05-30","readingsCount":1,"shedId":"SB120"},"geometry":{"type":"Point","coordinates":[77.2953,11.5297]}},{"type":"Feature","properties":{"name":"Kasipalayam","kind":"cgwb-manual","network":"CGWB manual quarterly, 2021 to 2025","agency":"CGWB","tehsil":"Gobichettipalayam","latestDepthMbgl":3.35,"latestReading":"2024-11-30","shallowestMbgl":0.57,"deepestMbgl":11.04,"firstReading":"2021-01-10","readingsCount":12,"shedId":"SB120"},"geometry":{"type":"Point","coordinates":[77.33944,11.45556]}},{"type":"Feature","properties":{"name":"Kasipalayam Pz 1","kind":"cgwb-manual","network":"CGWB manual quarterly, 2021 to 2025","agency":"CGWB","latestDepthMbgl":3.92,"latestReading":"2024-05-30","shallowestMbgl":3.92,"deepestMbgl":4.14,"firstReading":"2023-08-30","readingsCount":2,"shedId":"SB120"},"geometry":{"type":"Point","coordinates":[77.3344,11.4544]}},{"type":"Feature","properties":{"name":"Kasipalayam pz","kind":"cgwb-manual","network":"CGWB manual quarterly, 2021 to 2025","agency":"CGWB","latestDepthMbgl":1.13,"latestReading":"2024-11-30","shallowestMbgl":1.13,"deepestMbgl":4.48,"firstReading":"2023-01-01","readingsCount":4,"shedId":"SB120"},"geometry":{"type":"Point","coordinates":[77.33444,11.45444]}},{"type":"Feature","properties":{"name":"Kathampalayam Pz","kind":"cgwb-manual","network":"CGWB manual quarterly, 2021 to 2025","agency":"CGWB","latestDepthMbgl":5.71,"latestReading":"2024-05-30","shallowestMbgl":5.71,"deepestMbgl":5.71,"firstReading":"2024-05-30","readingsCount":1,"shedId":"SB120"},"geometry":{"type":"Point","coordinates":[77.2411,11.4256]}},{"type":"Feature","properties":{"name":"Kattupalayam pz","kind":"cgwb-manual","network":"CGWB manual quarterly, 2021 to 2025","agency":"CGWB","tehsil":"Bhavani","latestDepthMbgl":4.3,"latestReading":"2024-11-30","shallowestMbgl":2.55,"deepestMbgl":4.85,"firstReading":"2023-01-01","readingsCount":6,"shedId":"SB120"},"geometry":{"type":"Point","coordinates":[77.59528,11.54528]}},{"type":"Feature","properties":{"name":"Kavilipalayam Pz 1","kind":"cgwb-manual","network":"CGWB manual quarterly, 2021 to 2025","agency":"CGWB","latestDepthMbgl":3.95,"latestReading":"2024-05-30","shallowestMbgl":3.95,"deepestMbgl":3.95,"firstReading":"2024-05-30","readingsCount":1,"shedId":"SB120"},"geometry":{"type":"Point","coordinates":[77.2278,11.3792]}},{"type":"Feature","properties":{"name":"Kavilipalayam pz","kind":"cgwb-manual","network":"CGWB manual quarterly, 2021 to 2025","agency":"CGWB","latestDepthMbgl":2.72,"latestReading":"2024-11-30","shallowestMbgl":2.15,"deepestMbgl":4.3,"firstReading":"2023-01-01","readingsCount":6,"shedId":"SB120"},"geometry":{"type":"Point","coordinates":[77.22778,11.37917]}},{"type":"Feature","properties":{"name":"Kavundapadi1","kind":"cgwb-manual","network":"CGWB manual quarterly, 2021 to 2025","agency":"CGWB","tehsil":"Bhavani","latestDepthMbgl":3.89,"latestReading":"2024-11-30","shallowestMbgl":1.8,"deepestMbgl":6.13,"firstReading":"2021-01-10","readingsCount":15,"shedId":"SB120"},"geometry":{"type":"Point","coordinates":[77.55833,11.42222]}},{"type":"Feature","properties":{"name":"Kavundappadi","kind":"cgwb-manual","network":"CGWB manual quarterly, 2021 to 2025","agency":"CGWB","tehsil":"Bhavani","latestDepthMbgl":6.5,"latestReading":"2024-11-30","shallowestMbgl":1.75,"deepestMbgl":8.4,"firstReading":"2021-08-31","readingsCount":13,"shedId":"SB120"},"geometry":{"type":"Point","coordinates":[77.55833,11.43333]}},{"type":"Feature","properties":{"name":"Kethampalayam","kind":"cgwb-manual","network":"CGWB manual quarterly, 2021 to 2025","agency":"CGWB","tehsil":"Sathyamangalam","latestDepthMbgl":2.14,"latestReading":"2024-11-30","shallowestMbgl":1.23,"deepestMbgl":5.6,"firstReading":"2021-01-10","readingsCount":9,"shedId":"SB120"},"geometry":{"type":"Point","coordinates":[77.23944,11.42861]}},{"type":"Feature","properties":{"name":"Kodumudi","kind":"cgwb-manual","network":"CGWB manual quarterly, 2021 to 2025","agency":"CGWB","tehsil":"Erode","latestDepthMbgl":3.45,"latestReading":"2024-11-30","shallowestMbgl":3.03,"deepestMbgl":4.3,"firstReading":"2021-01-10","readingsCount":10,"shedId":"SB123"},"geometry":{"type":"Point","coordinates":[77.8,11.11667]}},{"type":"Feature","properties":{"name":"Kodumudi Pz","kind":"cgwb-manual","network":"CGWB manual quarterly, 2021 to 2025","agency":"CGWB","tehsil":"Kodumudi","latestDepthMbgl":4.03,"latestReading":"2024-05-30","shallowestMbgl":4.03,"deepestMbgl":4.03,"firstReading":"2024-05-30","readingsCount":1,"shedId":"SB123"},"geometry":{"type":"Point","coordinates":[77.8853,11.0819]}},{"type":"Feature","properties":{"name":"Kodumudi1","kind":"cgwb-manual","network":"CGWB manual quarterly, 2021 to 2025","agency":"CGWB","tehsil":"Erode","latestDepthMbgl":3.7,"latestReading":"2024-01-10","shallowestMbgl":3.7,"deepestMbgl":4.7,"firstReading":"2023-01-20","readingsCount":4,"shedId":"SB123"},"geometry":{"type":"Point","coordinates":[77.88556,11.08278]}},{"type":"Feature","properties":{"name":"Kolappalur1","kind":"cgwb-manual","network":"CGWB manual quarterly, 2021 to 2025","agency":"CGWB","tehsil":"Gobichettipalayam","latestDepthMbgl":5.48,"latestReading":"2024-11-30","shallowestMbgl":2.58,"deepestMbgl":7.59,"firstReading":"2022-08-30","readingsCount":9,"shedId":"SB120"},"geometry":{"type":"Point","coordinates":[77.43056,11.37639]}},{"type":"Feature","properties":{"name":"Kosanam","kind":"cgwb-manual","network":"CGWB manual quarterly, 2021 to 2025","agency":"CGWB","tehsil":"Gobichettipalayam","latestDepthMbgl":3.65,"latestReading":"2024-11-30","shallowestMbgl":2.12,"deepestMbgl":4.75,"firstReading":"2023-01-20","readingsCount":7,"shedId":"SB120"},"geometry":{"type":"Point","coordinates":[77.35222,11.37139]}},{"type":"Feature","properties":{"name":"Kosanam Pz","kind":"cgwb-manual","network":"CGWB manual quarterly, 2021 to 2025","agency":"CGWB","tehsil":"Nambiyur","latestDepthMbgl":6.12,"latestReading":"2024-05-30","shallowestMbgl":6.12,"deepestMbgl":6.12,"firstReading":"2024-05-30","readingsCount":1,"shedId":"SB120"},"geometry":{"type":"Point","coordinates":[77.3578,11.3711]}},{"type":"Feature","properties":{"name":"Kottamangalam","kind":"cgwb-manual","network":"CGWB manual quarterly, 2021 to 2025","agency":"CGWB","tehsil":"Sathyamangalam","latestDepthMbgl":5.38,"latestReading":"2024-11-30","shallowestMbgl":2.66,"deepestMbgl":10.1,"firstReading":"2021-01-10","readingsCount":14,"shedId":"SB120"},"geometry":{"type":"Point","coordinates":[77.13333,11.45833]}},{"type":"Feature","properties":{"name":"Kottamangalam 1","kind":"cgwb-manual","network":"CGWB manual quarterly, 2021 to 2025","agency":"CGWB","latestDepthMbgl":8.57,"latestReading":"2024-05-30","shallowestMbgl":8.57,"deepestMbgl":8.57,"firstReading":"2024-05-30","readingsCount":1,"shedId":"SB120"},"geometry":{"type":"Point","coordinates":[77.1333,11.4583]}},{"type":"Feature","properties":{"name":"Krishnapuram","kind":"cgwb-manual","network":"CGWB manual quarterly, 2021 to 2025","agency":"CGWB","tehsil":"Anthiyur","latestDepthMbgl":2.29,"latestReading":"2024-11-30","shallowestMbgl":2.29,"deepestMbgl":18.08,"firstReading":"2021-01-10","readingsCount":13,"shedId":"SB123"},"geometry":{"type":"Point","coordinates":[77.70972,11.53667]}},{"type":"Feature","properties":{"name":"Kugalur","kind":"cgwb-manual","network":"CGWB manual quarterly, 2021 to 2025","agency":"CGWB","tehsil":"Gobichettipalayam","latestDepthMbgl":3.7,"latestReading":"2023-01-20","shallowestMbgl":3.7,"deepestMbgl":3.7,"firstReading":"2023-01-20","readingsCount":1,"shedId":"SB120"},"geometry":{"type":"Point","coordinates":[77.48056,11.48333]}},{"type":"Feature","properties":{"name":"Kurichi Pz 1","kind":"cgwb-manual","network":"CGWB manual quarterly, 2021 to 2025","agency":"CGWB","latestDepthMbgl":7.92,"latestReading":"2024-05-30","shallowestMbgl":7.92,"deepestMbgl":7.92,"firstReading":"2024-05-30","readingsCount":1,"shedId":"SB123"},"geometry":{"type":"Point","coordinates":[77.695,11.5731]}},{"type":"Feature","properties":{"name":"Kurichi pz","kind":"cgwb-manual","network":"CGWB manual quarterly, 2021 to 2025","agency":"CGWB","tehsil":"Bhavani","latestDepthMbgl":3.93,"latestReading":"2024-01-10","shallowestMbgl":2.05,"deepestMbgl":6.0,"firstReading":"2023-01-01","readingsCount":4,"shedId":"SB123"},"geometry":{"type":"Point","coordinates":[77.695,11.57306]}},{"type":"Feature","properties":{"name":"Kuruchi","kind":"cgwb-manual","network":"CGWB manual quarterly, 2021 to 2025","agency":"CGWB","tehsil":"Anthiyur","latestDepthMbgl":2.47,"latestReading":"2024-11-30","shallowestMbgl":2.47,"deepestMbgl":12.67,"firstReading":"2023-01-20","readingsCount":7,"shedId":"SB123"},"geometry":{"type":"Point","coordinates":[77.69389,11.57389]}},{"type":"Feature","properties":{"name":"Malaiyapalayam","kind":"cgwb-manual","network":"CGWB manual quarterly, 2021 to 2025","agency":"CGWB","tehsil":"Gobichettipalayam","latestDepthMbgl":3.69,"latestReading":"2024-11-30","shallowestMbgl":1.8,"deepestMbgl":46.06,"firstReading":"2021-01-10","readingsCount":11,"shedId":"SB120"},"geometry":{"type":"Point","coordinates":[77.33056,11.29028]}},{"type":"Feature","properties":{"name":"Malaiyapalayam Pz","kind":"cgwb-manual","network":"CGWB manual quarterly, 2021 to 2025","agency":"CGWB","tehsil":"Nambiyur","latestDepthMbgl":6.28,"latestReading":"2024-05-30","shallowestMbgl":6.28,"deepestMbgl":6.28,"firstReading":"2024-05-30","readingsCount":1,"shedId":"SB120"},"geometry":{"type":"Point","coordinates":[77.3306,11.2903]}},{"type":"Feature","properties":{"name":"Mudukkandurai","kind":"cgwb-manual","network":"CGWB manual quarterly, 2021 to 2025","agency":"CGWB","tehsil":"Sathyamangalam","latestDepthMbgl":6.41,"latestReading":"2024-11-30","shallowestMbgl":0.61,"deepestMbgl":7.06,"firstReading":"2021-01-10","readingsCount":10,"shedId":"SB120"},"geometry":{"type":"Point","coordinates":[77.15,11.48333]}},{"type":"Feature","properties":{"name":"Murlipudur","kind":"cgwb-manual","network":"CGWB manual quarterly, 2021 to 2025","agency":"CGWB","tehsil":"Bhavani","latestDepthMbgl":1.34,"latestReading":"2024-11-30","shallowestMbgl":1.34,"deepestMbgl":9.66,"firstReading":"2023-01-01","readingsCount":6,"shedId":"SB123"},"geometry":{"type":"Point","coordinates":[77.65528,11.67889]}},{"type":"Feature","properties":{"name":"Nalampatti","kind":"cgwb-manual","network":"CGWB manual quarterly, 2021 to 2025","agency":"CGWB","tehsil":"Perundurai","latestDepthMbgl":5.85,"latestReading":"2024-11-30","shallowestMbgl":5.53,"deepestMbgl":6.7,"firstReading":"2023-11-10","readingsCount":4,"shedId":"SB120"},"geometry":{"type":"Point","coordinates":[77.54389,11.34194]}},{"type":"Feature","properties":{"name":"Nallampatti","kind":"cgwb-manual","network":"CGWB manual quarterly, 2021 to 2025","agency":"CGWB","tehsil":"Perundurai","latestDepthMbgl":10.2,"latestReading":"2023-08-30","shallowestMbgl":5.14,"deepestMbgl":10.2,"firstReading":"2021-01-10","readingsCount":6,"shedId":"SB120"},"geometry":{"type":"Point","coordinates":[77.54167,11.33333]}},{"type":"Feature","properties":{"name":"Nallampatti Pz","kind":"cgwb-manual","network":"CGWB manual quarterly, 2021 to 2025","agency":"CGWB","latestDepthMbgl":9.1,"latestReading":"2024-05-30","shallowestMbgl":9.1,"deepestMbgl":9.1,"firstReading":"2024-05-30","readingsCount":1,"shedId":"SB120"},"geometry":{"type":"Point","coordinates":[77.5417,11.3333]}},{"type":"Feature","properties":{"name":"Nambiyur1","kind":"cgwb-manual","network":"CGWB manual quarterly, 2021 to 2025","agency":"CGWB","tehsil":"Gobichettipalayam","latestDepthMbgl":4.24,"latestReading":"2024-11-30","shallowestMbgl":1.69,"deepestMbgl":10.29,"firstReading":"2021-11-30","readingsCount":12,"shedId":"SB120"},"geometry":{"type":"Point","coordinates":[77.32361,11.35556]}},{"type":"Feature","properties":{"name":"Nasiyanur","kind":"cgwb-manual","network":"CGWB manual quarterly, 2021 to 2025","agency":"CGWB","tehsil":"Perundurai","latestDepthMbgl":8.39,"latestReading":"2024-11-30","shallowestMbgl":1.49,"deepestMbgl":9.29,"firstReading":"2021-01-10","readingsCount":15,"shedId":"SB120"},"geometry":{"type":"Point","coordinates":[77.58611,11.33611]}},{"type":"Feature","properties":{"name":"Ooricheri","kind":"cgwb-manual","network":"CGWB manual quarterly, 2021 to 2025","agency":"CGWB","tehsil":"Bhavani","latestDepthMbgl":3.57,"latestReading":"2024-11-30","shallowestMbgl":3.55,"deepestMbgl":4.6,"firstReading":"2023-01-01","readingsCount":6,"shedId":"SB120"},"geometry":{"type":"Point","coordinates":[77.60583,11.465]}},{"type":"Feature","properties":{"name":"Pandiyampalayam","kind":"cgwb-manual","network":"CGWB manual quarterly, 2021 to 2025","agency":"CGWB","tehsil":"Perundurai","latestDepthMbgl":9.0,"latestReading":"2023-08-30","shallowestMbgl":8.9,"deepestMbgl":9.0,"firstReading":"2023-01-20","readingsCount":2,"shedId":"SB120"},"geometry":{"type":"Point","coordinates":[77.5175,11.39972]}},{"type":"Feature","properties":{"name":"Periyapuliyur","kind":"cgwb-manual","network":"CGWB manual quarterly, 2021 to 2025","agency":"CGWB","tehsil":"Bhavani","latestDepthMbgl":1.48,"latestReading":"2024-11-30","shallowestMbgl":0.51,"deepestMbgl":1.87,"firstReading":"2023-01-20","readingsCount":4,"shedId":"SB120"},"geometry":{"type":"Point","coordinates":[77.63083,11.43056]}},{"type":"Feature","properties":{"name":"Periyapuliyur Pz","kind":"cgwb-manual","network":"CGWB manual quarterly, 2021 to 2025","agency":"CGWB","latestDepthMbgl":1.88,"latestReading":"2024-05-30","shallowestMbgl":1.88,"deepestMbgl":1.88,"firstReading":"2024-05-30","readingsCount":1,"shedId":"SB120"},"geometry":{"type":"Point","coordinates":[77.6492,11.4283]}},{"type":"Feature","properties":{"name":"Perundurai1","kind":"cgwb-manual","network":"CGWB manual quarterly, 2021 to 2025","agency":"CGWB","tehsil":"Perundurai","latestDepthMbgl":10.38,"latestReading":"2024-11-30","shallowestMbgl":9.21,"deepestMbgl":17.18,"firstReading":"2021-01-10","readingsCount":14,"shedId":"SB123"},"geometry":{"type":"Point","coordinates":[77.58472,11.27917]}},{"type":"Feature","properties":{"name":"Ponmudi 1","kind":"cgwb-manual","network":"CGWB manual quarterly, 2021 to 2025","agency":"CGWB","tehsil":"Perundurai","latestDepthMbgl":10.15,"latestReading":"2024-11-30","shallowestMbgl":10.15,"deepestMbgl":23.25,"firstReading":"2023-01-01","readingsCount":6,"shedId":"SB120"},"geometry":{"type":"Point","coordinates":[77.53028,11.26083]}},{"type":"Feature","properties":{"name":"Priyakolanalli Pz","kind":"cgwb-manual","network":"CGWB manual quarterly, 2021 to 2025","agency":"CGWB","tehsil":"Kodumudi","latestDepthMbgl":0.91,"latestReading":"2024-11-30","shallowestMbgl":0.91,"deepestMbgl":3.48,"firstReading":"2024-05-30","readingsCount":3,"shedId":"SB123"},"geometry":{"type":"Point","coordinates":[77.8567,11.1744]}},{"type":"Feature","properties":{"name":"Pudupalayam1","kind":"cgwb-manual","network":"CGWB manual quarterly, 2021 to 2025","agency":"CGWB","tehsil":"Anthiyur","latestDepthMbgl":6.29,"latestReading":"2024-11-30","shallowestMbgl":1.54,"deepestMbgl":14.25,"firstReading":"2021-01-10","readingsCount":14,"shedId":"SB120"},"geometry":{"type":"Point","coordinates":[77.5875,11.59444]}},{"type":"Feature","properties":{"name":"Puduvadavalli","kind":"cgwb-manual","network":"CGWB manual quarterly, 2021 to 2025","agency":"CGWB","latestDepthMbgl":18.21,"latestReading":"2024-11-30","shallowestMbgl":13.55,"deepestMbgl":22.2,"firstReading":"2023-01-01","readingsCount":6,"shedId":"SB120"},"geometry":{"type":"Point","coordinates":[77.17611,11.54167]}},{"type":"Feature","properties":{"name":"Pungaipuliampatti","kind":"cgwb-manual","network":"CGWB manual quarterly, 2021 to 2025","agency":"CGWB","tehsil":"Sathyamangalam","latestDepthMbgl":3.77,"latestReading":"2024-11-30","shallowestMbgl":3.0,"deepestMbgl":14.97,"firstReading":"2021-01-10","readingsCount":14,"shedId":"SB120"},"geometry":{"type":"Point","coordinates":[77.16667,11.35]}},{"type":"Feature","properties":{"name":"Punjaiduraiampalayam","kind":"cgwb-manual","network":"CGWB manual quarterly, 2021 to 2025","agency":"CGWB","latestDepthMbgl":3.87,"latestReading":"2024-11-30","shallowestMbgl":2.27,"deepestMbgl":8.03,"firstReading":"2023-01-01","readingsCount":6,"shedId":"SB120"},"geometry":{"type":"Point","coordinates":[77.42333,11.51306]}},{"type":"Feature","properties":{"name":"Punjaikolanalli","kind":"cgwb-manual","network":"CGWB manual quarterly, 2021 to 2025","agency":"CGWB","tehsil":"Erode","latestDepthMbgl":1.45,"latestReading":"2023-05-31","shallowestMbgl":1.45,"deepestMbgl":1.45,"firstReading":"2023-05-31","readingsCount":1,"shedId":"SB123"},"geometry":{"type":"Point","coordinates":[77.85,11.14167]}},{"type":"Feature","properties":{"name":"Punjaipuliampti","kind":"cgwb-manual","network":"CGWB manual quarterly, 2021 to 2025","agency":"CGWB","tehsil":"Sathyamangalam","latestDepthMbgl":2.24,"latestReading":"2024-11-30","shallowestMbgl":1.78,"deepestMbgl":14.11,"firstReading":"2021-11-30","readingsCount":13,"shedId":"SB120"},"geometry":{"type":"Point","coordinates":[77.16944,11.35278]}},{"type":"Feature","properties":{"name":"Punnachipudur dw","kind":"cgwb-manual","network":"CGWB manual quarterly, 2021 to 2025","agency":"CGWB","tehsil":"Bhavani","latestDepthMbgl":7.3,"latestReading":"2024-01-10","shallowestMbgl":7.3,"deepestMbgl":17.18,"firstReading":"2023-05-31","readingsCount":3,"shedId":"SB123"},"geometry":{"type":"Point","coordinates":[77.66611,11.59194]}},{"type":"Feature","properties":{"name":"Punnam","kind":"cgwb-manual","network":"CGWB manual quarterly, 2021 to 2025","agency":"CGWB","tehsil":"Bhavani","latestDepthMbgl":6.23,"latestReading":"2024-11-30","shallowestMbgl":1.37,"deepestMbgl":6.23,"firstReading":"2021-01-10","readingsCount":9,"shedId":"SB120"},"geometry":{"type":"Point","coordinates":[77.61389,11.50722]}},{"type":"Feature","properties":{"name":"Punnam Pz","kind":"cgwb-manual","network":"CGWB manual quarterly, 2021 to 2025","agency":"CGWB","latestDepthMbgl":6.77,"latestReading":"2024-05-30","shallowestMbgl":6.77,"deepestMbgl":6.77,"firstReading":"2024-05-30","readingsCount":1,"shedId":"SB120"},"geometry":{"type":"Point","coordinates":[77.6139,11.5072]}},{"type":"Feature","properties":{"name":"RajanNagar","kind":"cgwb-manual","network":"CGWB manual quarterly, 2021 to 2025","agency":"CGWB","tehsil":"Sathyamangalam","latestDepthMbgl":8.2,"latestReading":"2024-11-30","shallowestMbgl":7.3,"deepestMbgl":11.75,"firstReading":"2023-01-20","readingsCount":7,"shedId":"SB120"},"geometry":{"type":"Point","coordinates":[77.14083,11.53028]}},{"type":"Feature","properties":{"name":"Rajanagaram","kind":"cgwb-manual","network":"CGWB manual quarterly, 2021 to 2025","agency":"CGWB","tehsil":"Sathyamangalam","latestDepthMbgl":7.44,"latestReading":"2024-11-30","shallowestMbgl":5.54,"deepestMbgl":13.54,"firstReading":"2021-01-10","readingsCount":12,"shedId":"SB120"},"geometry":{"type":"Point","coordinates":[77.14167,11.54722]}},{"type":"Feature","properties":{"name":"Sathiyamangalam","kind":"cgwb-manual","network":"CGWB manual quarterly, 2021 to 2025","agency":"CGWB","tehsil":"Sathyamangalam","latestDepthMbgl":7.8,"latestReading":"2024-11-30","shallowestMbgl":6.69,"deepestMbgl":11.56,"firstReading":"2021-01-10","readingsCount":15,"shedId":"SB120"},"geometry":{"type":"Point","coordinates":[77.24722,11.50278]}},{"type":"Feature","properties":{"name":"Sathyamangalam1","kind":"cgwb-manual","network":"CGWB manual quarterly, 2021 to 2025","agency":"CGWB","tehsil":"Sathyamangalam","latestDepthMbgl":8.08,"latestReading":"2024-11-30","shallowestMbgl":5.8,"deepestMbgl":10.14,"firstReading":"2022-05-30","readingsCount":10,"shedId":"SB120"},"geometry":{"type":"Point","coordinates":[77.23611,11.49722]}},{"type":"Feature","properties":{"name":"Settunampalayam Pz 1","kind":"cgwb-manual","network":"CGWB manual quarterly, 2021 to 2025","agency":"CGWB","latestDepthMbgl":12.91,"latestReading":"2024-05-30","shallowestMbgl":12.91,"deepestMbgl":12.91,"firstReading":"2024-05-30","readingsCount":1,"shedId":"SB120"},"geometry":{"type":"Point","coordinates":[77.6033,11.52]}},{"type":"Feature","properties":{"name":"Settunampalayam pz","kind":"cgwb-manual","network":"CGWB manual quarterly, 2021 to 2025","agency":"CGWB","tehsil":"Bhavani","latestDepthMbgl":7.28,"latestReading":"2024-11-30","shallowestMbgl":5.32,"deepestMbgl":12.4,"firstReading":"2023-01-01","readingsCount":5,"shedId":"SB120"},"geometry":{"type":"Point","coordinates":[77.60333,11.52]}},{"type":"Feature","properties":{"name":"Talavadi new","kind":"cgwb-manual","network":"CGWB manual quarterly, 2021 to 2025","agency":"CGWB","latestDepthMbgl":2.9,"latestReading":"2024-11-30","shallowestMbgl":1.6,"deepestMbgl":9.75,"firstReading":"2023-05-31","readingsCount":3,"shedId":"SB127"},"geometry":{"type":"Point","coordinates":[77.02306,11.77556]}},{"type":"Feature","properties":{"name":"Talavadi1","kind":"cgwb-manual","network":"CGWB manual quarterly, 2021 to 2025","agency":"CGWB","tehsil":"Sathyamangalam","latestDepthMbgl":3.49,"latestReading":"2024-08-30","shallowestMbgl":0.85,"deepestMbgl":10.47,"firstReading":"2021-01-10","readingsCount":9,"shedId":"SB127"},"geometry":{"type":"Point","coordinates":[77.00556,11.77917]}},{"type":"Feature","properties":{"name":"Unjalur","kind":"cgwb-manual","network":"CGWB manual quarterly, 2021 to 2025","agency":"CGWB","tehsil":"Erode","latestDepthMbgl":3.19,"latestReading":"2024-11-30","shallowestMbgl":1.3,"deepestMbgl":4.26,"firstReading":"2021-01-10","readingsCount":15,"shedId":"SB123"},"geometry":{"type":"Point","coordinates":[77.875,11.125]}},{"type":"Feature","properties":{"name":"Urachikottai","kind":"cgwb-manual","network":"CGWB manual quarterly, 2021 to 2025","agency":"CGWB","tehsil":"Bhavani","latestDepthMbgl":4.16,"latestReading":"2024-11-30","shallowestMbgl":1.15,"deepestMbgl":6.55,"firstReading":"2021-01-10","readingsCount":14,"shedId":"SB123"},"geometry":{"type":"Point","coordinates":[77.69167,11.48472]}},{"type":"Feature","properties":{"name":"Urachikottai 1","kind":"cgwb-manual","network":"CGWB manual quarterly, 2021 to 2025","agency":"CGWB","latestDepthMbgl":7.81,"latestReading":"2024-05-30","shallowestMbgl":7.81,"deepestMbgl":7.81,"firstReading":"2024-05-30","readingsCount":1,"shedId":"SB123"},"geometry":{"type":"Point","coordinates":[77.6917,11.4847]}},{"type":"Feature","properties":{"name":"VadakkuThaieripalayam","kind":"cgwb-manual","network":"CGWB manual quarterly, 2021 to 2025","agency":"CGWB","tehsil":"Erode","latestDepthMbgl":3.2,"latestReading":"2024-11-30","shallowestMbgl":1.71,"deepestMbgl":5.85,"firstReading":"2023-01-01","readingsCount":6,"shedId":"SB120"},"geometry":{"type":"Point","coordinates":[77.6375,11.40222]}},{"type":"Feature","properties":{"name":"Varadanallur","kind":"cgwb-manual","network":"CGWB manual quarterly, 2021 to 2025","agency":"CGWB","tehsil":"Bhavani","latestDepthMbgl":1.25,"latestReading":"2024-11-30","shallowestMbgl":1.06,"deepestMbgl":6.15,"firstReading":"2023-01-01","readingsCount":6,"shedId":"SB123"},"geometry":{"type":"Point","coordinates":[77.69861,11.49333]}},{"type":"Feature","properties":{"name":"Vellitirupur","kind":"cgwb-manual","network":"CGWB manual quarterly, 2021 to 2025","agency":"CGWB","tehsil":"Bhavani","latestDepthMbgl":3.55,"latestReading":"2024-11-30","shallowestMbgl":1.78,"deepestMbgl":4.61,"firstReading":"2023-05-31","readingsCount":5,"shedId":"SB123"},"geometry":{"type":"Point","coordinates":[77.63333,11.62083]}},{"type":"Feature","properties":{"name":"Velliyampalayampudur","kind":"cgwb-manual","network":"CGWB manual quarterly, 2021 to 2025","agency":"CGWB","tehsil":"Sathyamangalam","latestDepthMbgl":8.33,"latestReading":"2024-11-30","shallowestMbgl":7.1,"deepestMbgl":18.28,"firstReading":"2023-01-20","readingsCount":7,"shedId":"SB120"},"geometry":{"type":"Point","coordinates":[77.15667,11.48944]}},{"type":"Feature","properties":{"name":"Velliyampalayamputhur Pz 1","kind":"cgwb-manual","network":"CGWB manual quarterly, 2021 to 2025","agency":"CGWB","latestDepthMbgl":9.23,"latestReading":"2024-05-30","shallowestMbgl":9.23,"deepestMbgl":9.23,"firstReading":"2024-05-30","readingsCount":1,"shedId":"SB120"},"geometry":{"type":"Point","coordinates":[77.1564,11.4886]}},{"type":"Feature","properties":{"name":"Velliyampalayamputhur pz","kind":"cgwb-manual","network":"CGWB manual quarterly, 2021 to 2025","agency":"CGWB","latestDepthMbgl":7.4,"latestReading":"2024-01-10","shallowestMbgl":5.75,"deepestMbgl":9.05,"firstReading":"2023-01-01","readingsCount":4,"shedId":"SB120"},"geometry":{"type":"Point","coordinates":[77.15639,11.48861]}},{"type":"Feature","properties":{"name":"Vellodu","kind":"cgwb-manual","network":"CGWB manual quarterly, 2021 to 2025","agency":"CGWB","tehsil":"Perundurai","latestDepthMbgl":2.41,"latestReading":"2024-11-30","shallowestMbgl":0.5,"deepestMbgl":4.15,"firstReading":"2021-01-10","readingsCount":11,"shedId":"SB123"},"geometry":{"type":"Point","coordinates":[77.65833,11.23611]}},{"type":"Feature","properties":{"name":"Vijayamangalam1","kind":"cgwb-manual","network":"CGWB manual quarterly, 2021 to 2025","agency":"CGWB","tehsil":"Perundurai","latestDepthMbgl":11.35,"latestReading":"2024-11-30","shallowestMbgl":4.84,"deepestMbgl":30.57,"firstReading":"2021-01-10","readingsCount":16,"shedId":"SB126"},"geometry":{"type":"Point","coordinates":[77.50417,11.24167]}},{"type":"Feature","properties":{"name":"Vinnampalli","kind":"cgwb-manual","network":"CGWB manual quarterly, 2021 to 2025","agency":"CGWB","tehsil":"Sathyamangalam","latestDepthMbgl":119.35,"latestReading":"2024-11-30","shallowestMbgl":17.16,"deepestMbgl":119.35,"firstReading":"2023-01-20","readingsCount":6,"shedId":"SB120"},"geometry":{"type":"Point","coordinates":[77.20222,11.43278]}},{"type":"Feature","properties":{"name":"Vinnampalli 1","kind":"cgwb-manual","network":"CGWB manual quarterly, 2021 to 2025","agency":"CGWB","latestDepthMbgl":97.39,"latestReading":"2024-05-30","shallowestMbgl":97.39,"deepestMbgl":97.39,"firstReading":"2024-05-30","readingsCount":1,"shedId":"SB120"},"geometry":{"type":"Point","coordinates":[77.2022,11.4328]}}]}