{"nvdm":"1.0","dataset":"basins/monitoring-points","scope":{"kind":"basin","id":"erode-rivers"},"provenance":{"sources":[{"id":"tnpcb-prs-cauvery","title":"TNPCB stretch-wise monthly water-quality reports, January to December 2023 (the last year published)","publisher":"Tamil Nadu Pollution Control Board","license":"TN government publication, cited with attribution","role":"input","url":"https://tnpcb.gov.in/pollutedriverstretches.php","as_of":"2023-12"},{"id":"osm-overpass","title":"OpenStreetMap (Overpass API extract: named river and canal courses)","publisher":"OpenStreetMap contributors","license":"ODbL 1.0","role":"input"},{"id":"tngis-open-geoserver","title":"TNGIS open GeoServer (WFS): district, taluk, block and village panchayat boundaries, TN WRD sub-basins and reservoirs, micro-watershed atlas, all-water-bodies register, named tanks, mine leases, industry register matched to land parcels","publisher":"Tamil Nadu e-Governance Agency (TNGIS)","license":"Tamil Nadu government data on an open GeoServer (WFS, no login); published with TNGIS's permission and with attribution.","role":"input","url":"https://tngis.tn.gov.in/tngismaps/ows"}],"method":"derived","produced_at":"2026-09-17","produced_by":"scripts/build_erode_rivers_basin.py","internal_inputs":["public/data/basins/cauvery-tn/wq-stations.geojson","public/data/basins/erode-rivers/sub-hydrosheds.geojson"],"note":"Erode district's rivers, groundwater and industry (scope erode-rivers; the district's own scope id is tn-erode). The district boundary is the frame and TN WRD's sub-basins, clipped to it, are the catchments (shedId). The industry register holds only units TNGIS matched to a land parcel, so every count is a lower bound; sector comes from the reviewed TNPCB type-code lookup pipeline-inputs/basins/erode-rivers/tnpcb-type-sectors.json."},"type":"FeatureCollection","features":[{"type":"Feature","properties":{"name":"Pallipalayam","river":"Cauvery","stationCode":"51","worstClass":"B","latestClass":"A","monthsParsed":12,"readingsPeriod":"January - December 2023","agency":"TNPCB","locationBasis":"town centroid (OSM Nominatim)","shedId":"SB123"},"geometry":{"type":"Point","coordinates":[77.7483,11.3652]}},{"type":"Feature","properties":{"name":"Komarapalayam","river":"Cauvery","stationCode":"3012","worstClass":"B","latestClass":"A","monthsParsed":12,"readingsPeriod":"January - December 2023","agency":"TNPCB","locationBasis":"town centroid (OSM Nominatim)","shedId":"SB123"},"geometry":{"type":"Point","coordinates":[77.694,11.4425]}},{"type":"Feature","properties":{"name":"Seerampalayam","river":"Cauvery","stationCode":"3014","worstClass":"A","latestClass":"A","monthsParsed":12,"readingsPeriod":"January - December 2023","agency":"TNPCB","locationBasis":"town centroid (OSM Nominatim)","shedId":"SB123"},"geometry":{"type":"Point","coordinates":[77.7123,11.4047]}},{"type":"Feature","properties":{"name":"Bhavanisagar","river":"Bhavani","stationCode":"1321","worstClass":"A","latestClass":"A","monthsParsed":11,"readingsPeriod":"January - December 2023","agency":"TNPCB","locationBasis":"town centroid (OSM Nominatim)","shedId":"SB114"},"geometry":{"type":"Point","coordinates":[77.0661,11.4343]}},{"type":"Feature","properties":{"name":"Bhavani town","river":"Bhavani","stationCode":"1205","worstClass":"A","latestClass":"A","monthsParsed":11,"readingsPeriod":"January - December 2023","agency":"TNPCB","locationBasis":"town centroid (OSM Nominatim)","shedId":"SB120"},"geometry":{"type":"Point","coordinates":[77.3312,11.47]}},{"type":"Feature","properties":{"name":"Sathyamangalam","river":"Bhavani","stationCode":"3019","worstClass":"A","latestClass":"A","monthsParsed":11,"readingsPeriod":"January - December 2023","agency":"TNPCB","locationBasis":"town centroid (OSM Nominatim)","shedId":"SB120"},"geometry":{"type":"Point","coordinates":[77.2654,11.5524]}}]}