{"nvdm":"1.0","dataset":"basins/realtime-stations","scope":{"kind":"basin","id":"erode-rivers"},"provenance":{"sources":[{"id":"tnpcb-realtime-wq-dashboard","title":"TNPCB real-time water quality monitoring dashboard: monthly means of sensor readings","publisher":"Tamil Nadu Pollution Control Board","license":"LICENCE UNVERIFIED - see notes. Public Tamil Nadu government dashboard with no reuse terms stated; its own page switches the download buttons off. Monthly means published with attribution.","role":"input","url":"https://tnpcb.gov.in/rtwqmstnpcb"},{"id":"tngis-open-geoserver","title":"TNGIS open GeoServer (WFS): district, taluk, block and village panchayat boundaries, TN WRD sub-basins and reservoirs, micro-watershed atlas, all-water-bodies register, named tanks, mine leases, industry register matched to land parcels","publisher":"Tamil Nadu e-Governance Agency (TNGIS)","license":"Tamil Nadu government data on an open GeoServer (WFS, no login); published with TNGIS's permission and with attribution.","role":"input","url":"https://tngis.tn.gov.in/tngismaps/ows"}],"method":"derived","produced_at":"2026-09-17","produced_by":"scripts/build_erode_rivers_basin.py","internal_inputs":["public/data/basins/erode-rivers/sub-hydrosheds.geojson"],"note":"Erode district's rivers, groundwater and industry (scope erode-rivers; the district's own scope id is tn-erode). The district boundary is the frame and TN WRD's sub-basins, clipped to it, are the catchments (shedId). The industry register holds only units TNGIS matched to a land parcel, so every count is a lower bound; sector comes from the reviewed TNPCB type-code lookup pipeline-inputs/basins/erode-rivers/tnpcb-type-sectors.json."},"type":"FeatureCollection","features":[{"type":"Feature","properties":{"name":"Kalingarayan Canal - Erode -Upstream","kind":"realtime-station","stationKey":"kgc-erd-up-3","hasReadings":true,"stationCode":"KGC-ERD-UP-3","river":"Kalingarayan Canal","agency":"TNPCB","location":"Pioneer Mills - 15 - 17, Bhavani Main Road, R.N. Pudur, Erode, Tamil Nadu 638005","monthsWithReadings":"2024-10 to 2026-08","latestMonthlyMeanBod":"2.75 mg/L (2026-08)","latestMonthlyMeanTds":"261.39 mg/L (2026-08)","note":"Sensor readings as TNPCB's dashboard publishes them; not laboratory results.","dataUrl":"https://tnpcb.gov.in/rtwqmstnpcb","shedId":"SB123"},"geometry":{"type":"Point","coordinates":[77.68578,11.41106]}},{"type":"Feature","properties":{"name":"Kalingarayan Canal - Erode -Downstream","kind":"realtime-station","stationKey":"kgc-erd-ds-4","hasReadings":true,"stationCode":"KGC-ERD-DS-4","river":"Kalingarayan Canal","agency":"TNPCB","location":"SCM Mills - 9P2R+MH6, Kamala Nagar, KAS Nagar, Karungalpalayam, Erode, Tamil Nadu 638003","monthsWithReadings":"2024-10 to 2026-09","latestMonthlyMeanBod":"7.81 mg/L (2026-09)","latestMonthlyMeanTds":"260.1 mg/L (2026-08)","note":"Sensor readings as TNPCB's dashboard publishes them; not laboratory results.","dataUrl":"https://tnpcb.gov.in/rtwqmstnpcb","shedId":"SB123"},"geometry":{"type":"Point","coordinates":[77.74247,11.35164]}},{"type":"Feature","properties":{"name":"Noyyal - Orathapalayam-Downstream","kind":"realtime-station","stationKey":"noy-ora-ds-6","hasReadings":true,"stationCode":"NOY-ORA-DS-6","river":"Noyyal","agency":"TNPCB","location":"Orathapalayam dam - Orathupalayam, Perundurai taluk, Erode Tamil Nadu 638051","monthsWithReadings":"2024-12 to 2026-09","latestMonthlyMeanBod":"7.61 mg/L (2026-09)","latestMonthlyMeanTds":"1498.04 mg/L (2026-09)","note":"Sensor readings as TNPCB's dashboard publishes them; not laboratory results.","dataUrl":"https://tnpcb.gov.in/rtwqmstnpcb","shedId":"SB126"},"geometry":{"type":"Point","coordinates":[77.53981,11.11084]}}]}