{"nvdm":"1.0","dataset":"basins/sub-watersheds","scope":{"kind":"basin","id":"erode-rivers"},"provenance":{"sources":[{"id":"tngis-open-geoserver","title":"TNGIS open GeoServer (WFS): district, taluk, block and village panchayat boundaries, TN WRD sub-basins and reservoirs, micro-watershed atlas, all-water-bodies register, named tanks, mine leases, industry register matched to land parcels","publisher":"Tamil Nadu e-Governance Agency (TNGIS)","license":"Tamil Nadu government data on an open GeoServer (WFS, no login); published with TNGIS's permission and with attribution.","role":"input","url":"https://tngis.tn.gov.in/tngismaps/ows"}],"method":"derived","produced_at":"2026-09-18","produced_by":"scripts/build_erode_rivers_basin.py","internal_inputs":["public/data/basins/erode-rivers/sub-hydrosheds.geojson"],"note":"Erode district's rivers, groundwater and industry (scope erode-rivers; the district's own scope id is tn-erode). The district boundary is the frame and TN WRD's sub-basins, clipped to it, are the catchments (shedId). The industry register holds only units TNGIS matched to a land parcel, so every count is a lower bound; sector comes from the reviewed TNPCB type-code lookup pipeline-inputs/basins/erode-rivers/tnpcb-type-sectors.json."},"type":"FeatureCollection","features":[{"type":"Feature","properties":{"name":"4B2B1a","level":"sub-watershed","watershedCode":"4B2B1","subCatchmentCode":"4B2B","areaKm2InDistrict":0.8,"shedId":"SB126"},"geometry":{"type":"MultiPolygon","coordinates":[[[[77.6386,11.1234],[77.6407,11.1206],[77.64258,11.11824],[77.6407,11.1202],[77.6386,11.1234]]],[[[77.6533,11.1155],[77.6549,11.1136],[77.6556,11.1087],[77.6566,11.1069],[77.6614,11.103],[77.6666,11.1018],[77.6698,11.0997],[77.6722,11.0997],[77.675,11.0988],[77.6779,11.0993],[77.6827,11.0977],[77.6855,11.0976],[77.6842,11.097],[77.6801,11.0976],[77.6784,11.0985],[77.6743,11.0984],[77.6611,11.102],[77.6547,11.1081],[77.6551,11.1106],[77.6541,11.1117],[77.6533,11.1155]]],[[[77.6855,11.0976],[77.6924,11.0954],[77.6955,11.0957],[77.7019,11.0938],[77.70419,11.09125],[77.7012,11.0938],[77.6959,11.0951],[77.6903,11.0949],[77.6855,11.0976]]],[[[77.70441,11.09105],[77.7074,11.0898],[77.7109,11.085],[77.712,11.0783],[77.713,11.0775],[77.71805,11.07679],[77.7137,11.077],[77.7127,11.0776],[77.7119,11.0784],[77.7109,11.0799],[77.7102,11.0847],[77.7078,11.0887],[77.70441,11.09105]]],[[[77.72753,11.07603],[77.7292,11.0758],[77.73007,11.07598],[77.72753,11.07603]]],[[[77.7315,11.0775],[77.7316,11.07793],[77.7311,11.07678],[77.7315,11.0775]]],[[[77.74613,11.07816],[77.7507,11.0769],[77.75281,11.07276],[77.7504,11.0766],[77.7488,11.0766],[77.74613,11.07816]]],[[[77.7537,11.0712],[77.755,11.0702],[77.76275,11.0657],[77.7554,11.0697],[77.7537,11.0712]]],[[[77.76395,11.0649],[77.7661,11.0625],[77.76724,11.0616],[77.7653,11.0616],[77.76395,11.0649]]],[[[77.7683,11.06095],[77.7746,11.0579],[77.7766,11.0577],[77.77671,11.05687],[77.7747,11.0574],[77.7683,11.06095]]]]}},{"type":"Feature","properties":{"name":"4B2B1b","level":"sub-watershed","watershedCode":"4B2B1","subCatchmentCode":"4B2B","areaKm2InDistrict":217.0,"shedId":"SB126"},"geometry":{"type":"Polygon","coordinates":[[[77.7767,11.057],[77.7766,11.0577],[77.7746,11.0579],[77.7682,11.061],[77.7629,11.0657],[77.755,11.0702],[77.75346,11.07148],[77.7507,11.0769],[77.74613,11.07816],[77.7381,11.085],[77.7362,11.0853],[77.7322,11.0823],[77.7316,11.0816],[77.7315,11.0775],[77.73007,11.07598],[77.713,11.0775],[77.7117,11.0792],[77.7112,11.0843],[77.7084,11.0888],[77.7066,11.0903],[77.70441,11.09105],[77.7019,11.0938],[77.6955,11.0957],[77.6924,11.0954],[77.686,11.0976],[77.6827,11.0977],[77.6779,11.0993],[77.675,11.0988],[77.6722,11.0997],[77.6698,11.0997],[77.6666,11.1018],[77.6614,11.103],[77.6566,11.1069],[77.6556,11.1087],[77.6549,11.1136],[77.6528,11.1165],[77.6498,11.1175],[77.6463,11.1169],[77.6436,11.1175],[77.6414,11.1196],[77.6373,11.1255],[77.634,11.1254],[77.6303,11.1267],[77.6248,11.1262],[77.6216,11.1279],[77.6152,11.1271],[77.6107,11.1249],[77.6073,11.122],[77.6059,11.1187],[77.6012,11.1168],[77.5986,11.114],[77.5942,11.1137],[77.592,11.1179],[77.58839,11.12159],[77.5868,11.1272],[77.586,11.1322],[77.5861,11.1423],[77.5894,11.1497],[77.5897,11.1516],[77.5875,11.1535],[77.5875,11.1576],[77.5842,11.1571],[77.5836,11.1635],[77.584,11.1696],[77.5808,11.1775],[77.5837,11.1817],[77.5859,11.1895],[77.586,11.2001],[77.5876,11.2086],[77.5898,11.2071],[77.5942,11.2055],[77.6037,11.2038],[77.6116,11.201],[77.6191,11.1998],[77.6235,11.197],[77.6311,11.1917],[77.6325,11.1898],[77.6425,11.1823],[77.6493,11.1749],[77.6527,11.1728],[77.6586,11.165],[77.6607,11.1607],[77.6687,11.1648],[77.6822,11.1692],[77.6924,11.1688],[77.6995,11.1707],[77.7059,11.1678],[77.7075,11.1669],[77.7087,11.1633],[77.7075,11.1564],[77.7083,11.1505],[77.7107,11.148],[77.718,11.1435],[77.7225,11.1411],[77.7347,11.1395],[77.7484,11.1323],[77.7519,11.1313],[77.7612,11.1241],[77.7731,11.1223],[77.7831,11.1199],[77.7868,11.1185],[77.7973,11.1124],[77.8127,11.1069],[77.8202,11.1032],[77.8239,11.1026],[77.8295,11.1004],[77.8373,11.0963],[77.8407,11.0929],[77.8409,11.0859],[77.8403,11.0801],[77.8451,11.0706],[77.8477,11.0672],[77.8608,11.0606],[77.8661,11.0594],[77.8701,11.0563],[77.8744,11.0546],[77.8795,11.0546],[77.8887,11.0566],[77.9011,11.0569],[77.9142,11.0562],[77.919,11.0572],[77.9259,11.0606],[77.9283,11.06051],[77.9228,11.0549],[77.9224,11.0524],[77.9207,11.0495],[77.921,11.0477],[77.92,11.0464],[77.9168,11.0441],[77.9147,11.0443],[77.9104,11.0462],[77.9088,11.0457],[77.9052,11.0423],[77.902,11.0339],[77.9,11.0329],[77.8926,11.0319],[77.8869,11.03],[77.8855,11.0288],[77.8837,11.025],[77.8813,11.0236],[77.8692,11.022],[77.8665,11.023],[77.8616,11.0291],[77.8553,11.0296],[77.8541,11.0305],[77.8516,11.0361],[77.8513,11.0436],[77.8503,11.0453],[77.8459,11.0474],[77.8433,11.0463],[77.8413,11.0437],[77.8403,11.0434],[77.8301,11.0469],[77.8295,11.0476],[77.8287,11.0528],[77.8297,11.058],[77.8282,11.0613],[77.8224,11.0668],[77.8166,11.0693],[77.8144,11.0697],[77.8095,11.0681],[77.8091,11.0642],[77.8078,11.0626],[77.8046,11.0618],[77.8029,11.062],[77.7935,11.0661],[77.787,11.0627],[77.7796,11.061],[77.7776,11.0574],[77.7767,11.057]]]}},{"type":"Feature","properties":{"name":"4B2B2a","level":"sub-watershed","watershedCode":"4B2B2","subCatchmentCode":"4B2B","areaKm2InDistrict":153.2,"shedId":"SB126"},"geometry":{"type":"MultiPolygon","coordinates":[[[[77.50127,11.10794],[77.50189,11.10784],[77.5012,11.1077],[77.50127,11.10794]]],[[[77.50499,11.10816],[77.5125,11.107],[77.514,11.10693],[77.5119,11.1069],[77.5082,11.1073],[77.50499,11.10816]]],[[[77.51745,11.10714],[77.5187,11.1074],[77.52056,11.10725],[77.51745,11.10714]]],[[[77.52207,11.10711],[77.5247,11.1071],[77.52697,11.1062],[77.52207,11.10711]]],[[[77.52701,11.10619],[77.5291,11.1057],[77.53,11.1051],[77.5278,11.1054],[77.52701,11.10619]]],[[[77.531,11.126],[77.5258,11.1262],[77.5241,11.1251],[77.5159,11.1265],[77.5126,11.1263],[77.50286,11.12934],[77.496,11.1376],[77.4948,11.1406],[77.495,11.1455],[77.4959,11.147],[77.4911,11.1474],[77.4906,11.1447],[77.4884,11.145],[77.4886,11.1437],[77.4875,11.143],[77.4862,11.1441],[77.4852,11.1434],[77.48033,11.14647],[77.4827,11.1482],[77.4822,11.1498],[77.4826,11.1518],[77.4809,11.1531],[77.4809,11.1537],[77.482,11.154],[77.4837,11.1617],[77.4798,11.1604],[77.4781,11.1605],[77.4768,11.1617],[77.4763,11.165],[77.4752,11.1653],[77.4746,11.1631],[77.476,11.1635],[77.4764,11.1631],[77.4746,11.1618],[77.475,11.1609],[77.4709,11.1604],[77.4705,11.1628],[77.472,11.1628],[77.4719,11.1638],[77.469,11.1633],[77.4677,11.1641],[77.4682,11.1667],[77.4704,11.1703],[77.47,11.1743],[77.4725,11.1816],[77.4722,11.1846],[77.4804,11.1796],[77.486,11.178],[77.4867,11.1792],[77.4892,11.1804],[77.4957,11.1798],[77.4973,11.1805],[77.506,11.1814],[77.5072,11.1803],[77.5085,11.1803],[77.5124,11.1818],[77.513,11.1979],[77.5136,11.1995],[77.5146,11.1996],[77.5154,11.2006],[77.5167,11.2035],[77.5163,11.2053],[77.513,11.2045],[77.5124,11.2035],[77.5126,11.2006],[77.5104,11.1994],[77.5072,11.2],[77.5065,11.2022],[77.502,11.2017],[77.5001,11.2045],[77.4937,11.2043],[77.4931,11.2054],[77.4936,11.208],[77.4975,11.2077],[77.5013,11.2088],[77.5019,11.21],[77.5024,11.2153],[77.4961,11.2158],[77.4913,11.217],[77.4936,11.2204],[77.4974,11.2202],[77.4986,11.222],[77.4941,11.2247],[77.491,11.225],[77.4906,11.2266],[77.4919,11.2269],[77.4917,11.2285],[77.4899,11.228],[77.4893,11.2263],[77.4883,11.226],[77.4839,11.2263],[77.4836,11.2278],[77.4849,11.2301],[77.486,11.2347],[77.4856,11.2369],[77.4838,11.2362],[77.4845,11.2401],[77.4839,11.2413],[77.4811,11.2408],[77.4811,11.2398],[77.4806,11.2398],[77.4791,11.2409],[77.4786,11.2428],[77.4745,11.2435],[77.4743,11.246],[77.4662,11.2469],[77.4661,11.251],[77.4638,11.2512],[77.4645,11.2568],[77.4614,11.2595],[77.4663,11.2657],[77.4677,11.2698],[77.4677,11.2717],[77.4661,11.2772],[77.4649,11.279],[77.4619,11.2793],[77.4637,11.2847],[77.462,11.2855],[77.4606,11.2843],[77.4598,11.2849],[77.4583,11.2876],[77.458,11.2901],[77.4585,11.2912],[77.4573,11.2919],[77.4558,11.2942],[77.4557,11.2952],[77.457,11.2961],[77.4564,11.3005],[77.45707,11.30079],[77.4592,11.2985],[77.4598,11.2959],[77.4631,11.2931],[77.4638,11.2908],[77.467,11.2875],[77.4679,11.2827],[77.4681,11.2746],[77.4692,11.2697],[77.4736,11.2685],[77.4812,11.2625],[77.4916,11.2612],[77.4966,11.2547],[77.4958,11.247],[77.4944,11.2425],[77.4941,11.2367],[77.5135,11.2395],[77.5179,11.2413],[77.5239,11.2467],[77.5291,11.249],[77.5355,11.2486],[77.5427,11.2555],[77.5534,11.2597],[77.5576,11.2562],[77.5672,11.2536],[77.575,11.2525],[77.5796,11.2508],[77.5819,11.248],[77.5832,11.2446],[77.5832,11.2249],[77.5844,11.215],[77.586,11.2102],[77.5876,11.2086],[77.586,11.2001],[77.5859,11.1895],[77.5837,11.1817],[77.5808,11.1775],[77.584,11.1696],[77.5836,11.1635],[77.5842,11.1571],[77.5875,11.1576],[77.5875,11.1535],[77.5897,11.1516],[77.5894,11.1497],[77.5861,11.1423],[77.5861,11.1311],[77.58839,11.12159],[77.5862,11.1229],[77.5847,11.123],[77.58,11.121],[77.5741,11.1206],[77.5713,11.1178],[77.5683,11.1166],[77.5656,11.1137],[77.561,11.1128],[77.5557,11.1097],[77.5545,11.1096],[77.54859,11.11086],[77.5469,11.1153],[77.545,11.1182],[77.5442,11.1213],[77.531,11.126]]],[[[77.59032,11.1192],[77.5927,11.1168],[77.5938,11.1141],[77.59032,11.1192]]],[[[77.3136,11.2817],[77.314,11.2808],[77.3133,11.2797],[77.3073,11.2747],[77.3055,11.275],[77.3053,11.2745],[77.29777,11.27325],[77.2968,11.2745],[77.3083,11.2769],[77.3122,11.2791],[77.3136,11.2817]]],[[[77.3365,11.2588],[77.3365,11.2612],[77.3353,11.2609],[77.3348,11.2634],[77.3366,11.2615],[77.3371,11.2618],[77.3371,11.2588],[77.3365,11.2588]]],[[[77.3414,11.2696],[77.3405,11.27],[77.3409,11.2711],[77.3414,11.2696]]],[[[77.3439,11.274],[77.3445,11.2751],[77.3446,11.2753],[77.3446,11.2736],[77.3439,11.274]]],[[[77.3459,11.2783],[77.3447,11.2813],[77.34572,11.28201],[77.3467,11.2795],[77.3459,11.2783]]],[[[77.3478,11.284],[77.3477,11.2873],[77.3484,11.2882],[77.3475,11.2896],[77.3481,11.2905],[77.3453,11.2999],[77.3424,11.3019],[77.3357,11.3041],[77.3331,11.3089],[77.3339,11.3122],[77.3332,11.3141],[77.3334,11.3166],[77.3348,11.3155],[77.3339,11.3102],[77.3354,11.3067],[77.3365,11.3057],[77.3396,11.3053],[77.3458,11.3025],[77.3458,11.2993],[77.3473,11.2982],[77.3489,11.2917],[77.3478,11.284]]],[[[77.3655,11.3193],[77.3664,11.3223],[77.36672,11.32242],[77.3661,11.319],[77.3655,11.3193]]]]}},{"type":"Feature","properties":{"name":"4B2B2b","level":"sub-watershed","watershedCode":"4B2B2","subCatchmentCode":"4B2B","areaKm2InDistrict":9.4,"shedId":"SB126"},"geometry":{"type":"MultiPolygon","coordinates":[[[[77.545,11.1182],[77.5469,11.1153],[77.54859,11.11086],[77.5415,11.1091],[77.537,11.1091],[77.5344,11.1065],[77.5308,11.1051],[77.5238,11.1073],[77.514,11.10693],[77.5037,11.1085],[77.50127,11.10794],[77.5033,11.1174],[77.5045,11.1197],[77.5042,11.1215],[77.5052,11.123],[77.5042,11.1269],[77.50286,11.12934],[77.5126,11.1263],[77.5159,11.1265],[77.5241,11.1251],[77.5258,11.1262],[77.531,11.126],[77.5442,11.1213],[77.545,11.1182]]],[[[77.48033,11.14647],[77.4837,11.1442],[77.483,11.1438],[77.4831,11.1428],[77.4841,11.1426],[77.4836,11.1417],[77.482,11.1419],[77.4811,11.1448],[77.4802,11.1451],[77.48033,11.14647]]]]}},{"type":"Feature","properties":{"name":"4B2B4a","level":"sub-watershed","watershedCode":"4B2B4","subCatchmentCode":"4B2B","areaKm2InDistrict":103.2,"shedId":"SB123"},"geometry":{"type":"Polygon","coordinates":[[[77.8851,11.1126],[77.8868,11.1044],[77.8817,11.1085],[77.877,11.1164],[77.8708,11.13],[77.8701,11.134],[77.8721,11.1415],[77.8717,11.1456],[77.8697,11.1522],[77.8601,11.1672],[77.8533,11.1722],[77.8518,11.175],[77.8494,11.1846],[77.8492,11.1941],[77.8557,11.2077],[77.8572,11.2155],[77.8567,11.2189],[77.8533,11.2227],[77.8535,11.2287],[77.8484,11.2332],[77.8467,11.2344],[77.836,11.2369],[77.825,11.2374],[77.8172,11.2369],[77.803,11.2409],[77.7999,11.2428],[77.7967,11.2472],[77.7948,11.2482],[77.7921,11.2533],[77.7915,11.2556],[77.7917,11.2596],[77.7897,11.2595],[77.7867,11.2565],[77.7827,11.2564],[77.7747,11.2544],[77.7721,11.252],[77.7675,11.2502],[77.7653,11.2509],[77.757,11.2516],[77.7563,11.2544],[77.7526,11.2566],[77.7481,11.2577],[77.7461,11.2595],[77.7312,11.266],[77.7281,11.2711],[77.7254,11.2732],[77.7254,11.2741],[77.7227,11.2747],[77.7192,11.2743],[77.7132,11.2713],[77.7113,11.2687],[77.7097,11.2636],[77.7093,11.2614],[77.7099,11.2591],[77.703,11.256],[77.7003,11.254],[77.6996,11.2576],[77.701,11.2588],[77.7026,11.2644],[77.7016,11.268],[77.7001,11.2688],[77.6996,11.27],[77.7014,11.2731],[77.7007,11.2782],[77.7028,11.2823],[77.7022,11.286],[77.7038,11.288],[77.7041,11.2895],[77.7012,11.2939],[77.7008,11.2988],[77.7047,11.3005],[77.7091,11.2999],[77.7107,11.3053],[77.7138,11.3073],[77.7207,11.318],[77.7253,11.3207],[77.7383,11.3253],[77.7458,11.3251],[77.7498,11.3258],[77.7526,11.3282],[77.7586,11.3304],[77.7589,11.3325],[77.7667,11.3275],[77.7728,11.321],[77.7752,11.3175],[77.7819,11.3032],[77.7947,11.288],[77.8029,11.2766],[77.8055,11.2713],[77.8092,11.2666],[77.8146,11.2642],[77.8265,11.2612],[77.8367,11.2617],[77.8403,11.261],[77.85456,11.25268],[77.8565,11.2499],[77.8619,11.2457],[77.8654,11.2407],[77.8669,11.2294],[77.8708,11.2165],[77.8699,11.2121],[77.8642,11.2024],[77.8614,11.1884],[77.8616,11.1844],[77.8631,11.1789],[77.8667,11.1736],[77.8711,11.1695],[77.8795,11.1636],[77.8831,11.1585],[77.8842,11.1559],[77.88538,11.1493],[77.8834,11.1427],[77.8817,11.1254],[77.8826,11.1192],[77.8851,11.1126]]]}},{"type":"Feature","properties":{"name":"4B2B4b","level":"sub-watershed","watershedCode":"4B2B4","subCatchmentCode":"4B2B","areaKm2InDistrict":285.1,"shedId":"SB123"},"geometry":{"type":"Polygon","coordinates":[[[77.6566,11.211],[77.6563,11.2078],[77.6591,11.2032],[77.6507,11.2041],[77.6442,11.201],[77.6325,11.1898],[77.6311,11.1917],[77.6191,11.1998],[77.6116,11.201],[77.6037,11.2038],[77.5942,11.2055],[77.5898,11.2071],[77.586,11.2102],[77.5844,11.215],[77.5832,11.2249],[77.5832,11.2446],[77.5819,11.248],[77.5796,11.2508],[77.575,11.2525],[77.5672,11.2536],[77.5576,11.2562],[77.5534,11.2597],[77.5562,11.2629],[77.5644,11.2864],[77.5691,11.295],[77.5706,11.2997],[77.5789,11.3043],[77.5833,11.3105],[77.5834,11.314],[77.5907,11.3206],[77.5971,11.3223],[77.6004,11.3254],[77.6018,11.3367],[77.6033,11.3427],[77.609,11.3498],[77.6139,11.3526],[77.619,11.3594],[77.6197,11.3736],[77.6264,11.3806],[77.6272,11.3845],[77.6271,11.3965],[77.6287,11.3994],[77.6332,11.401],[77.6361,11.4007],[77.6421,11.4023],[77.6476,11.4074],[77.6519,11.4095],[77.661,11.4182],[77.6622,11.4215],[77.6633,11.4293],[77.6687,11.43],[77.6734,11.43],[77.6753,11.4291],[77.6812,11.4287],[77.68399,11.42934],[77.6827,11.4223],[77.6842,11.417],[77.688,11.4136],[77.6925,11.4112],[77.6942,11.4094],[77.6969,11.406],[77.7007,11.3974],[77.7095,11.3895],[77.7156,11.3797],[77.7267,11.3715],[77.7316,11.3698],[77.7361,11.3692],[77.74159,11.36533],[77.7507,11.3535],[77.7515,11.3519],[77.7519,11.3472],[77.7529,11.3439],[77.7558,11.3369],[77.7589,11.3325],[77.7586,11.3304],[77.7526,11.3282],[77.7498,11.3258],[77.7458,11.3251],[77.7383,11.3253],[77.7253,11.3207],[77.7207,11.318],[77.7138,11.3073],[77.7107,11.3053],[77.7091,11.2999],[77.7047,11.3005],[77.7008,11.2988],[77.7012,11.2939],[77.7041,11.2895],[77.7038,11.288],[77.7022,11.286],[77.7028,11.2823],[77.7007,11.2782],[77.7014,11.2731],[77.6996,11.27],[77.7001,11.2688],[77.7016,11.268],[77.7026,11.2644],[77.701,11.2588],[77.6996,11.2576],[77.7003,11.254],[77.692,11.2627],[77.6891,11.2638],[77.6854,11.2631],[77.6827,11.2612],[77.6791,11.2598],[77.678,11.2617],[77.6778,11.2642],[77.6791,11.2665],[77.6814,11.2683],[77.6819,11.2697],[77.6776,11.2748],[77.6744,11.28],[77.6715,11.2824],[77.6663,11.2844],[77.6615,11.2849],[77.6388,11.2845],[77.6358,11.2836],[77.6341,11.2799],[77.635,11.2791],[77.6339,11.2776],[77.6338,11.2758],[77.6312,11.2746],[77.631,11.2737],[77.6334,11.274],[77.6363,11.2758],[77.6391,11.2759],[77.6477,11.2702],[77.6591,11.2596],[77.666,11.2548],[77.6782,11.2448],[77.6817,11.243],[77.6889,11.2412],[77.6911,11.2387],[77.7011,11.2381],[77.7031,11.2343],[77.7077,11.2311],[77.7032,11.2283],[77.7008,11.226],[77.6841,11.2224],[77.675,11.2231],[77.6664,11.2219],[77.6576,11.2222],[77.6511,11.2212],[77.6494,11.2204],[77.6542,11.2144],[77.6574,11.2127],[77.6566,11.211]]]}},{"type":"Feature","properties":{"name":"4B2B4c","level":"sub-watershed","watershedCode":"4B2B4","subCatchmentCode":"4B2B","areaKm2InDistrict":337.1,"shedId":"SB123"},"geometry":{"type":"Polygon","coordinates":[[[77.7612,11.1241],[77.7519,11.1313],[77.7484,11.1323],[77.7347,11.1395],[77.7225,11.1411],[77.7107,11.148],[77.7083,11.1505],[77.7078,11.1528],[77.7075,11.1564],[77.7087,11.1633],[77.7075,11.1669],[77.6995,11.1707],[77.6924,11.1688],[77.6822,11.1692],[77.6687,11.1648],[77.6607,11.1607],[77.6586,11.165],[77.6527,11.1728],[77.6493,11.1749],[77.6425,11.1823],[77.6325,11.1898],[77.6442,11.201],[77.6507,11.2041],[77.6591,11.2032],[77.6562,11.2083],[77.6562,11.2101],[77.6574,11.2127],[77.6542,11.2144],[77.6494,11.2204],[77.6511,11.2212],[77.6576,11.2222],[77.6664,11.2219],[77.675,11.2231],[77.6841,11.2224],[77.7008,11.226],[77.7032,11.2283],[77.7077,11.2311],[77.7031,11.2343],[77.7011,11.2381],[77.6911,11.2387],[77.6889,11.2412],[77.6817,11.243],[77.6782,11.2448],[77.666,11.2548],[77.6591,11.2596],[77.6477,11.2702],[77.6391,11.2759],[77.6363,11.2758],[77.6334,11.274],[77.631,11.2737],[77.6312,11.2746],[77.6338,11.2758],[77.6339,11.2776],[77.635,11.2791],[77.6341,11.2799],[77.6358,11.2836],[77.6388,11.2845],[77.6615,11.2849],[77.6663,11.2844],[77.6715,11.2824],[77.6744,11.28],[77.6776,11.2748],[77.6819,11.2697],[77.6814,11.2683],[77.6791,11.2665],[77.6778,11.2642],[77.678,11.2617],[77.6791,11.2598],[77.6827,11.2612],[77.6854,11.2631],[77.6891,11.2638],[77.692,11.2627],[77.7003,11.254],[77.703,11.256],[77.7099,11.2591],[77.7093,11.2614],[77.7097,11.2636],[77.7113,11.2687],[77.7132,11.2713],[77.7192,11.2743],[77.7227,11.2747],[77.7254,11.2741],[77.7254,11.2732],[77.7281,11.2711],[77.7312,11.266],[77.7461,11.2595],[77.7481,11.2577],[77.7526,11.2566],[77.7563,11.2544],[77.757,11.2516],[77.7653,11.2509],[77.7675,11.2502],[77.7721,11.252],[77.7747,11.2544],[77.7827,11.2564],[77.7867,11.2565],[77.7897,11.2595],[77.7917,11.2596],[77.7915,11.2556],[77.7921,11.2533],[77.7948,11.2482],[77.7967,11.2472],[77.7999,11.2428],[77.803,11.2409],[77.8172,11.2369],[77.825,11.2374],[77.836,11.2369],[77.8467,11.2344],[77.8484,11.2332],[77.8535,11.2287],[77.8533,11.2227],[77.8567,11.2189],[77.8572,11.2155],[77.8557,11.2077],[77.8492,11.1941],[77.8494,11.1846],[77.8513,11.1768],[77.8533,11.1722],[77.8601,11.1672],[77.8697,11.1522],[77.8717,11.1456],[77.8721,11.1415],[77.8701,11.134],[77.8708,11.13],[77.877,11.1164],[77.8817,11.1085],[77.8868,11.1044],[77.8872,11.0896],[77.8898,11.0821],[77.894,11.0774],[77.9006,11.0753],[77.9054,11.073],[77.916,11.0732],[77.92729,11.07139],[77.9292,11.0702],[77.9314,11.0698],[77.9317,11.069],[77.9305,11.0645],[77.9283,11.06051],[77.9259,11.0606],[77.919,11.0572],[77.9142,11.0562],[77.9011,11.0569],[77.8887,11.0566],[77.8795,11.0546],[77.8744,11.0546],[77.8701,11.0563],[77.8661,11.0594],[77.8608,11.0606],[77.8477,11.0672],[77.8451,11.0706],[77.8403,11.0801],[77.8409,11.0859],[77.8407,11.0929],[77.8389,11.0952],[77.8359,11.0972],[77.8295,11.1004],[77.8239,11.1026],[77.8202,11.1032],[77.8127,11.1069],[77.7973,11.1124],[77.7868,11.1185],[77.7731,11.1223],[77.7612,11.1241]]]}},{"type":"Feature","properties":{"name":"4B2C2a","level":"sub-watershed","watershedCode":"4B2C2","subCatchmentCode":"4B2C","areaKm2InDistrict":0.5,"shedId":"SB123"},"geometry":{"type":"MultiPolygon","coordinates":[[[[77.8819,11.1235],[77.8819,11.1233],[77.88184,11.1239],[77.8819,11.1235]]],[[[77.8818,11.1243],[77.8817,11.126],[77.8819,11.1263],[77.8819,11.1262],[77.8818,11.1243]]],[[[77.8794,11.1637],[77.8804,11.1628],[77.88124,11.16144],[77.8794,11.1637]]],[[[77.8773,11.165],[77.8711,11.1695],[77.87043,11.1701],[77.8725,11.1689],[77.8739,11.1679],[77.8761,11.1661],[77.87841,11.16443],[77.8773,11.165]]],[[[77.86362,11.17797],[77.8672,11.1732],[77.86792,11.1723],[77.8667,11.1736],[77.86362,11.17797]]],[[[77.86262,11.18076],[77.8632,11.1791],[77.86359,11.17803],[77.86262,11.18076]]],[[[77.8616,11.1893],[77.8642,11.2024],[77.87044,11.21336],[77.8642,11.2013],[77.86154,11.18539],[77.8616,11.1893]]],[[[77.8708,11.21725],[77.8709,11.2168],[77.8708,11.2165],[77.8708,11.21725]]],[[[77.86685,11.2303],[77.8668,11.2306],[77.86668,11.23185],[77.86685,11.2303]]],[[[77.8665,11.2335],[77.86655,11.233],[77.86644,11.23388],[77.8665,11.2335]]],[[[77.92729,11.07139],[77.916,11.0732],[77.9054,11.073],[77.9006,11.0753],[77.8953,11.0767],[77.8931,11.078],[77.8917,11.0797],[77.8935,11.078],[77.9022,11.0747],[77.906,11.074],[77.9203,11.0739],[77.924,11.073],[77.92729,11.07139]]],[[[77.8874,11.0882],[77.88721,11.09321],[77.8886,11.0855],[77.8874,11.0882]]],[[[77.88702,11.10261],[77.88603,11.10934],[77.8864,11.1078],[77.887,11.1028],[77.88702,11.10261]]],[[[77.88513,11.11253],[77.8825,11.1198],[77.8843,11.1161],[77.88513,11.11253]]],[[[77.8836,11.1436],[77.8834,11.1427],[77.88363,11.14393],[77.8836,11.1436]]],[[[77.8845,11.1463],[77.88383,11.14487],[77.8847,11.1468],[77.8845,11.1463]]],[[[77.8854,11.1489],[77.88513,11.1481],[77.88538,11.1493],[77.8854,11.1489]]],[[[77.8853,11.1518],[77.88532,11.15029],[77.88483,11.15356],[77.8853,11.1518]]],[[[77.8821,11.1601],[77.883,11.1588],[77.88325,11.15815],[77.8831,11.1585],[77.8821,11.1601]]]]}},{"type":"Feature","properties":{"name":"4B2C2b","level":"sub-watershed","watershedCode":"4B2C2","subCatchmentCode":"4B2C","areaKm2InDistrict":0.4,"shedId":"SB123"},"geometry":{"type":"MultiPolygon","coordinates":[[[[77.85456,11.25268],[77.8403,11.261],[77.8367,11.2617],[77.828,11.261],[77.8146,11.2642],[77.8092,11.2666],[77.808,11.2678],[77.80473,11.27277],[77.8086,11.2675],[77.8112,11.2662],[77.8262,11.2619],[77.8395,11.2622],[77.8536,11.2539],[77.85456,11.25268]]],[[[77.80445,11.27331],[77.8047,11.273],[77.8047,11.27283],[77.80445,11.27331]]],[[[77.8043,11.2734],[77.8042,11.27361],[77.80437,11.2734],[77.8043,11.2734]]],[[[77.8033,11.2756],[77.80326,11.27576],[77.80342,11.27532],[77.8033,11.2756]]],[[[77.80268,11.27687],[77.7992,11.2815],[77.79766,11.28346],[77.7999,11.281],[77.80268,11.27687]]],[[[77.79653,11.2851],[77.7919,11.2916],[77.79134,11.29243],[77.7951,11.2877],[77.79653,11.2851]]],[[[77.7911,11.2927],[77.7851,11.2988],[77.7846,11.2994],[77.7836,11.3008],[77.7831,11.30155],[77.7911,11.2927]]],[[[77.7829,11.3018],[77.78286,11.30189],[77.78299,11.30171],[77.7829,11.3018]]]]}},{"type":"Feature","properties":{"name":"4B2C3a","level":"sub-watershed","watershedCode":"4B2C3","subCatchmentCode":"4B2C","areaKm2InDistrict":0.4,"shedId":"SB123"},"geometry":{"type":"MultiPolygon","coordinates":[[[[77.6971,11.4703],[77.6983,11.4752],[77.7025,11.4825],[77.7114,11.4921],[77.7177,11.4972],[77.7199,11.5013],[77.7194,11.4987],[77.7183,11.4973],[77.7113,11.4915],[77.7021,11.4811],[77.6979,11.4728],[77.6972,11.46417],[77.6966,11.4644],[77.6971,11.4703]]],[[[77.721,11.5036],[77.7295,11.5082],[77.7319,11.5105],[77.7325,11.5156],[77.73146,11.52048],[77.7328,11.516],[77.7325,11.5109],[77.7319,11.5098],[77.7301,11.5081],[77.7218,11.5039],[77.7199,11.5013],[77.721,11.5036]]],[[[77.7305,11.5225],[77.7305,11.5225],[77.7305,11.5225],[77.7305,11.5225]]],[[[77.725,11.5308],[77.72657,11.52812],[77.72488,11.53096],[77.725,11.5308]]],[[[77.724,11.5331],[77.7239,11.53595],[77.72446,11.5319],[77.724,11.5331]]],[[[77.72415,11.5367],[77.7309,11.5501],[77.73258,11.55255],[77.72415,11.5367]]],[[[77.7362,11.5567],[77.7361,11.5566],[77.73623,11.55675],[77.7362,11.5567]]],[[[77.73646,11.557],[77.7366,11.55716],[77.7366,11.5571],[77.73646,11.557]]],[[[77.7372,11.5578],[77.7369,11.5575],[77.73724,11.55789],[77.7372,11.5578]]],[[[77.7377,11.5584],[77.7381,11.55885],[77.7381,11.5588],[77.7377,11.5584]]]]}},{"type":"Feature","properties":{"name":"4B2C4a","level":"sub-watershed","watershedCode":"4B2C4","subCatchmentCode":"4B2C","areaKm2InDistrict":111.1,"shedId":"SB123"},"geometry":{"type":"Polygon","coordinates":[[[77.7025,11.4825],[77.6976,11.4733],[77.69604,11.46094],[77.69,11.448],[77.68654,11.4427],[77.6723,11.4661],[77.6656,11.4715],[77.6611,11.4739],[77.6578,11.4747],[77.6548,11.4785],[77.6537,11.4818],[77.6498,11.4828],[77.6473,11.4842],[77.646,11.4864],[77.6451,11.4886],[77.644,11.4963],[77.647,11.5032],[77.6509,11.5086],[77.6501,11.5133],[77.6494,11.515],[77.6467,11.5173],[77.6429,11.5187],[77.6387,11.5276],[77.64,11.5302],[77.6422,11.5323],[77.6466,11.5347],[77.6498,11.5411],[77.6499,11.5456],[77.6472,11.5562],[77.6483,11.5619],[77.6471,11.5665],[77.6438,11.5681],[77.6399,11.5719],[77.6386,11.5739],[77.6372,11.5797],[77.6442,11.5826],[77.6541,11.5832],[77.6625,11.5857],[77.664,11.59],[77.6652,11.5912],[77.6745,11.5936],[77.6792,11.5994],[77.6847,11.6043],[77.6857,11.6026],[77.6925,11.5974],[77.6949,11.5943],[77.6988,11.5924],[77.7043,11.5917],[77.7088,11.5872],[77.7103,11.5831],[77.711,11.578],[77.7107,11.5758],[77.7135,11.5687],[77.7157,11.5668],[77.7171,11.5676],[77.7186,11.5645],[77.7215,11.5624],[77.7281,11.5593],[77.7327,11.5582],[77.7361,11.5566],[77.7316,11.5513],[77.7238,11.5356],[77.7246,11.5313],[77.7287,11.5255],[77.7322,11.5187],[77.7325,11.5156],[77.7319,11.5105],[77.7295,11.5082],[77.721,11.5036],[77.7187,11.4983],[77.7114,11.4921],[77.7025,11.4825]]]}},{"type":"Feature","properties":{"name":"4B2C4b","level":"sub-watershed","watershedCode":"4B2C4","subCatchmentCode":"4B2C","areaKm2InDistrict":76.7,"shedId":"SB123"},"geometry":{"type":"Polygon","coordinates":[[[77.7399,11.5617],[77.7361,11.5566],[77.7327,11.5582],[77.7281,11.5593],[77.7195,11.5638],[77.7171,11.5676],[77.7157,11.5668],[77.7135,11.5687],[77.7107,11.5758],[77.711,11.578],[77.7103,11.5831],[77.7088,11.5872],[77.7043,11.5917],[77.6988,11.5924],[77.6949,11.5943],[77.6925,11.5974],[77.6857,11.6026],[77.6847,11.6043],[77.6792,11.5994],[77.6748,11.5944],[77.6736,11.595],[77.6694,11.6003],[77.6665,11.602],[77.6643,11.6023],[77.6646,11.6078],[77.6631,11.6246],[77.6634,11.6276],[77.6649,11.6306],[77.6685,11.6344],[77.672,11.6394],[77.6773,11.6444],[77.6716,11.6514],[77.6638,11.6552],[77.665,11.6583],[77.6656,11.672],[77.6666,11.6743],[77.6673,11.6747],[77.6685,11.6742],[77.6729,11.6673],[77.6748,11.6656],[77.6775,11.6739],[77.68,11.6793],[77.6826,11.6826],[77.6888,11.6951],[77.6901,11.6965],[77.6898,11.6934],[77.6927,11.6934],[77.6958,11.695],[77.6972,11.693],[77.6962,11.6907],[77.6958,11.6831],[77.6938,11.6734],[77.6909,11.6695],[77.6892,11.6659],[77.6886,11.6517],[77.6948,11.6403],[77.6944,11.6388],[77.6994,11.6365],[77.6989,11.6349],[77.6994,11.6342],[77.7032,11.6333],[77.7063,11.6347],[77.707,11.6363],[77.709,11.6371],[77.7108,11.6392],[77.7156,11.6413],[77.7172,11.6454],[77.7144,11.6469],[77.7142,11.6481],[77.7169,11.6498],[77.7181,11.6493],[77.7204,11.6516],[77.7213,11.6517],[77.7239,11.6495],[77.7261,11.6519],[77.7272,11.6542],[77.7294,11.6538],[77.7309,11.6563],[77.7355,11.6574],[77.7402,11.6536],[77.7452,11.6544],[77.7466,11.6558],[77.748,11.6589],[77.7493,11.6592],[77.7512,11.6621],[77.7579,11.675],[77.7627,11.6819],[77.7674,11.6905],[77.7697,11.6961],[77.7758,11.6955],[77.7718,11.6836],[77.768,11.6787],[77.7668,11.6759],[77.7659,11.6662],[77.7621,11.6587],[77.7605,11.6483],[77.7548,11.639],[77.7498,11.6329],[77.749,11.6228],[77.743,11.6163],[77.735,11.6022],[77.7349,11.597],[77.7367,11.5903],[77.7399,11.5851],[77.7409,11.5789],[77.7423,11.5752],[77.7452,11.5706],[77.744,11.5652],[77.7431,11.5639],[77.7399,11.5617]]]}},{"type":"Feature","properties":{"name":"4B2C4c","level":"sub-watershed","watershedCode":"4B2C4","subCatchmentCode":"4B2C","areaKm2InDistrict":43.0,"shedId":"SB123"},"geometry":{"type":"Polygon","coordinates":[[[77.6671,11.6927],[77.6654,11.6923],[77.6639,11.6949],[77.663,11.699],[77.6526,11.7067],[77.6466,11.715],[77.6435,11.7164],[77.6347,11.7185],[77.6303,11.7213],[77.6302,11.7229],[77.6312,11.7307],[77.6303,11.7321],[77.6305,11.7344],[77.6298,11.7351],[77.6321,11.7365],[77.6333,11.7394],[77.6333,11.746],[77.6353,11.7525],[77.6357,11.7508],[77.6366,11.7502],[77.6404,11.7493],[77.6421,11.7518],[77.648,11.7532],[77.6524,11.7572],[77.6559,11.7647],[77.6576,11.7659],[77.6601,11.7662],[77.662,11.7721],[77.6631,11.7728],[77.6678,11.7721],[77.6692,11.7704],[77.6743,11.7685],[77.6737,11.7591],[77.6753,11.755],[77.6764,11.7543],[77.6811,11.7539],[77.6843,11.7615],[77.6838,11.754],[77.6904,11.7449],[77.6915,11.7442],[77.6919,11.7395],[77.6935,11.7363],[77.6948,11.7351],[77.6973,11.7354],[77.698,11.7334],[77.6975,11.7304],[77.6983,11.7284],[77.6955,11.7209],[77.6942,11.7195],[77.691,11.7185],[77.6907,11.7178],[77.6915,11.7162],[77.6909,11.7157],[77.69326,11.71128],[77.6927,11.7086],[77.69475,11.70619],[77.6943,11.7034],[77.6931,11.7035],[77.6926,11.7025],[77.6918,11.7028],[77.6914,11.6991],[77.6901,11.6965],[77.6888,11.6951],[77.6826,11.6826],[77.68,11.6793],[77.677,11.6812],[77.6671,11.6927]]]}},{"type":"Feature","properties":{"name":"4B2C4d","level":"sub-watershed","watershedCode":"4B2C4","subCatchmentCode":"4B2C","areaKm2InDistrict":94.9,"shedId":"SB123"},"geometry":{"type":"MultiPolygon","coordinates":[[[[77.70608,11.63475],[77.7063,11.6347],[77.70598,11.63457],[77.70608,11.63475]]],[[[77.6264,11.611],[77.6276,11.6118],[77.6275,11.6196],[77.6004,11.637],[77.5983,11.641],[77.5981,11.6473],[77.592,11.6482],[77.5907,11.6494],[77.5887,11.6673],[77.5895,11.6718],[77.5895,11.6785],[77.5914,11.6836],[77.5964,11.6882],[77.6036,11.693],[77.608,11.6936],[77.6104,11.6949],[77.6116,11.6964],[77.6116,11.6998],[77.6136,11.7021],[77.6169,11.709],[77.6188,11.711],[77.6222,11.7113],[77.6246,11.7131],[77.6242,11.7171],[77.6259,11.7226],[77.6265,11.7291],[77.6279,11.7337],[77.6288,11.7349],[77.6298,11.7351],[77.6305,11.7344],[77.6303,11.7321],[77.6312,11.7307],[77.6303,11.7266],[77.6303,11.7213],[77.6347,11.7185],[77.6435,11.7164],[77.6466,11.715],[77.6526,11.7067],[77.663,11.699],[77.6639,11.6949],[77.6654,11.6923],[77.6671,11.6927],[77.677,11.6812],[77.68,11.6793],[77.6775,11.6739],[77.6748,11.6656],[77.6729,11.6673],[77.6685,11.6742],[77.6673,11.6747],[77.6666,11.6743],[77.6656,11.672],[77.665,11.6583],[77.6638,11.6552],[77.6716,11.6514],[77.6773,11.6444],[77.672,11.6394],[77.6685,11.6344],[77.6649,11.6306],[77.6634,11.6276],[77.6631,11.6246],[77.6646,11.6078],[77.6643,11.6023],[77.6665,11.602],[77.6694,11.6003],[77.6736,11.595],[77.6748,11.5944],[77.6745,11.5936],[77.6652,11.5912],[77.664,11.59],[77.6625,11.5857],[77.6591,11.5843],[77.6521,11.5829],[77.6442,11.5826],[77.6372,11.5797],[77.6362,11.5878],[77.6285,11.595],[77.6258,11.5956],[77.6205,11.5989],[77.6161,11.6049],[77.6179,11.607],[77.6239,11.6112],[77.6264,11.611]]],[[[77.69,11.6956],[77.6914,11.6991],[77.6918,11.7028],[77.6926,11.7025],[77.6931,11.7035],[77.6943,11.7034],[77.69475,11.70619],[77.6942,11.7022],[77.6927,11.7016],[77.69015,11.69417],[77.69,11.6956]]],[[[77.69326,11.71128],[77.6938,11.7089],[77.69355,11.70809],[77.6927,11.7086],[77.69326,11.71128]]],[[[77.691,11.7185],[77.6942,11.7195],[77.6955,11.7209],[77.6983,11.7284],[77.6975,11.7304],[77.698,11.7326],[77.6975,11.7362],[77.6989,11.7398],[77.7038,11.7482],[77.7059,11.755],[77.7067,11.7555],[77.7073,11.759],[77.7064,11.7602],[77.7074,11.7621],[77.7079,11.7661],[77.7098,11.7687],[77.7096,11.7699],[77.7103,11.7716],[77.7127,11.7745],[77.713,11.77247],[77.7074,11.7608],[77.7077,11.7562],[77.7063,11.7545],[77.7036,11.7455],[77.7009,11.7413],[77.698,11.734],[77.6988,11.7313],[77.6988,11.7277],[77.6978,11.7248],[77.6959,11.7198],[77.6915,11.7162],[77.6907,11.7178],[77.691,11.7185]]]]}},{"type":"Feature","properties":{"name":"4B2D1a","level":"sub-watershed","watershedCode":"4B2D1","subCatchmentCode":"4B2D","areaKm2InDistrict":429.9,"shedId":"SB120"},"geometry":{"type":"Polygon","coordinates":[[[77.5315,11.5026],[77.5305,11.5116],[77.5289,11.5139],[77.5259,11.5222],[77.5238,11.5227],[77.5213,11.5217],[77.5135,11.515],[77.5116,11.5151],[77.5107,11.5164],[77.51,11.5206],[77.5088,11.523],[77.499,11.5256],[77.498,11.5249],[77.4917,11.5248],[77.4876,11.5218],[77.4861,11.5224],[77.4833,11.5213],[77.4798,11.5214],[77.4772,11.5203],[77.4748,11.521],[77.4749,11.5225],[77.4736,11.5243],[77.4726,11.5278],[77.4681,11.5312],[77.4668,11.5349],[77.4676,11.5411],[77.4669,11.5448],[77.4677,11.5473],[77.4734,11.5532],[77.476,11.5544],[77.4753,11.5563],[77.4756,11.5592],[77.4725,11.564],[77.4729,11.5665],[77.4744,11.5685],[77.4711,11.5708],[77.4722,11.5745],[77.4715,11.5776],[77.473,11.5833],[77.4798,11.5961],[77.4809,11.6],[77.4823,11.6014],[77.4849,11.6013],[77.4928,11.5968],[77.4961,11.5956],[77.5041,11.5904],[77.5079,11.5904],[77.5097,11.5861],[77.5115,11.5922],[77.5071,11.5956],[77.5046,11.5988],[77.5021,11.6038],[77.4992,11.6188],[77.4957,11.6227],[77.496,11.626],[77.4981,11.629],[77.4997,11.6295],[77.4989,11.634],[77.5023,11.6406],[77.5045,11.6421],[77.5027,11.6453],[77.4978,11.6456],[77.4942,11.6429],[77.4919,11.6431],[77.4895,11.6447],[77.4884,11.6486],[77.4869,11.651],[77.4886,11.6538],[77.4886,11.6551],[77.4858,11.6571],[77.4915,11.6591],[77.4933,11.661],[77.4953,11.662],[77.4987,11.6658],[77.4983,11.6668],[77.5003,11.671],[77.4996,11.6752],[77.4964,11.6778],[77.4956,11.68],[77.4961,11.6807],[77.5,11.6806],[77.5024,11.6797],[77.5037,11.6802],[77.5082,11.6841],[77.5093,11.6858],[77.5131,11.705],[77.5128,11.7063],[77.5113,11.7079],[77.5115,11.7092],[77.5151,11.713],[77.5202,11.7161],[77.5214,11.7165],[77.5262,11.7144],[77.5281,11.7145],[77.5339,11.7175],[77.5342,11.7253],[77.5371,11.7249],[77.5382,11.7261],[77.5401,11.731],[77.5409,11.7374],[77.5461,11.7467],[77.5459,11.7514],[77.5453,11.7524],[77.5388,11.7541],[77.5348,11.7562],[77.5336,11.759],[77.5337,11.7611],[77.5329,11.763],[77.5348,11.7651],[77.5377,11.7659],[77.54,11.7648],[77.5423,11.7661],[77.5425,11.7676],[77.5444,11.7674],[77.5485,11.7731],[77.5529,11.7739],[77.5536,11.7707],[77.5548,11.7693],[77.5612,11.7661],[77.564,11.7587],[77.562,11.7559],[77.5629,11.7475],[77.5628,11.7458],[77.5611,11.743],[77.5617,11.7361],[77.5634,11.7319],[77.5638,11.7268],[77.566,11.7205],[77.5708,11.7116],[77.5734,11.7096],[77.5793,11.7197],[77.5801,11.7257],[77.5813,11.7275],[77.581,11.7309],[77.5824,11.7362],[77.5863,11.7379],[77.5883,11.7394],[77.5893,11.7412],[77.5887,11.7438],[77.5897,11.7456],[77.589,11.7521],[77.5871,11.7535],[77.587,11.7571],[77.5848,11.758],[77.5846,11.7596],[77.5863,11.7661],[77.5885,11.7702],[77.5979,11.7727],[77.5994,11.7739],[77.6027,11.7739],[77.6082,11.7675],[77.6123,11.7661],[77.617,11.7658],[77.6207,11.7631],[77.6247,11.7643],[77.6269,11.7616],[77.631,11.76],[77.6347,11.7574],[77.6353,11.7525],[77.6333,11.746],[77.6333,11.7394],[77.6321,11.7365],[77.6308,11.7354],[77.6288,11.7349],[77.6279,11.7337],[77.6265,11.7291],[77.6259,11.7226],[77.6242,11.7171],[77.6246,11.7131],[77.6222,11.7113],[77.6188,11.711],[77.6169,11.709],[77.6136,11.7021],[77.6116,11.6998],[77.6116,11.6964],[77.6104,11.6949],[77.608,11.6936],[77.6036,11.693],[77.5964,11.6882],[77.5914,11.6836],[77.5895,11.6785],[77.5895,11.6718],[77.5887,11.6673],[77.589,11.6617],[77.5903,11.6555],[77.5903,11.65],[77.592,11.6482],[77.5981,11.6473],[77.5983,11.641],[77.6004,11.637],[77.6275,11.6196],[77.6276,11.6118],[77.6264,11.611],[77.6239,11.6112],[77.6179,11.607],[77.6161,11.6049],[77.6205,11.5989],[77.6258,11.5956],[77.6285,11.595],[77.6362,11.5878],[77.6365,11.5833],[77.6386,11.5739],[77.6438,11.5681],[77.6471,11.5665],[77.6483,11.5619],[77.6472,11.5562],[77.6499,11.5456],[77.6498,11.5411],[77.6466,11.5347],[77.6422,11.5323],[77.64,11.5302],[77.6387,11.5276],[77.6429,11.5187],[77.6467,11.5173],[77.6494,11.515],[77.6509,11.5086],[77.647,11.5032],[77.644,11.4963],[77.6451,11.4886],[77.6473,11.4842],[77.6498,11.4828],[77.6537,11.4818],[77.6548,11.4785],[77.6578,11.4747],[77.663,11.473],[77.6683,11.4697],[77.6742,11.4636],[77.6781,11.4561],[77.68654,11.4427],[77.68399,11.42934],[77.6812,11.4287],[77.6824,11.4298],[77.6825,11.4316],[77.6813,11.4351],[77.6815,11.4387],[77.6776,11.4435],[77.6783,11.4501],[77.6793,11.4518],[77.6788,11.4535],[77.6723,11.4546],[77.6683,11.4569],[77.6647,11.4567],[77.6585,11.4607],[77.6539,11.4597],[77.6504,11.4598],[77.644,11.4649],[77.6389,11.4621],[77.6273,11.4624],[77.6247,11.4596],[77.6235,11.4551],[77.6219,11.4541],[77.6149,11.4585],[77.6112,11.459],[77.6016,11.4572],[77.5998,11.4577],[77.5962,11.4604],[77.5937,11.4607],[77.59,11.4625],[77.5865,11.4603],[77.5847,11.4599],[77.5803,11.4642],[77.5782,11.4651],[77.5764,11.465],[77.5715,11.4624],[77.567,11.4631],[77.5651,11.4652],[77.5642,11.4725],[77.5635,11.4738],[77.5628,11.4743],[77.5566,11.4737],[77.55,11.4776],[77.5488,11.4834],[77.5469,11.4871],[77.5412,11.4882],[77.5361,11.4916],[77.5348,11.4978],[77.5352,11.4985],[77.5315,11.5026]]]}},{"type":"Feature","properties":{"name":"4B2D1b","level":"sub-watershed","watershedCode":"4B2D1","subCatchmentCode":"4B2D","areaKm2InDistrict":562.3,"shedId":"SB120"},"geometry":{"type":"Polygon","coordinates":[[[77.4958,11.247],[77.4966,11.2547],[77.4916,11.2612],[77.4812,11.2625],[77.4736,11.2685],[77.4692,11.2697],[77.4681,11.2746],[77.4679,11.2827],[77.467,11.2875],[77.4638,11.2908],[77.4631,11.2931],[77.4598,11.2959],[77.4592,11.2985],[77.45707,11.30079],[77.4586,11.3004],[77.4598,11.2982],[77.4612,11.2999],[77.461,11.3008],[77.4585,11.3022],[77.4578,11.3037],[77.4567,11.3033],[77.4569,11.3047],[77.4585,11.306],[77.4567,11.3066],[77.4567,11.308],[77.4579,11.3086],[77.457,11.31],[77.4543,11.3117],[77.452,11.3153],[77.4507,11.3133],[77.4515,11.3109],[77.4521,11.3098],[77.4548,11.3094],[77.4513,11.3072],[77.449,11.3072],[77.4496,11.3109],[77.4492,11.312],[77.4477,11.313],[77.4467,11.3125],[77.4462,11.3103],[77.4449,11.3098],[77.4431,11.3102],[77.4429,11.3074],[77.4402,11.3085],[77.4341,11.3141],[77.4317,11.3153],[77.4312,11.3163],[77.4297,11.3167],[77.4241,11.3169],[77.4235,11.3156],[77.422,11.3147],[77.4215,11.3127],[77.4185,11.3124],[77.4177,11.3114],[77.4162,11.3116],[77.4151,11.3131],[77.3962,11.3192],[77.3961,11.321],[77.3949,11.3211],[77.3934,11.3227],[77.387,11.3231],[77.3854,11.3252],[77.3853,11.3269],[77.3834,11.3313],[77.3794,11.3314],[77.37902,11.33574],[77.3795,11.3399],[77.3829,11.3434],[77.3841,11.3519],[77.3871,11.3562],[77.3872,11.3613],[77.3899,11.3649],[77.392,11.3662],[77.3919,11.3691],[77.3933,11.372],[77.3961,11.3727],[77.397,11.3738],[77.3979,11.3816],[77.399,11.3829],[77.3928,11.3938],[77.3987,11.4058],[77.4015,11.4101],[77.4031,11.4108],[77.4045,11.4144],[77.4064,11.4131],[77.4081,11.4128],[77.412,11.4159],[77.4154,11.4164],[77.408,11.4205],[77.4083,11.4245],[77.4093,11.4262],[77.415,11.4293],[77.4162,11.4334],[77.4188,11.4387],[77.4179,11.4479],[77.4238,11.4526],[77.428,11.4604],[77.4295,11.4654],[77.432,11.4817],[77.4345,11.4869],[77.437,11.4903],[77.4412,11.4943],[77.4378,11.4995],[77.4395,11.5003],[77.4419,11.5029],[77.4446,11.5035],[77.4464,11.5052],[77.4487,11.5046],[77.4499,11.5],[77.4518,11.4986],[77.4585,11.4992],[77.4626,11.4978],[77.464,11.4989],[77.4688,11.5078],[77.4714,11.5089],[77.4744,11.5078],[77.4784,11.5101],[77.48,11.512],[77.4814,11.5174],[77.4848,11.5186],[77.4869,11.5219],[77.4876,11.5218],[77.4917,11.5248],[77.498,11.5249],[77.499,11.5256],[77.5088,11.523],[77.51,11.5206],[77.5107,11.5164],[77.5116,11.5151],[77.5135,11.515],[77.5153,11.5162],[77.517,11.5184],[77.5213,11.5217],[77.5238,11.5227],[77.5259,11.5222],[77.5289,11.5139],[77.5305,11.5116],[77.5315,11.5026],[77.5352,11.4985],[77.5348,11.4978],[77.5361,11.4916],[77.5412,11.4882],[77.5469,11.4871],[77.5488,11.4834],[77.55,11.4776],[77.5523,11.4759],[77.5566,11.4737],[77.5628,11.4743],[77.5635,11.4738],[77.5642,11.4725],[77.5651,11.4652],[77.567,11.4631],[77.5715,11.4624],[77.5764,11.465],[77.5782,11.4651],[77.5803,11.4642],[77.5847,11.4599],[77.5865,11.4603],[77.59,11.4625],[77.5937,11.4607],[77.5962,11.4604],[77.5998,11.4577],[77.6016,11.4572],[77.6112,11.459],[77.6149,11.4585],[77.6219,11.4541],[77.6235,11.4551],[77.6247,11.4596],[77.6273,11.4624],[77.6389,11.4621],[77.644,11.4649],[77.6504,11.4598],[77.6539,11.4597],[77.6585,11.4607],[77.6647,11.4567],[77.6683,11.4569],[77.6723,11.4546],[77.6788,11.4535],[77.6793,11.4518],[77.6783,11.4501],[77.6776,11.4435],[77.6815,11.4387],[77.6813,11.4351],[77.6825,11.4316],[77.6824,11.4298],[77.6812,11.4287],[77.6753,11.4291],[77.6734,11.43],[77.6661,11.4299],[77.6633,11.4293],[77.6622,11.4215],[77.661,11.4182],[77.6519,11.4095],[77.6476,11.4074],[77.6421,11.4023],[77.6361,11.4007],[77.6332,11.401],[77.6287,11.3994],[77.6271,11.3965],[77.6272,11.3845],[77.6264,11.3806],[77.6197,11.3736],[77.619,11.3594],[77.6139,11.3526],[77.609,11.3498],[77.6033,11.3427],[77.6018,11.3367],[77.6004,11.3254],[77.5971,11.3223],[77.5907,11.3206],[77.5834,11.314],[77.5833,11.3105],[77.5789,11.3043],[77.5706,11.2997],[77.5691,11.295],[77.5644,11.2864],[77.5562,11.2629],[77.5534,11.2597],[77.5427,11.2555],[77.5355,11.2486],[77.5291,11.249],[77.5239,11.2467],[77.5179,11.2413],[77.5135,11.2395],[77.4941,11.2367],[77.4944,11.2425],[77.4958,11.247]]]}},{"type":"Feature","properties":{"name":"4B2D2a","level":"sub-watershed","watershedCode":"4B2D2","subCatchmentCode":"4B2D","areaKm2InDistrict":652.3,"shedId":"SB120"},"geometry":{"type":"MultiPolygon","coordinates":[[[[77.1682,11.3172],[77.1776,11.3172],[77.17958,11.31614],[77.1737,11.317],[77.1692,11.3163],[77.1682,11.3172]]],[[[77.15142,11.335],[77.1535,11.335],[77.1548,11.3346],[77.1532,11.3346],[77.15142,11.335]]],[[[77.1512,11.3351],[77.15125,11.33505],[77.15105,11.3351],[77.1512,11.3351]]],[[[77.1477,11.3363],[77.15026,11.33531],[77.1442,11.3358],[77.14286,11.3364],[77.1458,11.3359],[77.1477,11.3363]]],[[[77.1755,11.3323],[77.1745,11.3325],[77.1754,11.3341],[77.1753,11.3354],[77.1774,11.3385],[77.1772,11.3403],[77.1787,11.3421],[77.1805,11.3419],[77.18076,11.34128],[77.1793,11.3414],[77.1785,11.3404],[77.1783,11.3377],[77.1771,11.3356],[77.1763,11.3319],[77.17682,11.3305],[77.1758,11.3309],[77.1755,11.3323]]],[[[77.1379,11.3436],[77.1373,11.3449],[77.1377,11.3449],[77.1379,11.3436]]],[[[77.1376,11.3459],[77.1368,11.3456],[77.1366,11.346],[77.1376,11.3459]]],[[[77.1309,11.3582],[77.1314,11.3577],[77.13132,11.35755],[77.1309,11.3582]]],[[[77.133,11.3628],[77.132,11.3621],[77.1331,11.3634],[77.133,11.3628]]],[[[77.1306,11.365],[77.1305,11.3651],[77.13052,11.36517],[77.1306,11.365]]],[[[77.1295,11.36683],[77.1298,11.3722],[77.13029,11.37303],[77.1295,11.36683]]],[[[77.1287,11.3759],[77.128,11.3762],[77.128,11.3784],[77.1287,11.3759]]],[[[77.1144,11.3795],[77.114,11.3798],[77.11356,11.3805],[77.1141,11.3801],[77.1144,11.3795]]],[[[77.1133,11.3824],[77.11323,11.38354],[77.1133,11.3834],[77.1133,11.3824]]],[[[77.11261,11.38526],[77.1117,11.3868],[77.11188,11.38959],[77.112,11.3869],[77.11261,11.38526]]],[[[77.11189,11.39151],[77.1118,11.3922],[77.1107,11.39585],[77.111,11.3959],[77.1119,11.3923],[77.11189,11.39151]]],[[[77.21713,11.2996],[77.2191,11.3038],[77.21955,11.3034],[77.21713,11.2996]]],[[[77.2021,11.3043],[77.2026,11.3055],[77.20304,11.30567],[77.2028,11.3046],[77.2021,11.3043]]],[[[77.2211,11.307],[77.2181,11.3059],[77.2169,11.3066],[77.2141,11.3064],[77.2104,11.3079],[77.2085,11.3078],[77.205,11.309],[77.2052,11.3098],[77.2059,11.3099],[77.2145,11.3085],[77.2182,11.3069],[77.22123,11.30792],[77.2211,11.307]]],[[[77.2039,11.3098],[77.2041,11.3097],[77.2039,11.3091],[77.2039,11.3098]]],[[[77.2215,11.31],[77.2211,11.30914],[77.22077,11.30993],[77.2215,11.31]]],[[[77.2198,11.3125],[77.2197,11.3117],[77.2197,11.3135],[77.2217,11.3139],[77.2198,11.3125]]],[[[77.2238,11.3157],[77.2246,11.31521],[77.2247,11.3149],[77.22327,11.31504],[77.2238,11.3157]]],[[[77.2365,11.314],[77.229,11.3152],[77.2276,11.3176],[77.2265,11.3176],[77.2256,11.3164],[77.2252,11.3167],[77.2272,11.3184],[77.231,11.3161],[77.2365,11.3152],[77.2365,11.314]]],[[[77.1822,11.3189],[77.1834,11.3205],[77.183,11.3223],[77.1814,11.3228],[77.1814,11.324],[77.1806,11.3246],[77.181,11.3262],[77.1805,11.327],[77.1795,11.3271],[77.1802,11.3286],[77.179,11.329],[77.1791,11.3301],[77.1801,11.33],[77.1804,11.3291],[77.1822,11.329],[77.1817,11.327],[77.1828,11.326],[77.1824,11.3245],[77.1832,11.3221],[77.1846,11.3209],[77.1848,11.3196],[77.1842,11.3181],[77.1835,11.318],[77.1834,11.3136],[77.1826,11.314],[77.1822,11.3189]]],[[[77.1967,11.3388],[77.1969,11.3402],[77.1986,11.3408],[77.1986,11.3429],[77.1998,11.3437],[77.20017,11.34313],[77.1996,11.343],[77.1993,11.3407],[77.1976,11.3384],[77.1954,11.3389],[77.19124,11.34062],[77.1967,11.3388]]],[[[77.1813,11.3411],[77.1871,11.3419],[77.1888,11.3415],[77.1846,11.3407],[77.1813,11.3411]]],[[[77.22811,11.34461],[77.2259,11.3416],[77.22321,11.34277],[77.2253,11.3441],[77.227,11.3434],[77.22811,11.34461]]],[[[77.2011,11.344],[77.2038,11.3446],[77.2084,11.3444],[77.2089,11.3477],[77.2102,11.3479],[77.2106,11.3495],[77.2126,11.35],[77.2146,11.3495],[77.2172,11.3513],[77.2174,11.35],[77.2113,11.3479],[77.2099,11.3438],[77.2023,11.3437],[77.2015,11.3421],[77.2006,11.3428],[77.2011,11.344]]],[[[77.2181,11.3522],[77.21975,11.35209],[77.2186,11.3503],[77.2176,11.35],[77.2181,11.3522]]],[[[77.226,11.3515],[77.225,11.3517],[77.225,11.3517],[77.226,11.3515]]],[[[77.2288,11.3523],[77.2316,11.3526],[77.2341,11.35199],[77.2299,11.3522],[77.2288,11.3508],[77.22635,11.35139],[77.2286,11.351],[77.2288,11.3523]]],[[[77.2868,11.29735],[77.2874,11.299],[77.28842,11.30065],[77.2868,11.29735]]],[[[77.28777,11.31453],[77.2877,11.3138],[77.2877,11.314],[77.28777,11.31453]]],[[[77.2375,11.3123],[77.2394,11.315],[77.2402,11.32],[77.2408,11.3206],[77.2386,11.3211],[77.2383,11.3224],[77.2414,11.3222],[77.2416,11.3211],[77.2411,11.3207],[77.2418,11.3205],[77.2391,11.3114],[77.2414,11.3068],[77.2406,11.3067],[77.2375,11.3123]]],[[[77.2547,11.3199],[77.2525,11.3197],[77.2525,11.3182],[77.2513,11.3178],[77.25059,11.31623],[77.2502,11.3172],[77.2511,11.3182],[77.2511,11.32],[77.2524,11.3205],[77.2531,11.3217],[77.2539,11.3217],[77.2547,11.3199]]],[[[77.237,11.32103],[77.237,11.3201],[77.23676,11.31777],[77.2367,11.3191],[77.237,11.32103]]],[[[77.2669,11.321],[77.26693,11.321],[77.2669,11.3209],[77.2669,11.321]]],[[[77.2361,11.3254],[77.2358,11.326],[77.23652,11.32617],[77.2368,11.3255],[77.2361,11.3254]]],[[[77.2893,11.3243],[77.2891,11.3242],[77.2903,11.3277],[77.2893,11.3243]]],[[[77.2481,11.3263],[77.2479,11.32609],[77.2479,11.3267],[77.2481,11.3263]]],[[[77.247,11.3275],[77.2472,11.3292],[77.24817,11.3291],[77.2478,11.3273],[77.247,11.3275]]],[[[77.25076,11.32963],[77.25067,11.3294],[77.2504,11.3293],[77.25076,11.32963]]],[[[77.2921,11.3297],[77.29059,11.32852],[77.2921,11.3321],[77.2921,11.3297]]],[[[77.2886,11.33539],[77.2866,11.3391],[77.28741,11.33985],[77.2892,11.3366],[77.2886,11.33539]]],[[[77.2316,11.3462],[77.2308,11.3464],[77.2305,11.3459],[77.22961,11.34617],[77.23236,11.34771],[77.2316,11.3462]]],[[[77.2348,11.3482],[77.23293,11.34798],[77.23503,11.34932],[77.2348,11.3482]]],[[[77.1594,11.4773],[77.1528,11.4812],[77.1475,11.4799],[77.1441,11.4848],[77.1429,11.486],[77.1407,11.4868],[77.1377,11.4863],[77.1341,11.4878],[77.1326,11.4874],[77.1269,11.4817],[77.1252,11.4808],[77.1238,11.4812],[77.1195,11.4853],[77.1177,11.4852],[77.118,11.4964],[77.1209,11.5044],[77.12,11.5065],[77.1202,11.5114],[77.1231,11.5174],[77.1253,11.5198],[77.1256,11.5216],[77.1237,11.5268],[77.119,11.5358],[77.1175,11.5413],[77.1149,11.543],[77.1117,11.547],[77.1094,11.5547],[77.1072,11.5562],[77.1068,11.5603],[77.106,11.5615],[77.1021,11.5635],[77.102,11.5664],[77.0992,11.5681],[77.0974,11.5711],[77.0956,11.5706],[77.0956,11.5717],[77.099,11.5812],[77.1032,11.5881],[77.1063,11.5978],[77.1106,11.5995],[77.1108,11.603],[77.1141,11.6039],[77.1173,11.6066],[77.1176,11.6083],[77.1166,11.6163],[77.125,11.62],[77.1322,11.6254],[77.1371,11.6273],[77.1384,11.629],[77.1394,11.6329],[77.1429,11.6359],[77.1477,11.6354],[77.1466,11.6301],[77.1478,11.6267],[77.1515,11.6246],[77.1538,11.6247],[77.1551,11.6256],[77.1577,11.629],[77.163,11.6261],[77.1671,11.6263],[77.1699,11.6242],[77.1767,11.6245],[77.178,11.6254],[77.1796,11.6286],[77.1813,11.629],[77.1824,11.6334],[77.1847,11.6357],[77.1901,11.6347],[77.1957,11.6419],[77.1951,11.6467],[77.1954,11.6521],[77.1965,11.6564],[77.1949,11.6586],[77.1916,11.6604],[77.1924,11.662],[77.1981,11.6648],[77.2055,11.66],[77.2064,11.6576],[77.2104,11.6549],[77.2129,11.6543],[77.2143,11.6521],[77.2189,11.6496],[77.2221,11.6469],[77.2241,11.643],[77.2288,11.6398],[77.2302,11.6376],[77.2312,11.6339],[77.2343,11.6298],[77.2385,11.6288],[77.2414,11.6271],[77.2412,11.6246],[77.2426,11.621],[77.2449,11.619],[77.246,11.6153],[77.2511,11.611],[77.2507,11.6077],[77.2516,11.6058],[77.2517,11.6025],[77.2559,11.6004],[77.2577,11.5967],[77.2595,11.595],[77.2687,11.5916],[77.2709,11.5922],[77.2705,11.6025],[77.2716,11.6072],[77.2744,11.6119],[77.2767,11.614],[77.2846,11.6181],[77.2904,11.6184],[77.2917,11.6216],[77.2992,11.6253],[77.3004,11.6251],[77.3024,11.6232],[77.305,11.6228],[77.3064,11.6214],[77.3092,11.6218],[77.3131,11.6206],[77.3141,11.6177],[77.3133,11.6137],[77.3147,11.6122],[77.319,11.6137],[77.3251,11.6173],[77.327,11.6191],[77.3294,11.6188],[77.3307,11.6195],[77.3321,11.6251],[77.3337,11.6274],[77.3465,11.6213],[77.3487,11.6188],[77.3504,11.6194],[77.3548,11.6244],[77.3557,11.6276],[77.3567,11.6372],[77.3599,11.643],[77.3624,11.6465],[77.3663,11.6482],[77.3688,11.6484],[77.3748,11.6473],[77.3825,11.6504],[77.384,11.6498],[77.3839,11.6485],[77.3862,11.6438],[77.3878,11.6425],[77.3989,11.6395],[77.4015,11.6396],[77.4032,11.6401],[77.4045,11.6416],[77.408,11.6479],[77.4111,11.6489],[77.4139,11.6512],[77.4159,11.6514],[77.4149,11.6426],[77.4167,11.641],[77.4192,11.64],[77.4231,11.6357],[77.4248,11.6328],[77.4286,11.6327],[77.4324,11.6332],[77.4333,11.6341],[77.4334,11.6356],[77.4355,11.6362],[77.4392,11.6391],[77.4485,11.6404],[77.4495,11.6393],[77.4505,11.6392],[77.47,11.6425],[77.4722,11.6452],[77.4786,11.6497],[77.4825,11.6559],[77.4858,11.6571],[77.4886,11.6551],[77.4886,11.6538],[77.4869,11.651],[77.4884,11.6486],[77.4895,11.6447],[77.4919,11.6431],[77.4942,11.6429],[77.4978,11.6456],[77.5027,11.6453],[77.5045,11.6421],[77.5023,11.6406],[77.4989,11.634],[77.4997,11.6295],[77.4981,11.629],[77.496,11.626],[77.4957,11.6227],[77.4992,11.6188],[77.5021,11.6038],[77.5046,11.5988],[77.5071,11.5956],[77.5115,11.5922],[77.5097,11.5861],[77.5079,11.5904],[77.5041,11.5904],[77.4961,11.5956],[77.4928,11.5968],[77.4849,11.6013],[77.4823,11.6014],[77.4809,11.6],[77.4798,11.5961],[77.473,11.5833],[77.4715,11.5776],[77.4722,11.5745],[77.4711,11.5708],[77.4744,11.5685],[77.4729,11.5665],[77.4725,11.564],[77.4756,11.5592],[77.4753,11.5563],[77.476,11.5544],[77.4734,11.5532],[77.4677,11.5473],[77.4669,11.5448],[77.4676,11.5411],[77.4668,11.5349],[77.4681,11.5312],[77.4726,11.5278],[77.4736,11.5243],[77.4749,11.5225],[77.4748,11.521],[77.4772,11.5203],[77.4808,11.5216],[77.4833,11.5213],[77.4861,11.5224],[77.4869,11.5219],[77.4848,11.5186],[77.4814,11.5174],[77.48,11.512],[77.4784,11.5101],[77.4744,11.5078],[77.4714,11.5089],[77.4688,11.5078],[77.464,11.4989],[77.4626,11.4978],[77.4585,11.4992],[77.4518,11.4986],[77.4499,11.5],[77.4487,11.5046],[77.4464,11.5052],[77.4446,11.5035],[77.4419,11.5029],[77.4395,11.5003],[77.4351,11.4992],[77.4325,11.494],[77.4311,11.4939],[77.4271,11.4949],[77.425,11.4961],[77.4231,11.5007],[77.4201,11.5022],[77.4188,11.502],[77.4169,11.5001],[77.4162,11.4978],[77.4147,11.4971],[77.4075,11.4978],[77.4045,11.4974],[77.4039,11.4951],[77.4063,11.4895],[77.4048,11.4852],[77.3996,11.4814],[77.3938,11.4813],[77.3897,11.4767],[77.3851,11.4764],[77.383,11.4772],[77.3816,11.4798],[77.3798,11.4803],[77.3772,11.4791],[77.3722,11.4785],[77.3648,11.4844],[77.3597,11.4853],[77.3497,11.4786],[77.3484,11.4783],[77.3414,11.4807],[77.3374,11.4798],[77.3362,11.4788],[77.3349,11.4758],[77.3348,11.4724],[77.3332,11.4704],[77.3316,11.4702],[77.3303,11.4712],[77.3297,11.4739],[77.3279,11.4771],[77.325,11.4784],[77.3159,11.4799],[77.3113,11.4788],[77.3076,11.4734],[77.3055,11.4723],[77.2979,11.4743],[77.2964,11.4728],[77.2956,11.4655],[77.2938,11.4609],[77.2935,11.4565],[77.2927,11.4554],[77.2914,11.4554],[77.2885,11.4576],[77.2844,11.4592],[77.2765,11.4557],[77.274,11.456],[77.2701,11.4578],[77.2659,11.456],[77.2633,11.456],[77.2611,11.4589],[77.2598,11.4622],[77.2573,11.4646],[77.256,11.4681],[77.2553,11.4739],[77.2607,11.4834],[77.2599,11.4864],[77.2547,11.4949],[77.254,11.4987],[77.2482,11.504],[77.2389,11.501],[77.2376,11.5012],[77.2334,11.5045],[77.2291,11.5068],[77.2264,11.5062],[77.2255,11.5051],[77.2253,11.5029],[77.2264,11.4972],[77.2194,11.4925],[77.2174,11.4919],[77.2141,11.4942],[77.2093,11.4961],[77.2075,11.4957],[77.2053,11.4928],[77.2034,11.4918],[77.1905,11.4953],[77.1857,11.4895],[77.1837,11.4883],[77.1747,11.4894],[77.1718,11.4876],[77.1619,11.4773],[77.1594,11.4773]]]]}},{"type":"Feature","properties":{"name":"4B2D2b","level":"sub-watershed","watershedCode":"4B2D2","subCatchmentCode":"4B2D","areaKm2InDistrict":547.4,"shedId":"SB120"},"geometry":{"type":"Polygon","coordinates":[[[77.1813,11.3411],[77.1793,11.3422],[77.1778,11.3411],[77.1771,11.3398],[77.1774,11.3385],[77.1753,11.3354],[77.1754,11.3341],[77.1745,11.3325],[77.1755,11.3325],[77.1761,11.3306],[77.1791,11.3301],[77.179,11.329],[77.1802,11.3286],[77.1795,11.3271],[77.1805,11.327],[77.181,11.3262],[77.1806,11.3246],[77.1814,11.324],[77.1814,11.3228],[77.183,11.3223],[77.1834,11.3205],[77.1821,11.3185],[77.1826,11.314],[77.1806,11.3159],[77.1776,11.3172],[77.1682,11.3172],[77.1675,11.3194],[77.1649,11.3233],[77.1635,11.3276],[77.1604,11.3319],[77.156,11.3344],[77.15142,11.335],[77.1484,11.3362],[77.14286,11.3364],[77.1419,11.3388],[77.1397,11.3402],[77.1394,11.342],[77.1381,11.3425],[77.13756,11.3435],[77.13781,11.3448],[77.1392,11.3439],[77.1387,11.3454],[77.1366,11.346],[77.1363,11.347],[77.1358,11.3467],[77.1361,11.3489],[77.1346,11.3499],[77.1351,11.351],[77.1336,11.3514],[77.1327,11.3554],[77.1293,11.3545],[77.1299,11.3556],[77.1316,11.3566],[77.1314,11.35818],[77.1319,11.3582],[77.1308,11.3592],[77.131,11.3609],[77.133,11.3628],[77.1332,11.3639],[77.1323,11.3649],[77.1306,11.3649],[77.1306,11.3664],[77.1295,11.36683],[77.1308,11.3751],[77.1305,11.3757],[77.1287,11.3759],[77.1278,11.3792],[77.1187,11.3786],[77.1148,11.3792],[77.11356,11.3805],[77.1132,11.384],[77.112,11.3869],[77.1119,11.3923],[77.1105,11.4004],[77.1177,11.4015],[77.1204,11.4056],[77.126,11.4067],[77.1314,11.4144],[77.1337,11.4147],[77.1396,11.4137],[77.1423,11.4225],[77.1434,11.4231],[77.144,11.4245],[77.144,11.4269],[77.1432,11.4278],[77.1396,11.4276],[77.1379,11.4281],[77.1344,11.4314],[77.1328,11.4346],[77.1315,11.4395],[77.1312,11.445],[77.1302,11.4495],[77.1308,11.4563],[77.1286,11.4612],[77.1279,11.4688],[77.1213,11.4703],[77.1206,11.4711],[77.1177,11.4852],[77.1195,11.4853],[77.1238,11.4812],[77.1252,11.4808],[77.1269,11.4817],[77.1326,11.4874],[77.1341,11.4878],[77.1377,11.4863],[77.1407,11.4868],[77.1429,11.486],[77.1441,11.4848],[77.1475,11.4799],[77.1528,11.4812],[77.1582,11.4776],[77.1606,11.4771],[77.1619,11.4773],[77.163,11.4783],[77.1653,11.4814],[77.1733,11.4887],[77.1747,11.4894],[77.1837,11.4883],[77.1857,11.4895],[77.1905,11.4953],[77.2034,11.4918],[77.2053,11.4928],[77.2075,11.4957],[77.2093,11.4961],[77.2141,11.4942],[77.2174,11.4919],[77.2194,11.4925],[77.2264,11.4972],[77.2253,11.5029],[77.2255,11.5051],[77.2264,11.5062],[77.2291,11.5068],[77.2334,11.5045],[77.2376,11.5012],[77.2389,11.501],[77.2482,11.504],[77.254,11.4987],[77.2547,11.4949],[77.2599,11.4864],[77.2607,11.4834],[77.2553,11.4739],[77.256,11.4681],[77.2573,11.4646],[77.2598,11.4622],[77.2611,11.4589],[77.2633,11.456],[77.2659,11.456],[77.2701,11.4578],[77.274,11.456],[77.2765,11.4557],[77.2844,11.4592],[77.2885,11.4576],[77.2914,11.4554],[77.2927,11.4554],[77.2935,11.4565],[77.2938,11.4609],[77.2956,11.4655],[77.2964,11.4728],[77.2979,11.4743],[77.3055,11.4723],[77.3076,11.4734],[77.3113,11.4788],[77.3159,11.4799],[77.325,11.4784],[77.3279,11.4771],[77.3297,11.4739],[77.3303,11.4712],[77.3316,11.4702],[77.3332,11.4704],[77.3348,11.4724],[77.3349,11.4758],[77.3362,11.4788],[77.3374,11.4798],[77.3414,11.4807],[77.3484,11.4783],[77.3497,11.4786],[77.3597,11.4853],[77.3648,11.4844],[77.3722,11.4785],[77.3772,11.4791],[77.3798,11.4803],[77.3816,11.4798],[77.383,11.4772],[77.3851,11.4764],[77.3897,11.4767],[77.3938,11.4813],[77.3996,11.4814],[77.4048,11.4852],[77.4063,11.4895],[77.4039,11.4951],[77.4045,11.4974],[77.4075,11.4978],[77.4147,11.4971],[77.4162,11.4978],[77.4169,11.5001],[77.4188,11.502],[77.4201,11.5022],[77.4231,11.5007],[77.425,11.4961],[77.4271,11.4949],[77.4294,11.4941],[77.4325,11.494],[77.4351,11.4992],[77.4378,11.4995],[77.4412,11.4943],[77.437,11.4903],[77.4345,11.4869],[77.432,11.4817],[77.4295,11.4654],[77.428,11.4604],[77.4238,11.4526],[77.4179,11.4479],[77.4188,11.4387],[77.4162,11.4334],[77.4155,11.4303],[77.415,11.4293],[77.4093,11.4262],[77.4083,11.4245],[77.408,11.4205],[77.4154,11.4164],[77.412,11.4159],[77.4081,11.4128],[77.4064,11.4131],[77.4045,11.4144],[77.4031,11.4108],[77.4015,11.4101],[77.3987,11.4058],[77.3928,11.3938],[77.399,11.3829],[77.3979,11.3816],[77.397,11.3738],[77.3961,11.3727],[77.3933,11.372],[77.3919,11.3691],[77.392,11.3662],[77.3899,11.3649],[77.3872,11.3613],[77.3871,11.3562],[77.3841,11.3519],[77.3829,11.3434],[77.3795,11.3399],[77.37902,11.33574],[77.3784,11.3401],[77.3738,11.3396],[77.3696,11.3422],[77.3637,11.3431],[77.3636,11.3389],[77.3672,11.3289],[77.36672,11.32242],[77.36543,11.319],[77.3638,11.319],[77.3624,11.3198],[77.3606,11.3177],[77.3564,11.3182],[77.3559,11.3189],[77.3513,11.3175],[77.3427,11.3192],[77.3409,11.3184],[77.3342,11.3186],[77.3336,11.3181],[77.3332,11.3141],[77.3339,11.3122],[77.3333,11.3082],[77.3359,11.3039],[77.3424,11.3019],[77.345,11.3004],[77.3481,11.2905],[77.3475,11.2894],[77.3484,11.2882],[77.3477,11.2873],[77.3477,11.2837],[77.3453,11.283],[77.34572,11.28201],[77.3447,11.2813],[77.34591,11.27829],[77.3439,11.27395],[77.3428,11.2747],[77.3422,11.2743],[77.341,11.2725],[77.34082,11.26946],[77.3387,11.2681],[77.3366,11.2653],[77.3354,11.2649],[77.3348,11.2621],[77.3356,11.2607],[77.3364,11.2614],[77.3365,11.2588],[77.3332,11.2593],[77.3324,11.258],[77.3285,11.2599],[77.3247,11.2604],[77.3202,11.2622],[77.3188,11.2619],[77.3168,11.2625],[77.3131,11.2654],[77.3047,11.2671],[77.3007,11.272],[77.29777,11.27325],[77.3053,11.2745],[77.3055,11.275],[77.3073,11.2747],[77.3139,11.2805],[77.3139,11.2814],[77.31321,11.28176],[77.3134,11.2834],[77.3019,11.2879],[77.2979,11.2868],[77.2923,11.2888],[77.2898,11.2899],[77.288,11.2925],[77.2866,11.2932],[77.2868,11.29735],[77.289,11.3016],[77.2877,11.313],[77.2881,11.3176],[77.2897,11.3259],[77.2907,11.3287],[77.2921,11.3297],[77.2919,11.3379],[77.2892,11.3397],[77.2899,11.3453],[77.2889,11.3454],[77.2881,11.3446],[77.28741,11.33985],[77.2866,11.3391],[77.2885,11.3352],[77.2829,11.3357],[77.2789,11.333],[77.2765,11.3323],[77.2726,11.3269],[77.2715,11.326],[77.2706,11.3266],[77.2688,11.3233],[77.2675,11.3231],[77.2669,11.3209],[77.2654,11.3206],[77.2632,11.3177],[77.2602,11.3171],[77.2578,11.3153],[77.2549,11.3159],[77.2542,11.3121],[77.2513,11.3135],[77.25059,11.31623],[77.2513,11.3178],[77.2525,11.3182],[77.2525,11.3197],[77.2547,11.3198],[77.2539,11.3217],[77.2552,11.3208],[77.2564,11.3208],[77.2565,11.3213],[77.2563,11.3223],[77.2541,11.3237],[77.2536,11.3253],[77.2508,11.3287],[77.2507,11.3295],[77.2517,11.3307],[77.2513,11.3313],[77.24817,11.3291],[77.2472,11.3292],[77.2469,11.3278],[77.2478,11.3273],[77.2479,11.32609],[77.2435,11.326],[77.2384,11.3244],[77.23885,11.32272],[77.2383,11.3224],[77.2384,11.3213],[77.2408,11.3206],[77.2402,11.32],[77.2394,11.315],[77.2375,11.3127],[77.2375,11.3119],[77.24063,11.30666],[77.2385,11.307],[77.2311,11.3061],[77.2227,11.3041],[77.2197,11.3046],[77.21955,11.3034],[77.2191,11.3038],[77.21713,11.2996],[77.2118,11.3004],[77.2089,11.2989],[77.2021,11.303],[77.2021,11.3043],[77.2028,11.3046],[77.2039,11.3072],[77.20415,11.3098],[77.2052,11.3098],[77.205,11.3089],[77.2085,11.3078],[77.2104,11.3079],[77.2141,11.3064],[77.2169,11.3066],[77.2181,11.3059],[77.2191,11.3067],[77.2211,11.307],[77.2215,11.308],[77.2215,11.31],[77.22077,11.30993],[77.2197,11.3113],[77.2198,11.3125],[77.22327,11.31504],[77.2251,11.3149],[77.22516,11.31636],[77.2265,11.3176],[77.2276,11.3176],[77.229,11.3152],[77.2365,11.314],[77.2371,11.3216],[77.23601,11.32549],[77.2368,11.3255],[77.23652,11.32617],[77.2376,11.326],[77.2346,11.3339],[77.2328,11.334],[77.2327,11.3363],[77.2297,11.3357],[77.229,11.3361],[77.2297,11.3389],[77.2244,11.3391],[77.2235,11.3399],[77.2238,11.3414],[77.2226,11.3415],[77.2235,11.343],[77.2259,11.3416],[77.22961,11.34617],[77.2316,11.3462],[77.23236,11.34771],[77.2348,11.3482],[77.23503,11.34932],[77.236,11.3498],[77.235,11.352],[77.2291,11.3524],[77.2284,11.351],[77.2234,11.3521],[77.2181,11.3522],[77.2176,11.35],[77.2168,11.3513],[77.2146,11.3495],[77.2132,11.35],[77.2106,11.3495],[77.2102,11.3479],[77.2089,11.3477],[77.2084,11.3444],[77.2038,11.3446],[77.2011,11.344],[77.2007,11.3428],[77.1998,11.3437],[77.1989,11.3433],[77.1986,11.3408],[77.1969,11.3402],[77.1966,11.3387],[77.1871,11.3419],[77.1813,11.3411]]]}},{"type":"Feature","properties":{"name":"4B2D3a","level":"sub-watershed","watershedCode":"4B2D3","subCatchmentCode":"4B2D","areaKm2InDistrict":14.0,"shedId":"SB124"},"geometry":{"type":"Polygon","coordinates":[[[77.0279,11.5218],[77.0269,11.5138],[77.0281,11.5104],[77.021,11.5007],[77.0202,11.4988],[77.0198,11.4918],[77.0178,11.4899],[77.0034,11.4869],[77.0029,11.4844],[77.0019,11.4829],[76.99662,11.4781],[76.99102,11.48142],[76.992,11.493],[76.9935,11.4959],[76.9935,11.4982],[76.99543,11.50027],[76.9958,11.5],[76.9976,11.5045],[76.9974,11.5086],[76.998,11.5097],[76.9969,11.5101],[76.9969,11.513],[76.9977,11.5136],[77.0038,11.5134],[77.0057,11.5142],[77.0113,11.519],[77.0121,11.5209],[77.012,11.523],[77.015,11.5258],[77.01405,11.52626],[77.0151,11.5269],[77.014,11.5273],[77.009,11.5252],[77.00641,11.52506],[77.0096,11.5292],[77.0091,11.5313],[77.0053,11.5378],[77.0057,11.541],[77.0073,11.5443],[77.007,11.5467],[77.0087,11.5473],[77.0117,11.5472],[77.0172,11.5499],[77.018,11.5489],[77.017,11.5382],[77.0173,11.5235],[77.0204,11.5184],[77.0214,11.5182],[77.0262,11.5223],[77.0279,11.5218]]]}},{"type":"Feature","properties":{"name":"4B2D3b","level":"sub-watershed","watershedCode":"4B2D3","subCatchmentCode":"4B2D","areaKm2InDistrict":299.5,"shedId":"SB124"},"geometry":{"type":"MultiPolygon","coordinates":[[[[76.99102,11.48142],[76.991,11.4824],[76.9911,11.48295],[76.99102,11.48142]]],[[[76.9911,11.485],[76.9913,11.4858],[76.99124,11.48431],[76.9911,11.485]]],[[[76.9911,11.4873],[76.9913,11.4879],[76.9913,11.48703],[76.9911,11.4873]]],[[[76.9915,11.4895],[76.9915,11.4903],[76.9917,11.49063],[76.9915,11.4895]]],[[[76.99183,11.49184],[76.9918,11.4927],[76.9922,11.4935],[76.99183,11.49184]]],[[[76.99356,11.49662],[76.9922,11.4935],[76.9923,11.4946],[76.99356,11.49662]]],[[[76.8467,11.586],[76.8487,11.5917],[76.8473,11.5951],[76.8527,11.5966],[76.8564,11.5993],[76.8572,11.6055],[76.8556,11.6076],[76.8559,11.6089],[76.8577,11.6102],[76.8573,11.6117],[76.8581,11.6141],[76.856,11.6157],[76.8502,11.6163],[76.8489,11.6189],[76.8498,11.619],[76.8521,11.6217],[76.8495,11.6211],[76.8486,11.6232],[76.8496,11.6244],[76.8466,11.6247],[76.8451,11.6268],[76.8429,11.6268],[76.8429,11.6278],[76.8448,11.6282],[76.8455,11.6322],[76.8452,11.6339],[76.8444,11.6342],[76.8441,11.6326],[76.8435,11.6334],[76.8413,11.6341],[76.8401,11.6355],[76.8406,11.6373],[76.8437,11.6413],[76.8443,11.6436],[76.8482,11.645],[76.8496,11.6479],[76.8519,11.6493],[76.8523,11.6504],[76.8516,11.6533],[76.8525,11.6541],[76.8541,11.6542],[76.8553,11.6561],[76.8621,11.6581],[76.8673,11.6564],[76.8682,11.6548],[76.8713,11.652],[76.8723,11.65],[76.8724,11.6431],[76.8743,11.6354],[76.8765,11.6338],[76.8796,11.634],[76.8814,11.6352],[76.8849,11.6362],[76.8871,11.6346],[76.8894,11.6314],[76.8939,11.6326],[76.8952,11.6342],[76.8969,11.6346],[76.8978,11.634],[76.8963,11.6315],[76.895,11.6267],[76.8932,11.6232],[76.8941,11.6224],[76.898,11.6228],[76.9015,11.6278],[76.908,11.6316],[76.9105,11.6308],[76.9122,11.6292],[76.9146,11.629],[76.9161,11.6298],[76.917,11.6342],[76.9208,11.6368],[76.9223,11.6377],[76.9275,11.6378],[76.9301,11.6395],[76.9309,11.6433],[76.9301,11.6476],[76.9275,11.6503],[76.9247,11.6546],[76.9232,11.6606],[76.9241,11.6626],[76.927,11.6623],[76.9337,11.6599],[76.9353,11.6591],[76.936,11.6559],[76.9376,11.6559],[76.9415,11.6543],[76.9419,11.6563],[76.9444,11.6595],[76.9533,11.6666],[76.9576,11.6639],[76.9595,11.6636],[76.9608,11.662],[76.9639,11.6639],[76.9688,11.6654],[76.9768,11.6666],[76.9815,11.6659],[76.9832,11.6648],[76.9837,11.6609],[76.9886,11.6583],[76.9898,11.6555],[76.9907,11.6548],[76.9923,11.6538],[76.995,11.6538],[76.9994,11.6498],[77.0008,11.6463],[77.0022,11.646],[77.004,11.6466],[77.0065,11.6452],[77.008,11.6394],[77.0102,11.6378],[77.019,11.6338],[77.0231,11.6336],[77.0304,11.6355],[77.032,11.6348],[77.0349,11.6359],[77.0402,11.636],[77.0425,11.6337],[77.0506,11.6296],[77.0525,11.6246],[77.0556,11.6241],[77.0573,11.6231],[77.0608,11.6189],[77.062,11.6197],[77.0624,11.6229],[77.0641,11.6264],[77.0672,11.6278],[77.0721,11.6278],[77.075,11.6248],[77.0735,11.6221],[77.0732,11.6192],[77.0706,11.614],[77.0709,11.6126],[77.0719,11.612],[77.0834,11.6116],[77.0864,11.6128],[77.0893,11.6119],[77.0897,11.6106],[77.087,11.6011],[77.0895,11.5941],[77.0876,11.5911],[77.0865,11.5878],[77.0887,11.5859],[77.0912,11.5848],[77.0958,11.5808],[77.0988,11.5807],[77.0955,11.5708],[77.0974,11.5711],[77.0992,11.5681],[77.102,11.5664],[77.1021,11.5635],[77.106,11.5615],[77.1068,11.5603],[77.1072,11.5562],[77.1094,11.5547],[77.1117,11.547],[77.1149,11.543],[77.1175,11.5413],[77.119,11.5358],[77.1237,11.5268],[77.1256,11.5216],[77.1253,11.5198],[77.1231,11.5174],[77.1202,11.5114],[77.12,11.5065],[77.1209,11.5044],[77.118,11.4964],[77.1177,11.4846],[77.1206,11.4711],[77.1213,11.4703],[77.1279,11.4688],[77.1286,11.4612],[77.1308,11.4563],[77.1302,11.4495],[77.1281,11.4498],[77.1295,11.4514],[77.1283,11.4537],[77.1294,11.4545],[77.1297,11.4568],[77.1272,11.4605],[77.1273,11.4684],[77.1249,11.4691],[77.1165,11.4696],[77.1109,11.4721],[77.1044,11.474],[77.1002,11.477],[77.0995,11.4844],[77.0981,11.4869],[77.095,11.4883],[77.0929,11.4869],[77.0911,11.487],[77.0903,11.4888],[77.0879,11.4868],[77.0849,11.486],[77.0837,11.4879],[77.0857,11.4893],[77.0866,11.4916],[77.0809,11.495],[77.0791,11.4932],[77.0771,11.4941],[77.0738,11.4939],[77.0725,11.4946],[77.0714,11.4965],[77.0692,11.4969],[77.0688,11.4983],[77.0699,11.4997],[77.0675,11.4995],[77.0666,11.5009],[77.0659,11.5007],[77.0661,11.4985],[77.0655,11.4965],[77.0665,11.4955],[77.0671,11.4925],[77.0657,11.4904],[77.0644,11.4916],[77.0623,11.4915],[77.061,11.4935],[77.0612,11.4956],[77.0621,11.4966],[77.0602,11.4996],[77.0591,11.4996],[77.058,11.5013],[77.0597,11.504],[77.0582,11.5052],[77.0564,11.5038],[77.0562,11.5028],[77.0547,11.5034],[77.0531,11.5027],[77.0537,11.505],[77.0521,11.508],[77.0528,11.5096],[77.0506,11.5098],[77.0493,11.5119],[77.0478,11.5106],[77.046,11.5118],[77.0446,11.5119],[77.0435,11.5132],[77.0413,11.512],[77.0371,11.5129],[77.0363,11.5111],[77.0359,11.5121],[77.034,11.5126],[77.0281,11.5104],[77.0269,11.5138],[77.0279,11.5218],[77.0262,11.5223],[77.025,11.5217],[77.0214,11.5182],[77.0204,11.5184],[77.0173,11.5235],[77.017,11.5382],[77.018,11.5489],[77.0172,11.5499],[77.0117,11.5472],[77.0087,11.5473],[77.00695,11.54659],[77.005,11.5471],[77.0017,11.5463],[76.9992,11.5477],[76.9958,11.5468],[76.9942,11.547],[76.9925,11.5489],[76.9907,11.5529],[76.9866,11.5551],[76.9819,11.5554],[76.978,11.5538],[76.9753,11.5552],[76.9733,11.5585],[76.9742,11.5638],[76.9734,11.5655],[76.9694,11.5648],[76.9675,11.5654],[76.9649,11.5672],[76.9625,11.5709],[76.9613,11.5714],[76.9557,11.5699],[76.9536,11.5735],[76.9453,11.5735],[76.9408,11.5795],[76.9392,11.5794],[76.9312,11.5749],[76.9241,11.5786],[76.9209,11.5789],[76.9193,11.5748],[76.9183,11.5667],[76.9174,11.5657],[76.9165,11.566],[76.9151,11.5679],[76.9114,11.578],[76.9084,11.5809],[76.9049,11.5809],[76.9014,11.5779],[76.8969,11.5752],[76.8945,11.5746],[76.8923,11.5728],[76.8841,11.5734],[76.8789,11.5767],[76.8744,11.5811],[76.8692,11.5794],[76.8579,11.5774],[76.8522,11.578],[76.84709,11.58206],[76.8467,11.586]]],[[[76.8469,11.582],[76.84685,11.58205],[76.84698,11.58202],[76.8469,11.582]]],[[[76.997,11.4778],[76.999,11.4768],[77.00122,11.47066],[76.997,11.4778]]],[[[76.9934,11.4978],[76.9931,11.4984],[76.99392,11.49874],[76.9935,11.4982],[76.9934,11.4978]]],[[[76.99418,11.49904],[76.9947,11.5],[76.99543,11.50027],[76.99418,11.49904]]],[[[76.9959,11.5009],[76.9959,11.5018],[76.99673,11.50244],[76.9964,11.5013],[76.9959,11.5009]]],[[[76.9969,11.5042],[76.997,11.5039],[76.99692,11.50354],[76.9969,11.5042]]],[[[77.0148,11.5257],[77.012,11.523],[77.0121,11.5209],[77.0113,11.519],[77.0057,11.5142],[77.0038,11.5134],[76.9977,11.5136],[76.99702,11.51316],[76.9983,11.5143],[77.0013,11.5145],[77.0023,11.5139],[77.0037,11.5147],[77.0048,11.5143],[77.0051,11.5151],[77.0068,11.516],[77.0075,11.5175],[77.0086,11.5175],[77.0094,11.5188],[77.0104,11.5191],[77.0119,11.5215],[77.0118,11.5237],[77.013,11.5257],[77.01405,11.52626],[77.0148,11.5257]]],[[[77.0092,11.5283],[77.00641,11.52506],[77.0062,11.5252],[77.0094,11.5298],[77.0092,11.5283]]],[[[77.0073,11.5443],[77.0057,11.541],[77.00544,11.53692],[77.005,11.5401],[77.00706,11.54542],[77.0073,11.5443]]]]}},{"type":"Feature","properties":{"name":"4B2D5a","level":"sub-watershed","watershedCode":"4B2D5","subCatchmentCode":"4B2D","areaKm2InDistrict":171.0,"shedId":"SB114"},"geometry":{"type":"Polygon","coordinates":[[[77.0136,11.3688],[76.9922,11.3772],[76.9889,11.3815],[76.9876,11.3822],[76.9815,11.3831],[76.9801,11.3807],[76.97993,11.37868],[76.9716,11.3862],[76.9654,11.386],[76.9612,11.3835],[76.9595,11.3808],[76.956,11.3807],[76.9574,11.3814],[76.9622,11.3872],[76.9678,11.3924],[76.9684,11.3965],[76.9701,11.3985],[76.9755,11.397],[76.9806,11.4023],[76.9809,11.4033],[76.9795,11.4052],[76.9766,11.4076],[76.9771,11.4105],[76.9763,11.4119],[76.9769,11.4195],[76.9798,11.4342],[76.9814,11.4366],[76.9823,11.4403],[76.9979,11.4411],[76.9977,11.4378],[76.9991,11.4349],[77.0073,11.4346],[77.0114,11.4434],[77.0118,11.4525],[77.0084,11.4576],[77.0055,11.4606],[76.999,11.4768],[76.99662,11.4781],[77.0019,11.4829],[77.0029,11.4844],[77.0034,11.4869],[77.0178,11.4899],[77.0198,11.4918],[77.0202,11.4988],[77.021,11.5007],[77.0281,11.5104],[77.034,11.5126],[77.0359,11.5121],[77.0363,11.5111],[77.0371,11.5129],[77.0413,11.512],[77.0435,11.5132],[77.0446,11.5119],[77.046,11.5118],[77.0478,11.5106],[77.0493,11.5119],[77.0506,11.5098],[77.0528,11.5096],[77.0521,11.508],[77.0537,11.505],[77.0531,11.5027],[77.0547,11.5034],[77.0562,11.5028],[77.0564,11.5038],[77.0582,11.5052],[77.0597,11.504],[77.058,11.5013],[77.0591,11.4996],[77.0602,11.4996],[77.0621,11.4966],[77.0612,11.4956],[77.061,11.4935],[77.0623,11.4915],[77.0644,11.4916],[77.0655,11.4904],[77.0663,11.4908],[77.0671,11.4929],[77.0665,11.4955],[77.0655,11.4965],[77.0661,11.4985],[77.0659,11.5007],[77.067,11.5007],[77.0678,11.4994],[77.0694,11.5],[77.0699,11.4997],[77.0688,11.4983],[77.0692,11.4969],[77.0714,11.4965],[77.0725,11.4946],[77.0738,11.4939],[77.0771,11.4941],[77.0791,11.4932],[77.0809,11.495],[77.0866,11.4916],[77.0857,11.4893],[77.0837,11.4879],[77.0849,11.486],[77.0879,11.4868],[77.0903,11.4888],[77.0911,11.487],[77.0929,11.4869],[77.095,11.4883],[77.0981,11.4869],[77.0995,11.4844],[77.1002,11.477],[77.1044,11.474],[77.1109,11.4721],[77.1165,11.4696],[77.1249,11.4691],[77.1273,11.4684],[77.1272,11.4605],[77.1297,11.4568],[77.1294,11.4545],[77.1283,11.4537],[77.1295,11.4514],[77.1281,11.4498],[77.1302,11.4495],[77.1312,11.445],[77.1315,11.4395],[77.1328,11.4346],[77.1344,11.4314],[77.1379,11.4281],[77.1396,11.4276],[77.1432,11.4278],[77.144,11.4269],[77.144,11.4245],[77.1434,11.4231],[77.1423,11.4225],[77.1396,11.4137],[77.1337,11.4147],[77.1314,11.4144],[77.126,11.4067],[77.1204,11.4056],[77.1177,11.4015],[77.1105,11.4004],[77.111,11.3959],[77.1103,11.3993],[77.1105,11.4056],[77.1093,11.4065],[77.1007,11.4041],[77.0909,11.4031],[77.0934,11.3989],[77.0883,11.3978],[77.0895,11.3945],[77.089,11.3923],[77.0861,11.3918],[77.0815,11.3879],[77.0803,11.3878],[77.0771,11.3912],[77.0747,11.3915],[77.0757,11.3889],[77.0732,11.3879],[77.0707,11.3857],[77.07,11.3862],[77.0689,11.3894],[77.0704,11.3989],[77.07,11.4007],[77.0692,11.4014],[77.0665,11.4014],[77.0633,11.4005],[77.0602,11.4042],[77.0558,11.4041],[77.0529,11.4025],[77.0449,11.4027],[77.0442,11.3979],[77.0412,11.3965],[77.0359,11.3921],[77.0344,11.3878],[77.0318,11.3846],[77.0289,11.3851],[77.0256,11.3881],[77.0236,11.3878],[77.0221,11.3865],[77.0238,11.3816],[77.0254,11.3734],[77.0241,11.3717],[77.0189,11.3692],[77.0146,11.3703],[77.0143,11.3688],[77.0135,11.3682],[77.0136,11.3688]]]}},{"type":"Feature","properties":{"name":"4B2D5b","level":"sub-watershed","watershedCode":"4B2D5","subCatchmentCode":"4B2D","areaKm2InDistrict":0.5,"shedId":"SB114"},"geometry":{"type":"MultiPolygon","coordinates":[[[[77.0135,11.3688],[77.0129,11.3682],[77.0092,11.3695],[76.9921,11.3767],[76.9887,11.3808],[76.98099,11.38248],[76.9819,11.3831],[76.9876,11.3822],[76.9889,11.3815],[76.9922,11.3772],[77.0135,11.3688]]],[[[76.9564,11.3804],[76.9575,11.3811],[76.95995,11.38115],[76.9591,11.3797],[76.9564,11.3804]]],[[[76.9609,11.383],[76.9654,11.386],[76.9716,11.3862],[76.97993,11.37868],[76.9799,11.3783],[76.978,11.3791],[76.9765,11.3807],[76.9763,11.3818],[76.9713,11.3858],[76.9683,11.3849],[76.9647,11.3852],[76.9624,11.3834],[76.9609,11.383]]],[[[76.9807,11.3818],[76.98075,11.382],[76.98069,11.38167],[76.9807,11.3818]]]]}},{"type":"Feature","properties":{"name":"4B3A1b","level":"sub-watershed","watershedCode":"4B3A1","subCatchmentCode":"4B3A","areaKm2InDistrict":929.7,"shedId":"SB127"},"geometry":{"type":"Polygon","coordinates":[[[77.2737,11.611],[77.2716,11.6072],[77.2705,11.6025],[77.2709,11.5922],[77.2687,11.5916],[77.2595,11.595],[77.2577,11.5967],[77.2559,11.6004],[77.2517,11.6025],[77.2516,11.6058],[77.2507,11.6077],[77.2511,11.611],[77.246,11.6153],[77.2449,11.619],[77.2426,11.621],[77.2412,11.6246],[77.2414,11.6271],[77.2385,11.6288],[77.2343,11.6298],[77.2312,11.6339],[77.2302,11.6376],[77.2288,11.6398],[77.2241,11.643],[77.2221,11.6469],[77.2189,11.6496],[77.2143,11.6521],[77.2129,11.6543],[77.2104,11.6549],[77.2064,11.6576],[77.2055,11.66],[77.2015,11.6624],[77.2028,11.6739],[77.2055,11.6767],[77.206,11.6791],[77.205,11.6803],[77.2056,11.6829],[77.2052,11.6882],[77.2061,11.6925],[77.2047,11.696],[77.2014,11.6976],[77.1998,11.7006],[77.2025,11.7097],[77.2017,11.7154],[77.2022,11.7216],[77.2011,11.7264],[77.2014,11.7308],[77.2009,11.7343],[77.2046,11.7354],[77.2059,11.7366],[77.2063,11.7379],[77.2051,11.7396],[77.2051,11.7418],[77.2067,11.7441],[77.207,11.7461],[77.2084,11.7487],[77.2076,11.7548],[77.2054,11.7597],[77.2072,11.7651],[77.2083,11.772],[77.2108,11.7736],[77.2115,11.7759],[77.2129,11.7777],[77.2173,11.779],[77.2205,11.7808],[77.2247,11.7893],[77.22649,11.79576],[77.2362,11.7955],[77.2384,11.7947],[77.2443,11.7987],[77.2464,11.8005],[77.2475,11.8032],[77.2496,11.8042],[77.2499,11.8131],[77.2595,11.8105],[77.2616,11.8107],[77.2623,11.8097],[77.2734,11.8054],[77.2744,11.803],[77.288,11.8005],[77.2917,11.8046],[77.2933,11.8093],[77.3127,11.7936],[77.3268,11.7762],[77.3351,11.7713],[77.3502,11.7755],[77.36,11.78],[77.3604,11.7795],[77.3648,11.7904],[77.369,11.7895],[77.3692,11.7868],[77.3702,11.7867],[77.3765,11.7868],[77.3786,11.7877],[77.3893,11.7884],[77.3944,11.7877],[77.3955,11.7861],[77.4136,11.7747],[77.4152,11.775],[77.4222,11.7724],[77.4226,11.7617],[77.4273,11.7609],[77.4289,11.7626],[77.428,11.767],[77.4312,11.7716],[77.4336,11.7779],[77.4397,11.7824],[77.4422,11.7833],[77.4396,11.7856],[77.4405,11.7889],[77.4442,11.7893],[77.4466,11.7903],[77.4498,11.796],[77.4503,11.798],[77.4498,11.8006],[77.4511,11.8027],[77.4512,11.8056],[77.4528,11.8081],[77.453,11.81],[77.4521,11.8131],[77.4534,11.8185],[77.4559,11.8243],[77.457,11.829],[77.4596,11.8307],[77.4603,11.8319],[77.4628,11.8404],[77.4645,11.8443],[77.4666,11.8471],[77.4662,11.8501],[77.4614,11.8537],[77.4614,11.8551],[77.463,11.8589],[77.4599,11.8635],[77.4604,11.8642],[77.4628,11.8648],[77.4658,11.8742],[77.4607,11.8803],[77.4604,11.8817],[77.4631,11.8844],[77.4622,11.888],[77.464,11.8941],[77.4616,11.8991],[77.4618,11.9003],[77.4626,11.9009],[77.4655,11.8998],[77.4707,11.9001],[77.4743,11.8988],[77.4748,11.8974],[77.4741,11.8944],[77.4767,11.8909],[77.4784,11.8907],[77.4795,11.8932],[77.4806,11.8934],[77.4841,11.8881],[77.4827,11.8849],[77.4813,11.8772],[77.4803,11.8763],[77.4794,11.8632],[77.4777,11.8584],[77.476,11.857],[77.4747,11.8536],[77.4745,11.8487],[77.4751,11.8463],[77.4727,11.8371],[77.4757,11.8357],[77.4797,11.8352],[77.4826,11.8394],[77.4823,11.8433],[77.4849,11.851],[77.4959,11.8575],[77.4977,11.8604],[77.4947,11.8626],[77.4936,11.8656],[77.494,11.8673],[77.4963,11.869],[77.4983,11.873],[77.4986,11.8742],[77.4976,11.8783],[77.4958,11.8812],[77.4926,11.8844],[77.4906,11.8851],[77.4898,11.8842],[77.4889,11.8844],[77.4885,11.8855],[77.4861,11.8862],[77.4863,11.8886],[77.4849,11.8956],[77.4831,11.8996],[77.4841,11.9015],[77.4877,11.904],[77.4906,11.9085],[77.4909,11.9107],[77.4885,11.9116],[77.4919,11.9212],[77.4921,11.9259],[77.4932,11.9313],[77.4929,11.9413],[77.4948,11.9439],[77.4962,11.944],[77.5004,11.94],[77.5049,11.9412],[77.5123,11.9379],[77.5143,11.9375],[77.5183,11.9383],[77.5228,11.9368],[77.5282,11.9338],[77.5335,11.9339],[77.538,11.9324],[77.5425,11.9382],[77.561,11.942],[77.5679,11.9385],[77.5753,11.9365],[77.5859,11.9369],[77.5884,11.9394],[77.5936,11.9403],[77.6034,11.9377],[77.6043,11.9379],[77.6069,11.9421],[77.6125,11.9424],[77.6176,11.9446],[77.62,11.9448],[77.624,11.9473],[77.6288,11.9464],[77.6344,11.9478],[77.6394,11.9481],[77.6423,11.9501],[77.646,11.95],[77.6472,11.9505],[77.6487,11.9537],[77.652,11.9549],[77.6562,11.9535],[77.6574,11.9499],[77.6605,11.9495],[77.6691,11.9491],[77.6726,11.9516],[77.6753,11.9519],[77.67481,11.94957],[77.6733,11.9498],[77.6728,11.9475],[77.6685,11.9479],[77.6656,11.9471],[77.6648,11.9483],[77.663,11.9486],[77.6569,11.9427],[77.6577,11.9406],[77.659,11.9309],[77.6584,11.9297],[77.6529,11.9248],[77.6521,11.919],[77.6533,11.9165],[77.6528,11.9129],[77.6513,11.9109],[77.6526,11.9083],[77.6528,11.9042],[77.6534,11.9028],[77.6553,11.9011],[77.6553,11.8996],[77.6533,11.8966],[77.6518,11.8962],[77.6489,11.8937],[77.6489,11.8911],[77.6479,11.8884],[77.6454,11.8853],[77.6421,11.8723],[77.6425,11.8697],[77.6448,11.8669],[77.6416,11.8566],[77.6419,11.8497],[77.6438,11.8461],[77.6392,11.844],[77.6369,11.842],[77.6363,11.8406],[77.6312,11.8371],[77.6238,11.8357],[77.6202,11.8328],[77.6197,11.8281],[77.6208,11.8217],[77.6198,11.8179],[77.6223,11.813],[77.6199,11.8139],[77.6169,11.8046],[77.6174,11.8029],[77.619,11.8013],[77.6165,11.7983],[77.6179,11.7958],[77.6183,11.7923],[77.6169,11.7853],[77.6171,11.7802],[77.6165,11.7755],[77.614,11.7712],[77.6123,11.7661],[77.6082,11.7675],[77.6027,11.7739],[77.5994,11.7739],[77.5979,11.7727],[77.5885,11.7702],[77.5863,11.7661],[77.5846,11.7596],[77.5848,11.758],[77.587,11.7571],[77.5871,11.7535],[77.589,11.7521],[77.5897,11.7456],[77.5887,11.7438],[77.5893,11.7412],[77.5883,11.7394],[77.5863,11.7379],[77.5824,11.7362],[77.581,11.7309],[77.5813,11.7275],[77.5801,11.7257],[77.5793,11.7197],[77.5734,11.7096],[77.5708,11.7116],[77.566,11.7205],[77.5638,11.7268],[77.5634,11.7319],[77.5617,11.7361],[77.5611,11.743],[77.5628,11.7458],[77.5629,11.7475],[77.562,11.7559],[77.564,11.7587],[77.5639,11.7598],[77.5612,11.7661],[77.5548,11.7693],[77.5536,11.7707],[77.5529,11.7739],[77.5491,11.7734],[77.5444,11.7674],[77.5425,11.7676],[77.5423,11.7661],[77.54,11.7648],[77.5367,11.7659],[77.5348,11.7651],[77.5329,11.763],[77.5337,11.7611],[77.5336,11.759],[77.5348,11.7562],[77.5388,11.7541],[77.5453,11.7524],[77.5461,11.7489],[77.5461,11.7467],[77.5409,11.7374],[77.5401,11.731],[77.5382,11.7261],[77.5371,11.7249],[77.5342,11.7253],[77.5339,11.7175],[77.5281,11.7145],[77.5262,11.7144],[77.5214,11.7165],[77.5202,11.7161],[77.5151,11.713],[77.5115,11.7092],[77.5113,11.7079],[77.5128,11.7063],[77.5131,11.705],[77.5093,11.6858],[77.5082,11.6841],[77.5037,11.6802],[77.5024,11.6797],[77.5,11.6806],[77.4969,11.6808],[77.4956,11.68],[77.4964,11.6778],[77.4996,11.6752],[77.5003,11.671],[77.4983,11.6668],[77.4987,11.6658],[77.4953,11.662],[77.4903,11.6583],[77.4879,11.658],[77.4825,11.6559],[77.4786,11.6497],[77.4722,11.6452],[77.47,11.6425],[77.4505,11.6392],[77.4495,11.6393],[77.4485,11.6404],[77.4392,11.6391],[77.4355,11.6362],[77.4334,11.6356],[77.4333,11.6341],[77.4324,11.6332],[77.426,11.6327],[77.4248,11.6328],[77.4231,11.6357],[77.4192,11.64],[77.4167,11.641],[77.4149,11.6426],[77.4159,11.6514],[77.4139,11.6512],[77.4111,11.6489],[77.408,11.6479],[77.4045,11.6416],[77.4032,11.6401],[77.4015,11.6396],[77.3989,11.6395],[77.3878,11.6425],[77.3862,11.6438],[77.3839,11.6485],[77.384,11.6498],[77.3825,11.6504],[77.3748,11.6473],[77.3688,11.6484],[77.3663,11.6482],[77.3624,11.6465],[77.3599,11.643],[77.3567,11.6372],[77.3557,11.6276],[77.3548,11.6244],[77.3539,11.6228],[77.3495,11.6189],[77.3482,11.6191],[77.3465,11.6213],[77.3337,11.6274],[77.3321,11.6251],[77.3307,11.6195],[77.3294,11.6188],[77.327,11.6191],[77.3251,11.6173],[77.319,11.6137],[77.3147,11.6122],[77.3133,11.6137],[77.3141,11.6177],[77.3131,11.6206],[77.3092,11.6218],[77.3064,11.6214],[77.305,11.6228],[77.3024,11.6232],[77.3004,11.6251],[77.2992,11.6253],[77.2917,11.6216],[77.2904,11.6184],[77.2846,11.6181],[77.2767,11.614],[77.2737,11.611]]]}},{"type":"Feature","properties":{"name":"4B3A3a","level":"sub-watershed","watershedCode":"4B3A3","subCatchmentCode":"4B3A","areaKm2InDistrict":189.9,"shedId":"SB127"},"geometry":{"type":"Polygon","coordinates":[[[77.1166,11.6163],[77.1173,11.6066],[77.1141,11.6039],[77.1108,11.603],[77.1106,11.5995],[77.1063,11.5978],[77.1032,11.5881],[77.0988,11.5807],[77.0958,11.5808],[77.0912,11.5848],[77.0868,11.5872],[77.0865,11.5878],[77.0876,11.5911],[77.0895,11.5941],[77.087,11.6014],[77.0894,11.6092],[77.0894,11.6142],[77.0908,11.6185],[77.0922,11.6202],[77.1008,11.6223],[77.1061,11.6245],[77.1089,11.6322],[77.1095,11.6426],[77.1092,11.6437],[77.1063,11.6443],[77.1063,11.6489],[77.1041,11.6521],[77.1049,11.665],[77.1031,11.6679],[77.105,11.6751],[77.1053,11.6784],[77.1046,11.6839],[77.1059,11.6858],[77.1074,11.6858],[77.1101,11.6972],[77.112,11.6998],[77.1138,11.7061],[77.1102,11.7097],[77.1084,11.7106],[77.1051,11.7105],[77.103,11.7096],[77.1016,11.7118],[77.0994,11.7129],[77.0989,11.7178],[77.101,11.7209],[77.1019,11.7297],[77.1006,11.73338],[77.1049,11.7329],[77.1149,11.7218],[77.1175,11.7211],[77.1178,11.7218],[77.1179,11.7262],[77.1159,11.726],[77.1171,11.7288],[77.1156,11.728],[77.1152,11.729],[77.1167,11.7302],[77.1174,11.7318],[77.116,11.7322],[77.1141,11.7346],[77.1147,11.7394],[77.1117,11.7427],[77.1112,11.7504],[77.1093,11.751],[77.1085,11.7526],[77.1101,11.755],[77.1126,11.7566],[77.1122,11.76],[77.1127,11.7617],[77.1117,11.7634],[77.1128,11.7653],[77.1122,11.7673],[77.1125,11.7689],[77.1108,11.7709],[77.1109,11.7736],[77.1132,11.7742],[77.1135,11.7734],[77.1146,11.7735],[77.1159,11.7746],[77.1194,11.7738],[77.1202,11.773],[77.1216,11.7732],[77.1234,11.7721],[77.1306,11.7737],[77.1355,11.7725],[77.1381,11.7725],[77.1409,11.7748],[77.1425,11.7773],[77.1445,11.7782],[77.145,11.7796],[77.1472,11.7818],[77.182,11.7864],[77.1892,11.7925],[77.2141,11.7951],[77.22649,11.79576],[77.2247,11.7893],[77.2205,11.7808],[77.2173,11.779],[77.2129,11.7777],[77.2115,11.7759],[77.2108,11.7736],[77.2083,11.772],[77.2072,11.7651],[77.2054,11.7597],[77.2076,11.7548],[77.2084,11.7487],[77.207,11.7461],[77.2067,11.7441],[77.2051,11.7418],[77.2051,11.7396],[77.2063,11.7379],[77.2059,11.7366],[77.2046,11.7354],[77.2009,11.7343],[77.2014,11.7308],[77.2011,11.7264],[77.2022,11.7216],[77.2017,11.7154],[77.2025,11.7097],[77.1998,11.7006],[77.2014,11.6976],[77.2047,11.696],[77.2061,11.6925],[77.2052,11.6882],[77.2056,11.6829],[77.205,11.6803],[77.206,11.6791],[77.2055,11.6767],[77.2028,11.6739],[77.2015,11.6624],[77.1981,11.6648],[77.1924,11.662],[77.1916,11.6604],[77.1949,11.6586],[77.1965,11.6564],[77.1954,11.6521],[77.1951,11.6467],[77.1957,11.6419],[77.1901,11.6347],[77.1847,11.6357],[77.1824,11.6334],[77.1813,11.629],[77.1796,11.6286],[77.178,11.6254],[77.1767,11.6245],[77.1719,11.6239],[77.1699,11.6242],[77.1671,11.6263],[77.163,11.6261],[77.1577,11.629],[77.1551,11.6256],[77.1538,11.6247],[77.1515,11.6246],[77.1478,11.6267],[77.1466,11.6301],[77.1477,11.6354],[77.1429,11.6359],[77.1394,11.6329],[77.1384,11.629],[77.1371,11.6273],[77.1322,11.6254],[77.125,11.62],[77.1166,11.6163]]]}},{"type":"Feature","properties":{"name":"4B3A3b","level":"sub-watershed","watershedCode":"4B3A3","subCatchmentCode":"4B3A","areaKm2InDistrict":213.8,"shedId":"SB127"},"geometry":{"type":"Polygon","coordinates":[[[77.013,11.6363],[77.008,11.6394],[77.0065,11.6452],[77.0052,11.6463],[77.0008,11.6463],[76.9994,11.6498],[76.995,11.6538],[76.9923,11.6538],[76.9907,11.6548],[76.9898,11.6555],[76.9886,11.6583],[76.9837,11.6609],[76.9832,11.6648],[76.9815,11.6659],[76.9812,11.6716],[76.9844,11.6791],[76.9879,11.6845],[76.9886,11.6872],[76.987,11.6889],[76.9874,11.6909],[76.9855,11.6918],[76.9862,11.6959],[76.9897,11.7029],[76.9898,11.7045],[76.9878,11.7094],[76.9884,11.717],[76.9877,11.7183],[76.9872,11.7226],[76.9913,11.7252],[76.9937,11.7296],[76.9971,11.734],[76.995,11.7346],[76.9943,11.7358],[76.9965,11.7437],[76.9981,11.7465],[76.9982,11.7483],[76.9967,11.7525],[76.9937,11.7539],[76.9897,11.757],[76.9827,11.7658],[76.9778,11.7769],[76.9753,11.7791],[76.9754,11.7812],[76.9766,11.7844],[76.97454,11.78706],[76.9754,11.7897],[76.9793,11.7928],[76.9805,11.7949],[76.9809,11.7962],[76.9797,11.7977],[76.9799,11.7982],[76.9834,11.801],[76.9835,11.8019],[76.9822,11.8036],[76.9828,11.8082],[76.9819,11.8112],[76.9853,11.8116],[76.994,11.8091],[77.0128,11.8147],[77.0138,11.8062],[77.0155,11.8065],[77.0163,11.8074],[77.0167,11.8108],[77.0297,11.8046],[77.0304,11.8022],[77.034,11.8],[77.0325,11.796],[77.0351,11.794],[77.0386,11.7939],[77.036,11.7877],[77.0352,11.7831],[77.0289,11.7753],[77.0289,11.7744],[77.0349,11.7697],[77.0373,11.7762],[77.0395,11.7802],[77.0415,11.7819],[77.0428,11.7818],[77.0446,11.7846],[77.0443,11.7859],[77.0458,11.7873],[77.0503,11.7896],[77.0574,11.7889],[77.0621,11.7903],[77.0667,11.788],[77.0701,11.7814],[77.0701,11.7799],[77.0678,11.7804],[77.0668,11.7784],[77.0636,11.7776],[77.0611,11.776],[77.0599,11.7733],[77.0599,11.7718],[77.0565,11.7697],[77.0572,11.7679],[77.0598,11.7639],[77.0648,11.7582],[77.0823,11.7399],[77.0805,11.736],[77.1006,11.73338],[77.1019,11.7297],[77.101,11.7209],[77.0989,11.7178],[77.0994,11.7129],[77.1016,11.7118],[77.103,11.7096],[77.1051,11.7105],[77.1084,11.7106],[77.1102,11.7097],[77.1138,11.7061],[77.112,11.6998],[77.1101,11.6972],[77.1074,11.6858],[77.1059,11.6858],[77.1046,11.6839],[77.1053,11.6784],[77.105,11.6751],[77.1031,11.6679],[77.1049,11.665],[77.1041,11.6521],[77.1063,11.6489],[77.1063,11.6443],[77.1092,11.6437],[77.1095,11.6426],[77.1089,11.6322],[77.1061,11.6245],[77.1008,11.6223],[77.0922,11.6202],[77.0908,11.6185],[77.0891,11.6122],[77.0864,11.6128],[77.0834,11.6116],[77.0719,11.612],[77.0709,11.6126],[77.0706,11.614],[77.0732,11.6192],[77.0735,11.6221],[77.075,11.6248],[77.0721,11.6278],[77.0672,11.6278],[77.0641,11.6264],[77.0624,11.6229],[77.062,11.6197],[77.0608,11.6189],[77.0573,11.6231],[77.0556,11.6241],[77.0525,11.6246],[77.0506,11.6296],[77.0425,11.6337],[77.0402,11.636],[77.0349,11.6359],[77.032,11.6348],[77.0304,11.6355],[77.0231,11.6336],[77.019,11.6338],[77.013,11.6363]]]}},{"type":"Feature","properties":{"name":"4B3A3c","level":"sub-watershed","watershedCode":"4B3A3","subCatchmentCode":"4B3A","areaKm2InDistrict":196.7,"shedId":"SB127"},"geometry":{"type":"Polygon","coordinates":[[[76.917,11.6342],[76.9161,11.6298],[76.9131,11.629],[76.9105,11.6308],[76.908,11.6316],[76.9015,11.6278],[76.898,11.6228],[76.8941,11.6224],[76.8932,11.6232],[76.895,11.6267],[76.8963,11.6315],[76.8978,11.634],[76.8969,11.6346],[76.8952,11.6342],[76.8939,11.6326],[76.8894,11.6314],[76.8871,11.6346],[76.8849,11.6362],[76.8814,11.6352],[76.8796,11.634],[76.8765,11.6338],[76.8743,11.6354],[76.8724,11.6431],[76.8723,11.65],[76.8713,11.652],[76.8682,11.6548],[76.8673,11.6564],[76.8621,11.6581],[76.8553,11.6561],[76.8541,11.6542],[76.8525,11.6541],[76.8516,11.6533],[76.8523,11.6504],[76.8519,11.6493],[76.8496,11.6479],[76.8482,11.645],[76.8443,11.6436],[76.8437,11.6413],[76.8406,11.6373],[76.8401,11.6355],[76.8384,11.6354],[76.8346,11.6395],[76.8379,11.642],[76.8356,11.6442],[76.8339,11.6479],[76.8337,11.649],[76.8362,11.6539],[76.835,11.6555],[76.8377,11.6562],[76.8385,11.6575],[76.8384,11.6597],[76.8405,11.6606],[76.8418,11.6622],[76.842,11.6642],[76.8414,11.666],[76.8436,11.6682],[76.8443,11.6709],[76.844,11.6728],[76.8452,11.6733],[76.8485,11.6797],[76.8486,11.6812],[76.8495,11.6822],[76.8492,11.6832],[76.8507,11.6848],[76.8499,11.6857],[76.85,11.6866],[76.8522,11.689],[76.8518,11.6899],[76.8527,11.6924],[76.8538,11.6931],[76.8561,11.6975],[76.862,11.7043],[76.8637,11.7054],[76.8611,11.7073],[76.8626,11.7111],[76.8741,11.7242],[76.8799,11.7269],[76.8883,11.7337],[76.8881,11.7417],[76.8942,11.7542],[76.8952,11.7591],[76.8972,11.7704],[76.8959,11.7757],[76.8976,11.7775],[76.9002,11.7844],[76.9056,11.7912],[76.9071,11.7953],[76.911,11.7937],[76.9225,11.7914],[76.9283,11.7926],[76.931,11.7924],[76.9422,11.7876],[76.9445,11.7879],[76.9502,11.7917],[76.9536,11.7919],[76.9552,11.7912],[76.9607,11.7813],[76.9641,11.7788],[76.969,11.7765],[76.9697,11.7765],[76.9728,11.7804],[76.9726,11.7842],[76.97454,11.78706],[76.9766,11.7844],[76.9754,11.7812],[76.9753,11.7791],[76.9778,11.7769],[76.9827,11.7658],[76.9897,11.757],[76.9937,11.7539],[76.9967,11.7525],[76.9982,11.7483],[76.9981,11.7465],[76.9965,11.7437],[76.9943,11.7358],[76.995,11.7346],[76.9971,11.734],[76.9937,11.7296],[76.9913,11.7252],[76.9872,11.7226],[76.9877,11.7183],[76.9884,11.717],[76.9878,11.7094],[76.9898,11.7045],[76.9897,11.7029],[76.9862,11.6959],[76.9855,11.6918],[76.9874,11.6909],[76.987,11.6889],[76.9886,11.6872],[76.9879,11.6845],[76.9844,11.6791],[76.9812,11.6716],[76.9815,11.6659],[76.9768,11.6666],[76.9688,11.6654],[76.9639,11.6639],[76.9608,11.662],[76.9595,11.6636],[76.9576,11.6639],[76.9533,11.6666],[76.9444,11.6595],[76.9419,11.6563],[76.9415,11.6543],[76.9376,11.6559],[76.936,11.6559],[76.9353,11.6591],[76.9337,11.6599],[76.927,11.6623],[76.9241,11.6626],[76.9232,11.6606],[76.9247,11.6546],[76.9275,11.6503],[76.9301,11.6476],[76.9309,11.6441],[76.9301,11.6395],[76.9275,11.6378],[76.9223,11.6377],[76.9208,11.6368],[76.917,11.6342]]]}},{"type":"Feature","properties":{"name":"4B3B2a","level":"sub-watershed","watershedCode":"4B3B2","subCatchmentCode":"4B3B","areaKm2InDistrict":75.0,"shedId":"SB123"},"geometry":{"type":"Polygon","coordinates":[[[77.6644,11.7798],[77.6641,11.7771],[77.6601,11.7662],[77.6576,11.7659],[77.6559,11.7647],[77.6524,11.7572],[77.648,11.7532],[77.6421,11.7518],[77.6404,11.7493],[77.6357,11.7508],[77.6347,11.7574],[77.631,11.76],[77.6269,11.7616],[77.6247,11.7643],[77.6207,11.7631],[77.617,11.7658],[77.6123,11.7661],[77.6168,11.7769],[77.6169,11.7853],[77.6183,11.7923],[77.6179,11.7958],[77.6165,11.7983],[77.619,11.8013],[77.6174,11.8029],[77.6169,11.8046],[77.6199,11.8139],[77.6223,11.813],[77.6198,11.8179],[77.6208,11.8217],[77.6197,11.8281],[77.6202,11.8328],[77.6238,11.8357],[77.6312,11.8371],[77.6363,11.8406],[77.6369,11.842],[77.6392,11.844],[77.6438,11.8461],[77.6419,11.8497],[77.6416,11.8566],[77.6448,11.8669],[77.6425,11.8697],[77.6421,11.8723],[77.6454,11.8853],[77.6479,11.8884],[77.6489,11.8911],[77.6489,11.8937],[77.6518,11.8962],[77.6533,11.8966],[77.6553,11.8996],[77.6553,11.9011],[77.6534,11.9028],[77.6528,11.9042],[77.6526,11.9083],[77.6513,11.9109],[77.6528,11.9129],[77.6533,11.9165],[77.6521,11.919],[77.6529,11.9248],[77.6584,11.9297],[77.659,11.9309],[77.6577,11.9406],[77.6569,11.9427],[77.6627,11.9485],[77.6646,11.9484],[77.6656,11.9471],[77.6685,11.9479],[77.6725,11.9474],[77.6731,11.9495],[77.6737,11.9498],[77.6747,11.9494],[77.6737,11.9472],[77.6738,11.9448],[77.6765,11.9356],[77.6809,11.9284],[77.6837,11.9215],[77.6837,11.9184],[77.6785,11.905],[77.6813,11.8974],[77.6834,11.8956],[77.6854,11.8845],[77.685,11.8769],[77.6614,11.8777],[77.6601,11.8574],[77.6619,11.8517],[77.655,11.8377],[77.6465,11.8233],[77.6457,11.8194],[77.6511,11.8125],[77.6583,11.8127],[77.6611,11.8137],[77.6621,11.8166],[77.6633,11.8175],[77.6629,11.8183],[77.6648,11.823],[77.6652,11.8235],[77.6667,11.8234],[77.6718,11.82227],[77.6741,11.8166],[77.674,11.8153],[77.6749,11.8143],[77.6768,11.8138],[77.6772,11.8112],[77.6733,11.8058],[77.6723,11.8005],[77.6705,11.7981],[77.669,11.7942],[77.668,11.7887],[77.6644,11.7798]]]}},{"type":"Feature","properties":{"name":"4B3B2c","level":"sub-watershed","watershedCode":"4B3B2","subCatchmentCode":"4B3B","areaKm2InDistrict":33.2,"shedId":"SB123"},"geometry":{"type":"Polygon","coordinates":[[[77.6827,11.7587],[77.6811,11.7539],[77.6778,11.754],[77.6753,11.755],[77.6737,11.7591],[77.6743,11.7685],[77.6692,11.7704],[77.6678,11.7721],[77.6631,11.7728],[77.662,11.7721],[77.668,11.7887],[77.669,11.7942],[77.6705,11.7981],[77.6723,11.8005],[77.6733,11.8058],[77.6772,11.8112],[77.6768,11.8138],[77.6749,11.8143],[77.674,11.8153],[77.6741,11.8166],[77.6718,11.82227],[77.6857,11.8178],[77.6914,11.817],[77.6996,11.8098],[77.7092,11.81],[77.7099,11.8093],[77.709,11.8052],[77.7101,11.8039],[77.7101,11.803],[77.7089,11.7969],[77.7133,11.7965],[77.7216,11.7941],[77.7209,11.7911],[77.7185,11.7875],[77.7187,11.7853],[77.7143,11.7748],[77.713,11.77247],[77.7127,11.7745],[77.7103,11.7716],[77.7096,11.7699],[77.7098,11.7687],[77.7079,11.7661],[77.7074,11.7621],[77.7064,11.7602],[77.7073,11.759],[77.7067,11.7555],[77.7059,11.755],[77.7038,11.7482],[77.6989,11.7398],[77.6973,11.7354],[77.6948,11.7351],[77.6935,11.7363],[77.6919,11.7395],[77.6915,11.7442],[77.6904,11.7449],[77.6838,11.754],[77.6843,11.7615],[77.6827,11.7587]]]}}]}