{"nvdm":"1.0","dataset":"atlas/boundaries","scope":{"kind":"district","id":"mh-ahilyanagar"},"provenance":{"sources":[{"id":"datameet-village-boundaries-mh","title":"DataMeet indian_village_boundaries, Maharashtra (mh2.geojson with the mh.csv 2001-to-2011 crosswalk)","publisher":"DataMeet community","license":"ODbL 1.0","role":"input","url":"https://github.com/datameet/indian_village_boundaries","as_of":"2001","retrieved":"2026-09-02"}],"method":"derived","produced_at":"2026-09-02","produced_by":"scripts/atlas-boundaries-lgd-district.ts","internal_inputs":["public/data/atlas/mh/ahilyanagar/directory.json"],"note":"Gram Panchayat polygons for 80 Panchayats in Shevgaon taluka: each is the MultiPolygon of its LGD-listed member villages as DataMeet drew them from the 2001 Census village map, joined to the 2011 codes through DataMeet's own crosswalk, simplified to about 20 m (source polygons kept where simplification moved the area by more than a percent). Member villages the source did not draw are named on the feature. Indicative, not survey grade.","conventions":{"license":"ODbL 1.0; DataMeet, indian_village_boundaries (github.com/datameet/indian_village_boundaries), ODbL 1.0. Derived polygons are share-alike under the same licence.","geometry":"MultiPolygon of member villages, never dissolved, so the source parts stay auditable","vintage":"the 2001 Census village map; boundaries changed since are not reflected"}},"type":"FeatureCollection","features":[{"type":"Feature","properties":{"lgdCode":"168631","name":"Adhodi","blockCode":"4207","blockName":"Shevgaon","areaHectares":318.2091,"memberVillagesDrawn":["557913"],"memberVillagesNotDrawn":["000000"]},"geometry":{"type":"MultiPolygon","coordinates":[[[[75.41401,19.28355],[75.41199,19.276],[75.41075,19.26959],[75.40696,19.26461],[75.40591,19.26262],[75.4038,19.25604],[75.4014,19.25583],[75.39756,19.259],[75.39628,19.26094],[75.39697,19.26579],[75.39726,19.2723],[75.39894,19.28111],[75.40306,19.28034],[75.40348,19.27746],[75.40467,19.27756],[75.40626,19.27707],[75.41141,19.28285],[75.41401,19.28355]]]]}},{"type":"Feature","properties":{"lgdCode":"168632","name":"Akhatwade","blockCode":"4207","blockName":"Shevgaon","areaHectares":1093.6693,"memberVillagesDrawn":["557824"],"memberVillagesNotDrawn":[]},"geometry":{"type":"MultiPolygon","coordinates":[[[[75.133,19.36155],[75.13365,19.35871],[75.13411,19.3519],[75.13743,19.34095],[75.13725,19.34053],[75.13769,19.3377],[75.13745,19.33673],[75.13698,19.33631],[75.13623,19.33626],[75.1318,19.33781],[75.12881,19.33794],[75.1251,19.33744],[75.12235,19.33789],[75.12013,19.3366],[75.11746,19.33671],[75.11644,19.33637],[75.11448,19.33434],[75.10968,19.33384],[75.10853,19.33339],[75.10583,19.3315],[75.10473,19.32967],[75.10363,19.32895],[75.10095,19.32908],[75.10026,19.33536],[75.09675,19.34622],[75.09462,19.35169],[75.0944,19.3537],[75.09541,19.35489],[75.09716,19.35578],[75.10423,19.35695],[75.10718,19.35803],[75.10691,19.35927],[75.11602,19.36049],[75.133,19.36155]]]]}},{"type":"Feature","properties":{"lgdCode":"168633","name":"Akhegaon Titarpha","blockCode":"4207","blockName":"Shevgaon","areaHectares":381.623,"memberVillagesDrawn":["557882"],"memberVillagesNotDrawn":[]},"geometry":{"type":"MultiPolygon","coordinates":[[[[75.27853,19.29123],[75.27687,19.28697],[75.28749,19.28364],[75.28561,19.27962],[75.28303,19.27785],[75.28237,19.27651],[75.28239,19.27487],[75.28084,19.27285],[75.27964,19.27228],[75.27772,19.27288],[75.27514,19.27235],[75.27459,19.27295],[75.27339,19.27339],[75.27145,19.27276],[75.26938,19.27339],[75.26712,19.27544],[75.2674,19.27566],[75.26743,19.27823],[75.26633,19.28033],[75.26447,19.28159],[75.26219,19.28504],[75.2619,19.28494],[75.26113,19.28606],[75.26219,19.2861],[75.26275,19.28793],[75.26354,19.28886],[75.26809,19.29185],[75.27286,19.29187],[75.27853,19.29123]]],[[[75.27929,19.27155],[75.28019,19.27144],[75.28072,19.27098],[75.28053,19.26971],[75.28284,19.26955],[75.28267,19.26898],[75.28306,19.26766],[75.28198,19.26716],[75.2788,19.26927],[75.27929,19.27155]]]]}},{"type":"Feature","properties":{"lgdCode":"168634","name":"Amrapur","blockCode":"4207","blockName":"Shevgaon","areaHectares":1244.9526,"memberVillagesDrawn":["557879"],"memberVillagesNotDrawn":[]},"geometry":{"type":"MultiPolygon","coordinates":[[[[75.17933,19.2948],[75.19933,19.29032],[75.19822,19.28242],[75.20506,19.27985],[75.20409,19.27683],[75.20346,19.27296],[75.2012,19.26753],[75.20102,19.26571],[75.2004,19.26574],[75.19899,19.26339],[75.19748,19.25943],[75.19725,19.25703],[75.19283,19.25579],[75.18368,19.25926],[75.18477,19.26414],[75.18224,19.26787],[75.17826,19.26775],[75.17727,19.26939],[75.16769,19.26896],[75.16751,19.26744],[75.16073,19.26755],[75.15987,19.26918],[75.16108,19.27468],[75.16303,19.28062],[75.16378,19.28475],[75.1641,19.28528],[75.16543,19.28514],[75.16682,19.28965],[75.17674,19.28927],[75.17753,19.29503],[75.17933,19.2948]]]]}},{"type":"Feature","properties":{"lgdCode":"168635","name":"Antarwali Budruk","blockCode":"4207","blockName":"Shevgaon","areaHectares":913.529,"memberVillagesDrawn":["557917"],"memberVillagesNotDrawn":[]},"geometry":{"type":"MultiPolygon","coordinates":[[[[75.36583,19.31861],[75.37835,19.31251],[75.37936,19.31229],[75.38431,19.30948],[75.38384,19.30881],[75.3816,19.30722],[75.38002,19.30228],[75.37843,19.29431],[75.37738,19.29243],[75.37504,19.29001],[75.37443,19.28869],[75.37109,19.2852],[75.3694,19.28505],[75.36181,19.28309],[75.36096,19.28171],[75.36055,19.28012],[75.3527,19.2813],[75.35166,19.28123],[75.34951,19.27854],[75.34599,19.27636],[75.34498,19.27631],[75.34684,19.28689],[75.34923,19.28746],[75.35358,19.29343],[75.35612,19.30084],[75.36007,19.30759],[75.36156,19.31243],[75.36283,19.31324],[75.36343,19.31529],[75.36406,19.31599],[75.36531,19.31648],[75.36583,19.31861]]]]}},{"type":"Feature","properties":{"lgdCode":"168636","name":"Antarwali Khurdshe","blockCode":"4207","blockName":"Shevgaon","areaHectares":663.3802,"memberVillagesDrawn":["557916"],"memberVillagesNotDrawn":[]},"geometry":{"type":"MultiPolygon","coordinates":[[[[75.38384,19.30881],[75.38405,19.30797],[75.38487,19.30761],[75.39483,19.30588],[75.39411,19.30508],[75.39403,19.30352],[75.39313,19.30233],[75.39254,19.30084],[75.40125,19.29849],[75.40177,19.29659],[75.40241,19.28931],[75.40057,19.28897],[75.40017,19.28581],[75.39871,19.2803],[75.39726,19.2723],[75.39466,19.27343],[75.38705,19.27495],[75.38667,19.27696],[75.38576,19.27858],[75.38372,19.28503],[75.38223,19.28601],[75.38142,19.28594],[75.37767,19.29247],[75.37738,19.29243],[75.37843,19.29431],[75.38002,19.30228],[75.3816,19.30722],[75.38384,19.30881]]]]}},{"type":"Feature","properties":{"lgdCode":"168637","name":"Avhane Budruk","blockCode":"4207","blockName":"Shevgaon","areaHectares":1352.3284,"memberVillagesDrawn":["557837"],"memberVillagesNotDrawn":[]},"geometry":{"type":"MultiPolygon","coordinates":[[[[75.12826,19.31761],[75.1415,19.31586],[75.15603,19.31625],[75.16259,19.31595],[75.16456,19.31559],[75.16422,19.31094],[75.16563,19.31075],[75.1643,19.30868],[75.16298,19.30805],[75.1603,19.30523],[75.15872,19.30404],[75.15438,19.30237],[75.15073,19.29847],[75.14527,19.29517],[75.14545,19.29482],[75.14424,19.29265],[75.14359,19.29028],[75.13964,19.29059],[75.13391,19.29243],[75.12427,19.28744],[75.11784,19.28515],[75.11795,19.27742],[75.11768,19.27314],[75.1114,19.27149],[75.11205,19.27641],[75.11189,19.28081],[75.11126,19.28472],[75.11002,19.28796],[75.11489,19.28918],[75.11506,19.29722],[75.11703,19.30936],[75.11661,19.31538],[75.12106,19.31527],[75.12436,19.31554],[75.12826,19.31761]]]]}},{"type":"Feature","properties":{"lgdCode":"168638","name":"Avhane Khurd","blockCode":"4207","blockName":"Shevgaon","areaHectares":247.0549,"memberVillagesDrawn":["557839"],"memberVillagesNotDrawn":[]},"geometry":{"type":"MultiPolygon","coordinates":[[[[75.14545,19.29482],[75.15049,19.29344],[75.15063,19.29211],[75.15367,19.29035],[75.15342,19.28758],[75.15401,19.28582],[75.15568,19.27659],[75.15519,19.27664],[75.15427,19.27135],[75.14814,19.27237],[75.14558,19.27348],[75.14617,19.27568],[75.14504,19.27686],[75.14393,19.27956],[75.14385,19.28012],[75.14456,19.28179],[75.14343,19.28365],[75.14361,19.2878],[75.14305,19.28875],[75.14341,19.28875],[75.14424,19.29265],[75.14545,19.29482]]]]}},{"type":"Feature","properties":{"lgdCode":"168639","name":"Baktarpur","blockCode":"4207","blockName":"Shevgaon","areaHectares":477.9031,"memberVillagesDrawn":["557818"],"memberVillagesNotDrawn":[]},"geometry":{"type":"MultiPolygon","coordinates":[[[[75.1456,19.43675],[75.14482,19.42331],[75.14489,19.41586],[75.14383,19.40844],[75.1437,19.40804],[75.14156,19.40834],[75.13816,19.404],[75.13375,19.40626],[75.13466,19.40788],[75.13154,19.40808],[75.13164,19.41267],[75.13068,19.42179],[75.13109,19.42948],[75.13169,19.43333],[75.13294,19.43721],[75.1456,19.43675]]]]}},{"type":"Feature","properties":{"lgdCode":"168641","name":"Barhanpur","blockCode":"4207","blockName":"Shevgaon","areaHectares":433.8633,"memberVillagesDrawn":["557838"],"memberVillagesNotDrawn":[]},"geometry":{"type":"MultiPolygon","coordinates":[[[[75.14359,19.29028],[75.14341,19.28875],[75.14305,19.28875],[75.14361,19.2878],[75.14331,19.28494],[75.14343,19.28365],[75.14456,19.28179],[75.14385,19.28012],[75.14439,19.27886],[75.14155,19.27892],[75.1413,19.27798],[75.14092,19.27782],[75.14088,19.27693],[75.13947,19.27681],[75.13907,19.27505],[75.12238,19.2743],[75.11768,19.27314],[75.11795,19.27742],[75.11784,19.28515],[75.12427,19.28744],[75.13391,19.29243],[75.13964,19.29059],[75.14359,19.29028]]]]}},{"type":"Feature","properties":{"lgdCode":"168642","name":"Belgaon","blockCode":"4207","blockName":"Shevgaon","areaHectares":372.5694,"memberVillagesDrawn":["557902"],"memberVillagesNotDrawn":[]},"geometry":{"type":"MultiPolygon","coordinates":[[[[75.38831,19.33285],[75.3898,19.3321],[75.38576,19.313],[75.38431,19.30948],[75.37936,19.31229],[75.37835,19.31251],[75.36583,19.31861],[75.3673,19.3236],[75.36798,19.32876],[75.37445,19.32817],[75.38005,19.32726],[75.38162,19.32943],[75.38556,19.33073],[75.38673,19.33242],[75.38831,19.33285]]]]}},{"type":"Feature","properties":{"lgdCode":"168643","name":"Bhagur","blockCode":"4207","blockName":"Shevgaon","areaHectares":725.3632,"memberVillagesDrawn":["557876"],"memberVillagesNotDrawn":[]},"geometry":{"type":"MultiPolygon","coordinates":[[[[75.18968,19.33858],[75.19085,19.33752],[75.19589,19.33448],[75.19861,19.33218],[75.19928,19.32798],[75.20172,19.32475],[75.2054,19.32244],[75.20951,19.31852],[75.20809,19.31566],[75.20534,19.30693],[75.20174,19.29899],[75.19957,19.29228],[75.19933,19.29032],[75.18873,19.29257],[75.19206,19.30067],[75.19465,19.30981],[75.18924,19.31313],[75.18429,19.31455],[75.18534,19.32098],[75.18933,19.33236],[75.18891,19.33474],[75.18884,19.33812],[75.18968,19.33858]]]]}},{"type":"Feature","properties":{"lgdCode":"168644","name":"Bhaygaon","blockCode":"4207","blockName":"Shevgaon","areaHectares":600.2501,"memberVillagesDrawn":["557819"],"memberVillagesNotDrawn":[]},"geometry":{"type":"MultiPolygon","coordinates":[[[[75.12266,19.43525],[75.12722,19.43403],[75.13169,19.43333],[75.13109,19.42948],[75.13068,19.42179],[75.13164,19.41267],[75.13154,19.40808],[75.13466,19.40788],[75.13375,19.40626],[75.13155,19.40576],[75.12878,19.40235],[75.12446,19.40171],[75.12261,19.40187],[75.12045,19.40081],[75.11739,19.40026],[75.11577,19.39878],[75.11377,19.39875],[75.11174,19.40034],[75.11224,19.40151],[75.11461,19.41638],[75.11773,19.42521],[75.12043,19.43145],[75.12266,19.43525]]]]}},{"type":"Feature","properties":{"lgdCode":"168645","name":"Bhatkudgaon","blockCode":"4207","blockName":"Shevgaon","areaHectares":2017.9695,"memberVillagesDrawn":["557820"],"memberVillagesNotDrawn":[]},"geometry":{"type":"MultiPolygon","coordinates":[[[[75.15205,19.39934],[75.14851,19.38621],[75.1481,19.38338],[75.14561,19.37355],[75.14405,19.36947],[75.14219,19.36576],[75.14083,19.36177],[75.13751,19.36214],[75.13289,19.36217],[75.133,19.36155],[75.11602,19.36049],[75.10691,19.35927],[75.10641,19.36556],[75.10405,19.37292],[75.10182,19.38297],[75.10335,19.38507],[75.10752,19.3888],[75.11174,19.40034],[75.11377,19.39875],[75.11483,19.39863],[75.11577,19.39878],[75.11739,19.40026],[75.12045,19.40081],[75.12261,19.40187],[75.12446,19.40171],[75.12793,19.40205],[75.12916,19.40258],[75.13155,19.40576],[75.13375,19.40626],[75.14229,19.40194],[75.14485,19.40761],[75.1471,19.40592],[75.14782,19.40578],[75.14925,19.40694],[75.14991,19.40812],[75.15126,19.40833],[75.15136,19.40451],[75.15053,19.40291],[75.15085,19.40243],[75.15022,19.39959],[75.15205,19.39934]]]]}},{"type":"Feature","properties":{"lgdCode":"168646","name":"Bhavi Nimgaon","blockCode":"4207","blockName":"Shevgaon","areaHectares":1672.7339,"memberVillagesDrawn":["557848"],"memberVillagesNotDrawn":[]},"geometry":{"type":"MultiPolygon","coordinates":[[[[75.16494,19.48759],[75.17451,19.48546],[75.18124,19.48486],[75.18621,19.48334],[75.18991,19.48114],[75.19746,19.47819],[75.19693,19.47649],[75.19901,19.47593],[75.19828,19.4717],[75.20034,19.47159],[75.20682,19.47028],[75.20482,19.46434],[75.20284,19.45983],[75.20169,19.45646],[75.20197,19.45638],[75.19947,19.45052],[75.19723,19.44087],[75.18804,19.44124],[75.18729,19.44139],[75.1871,19.44178],[75.18493,19.44225],[75.18592,19.44709],[75.18205,19.44866],[75.17786,19.45232],[75.16493,19.46124],[75.16004,19.46359],[75.15247,19.46483],[75.15494,19.46956],[75.15451,19.47024],[75.15472,19.47098],[75.15561,19.47117],[75.1571,19.47503],[75.16072,19.48127],[75.16307,19.48711],[75.1645,19.48676],[75.16494,19.48759]]]]}},{"type":"Feature","properties":{"lgdCode":"168647","name":"Bodkhe","blockCode":"4207","blockName":"Shevgaon","areaHectares":531.7832,"memberVillagesDrawn":["557859"],"memberVillagesNotDrawn":[]},"geometry":{"type":"MultiPolygon","coordinates":[[[[75.2244,19.4425],[75.22487,19.44217],[75.22475,19.44085],[75.22523,19.43903],[75.22691,19.43492],[75.22829,19.43258],[75.23062,19.43061],[75.23537,19.42942],[75.23635,19.42899],[75.23724,19.42789],[75.24023,19.42693],[75.2416,19.42553],[75.24281,19.4217],[75.24451,19.41958],[75.24826,19.41855],[75.24828,19.41785],[75.24992,19.41751],[75.25363,19.41322],[75.25767,19.41024],[75.26067,19.40748],[75.25604,19.40892],[75.25146,19.40987],[75.24937,19.41099],[75.24384,19.41222],[75.24145,19.4133],[75.2374,19.41564],[75.22845,19.42323],[75.226,19.42335],[75.2199,19.42478],[75.21037,19.42802],[75.21135,19.42954],[75.21274,19.43045],[75.21386,19.43171],[75.21622,19.43614],[75.21873,19.43924],[75.21968,19.44004],[75.2244,19.4425]]]]}},{"type":"Feature","properties":{"lgdCode":"168649","name":"Chapadgaon","blockCode":"4207","blockName":"Shevgaon","areaHectares":1753.611,"memberVillagesDrawn":["557898"],"memberVillagesNotDrawn":[]},"geometry":{"type":"MultiPolygon","coordinates":[[[[75.3949,19.35952],[75.39533,19.35249],[75.39373,19.35238],[75.38976,19.3387],[75.38823,19.33465],[75.38806,19.33306],[75.38831,19.33285],[75.38673,19.33242],[75.38556,19.33073],[75.38162,19.32943],[75.38005,19.32726],[75.37445,19.32817],[75.36798,19.32876],[75.3673,19.3236],[75.36579,19.31848],[75.35773,19.32196],[75.35921,19.32368],[75.36078,19.32612],[75.36129,19.32784],[75.3628,19.32981],[75.36311,19.3324],[75.36277,19.33336],[75.36286,19.33437],[75.36523,19.33675],[75.36523,19.33817],[75.36511,19.33903],[75.36345,19.3421],[75.36169,19.34336],[75.36056,19.34469],[75.36074,19.34725],[75.36171,19.34919],[75.36138,19.35095],[75.36088,19.35086],[75.35976,19.34973],[75.35964,19.34921],[75.3584,19.34894],[75.35487,19.34683],[75.35117,19.34546],[75.34993,19.34903],[75.35003,19.35229],[75.35045,19.35722],[75.35141,19.36156],[75.35172,19.36155],[75.35189,19.36205],[75.35675,19.36578],[75.363,19.36904],[75.3676,19.37212],[75.37747,19.37461],[75.38565,19.37574],[75.38657,19.36745],[75.38769,19.36223],[75.39209,19.3618],[75.39317,19.35945],[75.3949,19.35952]]]]}},{"type":"Feature","properties":{"lgdCode":"168650","name":"Chede Chandgaon","blockCode":"4207","blockName":"Shevgaon","areaHectares":268.7328,"memberVillagesDrawn":["557915"],"memberVillagesNotDrawn":[]},"geometry":{"type":"MultiPolygon","coordinates":[[[[75.41448,19.30568],[75.4125,19.29669],[75.41061,19.2921],[75.41089,19.29202],[75.40769,19.29139],[75.40241,19.28931],[75.40177,19.29659],[75.40125,19.29849],[75.39254,19.30084],[75.39313,19.30233],[75.39403,19.30352],[75.39411,19.30508],[75.39557,19.307],[75.39611,19.30849],[75.39716,19.30841],[75.40059,19.30713],[75.40456,19.3064],[75.41448,19.30568]]]]}},{"type":"Feature","properties":{"lgdCode":"168651","name":"Dadegaon","blockCode":"4207","blockName":"Shevgaon","areaHectares":355.4726,"memberVillagesDrawn":["557861"],"memberVillagesNotDrawn":[]},"geometry":{"type":"MultiPolygon","coordinates":[[[[75.21624,19.41001],[75.21617,19.40428],[75.21557,19.40087],[75.21535,19.39541],[75.21484,19.39197],[75.2058,19.39258],[75.1992,19.39247],[75.19516,19.39303],[75.19588,19.39678],[75.1982,19.39779],[75.19877,19.39855],[75.19945,19.4003],[75.19998,19.40306],[75.19899,19.40774],[75.19763,19.41016],[75.2038,19.40962],[75.21624,19.41001]]]]}},{"type":"Feature","properties":{"lgdCode":"168652","name":"Dahiphal (Navin)","blockCode":"4207","blockName":"Shevgaon","areaHectares":371.699,"memberVillagesDrawn":["557849"],"memberVillagesNotDrawn":[]},"geometry":{"type":"MultiPolygon","coordinates":[[[[75.24978,19.46373],[75.24985,19.4628],[75.24928,19.46053],[75.24428,19.44932],[75.24438,19.44552],[75.23758,19.44693],[75.23729,19.44741],[75.23611,19.44807],[75.2341,19.44885],[75.23092,19.45196],[75.22694,19.45329],[75.22765,19.45418],[75.22848,19.45663],[75.22847,19.46025],[75.22585,19.4611],[75.22549,19.46164],[75.22556,19.46216],[75.2273,19.46286],[75.22819,19.46296],[75.22935,19.4626],[75.23231,19.46479],[75.23318,19.46647],[75.23837,19.46542],[75.24351,19.46507],[75.24978,19.46373]]]]}},{"type":"Feature","properties":{"lgdCode":"168653","name":"Dahiphal (June)","blockCode":"4207","blockName":"Shevgaon","areaHectares":1937.4159,"memberVillagesDrawn":["557851"],"memberVillagesNotDrawn":[]},"geometry":{"type":"MultiPolygon","coordinates":[[[[75.24978,19.46373],[75.25054,19.46343],[75.25506,19.46312],[75.26099,19.46324],[75.26889,19.46289],[75.27719,19.4618],[75.28337,19.46145],[75.28169,19.44921],[75.28105,19.43869],[75.28015,19.43406],[75.27683,19.4212],[75.2744,19.42007],[75.27311,19.41901],[75.27145,19.41562],[75.26888,19.41198],[75.26558,19.40874],[75.26347,19.40751],[75.26067,19.40748],[75.25767,19.41024],[75.25363,19.41322],[75.24992,19.41751],[75.24828,19.41785],[75.2482,19.42322],[75.24729,19.42872],[75.24563,19.43379],[75.24495,19.4369],[75.24421,19.44768],[75.2446,19.4503],[75.24928,19.46053],[75.24985,19.4628],[75.24978,19.46373]]]]}},{"type":"Feature","properties":{"lgdCode":"168654","name":"Dahigaonne","blockCode":"4207","blockName":"Shevgaon","areaHectares":1492.3423,"memberVillagesDrawn":["557846"],"memberVillagesNotDrawn":[]},"geometry":{"type":"MultiPolygon","coordinates":[[[[75.2376,19.51441],[75.24217,19.51317],[75.24191,19.5102],[75.24511,19.50759],[75.2466,19.50674],[75.25205,19.50499],[75.25209,19.50455],[75.25179,19.50251],[75.25045,19.49965],[75.24949,19.49656],[75.24888,19.49055],[75.24627,19.4911],[75.24527,19.48898],[75.24427,19.48896],[75.24331,19.48672],[75.24238,19.48541],[75.23959,19.47872],[75.2343,19.47782],[75.22937,19.47877],[75.22569,19.47859],[75.21941,19.47944],[75.21571,19.47954],[75.21109,19.48062],[75.20219,19.48504],[75.2036,19.4868],[75.206,19.49106],[75.21014,19.50611],[75.21384,19.51239],[75.22581,19.51235],[75.2372,19.51171],[75.2376,19.51441]]]]}},{"type":"Feature","properties":{"lgdCode":"168655","name":"Dahigaonshe","blockCode":"4207","blockName":"Shevgaon","areaHectares":811.748,"memberVillagesDrawn":["557889"],"memberVillagesNotDrawn":[]},"geometry":{"type":"MultiPolygon","coordinates":[[[[75.38647,19.40947],[75.38813,19.40507],[75.38918,19.40059],[75.39024,19.39119],[75.39404,19.39013],[75.394,19.39137],[75.40004,19.39081],[75.40038,19.38816],[75.40214,19.38901],[75.40176,19.38146],[75.39525,19.38172],[75.38541,19.37803],[75.37599,19.37973],[75.37035,19.38284],[75.36982,19.38882],[75.36206,19.39235],[75.36317,19.39419],[75.36469,19.39553],[75.36823,19.40008],[75.37235,19.40268],[75.37364,19.40492],[75.37444,19.40537],[75.37731,19.40548],[75.37904,19.40603],[75.38041,19.40961],[75.38153,19.41045],[75.38271,19.41033],[75.38478,19.40921],[75.38647,19.40947]]]]}},{"type":"Feature","properties":{"lgdCode":"168656","name":"Dev Takali","blockCode":"4207","blockName":"Shevgaon","areaHectares":1128.6833,"memberVillagesDrawn":["557817"],"memberVillagesNotDrawn":[]},"geometry":{"type":"MultiPolygon","coordinates":[[[[75.1456,19.43675],[75.14855,19.43673],[75.16144,19.43547],[75.16221,19.43697],[75.16773,19.43676],[75.17345,19.43612],[75.17269,19.42758],[75.17246,19.41833],[75.17752,19.41753],[75.17852,19.41789],[75.17983,19.41575],[75.17665,19.41049],[75.17507,19.40956],[75.16943,19.40742],[75.16241,19.40298],[75.15223,19.39932],[75.15022,19.39959],[75.15085,19.40243],[75.15053,19.40291],[75.15136,19.40451],[75.15126,19.40833],[75.14991,19.40812],[75.14925,19.40694],[75.14782,19.40578],[75.1471,19.40592],[75.14485,19.40761],[75.14229,19.40194],[75.13816,19.404],[75.14156,19.40834],[75.1437,19.40804],[75.14383,19.40844],[75.14489,19.41586],[75.14482,19.42331],[75.1456,19.43675]]]]}},{"type":"Feature","properties":{"lgdCode":"168657","name":"Dhorjalgaonshe","blockCode":"4207","blockName":"Shevgaon","areaHectares":710.6223,"memberVillagesDrawn":["557830","557833"],"memberVillagesNotDrawn":[]},"geometry":{"type":"MultiPolygon","coordinates":[[[[75.0911,19.31995],[75.09262,19.31908],[75.09402,19.31933],[75.09374,19.31715],[75.09255,19.3172],[75.09145,19.31341],[75.09014,19.3105],[75.09073,19.31023],[75.09055,19.30971],[75.09534,19.30953],[75.09354,19.30207],[75.0919,19.2933],[75.08587,19.2954],[75.07972,19.29679],[75.07657,19.29805],[75.07799,19.29879],[75.07837,19.29957],[75.0783,19.30089],[75.07805,19.3021],[75.07631,19.30328],[75.07566,19.30426],[75.07633,19.30539],[75.07887,19.30537],[75.07992,19.30608],[75.07962,19.3066],[75.08146,19.31058],[75.08423,19.31401],[75.08649,19.31537],[75.08798,19.31799],[75.0911,19.31995]]],[[[75.1295,19.33796],[75.12925,19.33724],[75.12826,19.31761],[75.12436,19.31554],[75.12106,19.31527],[75.11661,19.31538],[75.1164,19.31887],[75.11571,19.32231],[75.11374,19.3293],[75.11289,19.32939],[75.10864,19.32816],[75.10707,19.33245],[75.10968,19.33384],[75.11448,19.33434],[75.11644,19.33637],[75.11746,19.33671],[75.12013,19.3366],[75.12235,19.33789],[75.1251,19.33744],[75.1295,19.33796]]]]}},{"type":"Feature","properties":{"lgdCode":"168658","name":"Dhorjalgaonne","blockCode":"4207","blockName":"Shevgaon","areaHectares":1013.6471,"memberVillagesDrawn":["557832"],"memberVillagesNotDrawn":[]},"geometry":{"type":"MultiPolygon","coordinates":[[[[75.09432,19.35315],[75.10026,19.33536],[75.10095,19.32908],[75.10001,19.32826],[75.09981,19.32708],[75.09874,19.32552],[75.09739,19.32433],[75.09332,19.32187],[75.0911,19.31995],[75.08798,19.31799],[75.08649,19.31537],[75.08423,19.31401],[75.08167,19.31062],[75.08081,19.31046],[75.07984,19.31113],[75.07567,19.31578],[75.07451,19.31609],[75.07362,19.32302],[75.07167,19.33371],[75.071,19.33984],[75.06968,19.34526],[75.07578,19.34698],[75.0855,19.35081],[75.09432,19.35315]]]]}},{"type":"Feature","properties":{"lgdCode":"168659","name":"Dhorsade","blockCode":"4207","blockName":"Shevgaon","areaHectares":359.6753,"memberVillagesDrawn":["557814"],"memberVillagesNotDrawn":[]},"geometry":{"type":"MultiPolygon","coordinates":[[[[75.219,19.43947],[75.21873,19.43924],[75.21732,19.43761],[75.21622,19.43614],[75.21578,19.4354],[75.21386,19.43171],[75.21274,19.43045],[75.21222,19.43027],[75.21135,19.42954],[75.2105,19.42834],[75.21037,19.42802],[75.20967,19.42632],[75.20907,19.42661],[75.19768,19.43017],[75.1981,19.43235],[75.19718,19.43258],[75.19526,19.43325],[75.18974,19.4348],[75.18796,19.43532],[75.18642,19.4356],[75.18674,19.43748],[75.18692,19.43894],[75.1872,19.44058],[75.18729,19.44139],[75.18804,19.44124],[75.19304,19.44103],[75.19312,19.44105],[75.19723,19.44087],[75.19747,19.44184],[75.19889,19.4417],[75.2005,19.44147],[75.20302,19.44133],[75.20416,19.44124],[75.20458,19.4422],[75.20489,19.44258],[75.20673,19.44262],[75.20891,19.44209],[75.21054,19.44151],[75.21283,19.44088],[75.21423,19.44064],[75.21575,19.4405],[75.21719,19.4401],[75.219,19.43947]]]]}},{"type":"Feature","properties":{"lgdCode":"168661","name":"Erandgaon Bhagwat","blockCode":"4207","blockName":"Shevgaon","areaHectares":1952.3973,"memberVillagesDrawn":["557852"],"memberVillagesNotDrawn":[]},"geometry":{"type":"MultiPolygon","coordinates":[[[[75.32338,19.46568],[75.3226,19.45847],[75.3227,19.45351],[75.32472,19.44372],[75.32697,19.43942],[75.32715,19.43848],[75.32773,19.43871],[75.32745,19.43194],[75.32093,19.43282],[75.31878,19.43081],[75.3177,19.42897],[75.31633,19.42778],[75.31257,19.43092],[75.31208,19.43028],[75.31007,19.43048],[75.30931,19.43103],[75.30837,19.43051],[75.30769,19.42986],[75.3078,19.42786],[75.30684,19.42485],[75.30596,19.41907],[75.28938,19.41995],[75.28441,19.41995],[75.27683,19.4212],[75.28015,19.43406],[75.28105,19.43869],[75.28169,19.44921],[75.28337,19.46145],[75.29164,19.46121],[75.30353,19.4615],[75.316,19.46314],[75.31803,19.4636],[75.32338,19.46568]]]]}},{"type":"Feature","properties":{"lgdCode":"168662","name":"Erandgaon Samsud","blockCode":"4207","blockName":"Shevgaon","areaHectares":1952.3973,"memberVillagesDrawn":["557852"],"memberVillagesNotDrawn":[]},"geometry":{"type":"MultiPolygon","coordinates":[[[[75.32338,19.46568],[75.3226,19.45847],[75.3227,19.45351],[75.32472,19.44372],[75.32697,19.43942],[75.32715,19.43848],[75.32773,19.43871],[75.32745,19.43194],[75.32093,19.43282],[75.31878,19.43081],[75.3177,19.42897],[75.31633,19.42778],[75.31257,19.43092],[75.31208,19.43028],[75.31007,19.43048],[75.30931,19.43103],[75.30837,19.43051],[75.30769,19.42986],[75.3078,19.42786],[75.30684,19.42485],[75.30596,19.41907],[75.28938,19.41995],[75.28441,19.41995],[75.27683,19.4212],[75.28015,19.43406],[75.28105,19.43869],[75.28169,19.44921],[75.28337,19.46145],[75.29164,19.46121],[75.30353,19.4615],[75.316,19.46314],[75.31803,19.4636],[75.32338,19.46568]]]]}},{"type":"Feature","properties":{"lgdCode":"168663","name":"Gadewadi","blockCode":"4207","blockName":"Shevgaon","areaHectares":1564.9129,"memberVillagesDrawn":["557888"],"memberVillagesNotDrawn":[]},"geometry":{"type":"MultiPolygon","coordinates":[[[[75.33667,19.40805],[75.337,19.40693],[75.3395,19.4059],[75.35919,19.39941],[75.3653,19.3968],[75.36561,19.3969],[75.36469,19.39553],[75.36317,19.39419],[75.36206,19.39235],[75.36982,19.38882],[75.37035,19.38284],[75.37599,19.37973],[75.38541,19.37803],[75.38565,19.37574],[75.37747,19.37461],[75.3676,19.37212],[75.363,19.36904],[75.35675,19.36578],[75.35189,19.36205],[75.35172,19.36155],[75.34459,19.36527],[75.34208,19.36508],[75.33905,19.3654],[75.33866,19.36391],[75.33224,19.36386],[75.33006,19.36425],[75.32829,19.36664],[75.32988,19.36903],[75.33111,19.37233],[75.33314,19.37441],[75.33438,19.37501],[75.3377,19.3758],[75.33946,19.37746],[75.33893,19.3818],[75.33824,19.38166],[75.3375,19.38544],[75.33651,19.38729],[75.33508,19.38787],[75.33613,19.38945],[75.33107,19.3927],[75.33077,19.39349],[75.3307,19.39438],[75.33221,19.40269],[75.33338,19.40595],[75.33383,19.40546],[75.33667,19.40805]]]]}},{"type":"Feature","properties":{"lgdCode":"168664","name":"Gaikwad Jalgaon","blockCode":"4207","blockName":"Shevgaon","areaHectares":1062.308,"memberVillagesDrawn":["557906"],"memberVillagesNotDrawn":[]},"geometry":{"type":"MultiPolygon","coordinates":[[[[75.51733,19.33077],[75.52165,19.33061],[75.52694,19.32974],[75.53391,19.32976],[75.53701,19.32928],[75.54061,19.32822],[75.54065,19.3276],[75.54148,19.32755],[75.54161,19.32513],[75.54325,19.32452],[75.54312,19.32314],[75.54144,19.32333],[75.54118,19.32292],[75.54141,19.32001],[75.54096,19.31869],[75.53996,19.31824],[75.5393,19.31833],[75.53866,19.31724],[75.53933,19.31631],[75.54042,19.31594],[75.54056,19.31484],[75.54002,19.31303],[75.54054,19.31274],[75.5404,19.31182],[75.53884,19.31127],[75.53853,19.31051],[75.53846,19.30975],[75.53927,19.30926],[75.53913,19.30822],[75.53785,19.30611],[75.53696,19.30664],[75.53572,19.30555],[75.53526,19.30466],[75.53457,19.30431],[75.53316,19.30437],[75.53267,19.30397],[75.53016,19.29889],[75.52918,19.29857],[75.52874,19.29785],[75.52743,19.29836],[75.52753,19.30017],[75.52791,19.30028],[75.52954,19.3036],[75.53039,19.30344],[75.53125,19.30569],[75.52092,19.30739],[75.52075,19.30844],[75.51821,19.30911],[75.51707,19.30607],[75.51193,19.30702],[75.51191,19.30803],[75.511,19.30819],[75.50603,19.30745],[75.50203,19.30768],[75.50179,19.30665],[75.49956,19.30647],[75.49744,19.30813],[75.49769,19.31445],[75.49875,19.32032],[75.49872,19.3233],[75.49929,19.32592],[75.50316,19.32319],[75.50185,19.31846],[75.50422,19.31789],[75.50596,19.32617],[75.5041,19.32674],[75.50482,19.32943],[75.5075,19.32999],[75.51077,19.32974],[75.51086,19.33029],[75.51629,19.32923],[75.51653,19.33101],[75.51733,19.33077]],[[75.51022,19.32519],[75.50842,19.32544],[75.50748,19.3208],[75.51128,19.31933],[75.51266,19.32486],[75.51022,19.32519]],[[75.52255,19.31442],[75.52211,19.31472],[75.52127,19.31124],[75.52458,19.30958],[75.52535,19.31188],[75.52255,19.31442]]]]}},{"type":"Feature","properties":{"lgdCode":"168665","name":"Ghotan","blockCode":"4207","blockName":"Shevgaon","areaHectares":309.9464,"memberVillagesDrawn":["557855"],"memberVillagesNotDrawn":[]},"geometry":{"type":"MultiPolygon","coordinates":[[[[75.31304,19.41786],[75.32105,19.41413],[75.32541,19.41088],[75.32845,19.40681],[75.33113,19.40523],[75.32807,19.40257],[75.32585,19.39999],[75.3043,19.40595],[75.30665,19.41219],[75.30748,19.41314],[75.31252,19.41693],[75.31304,19.41786]]]]}},{"type":"Feature","properties":{"lgdCode":"168667","name":"Hasanpur","blockCode":"4207","blockName":"Shevgaon","areaHectares":643.3428,"memberVillagesDrawn":["557871"],"memberVillagesNotDrawn":[]},"geometry":{"type":"MultiPolygon","coordinates":[[[[75.33797,19.32746],[75.33689,19.3258],[75.33631,19.32616],[75.33602,19.32528],[75.3354,19.3254],[75.33507,19.32317],[75.33548,19.32305],[75.33476,19.32233],[75.3336,19.32254],[75.33311,19.32213],[75.332,19.32092],[75.3319,19.3203],[75.3308,19.3187],[75.32938,19.31767],[75.32991,19.31723],[75.32955,19.31681],[75.32941,19.31534],[75.32987,19.31481],[75.33038,19.31475],[75.32954,19.31104],[75.32595,19.31105],[75.32523,19.30961],[75.32479,19.30974],[75.321,19.30531],[75.31746,19.30272],[75.31547,19.30009],[75.31141,19.30168],[75.30764,19.30265],[75.30615,19.31084],[75.30712,19.31325],[75.31122,19.31846],[75.31569,19.32298],[75.31733,19.32599],[75.31843,19.33092],[75.32082,19.33331],[75.32791,19.33417],[75.32866,19.33234],[75.33053,19.33059],[75.33645,19.32853],[75.33797,19.32746]]]]}},{"type":"Feature","properties":{"lgdCode":"168669","name":"Hingangaon","blockCode":"4207","blockName":"Shevgaon","areaHectares":690.6789,"memberVillagesDrawn":["557816"],"memberVillagesNotDrawn":[]},"geometry":{"type":"MultiPolygon","coordinates":[[[[75.24888,19.49087],[75.25127,19.48984],[75.25395,19.48931],[75.25571,19.48859],[75.25761,19.48844],[75.25765,19.48953],[75.25801,19.49014],[75.25848,19.48989],[75.25859,19.48689],[75.2583,19.48476],[75.26327,19.48337],[75.26443,19.48335],[75.26841,19.47679],[75.26908,19.47419],[75.27039,19.4738],[75.27098,19.47101],[75.27722,19.47012],[75.27607,19.46275],[75.27684,19.46192],[75.26889,19.46289],[75.26099,19.46324],[75.25506,19.46312],[75.25054,19.46343],[75.24978,19.46373],[75.25084,19.47049],[75.2505,19.47553],[75.23959,19.47872],[75.24238,19.48541],[75.24331,19.48672],[75.24427,19.48896],[75.24527,19.48898],[75.24627,19.4911],[75.24888,19.49055],[75.24888,19.49087]]]]}},{"type":"Feature","properties":{"lgdCode":"168670","name":"Joharapur","blockCode":"4207","blockName":"Shevgaon","areaHectares":667.9872,"memberVillagesDrawn":["557822"],"memberVillagesNotDrawn":[]},"geometry":{"type":"MultiPolygon","coordinates":[[[[75.19255,19.38161],[75.19261,19.38006],[75.19211,19.37879],[75.19001,19.37674],[75.19016,19.37589],[75.18951,19.37488],[75.18889,19.37483],[75.18486,19.36999],[75.17962,19.37242],[75.17659,19.37064],[75.17123,19.36968],[75.17064,19.36898],[75.17101,19.36714],[75.15968,19.36857],[75.14405,19.36947],[75.14561,19.37355],[75.14788,19.38272],[75.15249,19.3825],[75.17058,19.38269],[75.17532,19.38297],[75.17556,19.38334],[75.17742,19.38302],[75.1796,19.38295],[75.17965,19.38318],[75.18387,19.38234],[75.19255,19.38161]]]]}},{"type":"Feature","properties":{"lgdCode":"168672","name":"Karhetakali","blockCode":"4207","blockName":"Shevgaon","areaHectares":886.0219,"memberVillagesDrawn":["557854"],"memberVillagesNotDrawn":[]},"geometry":{"type":"MultiPolygon","coordinates":[[[[75.32773,19.43871],[75.3293,19.43973],[75.33129,19.44025],[75.33432,19.44177],[75.3358,19.44275],[75.3374,19.44497],[75.34111,19.44572],[75.34193,19.44645],[75.34212,19.44838],[75.34708,19.44893],[75.34867,19.44712],[75.35196,19.44087],[75.35488,19.43336],[75.3572,19.43187],[75.35438,19.42778],[75.35133,19.42462],[75.34993,19.42227],[75.34759,19.41962],[75.3476,19.419],[75.3469,19.41782],[75.33701,19.40893],[75.33657,19.40843],[75.33667,19.40805],[75.33383,19.40546],[75.33282,19.40656],[75.32806,19.42468],[75.32738,19.43321],[75.32773,19.43871]]]]}},{"type":"Feature","properties":{"lgdCode":"168673","name":"Khadke","blockCode":"4207","blockName":"Shevgaon","areaHectares":308.7771,"memberVillagesDrawn":["557890"],"memberVillagesNotDrawn":[]},"geometry":{"type":"MultiPolygon","coordinates":[[[[75.40811,19.41829],[75.40823,19.41207],[75.40771,19.40574],[75.40783,19.40134],[75.40995,19.39151],[75.40371,19.38968],[75.40038,19.38816],[75.39832,19.40549],[75.39608,19.41376],[75.39842,19.41558],[75.40037,19.41505],[75.4009,19.41519],[75.40139,19.41586],[75.40489,19.41701],[75.40687,19.41808],[75.40811,19.41829]]]]}},{"type":"Feature","properties":{"lgdCode":"168674","name":"Khamgaon","blockCode":"4207","blockName":"Shevgaon","areaHectares":657.879,"memberVillagesDrawn":["557821"],"memberVillagesNotDrawn":[]},"geometry":{"type":"MultiPolygon","coordinates":[[[[75.15112,19.39613],[75.15158,19.39585],[75.15653,19.39551],[75.17185,19.3958],[75.19459,19.39343],[75.19512,19.39359],[75.19545,19.38973],[75.19486,19.38838],[75.19324,19.38667],[75.19278,19.38558],[75.19244,19.38363],[75.19255,19.38161],[75.18387,19.38234],[75.17965,19.38318],[75.1796,19.38295],[75.17742,19.38302],[75.17556,19.38334],[75.17532,19.38297],[75.17058,19.38269],[75.15249,19.3825],[75.14788,19.38272],[75.14851,19.38621],[75.15112,19.39613]]]]}},{"type":"Feature","properties":{"lgdCode":"168677","name":"Khanapur","blockCode":"4207","blockName":"Shevgaon","areaHectares":439.4024,"memberVillagesDrawn":["557853"],"memberVillagesNotDrawn":[]},"geometry":{"type":"MultiPolygon","coordinates":[[[[75.32745,19.43194],[75.32806,19.42468],[75.33282,19.40656],[75.33338,19.40595],[75.33289,19.40426],[75.32845,19.40681],[75.32541,19.41088],[75.3194,19.41506],[75.31306,19.41799],[75.31077,19.41867],[75.30596,19.41907],[75.30684,19.42485],[75.3078,19.42786],[75.30769,19.42986],[75.30837,19.43051],[75.30931,19.43103],[75.31007,19.43048],[75.31208,19.43028],[75.31257,19.43092],[75.31633,19.42778],[75.3177,19.42897],[75.31878,19.43081],[75.32093,19.43282],[75.32745,19.43194]]]]}},{"type":"Feature","properties":{"lgdCode":"168678","name":"Kharadgaon","blockCode":"4207","blockName":"Shevgaon","areaHectares":1569.8623,"memberVillagesDrawn":["557881"],"memberVillagesNotDrawn":[]},"geometry":{"type":"MultiPolygon","coordinates":[[[[75.2891,19.32083],[75.28995,19.31818],[75.29079,19.31692],[75.29338,19.31536],[75.29569,19.31476],[75.29516,19.31309],[75.2935,19.31077],[75.28417,19.30023],[75.27861,19.29121],[75.27286,19.29187],[75.26809,19.29185],[75.26354,19.28886],[75.26275,19.28793],[75.26219,19.2861],[75.26113,19.28606],[75.25697,19.28428],[75.25532,19.28157],[75.25298,19.28157],[75.25289,19.28123],[75.23903,19.28289],[75.23937,19.29163],[75.24034,19.29953],[75.24011,19.29961],[75.24277,19.30887],[75.24389,19.30928],[75.24377,19.30969],[75.25054,19.31126],[75.26255,19.31497],[75.27976,19.32132],[75.2891,19.32083]]]]}},{"type":"Feature","properties":{"lgdCode":"168679","name":"Khuntephal","blockCode":"4207","blockName":"Shevgaon","areaHectares":663.264,"memberVillagesDrawn":["557862"],"memberVillagesNotDrawn":[]},"geometry":{"type":"MultiPolygon","coordinates":[[[[75.24145,19.4133],[75.24457,19.41201],[75.24858,19.41124],[75.24601,19.40214],[75.24436,19.39832],[75.24249,19.39229],[75.23469,19.39443],[75.23334,19.39252],[75.22862,19.39494],[75.22617,19.39585],[75.22567,19.39069],[75.21484,19.39197],[75.21535,19.39541],[75.21557,19.40087],[75.21617,19.40428],[75.21624,19.41005],[75.22068,19.41058],[75.22738,19.41213],[75.23356,19.41232],[75.24134,19.41185],[75.24145,19.4133]]]]}},{"type":"Feature","properties":{"lgdCode":"168680","name":"Kolgaon","blockCode":"4207","blockName":"Shevgaon","areaHectares":635.129,"memberVillagesDrawn":["557870"],"memberVillagesNotDrawn":[]},"geometry":{"type":"MultiPolygon","coordinates":[[[[75.33797,19.32746],[75.34558,19.3226],[75.34294,19.31592],[75.34138,19.31613],[75.3393,19.31046],[75.33778,19.3045],[75.33619,19.29629],[75.33475,19.29246],[75.3346,19.2883],[75.32678,19.28989],[75.31812,19.29217],[75.31694,19.29583],[75.31616,19.29683],[75.31547,19.30009],[75.31746,19.30272],[75.321,19.30531],[75.32479,19.30974],[75.32523,19.30961],[75.32595,19.31105],[75.32954,19.31104],[75.33038,19.31475],[75.32987,19.31481],[75.32941,19.31534],[75.32955,19.31681],[75.32991,19.31723],[75.32938,19.31767],[75.3308,19.3187],[75.3319,19.3203],[75.332,19.32092],[75.33311,19.32213],[75.3336,19.32254],[75.33476,19.32233],[75.33548,19.32305],[75.33507,19.32317],[75.3354,19.3254],[75.33602,19.32528],[75.33631,19.32616],[75.33689,19.3258],[75.33797,19.32746]]]]}},{"type":"Feature","properties":{"lgdCode":"168681","name":"Konoshi","blockCode":"4207","blockName":"Shevgaon","areaHectares":1024.318,"memberVillagesDrawn":["557920"],"memberVillagesNotDrawn":[]},"geometry":{"type":"MultiPolygon","coordinates":[[[[75.38719,19.23462],[75.38833,19.22634],[75.38814,19.22206],[75.38746,19.21951],[75.38485,19.21505],[75.3833,19.21401],[75.37935,19.21545],[75.3778,19.21563],[75.37326,19.21299],[75.36998,19.2103],[75.36757,19.20893],[75.36117,19.20706],[75.35726,19.20648],[75.35408,19.20439],[75.35178,19.205],[75.34815,19.20527],[75.34709,19.20586],[75.34624,19.2097],[75.34515,19.21222],[75.34485,19.2153],[75.3463,19.2179],[75.34901,19.22003],[75.35179,19.22282],[75.3561,19.22885],[75.35771,19.22987],[75.35979,19.23194],[75.36022,19.23359],[75.36219,19.23409],[75.36444,19.23573],[75.36513,19.23573],[75.36695,19.23464],[75.37041,19.23434],[75.37334,19.2335],[75.37639,19.23345],[75.3775,19.23381],[75.38135,19.23287],[75.38373,19.23397],[75.38719,19.23462]]]]}},{"type":"Feature","properties":{"lgdCode":"168682","name":"Kurudgaon","blockCode":"4207","blockName":"Shevgaon","areaHectares":420.9392,"memberVillagesDrawn":["557887"],"memberVillagesNotDrawn":[]},"geometry":{"type":"MultiPolygon","coordinates":[[[[75.33824,19.38166],[75.33893,19.3818],[75.33946,19.37746],[75.3377,19.3758],[75.33438,19.37501],[75.33314,19.37441],[75.33074,19.3718],[75.32988,19.36903],[75.32829,19.36664],[75.32698,19.36611],[75.32433,19.36689],[75.31108,19.36926],[75.31146,19.37779],[75.31217,19.3808],[75.31471,19.38764],[75.32193,19.38332],[75.32405,19.38247],[75.33068,19.38131],[75.33467,19.38099],[75.33605,19.38103],[75.33824,19.38166]]]]}},{"type":"Feature","properties":{"lgdCode":"168684","name":"Lakhampuri","blockCode":"4207","blockName":"Shevgaon","areaHectares":533.7598,"memberVillagesDrawn":["557899"],"memberVillagesNotDrawn":[]},"geometry":{"type":"MultiPolygon","coordinates":[[[[75.40173,19.3708],[75.40398,19.37174],[75.40844,19.37492],[75.41115,19.37456],[75.41249,19.37633],[75.41601,19.37631],[75.42072,19.3791],[75.4217,19.37875],[75.42233,19.37681],[75.42367,19.3766],[75.42503,19.37683],[75.42623,19.37642],[75.42603,19.37336],[75.42569,19.37249],[75.42506,19.37243],[75.42305,19.37349],[75.42154,19.37335],[75.42107,19.3714],[75.4224,19.36921],[75.42237,19.36868],[75.42065,19.36764],[75.41894,19.36829],[75.41883,19.36746],[75.42053,19.36696],[75.42091,19.36547],[75.42071,19.36451],[75.41751,19.36026],[75.41609,19.35995],[75.41506,19.36011],[75.41373,19.36211],[75.41293,19.36213],[75.41252,19.3614],[75.41328,19.36065],[75.41295,19.35951],[75.41195,19.35828],[75.40976,19.35747],[75.40908,19.35621],[75.40835,19.35346],[75.40534,19.35335],[75.40347,19.35188],[75.39533,19.35249],[75.39492,19.36007],[75.39609,19.36012],[75.3978,19.36753],[75.39753,19.36823],[75.39924,19.36975],[75.40173,19.3708]]]]}},{"type":"Feature","properties":{"lgdCode":"168685","name":"Lolegaon","blockCode":"4207","blockName":"Shevgaon","areaHectares":490.7541,"memberVillagesDrawn":["557823"],"memberVillagesNotDrawn":[]},"geometry":{"type":"MultiPolygon","coordinates":[[[[75.14405,19.36947],[75.15968,19.36857],[75.17101,19.36714],[75.17253,19.36395],[75.17163,19.36237],[75.16939,19.36032],[75.16872,19.35873],[75.16872,19.35728],[75.16686,19.35563],[75.16624,19.35326],[75.1652,19.35188],[75.16465,19.35017],[75.16375,19.34893],[75.16183,19.34781],[75.16025,19.34927],[75.15861,19.34883],[75.15825,19.35157],[75.15831,19.35457],[75.14801,19.35629],[75.14201,19.35668],[75.14028,19.35802],[75.14083,19.36177],[75.14219,19.36576],[75.14405,19.36947]]]]}},{"type":"Feature","properties":{"lgdCode":"168686","name":"Malegaonne","blockCode":"4207","blockName":"Shevgaon","areaHectares":780.8526,"memberVillagesDrawn":["557873"],"memberVillagesNotDrawn":[]},"geometry":{"type":"MultiPolygon","coordinates":[[[[75.2755,19.35548],[75.28669,19.35412],[75.29609,19.35241],[75.29554,19.34278],[75.29082,19.33047],[75.29089,19.32705],[75.2891,19.32083],[75.27976,19.32132],[75.2734,19.31907],[75.27323,19.32728],[75.27156,19.333],[75.27251,19.33973],[75.27438,19.34966],[75.27524,19.3527],[75.2755,19.35548]]]]}},{"type":"Feature","properties":{"lgdCode":"168687","name":"Madke","blockCode":"4207","blockName":"Shevgaon","areaHectares":257.9315,"memberVillagesDrawn":["557891"],"memberVillagesNotDrawn":[]},"geometry":{"type":"MultiPolygon","coordinates":[[[[75.39608,19.41376],[75.39832,19.40549],[75.40004,19.39081],[75.394,19.39137],[75.39404,19.39013],[75.39024,19.39119],[75.38918,19.40059],[75.38813,19.40507],[75.38647,19.40947],[75.38997,19.41242],[75.3916,19.41474],[75.39279,19.41477],[75.39449,19.41392],[75.39608,19.41376]]]]}},{"type":"Feature","properties":{"lgdCode":"168688","name":"Majale Shahar","blockCode":"4207","blockName":"Shevgaon","areaHectares":781.6768,"memberVillagesDrawn":["557812"],"memberVillagesNotDrawn":[]},"geometry":{"type":"MultiPolygon","coordinates":[[[[75.16252,19.43683],[75.16221,19.43697],[75.16144,19.43547],[75.14855,19.43673],[75.13294,19.43721],[75.13169,19.43333],[75.12722,19.43403],[75.12266,19.43525],[75.12232,19.43707],[75.12254,19.44068],[75.12403,19.44677],[75.12415,19.45017],[75.12377,19.45644],[75.12798,19.45552],[75.13082,19.45433],[75.13266,19.45392],[75.13901,19.45288],[75.15139,19.45162],[75.16179,19.44982],[75.1613,19.44563],[75.16327,19.44573],[75.16303,19.44453],[75.16478,19.44402],[75.16607,19.44431],[75.16621,19.44371],[75.16608,19.44276],[75.16252,19.43683]]]]}},{"type":"Feature","properties":{"lgdCode":"168689","name":"Malegaon","blockCode":"4207","blockName":"Shevgaon","areaHectares":529.3757,"memberVillagesDrawn":["557834"],"memberVillagesNotDrawn":[]},"geometry":{"type":"MultiPolygon","coordinates":[[[[75.14853,19.31594],[75.1415,19.31586],[75.12826,19.31761],[75.12925,19.33724],[75.1295,19.33796],[75.1318,19.33781],[75.13623,19.33626],[75.13698,19.33631],[75.13745,19.33673],[75.13769,19.3377],[75.13725,19.34053],[75.13808,19.34151],[75.13856,19.34165],[75.1392,19.34159],[75.14047,19.34082],[75.14149,19.33944],[75.14254,19.33874],[75.14444,19.33956],[75.1458,19.34071],[75.14866,19.33878],[75.1493,19.33449],[75.14906,19.31985],[75.14853,19.31594]]]]}},{"type":"Feature","properties":{"lgdCode":"168690","name":"Mangarul Budruk","blockCode":"4207","blockName":"Shevgaon","areaHectares":383.147,"memberVillagesDrawn":["557869"],"memberVillagesNotDrawn":[]},"geometry":{"type":"MultiPolygon","coordinates":[[[[75.34294,19.31592],[75.34954,19.31511],[75.35227,19.31444],[75.35168,19.31185],[75.35013,19.31011],[75.34982,19.30783],[75.34929,19.30727],[75.34865,19.30421],[75.34925,19.29936],[75.34901,19.29612],[75.34779,19.29416],[75.34702,19.29066],[75.34468,19.28868],[75.34421,19.28693],[75.33961,19.2873],[75.3349,19.28718],[75.33455,19.28946],[75.33475,19.29246],[75.33619,19.29629],[75.33778,19.3045],[75.3393,19.31046],[75.34138,19.31613],[75.34294,19.31592]]]]}},{"type":"Feature","properties":{"lgdCode":"168691","name":"Mangarul Khurd","blockCode":"4207","blockName":"Shevgaon","areaHectares":320.3568,"memberVillagesDrawn":["557868"],"memberVillagesNotDrawn":[]},"geometry":{"type":"MultiPolygon","coordinates":[[[[75.35773,19.32196],[75.36579,19.31848],[75.36531,19.31648],[75.36406,19.31599],[75.36343,19.31529],[75.36283,19.31324],[75.36156,19.31243],[75.36007,19.30759],[75.35612,19.30084],[75.35358,19.29343],[75.34923,19.28746],[75.34684,19.28689],[75.34421,19.28693],[75.34468,19.28868],[75.34702,19.29066],[75.34779,19.29416],[75.34901,19.29612],[75.34925,19.29936],[75.34865,19.30421],[75.34929,19.30727],[75.34982,19.30783],[75.35013,19.31011],[75.35168,19.31185],[75.35191,19.31357],[75.35265,19.31515],[75.35461,19.3168],[75.35481,19.31727],[75.35458,19.31808],[75.35543,19.32021],[75.35773,19.32196]]]]}},{"type":"Feature","properties":{"lgdCode":"168693","name":"Nagalwadi","blockCode":"4207","blockName":"Shevgaon","areaHectares":992.4022,"memberVillagesDrawn":["557921"],"memberVillagesNotDrawn":[]},"geometry":{"type":"MultiPolygon","coordinates":[[[[75.39834,19.23712],[75.39957,19.23218],[75.40159,19.23],[75.40406,19.22491],[75.40468,19.22466],[75.40624,19.22479],[75.41074,19.22623],[75.41288,19.22468],[75.41438,19.22477],[75.41684,19.22554],[75.41751,19.22536],[75.41786,19.2243],[75.41868,19.2239],[75.41873,19.22338],[75.41756,19.22257],[75.41851,19.22249],[75.4206,19.22344],[75.42077,19.22256],[75.42148,19.22149],[75.42206,19.22143],[75.42173,19.21796],[75.42085,19.21659],[75.41992,19.21665],[75.41942,19.2151],[75.41643,19.21504],[75.41425,19.20991],[75.41175,19.20905],[75.41109,19.20741],[75.41015,19.20667],[75.40666,19.20553],[75.40551,19.20466],[75.40474,19.20361],[75.40429,19.20111],[75.40324,19.20007],[75.4019,19.19649],[75.39784,19.19952],[75.39758,19.20113],[75.39635,19.20214],[75.39262,19.20155],[75.39031,19.20071],[75.38819,19.20096],[75.38741,19.2021],[75.38739,19.20448],[75.38558,19.20641],[75.38485,19.20801],[75.38324,19.20988],[75.38263,19.21241],[75.38323,19.21403],[75.38485,19.21505],[75.38746,19.21951],[75.38814,19.22206],[75.38833,19.22634],[75.38719,19.23462],[75.3939,19.23571],[75.39619,19.23727],[75.39737,19.23684],[75.39834,19.23712]]]]}},{"type":"Feature","properties":{"lgdCode":"168694","name":"Najik Babhulgaon","blockCode":"4207","blockName":"Shevgaon","areaHectares":942.1748,"memberVillagesDrawn":["557864"],"memberVillagesNotDrawn":[]},"geometry":{"type":"MultiPolygon","coordinates":[[[[75.31217,19.3808],[75.31146,19.37779],[75.31108,19.36926],[75.3089,19.36943],[75.30603,19.36899],[75.30307,19.3692],[75.29951,19.36195],[75.29748,19.35877],[75.2962,19.3524],[75.28669,19.35412],[75.2755,19.35548],[75.27536,19.35799],[75.27388,19.36562],[75.27197,19.37239],[75.27247,19.37329],[75.27265,19.3769],[75.27498,19.37722],[75.27794,19.37905],[75.28423,19.38034],[75.28765,19.38149],[75.29754,19.38068],[75.31217,19.3808]]]]}},{"type":"Feature","properties":{"lgdCode":"168696","name":"Prabhu Wadgaon","blockCode":"4207","blockName":"Shevgaon","areaHectares":305.3045,"memberVillagesDrawn":["557897"],"memberVillagesNotDrawn":[]},"geometry":{"type":"MultiPolygon","coordinates":[[[[75.40176,19.38146],[75.40173,19.3708],[75.39924,19.36975],[75.39753,19.36823],[75.3978,19.36753],[75.39609,19.36012],[75.39492,19.36007],[75.3949,19.35952],[75.39317,19.35945],[75.39209,19.3618],[75.38769,19.36223],[75.38657,19.36745],[75.38541,19.37803],[75.39525,19.38172],[75.40176,19.38146]]]]}},{"type":"Feature","properties":{"lgdCode":"168697","name":"Ranegaon","blockCode":"4207","blockName":"Shevgaon","areaHectares":1444.6754,"memberVillagesDrawn":["557919"],"memberVillagesNotDrawn":[]},"geometry":{"type":"MultiPolygon","coordinates":[[[[75.38705,19.27495],[75.39466,19.27343],[75.39732,19.27228],[75.39639,19.26045],[75.39756,19.259],[75.4014,19.25583],[75.4038,19.25604],[75.40122,19.24762],[75.4006,19.24153],[75.39834,19.23712],[75.39737,19.23684],[75.39576,19.23717],[75.3939,19.23571],[75.38635,19.23457],[75.38373,19.23397],[75.38135,19.23287],[75.3775,19.23381],[75.37639,19.23345],[75.37334,19.2335],[75.37041,19.23434],[75.36695,19.23464],[75.36513,19.23573],[75.36444,19.23573],[75.36384,19.24028],[75.36025,19.24756],[75.36086,19.24978],[75.36171,19.25131],[75.3658,19.25473],[75.366,19.25643],[75.37008,19.26335],[75.37867,19.26951],[75.38066,19.26968],[75.38148,19.27164],[75.38378,19.27324],[75.3864,19.27307],[75.38705,19.27495]]]]}},{"type":"Feature","properties":{"lgdCode":"168698","name":"Ranjani","blockCode":"4207","blockName":"Shevgaon","areaHectares":1026.2472,"memberVillagesDrawn":["557841"],"memberVillagesNotDrawn":[]},"geometry":{"type":"MultiPolygon","coordinates":[[[[75.16494,19.48759],[75.1645,19.48676],[75.16307,19.48711],[75.1628,19.48643],[75.14711,19.48875],[75.1404,19.4908],[75.14079,19.49465],[75.14041,19.50308],[75.14084,19.51392],[75.14106,19.51674],[75.14266,19.52242],[75.14525,19.52178],[75.14994,19.52197],[75.1577,19.52356],[75.15969,19.52501],[75.16047,19.52011],[75.16265,19.52033],[75.16304,19.51576],[75.1636,19.51608],[75.16494,19.51589],[75.16491,19.51529],[75.16717,19.51456],[75.16689,19.51199],[75.16754,19.51189],[75.1677,19.50999],[75.16862,19.50996],[75.16878,19.50867],[75.16902,19.50865],[75.16883,19.50437],[75.16808,19.49898],[75.16494,19.48759]]]]}},{"type":"Feature","properties":{"lgdCode":"168699","name":"Rakshi","blockCode":"4207","blockName":"Shevgaon","areaHectares":790.2956,"memberVillagesDrawn":["557865"],"memberVillagesNotDrawn":[]},"geometry":{"type":"MultiPolygon","coordinates":[[[[75.31108,19.36926],[75.32433,19.36689],[75.32698,19.36611],[75.32829,19.36664],[75.33006,19.36425],[75.32696,19.35567],[75.32586,19.34675],[75.32492,19.34295],[75.32401,19.34126],[75.32288,19.33775],[75.31751,19.33666],[75.31556,19.33666],[75.31483,19.3391],[75.31327,19.348],[75.30872,19.34948],[75.29591,19.3509],[75.29748,19.35877],[75.29951,19.36195],[75.30307,19.3692],[75.30603,19.36899],[75.3089,19.36943],[75.31108,19.36926]]]]}},{"type":"Feature","properties":{"lgdCode":"168700","name":"Sal Wadgaon","blockCode":"4207","blockName":"Shevgaon","areaHectares":690.0142,"memberVillagesDrawn":["557874"],"memberVillagesNotDrawn":[]},"geometry":{"type":"MultiPolygon","coordinates":[[[[75.27171,19.33192],[75.27323,19.32728],[75.2734,19.31907],[75.27035,19.31767],[75.26255,19.31497],[75.25054,19.31126],[75.24377,19.30969],[75.24154,19.31645],[75.24071,19.32044],[75.24058,19.32356],[75.24191,19.32827],[75.24451,19.33249],[75.25553,19.3332],[75.27171,19.33192]]]]}},{"type":"Feature","properties":{"lgdCode":"168701","name":"Samangaon","blockCode":"4207","blockName":"Shevgaon","areaHectares":1026.1184,"memberVillagesDrawn":["557835"],"memberVillagesNotDrawn":[]},"geometry":{"type":"MultiPolygon","coordinates":[[[[75.14083,19.36177],[75.14028,19.35802],[75.14201,19.35668],[75.14801,19.35629],[75.15831,19.35457],[75.15825,19.35157],[75.15861,19.34883],[75.16025,19.34927],[75.16183,19.34781],[75.16235,19.34796],[75.16375,19.34893],[75.16465,19.35017],[75.16501,19.35129],[75.1692,19.35001],[75.16564,19.33137],[75.16383,19.32366],[75.16259,19.31595],[75.15603,19.31625],[75.14853,19.31594],[75.14906,19.31985],[75.1493,19.33449],[75.14866,19.33878],[75.1458,19.34071],[75.14444,19.33956],[75.14254,19.33874],[75.14149,19.33944],[75.14047,19.34082],[75.1392,19.34159],[75.13808,19.34151],[75.13743,19.34095],[75.13411,19.3519],[75.13365,19.35871],[75.13289,19.36217],[75.13751,19.36214],[75.14083,19.36177]]]]}},{"type":"Feature","properties":{"lgdCode":"168702","name":"Shahar Takali","blockCode":"4207","blockName":"Shevgaon","areaHectares":904.4089,"memberVillagesDrawn":["557813"],"memberVillagesNotDrawn":[]},"geometry":{"type":"MultiPolygon","coordinates":[[[[75.15247,19.46483],[75.16004,19.46359],[75.16493,19.46124],[75.17786,19.45232],[75.18205,19.44866],[75.18592,19.44709],[75.18493,19.44225],[75.1871,19.44178],[75.18729,19.44139],[75.18642,19.4356],[75.17995,19.43544],[75.16773,19.43676],[75.16252,19.43683],[75.16608,19.44276],[75.16621,19.44371],[75.16607,19.44431],[75.16478,19.44402],[75.16303,19.44453],[75.16327,19.44573],[75.1613,19.44563],[75.16179,19.44982],[75.15139,19.45162],[75.13901,19.45288],[75.13266,19.45392],[75.13082,19.45433],[75.12798,19.45552],[75.12377,19.45644],[75.13194,19.4567],[75.13721,19.45725],[75.14066,19.46603],[75.14895,19.46549],[75.15247,19.46483]]]]}},{"type":"Feature","properties":{"lgdCode":"168706","name":"Shingori","blockCode":"4207","blockName":"Shevgaon","areaHectares":1040.0988,"memberVillagesDrawn":["557918"],"memberVillagesNotDrawn":[]},"geometry":{"type":"MultiPolygon","coordinates":[[[[75.37738,19.29243],[75.37767,19.29247],[75.38142,19.28594],[75.38223,19.28601],[75.38372,19.28503],[75.38576,19.27858],[75.38713,19.27548],[75.3864,19.27307],[75.38378,19.27324],[75.38148,19.27164],[75.38066,19.26968],[75.37867,19.26951],[75.37008,19.26335],[75.366,19.25643],[75.3658,19.25473],[75.36432,19.25324],[75.36192,19.25154],[75.35942,19.25432],[75.35565,19.25735],[75.35364,19.25843],[75.35048,19.25865],[75.34861,19.25958],[75.34812,19.25954],[75.34569,19.26627],[75.34461,19.26807],[75.34498,19.27631],[75.34599,19.27636],[75.34951,19.27854],[75.35166,19.28123],[75.3527,19.2813],[75.36055,19.28012],[75.36096,19.28171],[75.36181,19.28309],[75.3694,19.28505],[75.37109,19.2852],[75.37443,19.28869],[75.37504,19.29001],[75.37738,19.29243]]]]}},{"type":"Feature","properties":{"lgdCode":"168707","name":"Sonesangavi","blockCode":"4207","blockName":"Shevgaon","areaHectares":862.93,"memberVillagesDrawn":["557866"],"memberVillagesNotDrawn":[]},"geometry":{"type":"MultiPolygon","coordinates":[[[[75.35141,19.36156],[75.35032,19.35623],[75.34991,19.34949],[75.35117,19.34546],[75.35041,19.3442],[75.34915,19.34341],[75.34839,19.34355],[75.34749,19.34284],[75.34724,19.34191],[75.34617,19.3413],[75.34601,19.34009],[75.34489,19.33935],[75.3431,19.33595],[75.34255,19.33591],[75.34203,19.33526],[75.34162,19.33377],[75.33975,19.33174],[75.33928,19.33007],[75.33797,19.32746],[75.33645,19.32853],[75.33053,19.33059],[75.32866,19.33234],[75.32791,19.33417],[75.32643,19.33381],[75.32239,19.33359],[75.32236,19.33495],[75.32316,19.33888],[75.32492,19.34295],[75.32586,19.34675],[75.32696,19.35567],[75.3301,19.36431],[75.33224,19.36386],[75.33866,19.36391],[75.33905,19.3654],[75.34208,19.36508],[75.34459,19.36527],[75.35141,19.36156]]]]}},{"type":"Feature","properties":{"lgdCode":"168709","name":"Sukali","blockCode":"4207","blockName":"Shevgaon","areaHectares":646.1253,"memberVillagesDrawn":["557907"],"memberVillagesNotDrawn":[]},"geometry":{"type":"MultiPolygon","coordinates":[[[[75.52255,19.31442],[75.52535,19.31188],[75.52458,19.30958],[75.52127,19.31124],[75.52211,19.31472],[75.52255,19.31442]]],[[[75.52743,19.29836],[75.5267,19.29839],[75.5264,19.29787],[75.52572,19.29817],[75.52381,19.29258],[75.52298,19.28824],[75.52145,19.28473],[75.51311,19.28722],[75.50225,19.28985],[75.49646,19.29181],[75.49846,19.29743],[75.49956,19.30647],[75.50179,19.30665],[75.50203,19.30768],[75.50603,19.30745],[75.511,19.30819],[75.51191,19.30803],[75.51193,19.30702],[75.51707,19.30607],[75.51821,19.30911],[75.52075,19.30844],[75.52092,19.30739],[75.53125,19.30569],[75.53039,19.30344],[75.52954,19.3036],[75.52791,19.30028],[75.52753,19.30017],[75.52743,19.29836]]]]}},{"type":"Feature","properties":{"lgdCode":"168710","name":"Sultanpur Budruk","blockCode":"4207","blockName":"Shevgaon","areaHectares":355.7272,"memberVillagesDrawn":["557847"],"memberVillagesNotDrawn":[]},"geometry":{"type":"MultiPolygon","coordinates":[[[[75.14711,19.48875],[75.1628,19.48643],[75.16072,19.48127],[75.1564,19.47362],[75.15561,19.47117],[75.15472,19.47098],[75.15451,19.47024],[75.15494,19.46956],[75.15247,19.46483],[75.14895,19.46549],[75.14225,19.46607],[75.14271,19.46994],[75.14711,19.48875]]]]}},{"type":"Feature","properties":{"lgdCode":"168711","name":"Sultanpur Khurd","blockCode":"4207","blockName":"Shevgaon","areaHectares":352.3857,"memberVillagesDrawn":["557878"],"memberVillagesNotDrawn":[]},"geometry":{"type":"MultiPolygon","coordinates":[[[[75.18421,19.31428],[75.18031,19.29567],[75.17933,19.2948],[75.17753,19.29503],[75.17674,19.28927],[75.16682,19.28965],[75.16889,19.29834],[75.16917,19.29914],[75.16966,19.29902],[75.16984,19.29959],[75.1701,19.30192],[75.16967,19.3097],[75.16631,19.31028],[75.16653,19.31163],[75.16611,19.31367],[75.17291,19.31355],[75.18421,19.31428]]]]}},{"type":"Feature","properties":{"lgdCode":"168712","name":"Tajanapur","blockCode":"4207","blockName":"Shevgaon","areaHectares":565.0721,"memberVillagesDrawn":["557860"],"memberVillagesNotDrawn":[]},"geometry":{"type":"MultiPolygon","coordinates":[[[[75.21037,19.42802],[75.2199,19.42478],[75.226,19.42335],[75.22845,19.42323],[75.2374,19.41564],[75.24145,19.4133],[75.24134,19.41185],[75.23356,19.41232],[75.22738,19.41213],[75.22068,19.41058],[75.21249,19.40974],[75.2038,19.40962],[75.19763,19.41016],[75.19609,19.41381],[75.19596,19.41477],[75.19673,19.41676],[75.19775,19.41779],[75.20208,19.41951],[75.20389,19.42062],[75.20657,19.42119],[75.20707,19.42166],[75.20746,19.42311],[75.20823,19.4235],[75.20906,19.42459],[75.21037,19.42802]]]]}},{"type":"Feature","properties":{"lgdCode":"168713","name":"Talni","blockCode":"4207","blockName":"Shevgaon","areaHectares":766.0094,"memberVillagesDrawn":["557857"],"memberVillagesNotDrawn":[]},"geometry":{"type":"MultiPolygon","coordinates":[[[[75.26067,19.40748],[75.26132,19.40743],[75.26133,19.4042],[75.2641,19.39823],[75.26795,19.38646],[75.27094,19.37965],[75.27266,19.37706],[75.27247,19.37329],[75.27197,19.37239],[75.26941,19.3727],[75.26698,19.37044],[75.26409,19.36841],[75.25917,19.37505],[75.25803,19.37801],[75.25604,19.37889],[75.25444,19.38017],[75.25411,19.38144],[75.25478,19.38274],[75.2548,19.38506],[75.24571,19.38725],[75.24466,19.38764],[75.24134,19.39004],[75.24249,19.39229],[75.24436,19.39832],[75.24601,19.40214],[75.24858,19.41124],[75.25146,19.40987],[75.25604,19.40892],[75.26067,19.40748]]]]}},{"type":"Feature","properties":{"lgdCode":"168714","name":"Thakur Nimgaon","blockCode":"4207","blockName":"Shevgaon","areaHectares":995.7617,"memberVillagesDrawn":["557872"],"memberVillagesNotDrawn":[]},"geometry":{"type":"MultiPolygon","coordinates":[[[[75.32288,19.33775],[75.32239,19.33359],[75.32082,19.33331],[75.31843,19.33092],[75.31733,19.32599],[75.31669,19.32448],[75.31569,19.32298],[75.31122,19.31846],[75.30795,19.31449],[75.30615,19.31084],[75.29676,19.31083],[75.29693,19.31186],[75.29453,19.31209],[75.29569,19.31476],[75.29338,19.31536],[75.29156,19.31627],[75.29032,19.31744],[75.2891,19.32083],[75.29089,19.32705],[75.29082,19.33047],[75.29554,19.34278],[75.29591,19.3509],[75.30872,19.34948],[75.31327,19.348],[75.31483,19.3391],[75.31556,19.33666],[75.31751,19.33666],[75.32288,19.33775]]]]}},{"type":"Feature","properties":{"lgdCode":"168715","name":"Thakur Pimpalgaon","blockCode":"4207","blockName":"Shevgaon","areaHectares":503.9016,"memberVillagesDrawn":["557901"],"memberVillagesNotDrawn":[]},"geometry":{"type":"MultiPolygon","coordinates":[[[[75.40851,19.35369],[75.41322,19.35172],[75.40901,19.33843],[75.41717,19.33493],[75.41661,19.33123],[75.40887,19.33223],[75.39895,19.33278],[75.39198,19.33361],[75.3898,19.3321],[75.38806,19.33306],[75.38823,19.33465],[75.38976,19.3387],[75.39373,19.35238],[75.39823,19.35242],[75.40347,19.35188],[75.40534,19.35335],[75.4078,19.35339],[75.40851,19.35369]]]]}},{"type":"Feature","properties":{"lgdCode":"168716","name":"Thate","blockCode":"4207","blockName":"Shevgaon","areaHectares":614.2068,"memberVillagesDrawn":["557886"],"memberVillagesNotDrawn":[]},"geometry":{"type":"MultiPolygon","coordinates":[[[[75.3346,19.2883],[75.3349,19.28718],[75.33961,19.2873],[75.34684,19.28689],[75.34523,19.27878],[75.34458,19.27154],[75.34461,19.26807],[75.34336,19.26791],[75.34044,19.26932],[75.33784,19.26989],[75.32935,19.27064],[75.31735,19.27076],[75.31699,19.27688],[75.31847,19.29206],[75.32678,19.28989],[75.3346,19.2883]]]]}},{"type":"Feature","properties":{"lgdCode":"168717","name":"Vijapur","blockCode":"4207","blockName":"Shevgaon","areaHectares":1556.232,"memberVillagesDrawn":["557844"],"memberVillagesNotDrawn":[]},"geometry":{"type":"MultiPolygon","coordinates":[[[[75.24466,19.53316],[75.24952,19.52893],[75.25709,19.52324],[75.25837,19.52327],[75.25962,19.52253],[75.2663,19.51686],[75.2706,19.51547],[75.27895,19.51502],[75.28629,19.51265],[75.28506,19.50899],[75.28294,19.49902],[75.28237,19.49846],[75.28186,19.49879],[75.28123,19.49785],[75.28108,19.49822],[75.28006,19.49878],[75.26837,19.50298],[75.26766,19.50401],[75.26584,19.50355],[75.25819,19.50449],[75.25529,19.50425],[75.25209,19.50455],[75.25205,19.50499],[75.2466,19.50674],[75.24511,19.50759],[75.24191,19.5102],[75.24217,19.51317],[75.2376,19.51441],[75.24052,19.52403],[75.24235,19.52869],[75.24466,19.53316]]],[[[75.28035,19.54514],[75.28061,19.54558],[75.281,19.54525],[75.28066,19.53757],[75.27709,19.52794],[75.27474,19.52337],[75.27354,19.51555],[75.27388,19.51527],[75.2706,19.51547],[75.2663,19.51686],[75.26238,19.52031],[75.25837,19.52327],[75.25918,19.52369],[75.25974,19.52449],[75.26058,19.52892],[75.26426,19.5413],[75.26574,19.5481],[75.26784,19.55459],[75.27444,19.55434],[75.27763,19.54821],[75.28035,19.54514]]]]}},{"type":"Feature","properties":{"lgdCode":"168718","name":"Wadgaon","blockCode":"4207","blockName":"Shevgaon","areaHectares":182.9897,"memberVillagesDrawn":["557883"],"memberVillagesNotDrawn":[]},"geometry":{"type":"MultiPolygon","coordinates":[[[[75.29453,19.31209],[75.29693,19.31186],[75.29586,19.30213],[75.29641,19.30204],[75.29596,19.29882],[75.29597,19.29172],[75.29543,19.28818],[75.29032,19.28943],[75.29209,19.29585],[75.28318,19.29893],[75.29453,19.31209]]]]}},{"type":"Feature","properties":{"lgdCode":"168719","name":"Wadule Budruk","blockCode":"4207","blockName":"Shevgaon","areaHectares":1336.5715,"memberVillagesDrawn":["557836"],"memberVillagesNotDrawn":[]},"geometry":{"type":"MultiPolygon","coordinates":[[[[75.18486,19.36999],[75.18324,19.36737],[75.18305,19.3663],[75.18338,19.36504],[75.1839,19.36452],[75.18747,19.36299],[75.18896,19.36189],[75.18946,19.36058],[75.18911,19.35988],[75.18739,19.35861],[75.18668,19.35652],[75.18667,19.35504],[75.18861,19.34842],[75.18846,19.34631],[75.18758,19.34281],[75.18774,19.34171],[75.18968,19.33858],[75.18884,19.33812],[75.18891,19.33474],[75.18933,19.33236],[75.18534,19.32098],[75.18437,19.31456],[75.18421,19.31428],[75.17475,19.31362],[75.16611,19.31367],[75.16653,19.31163],[75.16627,19.31066],[75.16422,19.31094],[75.16456,19.31559],[75.16259,19.31595],[75.16383,19.32366],[75.16564,19.33137],[75.1692,19.35001],[75.16501,19.35129],[75.16624,19.35326],[75.16686,19.35563],[75.16872,19.35728],[75.16872,19.35873],[75.16939,19.36032],[75.17163,19.36237],[75.17253,19.36395],[75.17101,19.36714],[75.17064,19.36898],[75.17123,19.36968],[75.17659,19.37064],[75.17962,19.37242],[75.18486,19.36999]]]]}},{"type":"Feature","properties":{"lgdCode":"168720","name":"Wadule Khurd","blockCode":"4207","blockName":"Shevgaon","areaHectares":1274.2936,"memberVillagesDrawn":["557829"],"memberVillagesNotDrawn":[]},"geometry":{"type":"MultiPolygon","coordinates":[[[[75.07657,19.29805],[75.07972,19.29679],[75.08704,19.29502],[75.09478,19.29241],[75.09885,19.2907],[75.11002,19.28796],[75.11168,19.28303],[75.11205,19.27641],[75.11113,19.26864],[75.11028,19.26497],[75.10884,19.26079],[75.10897,19.25979],[75.10835,19.25713],[75.09639,19.26054],[75.09745,19.26647],[75.09737,19.26755],[75.09653,19.26925],[75.09532,19.27019],[75.09347,19.27032],[75.09098,19.27002],[75.08697,19.27055],[75.08299,19.27051],[75.07658,19.27156],[75.07475,19.27226],[75.07481,19.27185],[75.0703,19.27238],[75.07153,19.27438],[75.07147,19.27509],[75.07087,19.27619],[75.0695,19.2773],[75.06862,19.27927],[75.0677,19.27931],[75.06582,19.27853],[75.0647,19.27858],[75.06411,19.27919],[75.06388,19.27994],[75.06418,19.28065],[75.06932,19.28449],[75.07024,19.28709],[75.0703,19.2896],[75.07076,19.29099],[75.07146,19.2921],[75.07245,19.2928],[75.07534,19.29715],[75.07657,19.29805]]]]}},{"type":"Feature","properties":{"lgdCode":"168721","name":"Wagholi","blockCode":"4207","blockName":"Shevgaon","areaHectares":1445.6863,"memberVillagesDrawn":["557828"],"memberVillagesNotDrawn":[]},"geometry":{"type":"MultiPolygon","coordinates":[[[[75.07658,19.30304],[75.07805,19.3021],[75.07837,19.29957],[75.07799,19.29879],[75.07534,19.29715],[75.07245,19.2928],[75.07146,19.2921],[75.07076,19.29099],[75.0703,19.2896],[75.07024,19.28709],[75.06932,19.28449],[75.06539,19.28172],[75.06418,19.28065],[75.06388,19.27994],[75.0647,19.27858],[75.06582,19.27853],[75.0677,19.27931],[75.06862,19.27927],[75.0695,19.2773],[75.07087,19.27619],[75.07147,19.27509],[75.07153,19.27438],[75.07017,19.27216],[75.07081,19.27148],[75.07017,19.27101],[75.06214,19.27118],[75.06149,19.26766],[75.06138,19.26258],[75.06085,19.26061],[75.05912,19.26047],[75.05184,19.26098],[75.04693,19.26043],[75.04013,19.2603],[75.03902,19.26051],[75.0343,19.26254],[75.02825,19.2656],[75.02819,19.26639],[75.02979,19.26854],[75.03038,19.27041],[75.03116,19.27136],[75.03197,19.27179],[75.03333,19.27163],[75.03485,19.27395],[75.03859,19.27579],[75.03904,19.27654],[75.03946,19.28452],[75.03828,19.28721],[75.03905,19.28852],[75.03949,19.28872],[75.04276,19.28816],[75.0434,19.28869],[75.04348,19.28943],[75.04296,19.29111],[75.04097,19.29197],[75.0403,19.29308],[75.04158,19.29555],[75.04342,19.29815],[75.04351,19.29921],[75.04975,19.2991],[75.06484,19.30096],[75.07658,19.30304]]]]}},{"type":"Feature","properties":{"lgdCode":"168722","name":"Warkhed","blockCode":"4207","blockName":"Shevgaon","areaHectares":637.9507,"memberVillagesDrawn":["557867"],"memberVillagesNotDrawn":[]},"geometry":{"type":"MultiPolygon","coordinates":[[[[75.35773,19.32196],[75.35543,19.32021],[75.35458,19.31808],[75.35481,19.31727],[75.35461,19.3168],[75.35265,19.31515],[75.35227,19.31444],[75.34954,19.31511],[75.34294,19.31592],[75.34558,19.3226],[75.33797,19.32746],[75.33928,19.33007],[75.33975,19.33174],[75.34162,19.33377],[75.34203,19.33526],[75.34255,19.33591],[75.3431,19.33595],[75.34489,19.33935],[75.34601,19.34009],[75.34617,19.3413],[75.34724,19.34191],[75.34749,19.34284],[75.34839,19.34355],[75.34915,19.34341],[75.35041,19.3442],[75.35117,19.34546],[75.35487,19.34683],[75.3584,19.34894],[75.35964,19.34921],[75.35976,19.34973],[75.36088,19.35086],[75.36138,19.35095],[75.36171,19.34919],[75.36074,19.34725],[75.36056,19.34469],[75.36169,19.34336],[75.36345,19.3421],[75.36511,19.33903],[75.36523,19.33675],[75.36286,19.33437],[75.36277,19.33336],[75.36311,19.3324],[75.3628,19.32981],[75.36129,19.32784],[75.36078,19.32612],[75.35921,19.32368],[75.35773,19.32196]]]]}},{"type":"Feature","properties":{"lgdCode":"168723","name":"Warur Budruk","blockCode":"4207","blockName":"Shevgaon","areaHectares":355.2821,"memberVillagesDrawn":["557875"],"memberVillagesNotDrawn":[]},"geometry":{"type":"MultiPolygon","coordinates":[[[[75.24058,19.32356],[75.24071,19.32044],[75.24154,19.31645],[75.24389,19.30928],[75.24277,19.30887],[75.24011,19.29961],[75.23564,19.30112],[75.23503,19.30192],[75.23277,19.30299],[75.23207,19.30358],[75.22987,19.30682],[75.22894,19.30745],[75.2253,19.30845],[75.2257,19.31216],[75.22913,19.32366],[75.23284,19.32332],[75.23653,19.32369],[75.24058,19.32356]]]]}},{"type":"Feature","properties":{"lgdCode":"236632","name":"Nimbendndur","blockCode":"4207","blockName":"Shevgaon","areaHectares":683.1168,"memberVillagesDrawn":["557826"],"memberVillagesNotDrawn":[]},"geometry":{"type":"MultiPolygon","coordinates":[[[[75.06534,19.34534],[75.06771,19.34508],[75.06968,19.34526],[75.071,19.33984],[75.07167,19.33371],[75.07362,19.32302],[75.07451,19.31609],[75.07177,19.31552],[75.06987,19.31567],[75.06704,19.31452],[75.06552,19.31446],[75.06438,19.31489],[75.06321,19.31645],[75.06133,19.31647],[75.05556,19.31267],[75.0514,19.31223],[75.05004,19.31053],[75.04973,19.31084],[75.04727,19.31998],[75.04679,19.32394],[75.04923,19.32497],[75.05061,19.32607],[75.05356,19.33197],[75.05631,19.33474],[75.06131,19.34209],[75.06328,19.3444],[75.06453,19.3452],[75.06534,19.34534]]]]}},{"type":"Feature","properties":{"lgdCode":"276638","name":"Lakhefal","blockCode":"4207","blockName":"Shevgaon","areaHectares":1837.6438,"memberVillagesDrawn":["557845"],"memberVillagesNotDrawn":[]},"geometry":{"type":"MultiPolygon","coordinates":[[[[75.28629,19.51265],[75.29368,19.51191],[75.3016,19.51216],[75.30131,19.50309],[75.30929,19.50048],[75.30873,19.49844],[75.31203,19.49573],[75.31371,19.49713],[75.31508,19.49652],[75.31523,19.49124],[75.3157,19.48826],[75.31531,19.47975],[75.31334,19.4722],[75.31141,19.46245],[75.30353,19.4615],[75.29164,19.46121],[75.27719,19.4618],[75.27607,19.46275],[75.27704,19.46807],[75.27871,19.48514],[75.27825,19.49075],[75.27884,19.49104],[75.28018,19.49279],[75.28089,19.49583],[75.28068,19.49646],[75.28102,19.49797],[75.28123,19.49785],[75.28186,19.49879],[75.28237,19.49846],[75.28294,19.49902],[75.28506,19.50899],[75.28629,19.51265]]]]}}],"ext":{"atlas":{"schemaVersion":1,"planId":"mh-ahilyanagar-v1","blockCode":"4207","blockName":"Shevgaon","acquiredAt":"2026-09-02","sourceSha256":"244b872927b2d5fd2e8817c98c3e375b43d387cfe209f7a23d86a10f46469775","featureCount":80,"rights":{"status":"share-alike","license":"ODbL 1.0","attribution":"DataMeet, indian_village_boundaries (github.com/datameet/indian_village_boundaries), ODbL 1.0"}}}}
