{"nvdm":"1.0","dataset":"atlas/boundaries","scope":{"kind":"district","id":"mh-ahilyanagar"},"provenance":{"sources":[{"id":"datameet-village-boundaries-mh","title":"DataMeet indian_village_boundaries, Maharashtra (mh2.geojson with the mh.csv 2001-to-2011 crosswalk)","publisher":"DataMeet community","license":"ODbL 1.0","role":"input","url":"https://github.com/datameet/indian_village_boundaries","as_of":"2001","retrieved":"2026-09-02"}],"method":"derived","produced_at":"2026-09-02","produced_by":"scripts/atlas-boundaries-lgd-district.ts","internal_inputs":["public/data/atlas/mh/ahilyanagar/directory.json"],"note":"Gram Panchayat polygons for 46 Panchayats in Jamkhed taluka: each is the MultiPolygon of its LGD-listed member villages as DataMeet drew them from the 2001 Census village map, joined to the 2011 codes through DataMeet's own crosswalk, simplified to about 20 m (source polygons kept where simplification moved the area by more than a percent). Member villages the source did not draw are named on the feature. Indicative, not survey grade.","conventions":{"license":"ODbL 1.0; DataMeet, indian_village_boundaries (github.com/datameet/indian_village_boundaries), ODbL 1.0. Derived polygons are share-alike under the same licence.","geometry":"MultiPolygon of member villages, never dissolved, so the source parts stay auditable","vintage":"the 2001 Census village map; boundaries changed since are not reflected"}},"type":"FeatureCollection","features":[{"type":"Feature","properties":{"lgdCode":"167702","name":"Aghee","blockCode":"4214","blockName":"Jamkhed","areaHectares":993.026,"memberVillagesDrawn":["558671"],"memberVillagesNotDrawn":[]},"geometry":{"type":"MultiPolygon","coordinates":[[[[75.20718,18.58259],[75.21531,18.57931],[75.2285,18.57636],[75.23238,18.5761],[75.23227,18.57278],[75.23313,18.5597],[75.23351,18.55752],[75.23248,18.55136],[75.2294,18.54284],[75.2293,18.54123],[75.22888,18.54078],[75.22272,18.54423],[75.22101,18.54842],[75.21955,18.5505],[75.21533,18.55341],[75.21347,18.55393],[75.21266,18.55366],[75.2049,18.55341],[75.20294,18.55429],[75.20463,18.57473],[75.20554,18.57903],[75.20633,18.58133],[75.20698,18.58268],[75.20718,18.58259]]]]}},{"type":"Feature","properties":{"lgdCode":"167703","name":"Anandwadi","blockCode":"4214","blockName":"Jamkhed","areaHectares":351.764,"memberVillagesDrawn":["558687"],"memberVillagesNotDrawn":[]},"geometry":{"type":"MultiPolygon","coordinates":[[[[75.40109,18.66924],[75.40835,18.66969],[75.40942,18.67005],[75.41137,18.66949],[75.41134,18.66908],[75.41554,18.66894],[75.42212,18.67061],[75.42698,18.66973],[75.42573,18.66584],[75.42638,18.66274],[75.42636,18.65711],[75.4202,18.65602],[75.42065,18.65545],[75.41569,18.65636],[75.41101,18.65853],[75.41009,18.65656],[75.40737,18.65865],[75.40504,18.66149],[75.404,18.66009],[75.40242,18.6618],[75.39962,18.66277],[75.40083,18.66658],[75.40109,18.66924]]]]}},{"type":"Feature","properties":{"lgdCode":"167704","name":"Apti","blockCode":"4214","blockName":"Jamkhed","areaHectares":762.5354,"memberVillagesDrawn":["558697"],"memberVillagesNotDrawn":[]},"geometry":{"type":"MultiPolygon","coordinates":[[[[75.37554,18.63741],[75.38111,18.63705],[75.38845,18.63782],[75.39331,18.63794],[75.39691,18.6376],[75.40009,18.63643],[75.4046,18.63631],[75.40435,18.6303],[75.40535,18.62992],[75.40446,18.62237],[75.40359,18.62259],[75.40152,18.61396],[75.39938,18.61378],[75.39225,18.6142],[75.37419,18.61641],[75.37423,18.61834],[75.3753,18.62104],[75.3758,18.62434],[75.3748,18.62832],[75.37554,18.63741]]]]}},{"type":"Feature","properties":{"lgdCode":"167705","name":"Arangaon","blockCode":"4214","blockName":"Jamkhed","areaHectares":435.3713,"memberVillagesDrawn":["558652"],"memberVillagesNotDrawn":[]},"geometry":{"type":"MultiPolygon","coordinates":[[[[75.17448,18.70641],[75.17478,18.70614],[75.18359,18.70615],[75.19065,18.70532],[75.19023,18.70025],[75.18551,18.70052],[75.18546,18.69922],[75.18431,18.69918],[75.18394,18.69499],[75.18874,18.69444],[75.18864,18.6934],[75.18475,18.69288],[75.18425,18.6918],[75.18443,18.68951],[75.18354,18.68429],[75.18185,18.68458],[75.18285,18.68864],[75.18057,18.68733],[75.17917,18.68735],[75.17871,18.68609],[75.17462,18.68665],[75.16869,18.69016],[75.16336,18.69208],[75.1642,18.6936],[75.16371,18.69584],[75.16568,18.69897],[75.16863,18.70258],[75.17233,18.7064],[75.17448,18.70641]]]]}},{"type":"Feature","properties":{"lgdCode":"167708","name":"Bavi","blockCode":"4214","blockName":"Jamkhed","areaHectares":1085.9292,"memberVillagesDrawn":["558668"],"memberVillagesNotDrawn":[]},"geometry":{"type":"MultiPolygon","coordinates":[[[[75.25873,18.64048],[75.26197,18.6397],[75.26526,18.63944],[75.26718,18.63822],[75.27062,18.63751],[75.28009,18.63428],[75.28145,18.63155],[75.28107,18.62702],[75.2805,18.62443],[75.27995,18.62282],[75.27554,18.61689],[75.27372,18.61353],[75.27106,18.61548],[75.26764,18.61611],[75.26072,18.61826],[75.25423,18.61656],[75.2523,18.61551],[75.24912,18.61315],[75.24902,18.61279],[75.23969,18.61491],[75.23548,18.61553],[75.23607,18.62541],[75.23474,18.63138],[75.24095,18.63322],[75.24246,18.6334],[75.25261,18.63817],[75.25515,18.63869],[75.25873,18.64048]]]]}},{"type":"Feature","properties":{"lgdCode":"167709","name":"Borale","blockCode":"4214","blockName":"Jamkhed","areaHectares":381.9466,"memberVillagesDrawn":["558711"],"memberVillagesNotDrawn":[]},"geometry":{"type":"MultiPolygon","coordinates":[[[[75.30752,18.56955],[75.30739,18.55881],[75.30769,18.55712],[75.29852,18.55974],[75.29368,18.56062],[75.29417,18.56181],[75.29024,18.5658],[75.28828,18.57157],[75.28725,18.57301],[75.28424,18.58251],[75.28601,18.58273],[75.28972,18.58184],[75.29475,18.57831],[75.30257,18.574],[75.3057,18.57165],[75.30752,18.57079],[75.30752,18.56955]]]]}},{"type":"Feature","properties":{"lgdCode":"167710","name":"Chobhewadi","blockCode":"4214","blockName":"Jamkhed","areaHectares":771.5738,"memberVillagesDrawn":["558712"],"memberVillagesNotDrawn":[]},"geometry":{"type":"MultiPolygon","coordinates":[[[[75.33637,18.55986],[75.33722,18.55848],[75.3373,18.55458],[75.33943,18.55407],[75.33893,18.55016],[75.33824,18.54771],[75.33543,18.54435],[75.33319,18.54253],[75.33258,18.54245],[75.33265,18.54181],[75.3319,18.54123],[75.32972,18.5378],[75.33013,18.5307],[75.32895,18.53485],[75.32785,18.53683],[75.32547,18.54],[75.3221,18.54187],[75.31707,18.54598],[75.30892,18.55489],[75.30769,18.55712],[75.30739,18.55881],[75.30752,18.56955],[75.31734,18.56921],[75.31737,18.56791],[75.32882,18.56562],[75.33136,18.56536],[75.33171,18.5606],[75.33637,18.55986]]]]}},{"type":"Feature","properties":{"lgdCode":"167711","name":"Chaundhi","blockCode":"4214","blockName":"Jamkhed","areaHectares":1549.4998,"memberVillagesDrawn":["558670"],"memberVillagesNotDrawn":[]},"geometry":{"type":"MultiPolygon","coordinates":[[[[75.20809,18.60301],[75.2123,18.60188],[75.21223,18.59933],[75.21088,18.59396],[75.20903,18.58989],[75.2077,18.58417],[75.20718,18.58259],[75.20698,18.58268],[75.20633,18.58133],[75.2053,18.57819],[75.2042,18.57082],[75.20294,18.55429],[75.20089,18.55548],[75.19794,18.55644],[75.19402,18.55839],[75.19148,18.56035],[75.19012,18.5633],[75.1893,18.56609],[75.18725,18.56922],[75.18123,18.57329],[75.17885,18.57532],[75.16866,18.58034],[75.16776,18.58137],[75.16778,18.58339],[75.16886,18.58619],[75.17255,18.58981],[75.17545,18.59215],[75.177,18.59396],[75.17735,18.59569],[75.17681,18.59703],[75.17555,18.59797],[75.17325,18.59794],[75.17195,18.59871],[75.17145,18.60009],[75.17144,18.60162],[75.17259,18.60333],[75.17682,18.60603],[75.1775,18.60539],[75.17878,18.60493],[75.18782,18.60338],[75.19955,18.60234],[75.20523,18.60246],[75.20809,18.60301]]]]}},{"type":"Feature","properties":{"lgdCode":"167714","name":"Dhanegaon","blockCode":"4214","blockName":"Jamkhed","areaHectares":1290.6236,"memberVillagesDrawn":["558716"],"memberVillagesNotDrawn":[]},"geometry":{"type":"MultiPolygon","coordinates":[[[[75.39344,18.5676],[75.39505,18.56735],[75.3972,18.56639],[75.40225,18.56277],[75.40435,18.5603],[75.40794,18.55846],[75.41249,18.55719],[75.41986,18.55753],[75.42288,18.55801],[75.42383,18.55786],[75.42711,18.5564],[75.43557,18.55359],[75.43492,18.55239],[75.43454,18.55222],[75.43408,18.55094],[75.43183,18.55032],[75.43034,18.54917],[75.42646,18.54493],[75.42246,18.53982],[75.4186,18.53417],[75.41503,18.53045],[75.41286,18.53025],[75.41229,18.53074],[75.41026,18.53104],[75.40444,18.53653],[75.40213,18.53803],[75.39977,18.54083],[75.39873,18.54119],[75.39692,18.54248],[75.39335,18.54413],[75.39171,18.54438],[75.38536,18.54658],[75.38219,18.54729],[75.38142,18.54797],[75.37875,18.54867],[75.37747,18.54937],[75.37755,18.55126],[75.37805,18.55292],[75.3794,18.55583],[75.38059,18.55759],[75.3812,18.56169],[75.38513,18.56716],[75.38889,18.56699],[75.39136,18.56758],[75.39344,18.5676]]]]}},{"type":"Feature","properties":{"lgdCode":"167715","name":"Dhanora Group","blockCode":"4214","blockName":"Jamkhed","areaHectares":518.8371,"memberVillagesDrawn":["558663"],"memberVillagesNotDrawn":[]},"geometry":{"type":"MultiPolygon","coordinates":[[[[75.21293,18.67702],[75.21675,18.67606],[75.22933,18.67161],[75.23771,18.66964],[75.23988,18.6695],[75.24041,18.66641],[75.23999,18.66493],[75.23797,18.6637],[75.23611,18.66348],[75.23398,18.66188],[75.23149,18.6619],[75.23093,18.66125],[75.2306,18.65951],[75.23083,18.65755],[75.23006,18.65462],[75.23227,18.65229],[75.23184,18.65227],[75.22959,18.65383],[75.22465,18.65491],[75.22472,18.65549],[75.21979,18.65673],[75.21958,18.6556],[75.21709,18.65646],[75.21729,18.65754],[75.21601,18.6583],[75.21315,18.65953],[75.20751,18.66108],[75.20981,18.66893],[75.21293,18.67702]]]]}},{"type":"Feature","properties":{"lgdCode":"167716","name":"Dhond Pargaon","blockCode":"4214","blockName":"Jamkhed","areaHectares":726.7781,"memberVillagesDrawn":["558659"],"memberVillagesNotDrawn":[]},"geometry":{"type":"MultiPolygon","coordinates":[[[[75.31943,18.64642],[75.31866,18.64053],[75.32043,18.63012],[75.32029,18.62502],[75.31968,18.62219],[75.31777,18.62001],[75.3089,18.61924],[75.30924,18.62013],[75.30547,18.6207],[75.30531,18.62185],[75.30484,18.62216],[75.30354,18.62466],[75.30266,18.62538],[75.30217,18.62705],[75.30163,18.62752],[75.29902,18.62827],[75.29619,18.62842],[75.29613,18.62871],[75.2947,18.62896],[75.29185,18.6304],[75.28944,18.63068],[75.28755,18.63201],[75.28582,18.63206],[75.2856,18.63619],[75.28624,18.64207],[75.2927,18.64154],[75.30068,18.64162],[75.30678,18.64343],[75.31158,18.64544],[75.312,18.64517],[75.31469,18.64642],[75.31692,18.64664],[75.31943,18.64642]]]]}},{"type":"Feature","properties":{"lgdCode":"167717","name":"Dighol Group","blockCode":"4214","blockName":"Jamkhed","areaHectares":526.9482,"memberVillagesDrawn":["558680"],"memberVillagesNotDrawn":[]},"geometry":{"type":"MultiPolygon","coordinates":[[[[75.52462,18.75101],[75.52472,18.75185],[75.52534,18.75254],[75.5317,18.7499],[75.53532,18.74776],[75.54192,18.74499],[75.54419,18.74358],[75.54685,18.7413],[75.55577,18.73644],[75.55346,18.72995],[75.55248,18.72605],[75.5495,18.72641],[75.54854,18.72608],[75.54835,18.72571],[75.54445,18.72589],[75.54604,18.72976],[75.54226,18.73027],[75.53551,18.72972],[75.53446,18.72924],[75.53077,18.73224],[75.527,18.73303],[75.52716,18.73602],[75.5266,18.74033],[75.52475,18.74869],[75.52462,18.75101]]]]}},{"type":"Feature","properties":{"lgdCode":"167718","name":"Dongaon","blockCode":"4214","blockName":"Jamkhed","areaHectares":1400.2634,"memberVillagesDrawn":["558632"],"memberVillagesNotDrawn":[]},"geometry":{"type":"MultiPolygon","coordinates":[[[[75.17161,18.73631],[75.17997,18.73716],[75.18417,18.73665],[75.19238,18.73641],[75.1968,18.73697],[75.20281,18.73856],[75.20619,18.73902],[75.21374,18.73744],[75.21301,18.73305],[75.21176,18.72838],[75.21168,18.72451],[75.21031,18.71513],[75.20926,18.71027],[75.20873,18.70295],[75.19907,18.7054],[75.19065,18.70532],[75.18359,18.70615],[75.17478,18.70614],[75.17448,18.70641],[75.17569,18.71407],[75.17501,18.71438],[75.17507,18.71565],[75.17417,18.71823],[75.1734,18.72191],[75.17314,18.72391],[75.17326,18.72732],[75.17234,18.73277],[75.17161,18.735],[75.17161,18.73631]]]]}},{"type":"Feature","properties":{"lgdCode":"167719","name":"Fakrabad","blockCode":"4214","blockName":"Jamkhed","areaHectares":983.5813,"memberVillagesDrawn":["558661"],"memberVillagesNotDrawn":[]},"geometry":{"type":"MultiPolygon","coordinates":[[[[75.25661,18.67154],[75.25413,18.66591],[75.25355,18.66245],[75.25332,18.66241],[75.25219,18.65585],[75.25207,18.65114],[75.25275,18.64956],[75.25337,18.64922],[75.25477,18.64654],[75.25873,18.64048],[75.25515,18.63869],[75.25261,18.63817],[75.24246,18.6334],[75.24095,18.63322],[75.23293,18.63077],[75.23033,18.6307],[75.22821,18.63385],[75.22463,18.63773],[75.22635,18.63974],[75.22745,18.64202],[75.22573,18.64261],[75.22546,18.6433],[75.22588,18.6446],[75.22772,18.64461],[75.22886,18.64403],[75.23096,18.64874],[75.23211,18.64946],[75.23248,18.65095],[75.23222,18.65257],[75.23006,18.65462],[75.23083,18.65755],[75.2306,18.65951],[75.23093,18.66125],[75.23149,18.6619],[75.23398,18.66188],[75.23611,18.66348],[75.23797,18.6637],[75.23999,18.66493],[75.24041,18.66641],[75.2396,18.67025],[75.24015,18.67075],[75.24882,18.67026],[75.25296,18.67114],[75.25661,18.67154]]]]}},{"type":"Feature","properties":{"lgdCode":"167720","name":"Ghodegaon","blockCode":"4214","blockName":"Jamkhed","areaHectares":1344.7016,"memberVillagesDrawn":["558698"],"memberVillagesNotDrawn":[]},"geometry":{"type":"MultiPolygon","coordinates":[[[[75.36252,18.66653],[75.36275,18.66378],[75.3642,18.65837],[75.3682,18.64759],[75.36977,18.64243],[75.37366,18.63969],[75.37554,18.63741],[75.3748,18.62832],[75.3758,18.62434],[75.3753,18.62104],[75.37423,18.61834],[75.37419,18.61641],[75.37182,18.616],[75.36799,18.61636],[75.36343,18.61756],[75.36316,18.61806],[75.36172,18.61898],[75.36,18.61947],[75.35961,18.61846],[75.3535,18.61891],[75.35299,18.61848],[75.35178,18.61858],[75.35124,18.61993],[75.34702,18.62498],[75.34604,18.62668],[75.34477,18.62724],[75.34434,18.62894],[75.34113,18.634],[75.34088,18.63726],[75.33983,18.63776],[75.33758,18.64055],[75.3379,18.64215],[75.33736,18.64226],[75.33815,18.64391],[75.33989,18.64541],[75.34125,18.64704],[75.34171,18.64806],[75.344,18.64826],[75.34586,18.64962],[75.34856,18.65206],[75.35517,18.66178],[75.35685,18.66254],[75.36252,18.66653]]]]}},{"type":"Feature","properties":{"lgdCode":"167721","name":"Gurewadi","blockCode":"4214","blockName":"Jamkhed","areaHectares":778.3846,"memberVillagesDrawn":["558699"],"memberVillagesNotDrawn":[]},"geometry":{"type":"MultiPolygon","coordinates":[[[[75.31943,18.64642],[75.3238,18.64561],[75.32952,18.6453],[75.3366,18.64382],[75.33815,18.64391],[75.33736,18.64226],[75.3379,18.64215],[75.33758,18.64055],[75.33777,18.64006],[75.33859,18.63956],[75.33983,18.63776],[75.34088,18.63726],[75.34141,18.63336],[75.34434,18.62894],[75.34477,18.62724],[75.34604,18.62668],[75.34807,18.6238],[75.34464,18.62145],[75.34515,18.61904],[75.3408,18.61845],[75.335,18.61583],[75.33121,18.6131],[75.3279,18.61569],[75.32626,18.61616],[75.325,18.61642],[75.32313,18.61446],[75.32243,18.61504],[75.31814,18.62007],[75.31777,18.62001],[75.31968,18.62219],[75.32029,18.62502],[75.32043,18.63012],[75.31866,18.64053],[75.31943,18.64642]]]]}},{"type":"Feature","properties":{"lgdCode":"167722","name":"Halgaon","blockCode":"4214","blockName":"Jamkhed","areaHectares":2095.5319,"memberVillagesDrawn":["558669"],"memberVillagesNotDrawn":[]},"geometry":{"type":"MultiPolygon","coordinates":[[[[75.27383,18.61378],[75.27509,18.61344],[75.27727,18.61202],[75.27719,18.60566],[75.27639,18.60239],[75.27511,18.59923],[75.27497,18.59693],[75.26759,18.59786],[75.26472,18.59724],[75.26121,18.59247],[75.26019,18.5925],[75.25859,18.59185],[75.25471,18.58891],[75.25225,18.58874],[75.24673,18.58672],[75.2403,18.58089],[75.23615,18.5791],[75.23387,18.57772],[75.23238,18.5761],[75.2285,18.57636],[75.21531,18.57931],[75.20718,18.58259],[75.20903,18.58989],[75.2112,18.59504],[75.21223,18.59933],[75.2123,18.60188],[75.21354,18.60327],[75.21567,18.60353],[75.22248,18.60643],[75.22533,18.60796],[75.22898,18.60874],[75.22981,18.61314],[75.23274,18.61526],[75.23528,18.61554],[75.23801,18.61523],[75.24902,18.61279],[75.24912,18.61315],[75.2523,18.61551],[75.25423,18.61656],[75.26072,18.61826],[75.26764,18.61611],[75.27106,18.61548],[75.27259,18.61418],[75.27372,18.61353],[75.27383,18.61378]]]]}},{"type":"Feature","properties":{"lgdCode":"167725","name":"Jawala","blockCode":"4214","blockName":"Jamkhed","areaHectares":4328.6855,"memberVillagesDrawn":["558714"],"memberVillagesNotDrawn":[]},"geometry":{"type":"MultiPolygon","coordinates":[[[[75.275,18.59711],[75.27687,18.595],[75.28158,18.58743],[75.28424,18.58251],[75.28725,18.57301],[75.28828,18.57157],[75.29024,18.5658],[75.29417,18.56181],[75.29368,18.56062],[75.29852,18.55974],[75.30196,18.55876],[75.30167,18.55638],[75.30311,18.55596],[75.30299,18.55443],[75.30136,18.55304],[75.29542,18.55013],[75.29731,18.54752],[75.29913,18.54278],[75.30194,18.54254],[75.30131,18.54017],[75.29722,18.53345],[75.29755,18.53308],[75.29694,18.53022],[75.29441,18.52074],[75.29298,18.5202],[75.2908,18.52024],[75.28882,18.52068],[75.28408,18.51886],[75.28263,18.5187],[75.28075,18.51931],[75.27997,18.51585],[75.27182,18.51432],[75.26959,18.51272],[75.26806,18.51256],[75.26659,18.50825],[75.26345,18.50853],[75.25903,18.50828],[75.2588,18.50914],[75.25636,18.51219],[75.25306,18.51764],[75.24698,18.52359],[75.24349,18.52608],[75.24244,18.52884],[75.24094,18.53123],[75.24053,18.53367],[75.24145,18.53693],[75.24089,18.53849],[75.23929,18.54038],[75.23643,18.54166],[75.23315,18.54215],[75.23032,18.54059],[75.22888,18.54078],[75.2293,18.54123],[75.2294,18.54284],[75.23248,18.55136],[75.23529,18.55078],[75.23731,18.55078],[75.23818,18.55029],[75.24493,18.54974],[75.25081,18.54847],[75.25089,18.55224],[75.25136,18.55458],[75.25221,18.55435],[75.25567,18.56314],[75.25724,18.56249],[75.25546,18.56535],[75.25078,18.56998],[75.24626,18.57747],[75.24399,18.58005],[75.24165,18.58197],[75.24673,18.58672],[75.25225,18.58874],[75.25471,18.58891],[75.25859,18.59185],[75.26019,18.5925],[75.26121,18.59247],[75.26472,18.59724],[75.26759,18.59786],[75.275,18.59711]]]]}},{"type":"Feature","properties":{"lgdCode":"167726","name":"Javalke","blockCode":"4214","blockName":"Jamkhed","areaHectares":1449.4854,"memberVillagesDrawn":["558709"],"memberVillagesNotDrawn":[]},"geometry":{"type":"MultiPolygon","coordinates":[[[[75.35264,18.58689],[75.36185,18.58436],[75.36863,18.58397],[75.37921,18.58275],[75.38123,18.58276],[75.38866,18.58408],[75.39275,18.58432],[75.39313,18.58568],[75.39344,18.5676],[75.39136,18.56758],[75.38889,18.56699],[75.38513,18.56716],[75.3812,18.56169],[75.38059,18.55759],[75.3794,18.55583],[75.37805,18.55292],[75.37748,18.54994],[75.37664,18.54986],[75.37662,18.5502],[75.37549,18.55081],[75.37337,18.55162],[75.37108,18.55121],[75.36579,18.55108],[75.36598,18.5526],[75.36113,18.55349],[75.35519,18.55523],[75.35312,18.5572],[75.34993,18.55932],[75.34814,18.55999],[75.344,18.56082],[75.3444,18.56472],[75.346,18.56829],[75.34644,18.56839],[75.34692,18.56932],[75.34803,18.57386],[75.34803,18.57666],[75.34848,18.57959],[75.35171,18.5844],[75.35264,18.58689]]]]}},{"type":"Feature","properties":{"lgdCode":"167728","name":"Kaudgaon","blockCode":"4214","blockName":"Jamkhed","areaHectares":1199.58,"memberVillagesDrawn":["558664"],"memberVillagesNotDrawn":[]},"geometry":{"type":"MultiPolygon","coordinates":[[[[75.19522,18.65158],[75.19505,18.64666],[75.1922,18.6324],[75.19214,18.62508],[75.1914,18.61876],[75.18795,18.61854],[75.18653,18.61809],[75.1855,18.61733],[75.18499,18.61652],[75.18483,18.6133],[75.18402,18.61236],[75.18276,18.61187],[75.18297,18.61293],[75.18169,18.61527],[75.17948,18.61658],[75.17601,18.61672],[75.1731,18.61982],[75.17285,18.62384],[75.17212,18.6255],[75.172,18.62862],[75.17136,18.63157],[75.16827,18.63471],[75.1653,18.63606],[75.16032,18.63626],[75.15806,18.63665],[75.15694,18.63772],[75.15602,18.64191],[75.15697,18.64267],[75.15811,18.64307],[75.16104,18.65262],[75.16171,18.65591],[75.18169,18.65331],[75.18812,18.65203],[75.19522,18.65158]]]]}},{"type":"Feature","properties":{"lgdCode":"167729","name":"Khandavi Group","blockCode":"4214","blockName":"Jamkhed","areaHectares":491.9229,"memberVillagesDrawn":["558655"],"memberVillagesNotDrawn":[]},"geometry":{"type":"MultiPolygon","coordinates":[[[[75.25664,18.67152],[75.26034,18.66949],[75.26425,18.66464],[75.27884,18.66311],[75.28262,18.66187],[75.28686,18.6611],[75.28681,18.65764],[75.28714,18.655],[75.28371,18.65629],[75.27627,18.65632],[75.27375,18.65711],[75.27404,18.65854],[75.27248,18.65864],[75.27203,18.65721],[75.26798,18.65808],[75.26753,18.65751],[75.26715,18.65756],[75.26838,18.65481],[75.27092,18.65198],[75.26897,18.6516],[75.26893,18.6511],[75.2694,18.64991],[75.27069,18.64827],[75.26873,18.64732],[75.25942,18.64821],[75.25908,18.64899],[75.25337,18.64922],[75.25275,18.64956],[75.25207,18.65114],[75.25219,18.65585],[75.25332,18.66241],[75.25355,18.66245],[75.25413,18.66591],[75.25664,18.67152]]]]}},{"type":"Feature","properties":{"lgdCode":"167731","name":"Khurdaithan","blockCode":"4214","blockName":"Jamkhed","areaHectares":734.2857,"memberVillagesDrawn":["558658"],"memberVillagesNotDrawn":[]},"geometry":{"type":"MultiPolygon","coordinates":[[[[75.32938,18.67084],[75.34472,18.67007],[75.34999,18.67063],[75.35273,18.67051],[75.35548,18.67169],[75.35701,18.67161],[75.35974,18.67014],[75.36263,18.66918],[75.36258,18.66656],[75.35685,18.66254],[75.35517,18.66178],[75.34856,18.65206],[75.34586,18.64962],[75.344,18.64826],[75.34171,18.64806],[75.34125,18.64704],[75.33989,18.64541],[75.33815,18.64391],[75.3366,18.64382],[75.32952,18.6453],[75.32911,18.649],[75.32795,18.65358],[75.32758,18.66301],[75.32781,18.66514],[75.32938,18.67084]]]]}},{"type":"Feature","properties":{"lgdCode":"167732","name":"Kusadgaon","blockCode":"4214","blockName":"Jamkhed","areaHectares":1169.4367,"memberVillagesDrawn":["558649"],"memberVillagesNotDrawn":[]},"geometry":{"type":"MultiPolygon","coordinates":[[[[75.28256,18.69847],[75.28108,18.69332],[75.28115,18.6924],[75.28205,18.69069],[75.2829,18.69015],[75.2833,18.6872],[75.28482,18.68178],[75.28313,18.68143],[75.28214,18.68073],[75.28248,18.67989],[75.28444,18.67933],[75.28847,18.676],[75.29179,18.67412],[75.29478,18.67342],[75.30178,18.67312],[75.30187,18.66988],[75.30006,18.66981],[75.29885,18.66949],[75.29821,18.66893],[75.29622,18.66452],[75.29204,18.66328],[75.28891,18.66174],[75.28686,18.6611],[75.28262,18.66187],[75.27884,18.66311],[75.26425,18.66464],[75.26034,18.66949],[75.25664,18.67152],[75.25844,18.67307],[75.25683,18.6765],[75.25319,18.68117],[75.25386,18.6817],[75.25438,18.68296],[75.25499,18.68336],[75.25488,18.68408],[75.25558,18.68641],[75.25779,18.69077],[75.25849,18.69337],[75.26388,18.69343],[75.26738,18.69439],[75.27657,18.69585],[75.28003,18.69876],[75.28256,18.69847]]]]}},{"type":"Feature","properties":{"lgdCode":"167733","name":"Loni","blockCode":"4214","blockName":"Jamkhed","areaHectares":715.258,"memberVillagesDrawn":["558689"],"memberVillagesNotDrawn":[]},"geometry":{"type":"MultiPolygon","coordinates":[[[[75.42636,18.65711],[75.42636,18.65002],[75.42722,18.64897],[75.42778,18.64201],[75.42733,18.6368],[75.42178,18.6368],[75.41704,18.63735],[75.41427,18.63893],[75.40965,18.64003],[75.40702,18.64024],[75.40127,18.64],[75.39656,18.6412],[75.39539,18.64193],[75.39486,18.64287],[75.39501,18.64508],[75.39455,18.6461],[75.39482,18.64736],[75.39469,18.65083],[75.39776,18.65902],[75.39962,18.66277],[75.40242,18.6618],[75.404,18.66009],[75.40504,18.66149],[75.40737,18.65865],[75.41009,18.65656],[75.41101,18.65853],[75.41569,18.65636],[75.42065,18.65545],[75.4202,18.65602],[75.42636,18.65711]]]]}},{"type":"Feature","properties":{"lgdCode":"167734","name":"Matewadi","blockCode":"4214","blockName":"Jamkhed","areaHectares":652.4169,"memberVillagesDrawn":["558713"],"memberVillagesNotDrawn":[]},"geometry":{"type":"MultiPolygon","coordinates":[[[[75.23238,18.5761],[75.23387,18.57772],[75.23615,18.5791],[75.2403,18.58089],[75.24165,18.58197],[75.24399,18.58005],[75.24626,18.57747],[75.25078,18.56998],[75.25546,18.56535],[75.25724,18.56249],[75.25567,18.56314],[75.25221,18.55435],[75.25136,18.55458],[75.25089,18.55224],[75.25081,18.54847],[75.24493,18.54974],[75.23818,18.55029],[75.23731,18.55078],[75.23529,18.55078],[75.23248,18.55136],[75.23351,18.55752],[75.23313,18.5597],[75.23227,18.57278],[75.23238,18.5761]]]]}},{"type":"Feature","properties":{"lgdCode":"167735","name":"Moha","blockCode":"4214","blockName":"Jamkhed","areaHectares":1306.0971,"memberVillagesDrawn":["558639"],"memberVillagesNotDrawn":[]},"geometry":{"type":"MultiPolygon","coordinates":[[[[75.34209,18.78418],[75.34358,18.78384],[75.34281,18.7831],[75.34251,18.78245],[75.34283,18.78227],[75.34508,18.78402],[75.34911,18.78389],[75.35019,18.78586],[75.35714,18.78658],[75.35843,18.78738],[75.35996,18.78919],[75.36178,18.78779],[75.36064,18.78558],[75.36234,18.78484],[75.3636,18.78561],[75.36453,18.78562],[75.36484,18.78682],[75.36546,18.78663],[75.36525,18.78546],[75.36635,18.78523],[75.36467,18.78348],[75.365,18.78145],[75.36598,18.78173],[75.36686,18.78081],[75.36797,18.78078],[75.36755,18.77991],[75.36823,18.77774],[75.36911,18.77846],[75.37033,18.777],[75.37128,18.77468],[75.3728,18.7775],[75.37545,18.77786],[75.37521,18.77656],[75.37423,18.77591],[75.37676,18.77443],[75.37349,18.77337],[75.37244,18.77232],[75.373,18.77216],[75.37289,18.77096],[75.37415,18.77088],[75.3745,18.77018],[75.37537,18.77003],[75.37618,18.76784],[75.37689,18.76959],[75.37829,18.76905],[75.37988,18.76903],[75.37979,18.77041],[75.38103,18.77028],[75.38146,18.76981],[75.38156,18.77016],[75.38211,18.77034],[75.38065,18.77376],[75.38239,18.77343],[75.3841,18.77267],[75.38661,18.77227],[75.38613,18.77153],[75.38602,18.76839],[75.38536,18.76592],[75.385,18.76513],[75.38383,18.76506],[75.381,18.76396],[75.37943,18.7629],[75.37531,18.76253],[75.37048,18.76075],[75.36731,18.76103],[75.36561,18.76248],[75.36377,18.76252],[75.36054,18.7599],[75.35772,18.75604],[75.35016,18.75502],[75.33772,18.75572],[75.33795,18.75656],[75.33464,18.7587],[75.33396,18.75971],[75.33178,18.76049],[75.33187,18.76301],[75.33217,18.76382],[75.33193,18.76634],[75.33402,18.77354],[75.33342,18.77377],[75.33427,18.7755],[75.33441,18.77682],[75.33738,18.78049],[75.34209,18.78418]]]]}},{"type":"Feature","properties":{"lgdCode":"167736","name":"Mohari","blockCode":"4214","blockName":"Jamkhed","areaHectares":1859.9891,"memberVillagesDrawn":["558692"],"memberVillagesNotDrawn":[]},"geometry":{"type":"MultiPolygon","coordinates":[[[[75.53682,18.68612],[75.54314,18.67925],[75.54344,18.67964],[75.54421,18.67967],[75.54269,18.67697],[75.54224,18.67425],[75.54105,18.67252],[75.54066,18.66615],[75.53966,18.66389],[75.54028,18.66032],[75.54037,18.65678],[75.54031,18.65622],[75.53939,18.65573],[75.53277,18.65549],[75.52171,18.65379],[75.5178,18.65426],[75.51535,18.65423],[75.51419,18.65582],[75.51024,18.65764],[75.50759,18.65764],[75.50604,18.65803],[75.49855,18.65806],[75.49422,18.65927],[75.49135,18.65921],[75.4889,18.65965],[75.4836,18.66369],[75.48129,18.66604],[75.48111,18.66873],[75.48295,18.67237],[75.48396,18.67298],[75.48814,18.67268],[75.49004,18.67654],[75.49164,18.67803],[75.49406,18.67933],[75.49573,18.67872],[75.49777,18.6785],[75.5009,18.68093],[75.50237,18.68268],[75.50252,18.68328],[75.50875,18.68683],[75.51122,18.69084],[75.51287,18.69206],[75.51539,18.69301],[75.51697,18.69357],[75.51721,18.69142],[75.51928,18.69129],[75.52247,18.69019],[75.52229,18.68805],[75.52405,18.687],[75.5259,18.68707],[75.52661,18.68789],[75.52807,18.68707],[75.53254,18.68573],[75.53682,18.68612]]]]}},{"type":"Feature","properties":{"lgdCode":"167737","name":"Munjewadi","blockCode":"4214","blockName":"Jamkhed","areaHectares":990.2641,"memberVillagesDrawn":["558715"],"memberVillagesNotDrawn":[]},"geometry":{"type":"MultiPolygon","coordinates":[[[[75.30769,18.55712],[75.30892,18.55489],[75.31605,18.54691],[75.3221,18.54187],[75.32547,18.54],[75.32785,18.53683],[75.32895,18.53485],[75.33013,18.5307],[75.32999,18.52691],[75.33056,18.52675],[75.32985,18.52366],[75.32863,18.52342],[75.32524,18.52421],[75.31813,18.52308],[75.31631,18.52263],[75.31495,18.52117],[75.31325,18.5203],[75.31311,18.51986],[75.30804,18.52109],[75.30013,18.52168],[75.29441,18.52074],[75.29694,18.53022],[75.29755,18.53308],[75.29722,18.53345],[75.30131,18.54017],[75.30194,18.54254],[75.29913,18.54278],[75.29731,18.54752],[75.29542,18.55013],[75.30136,18.55304],[75.30299,18.55443],[75.30311,18.55596],[75.30167,18.55638],[75.30196,18.55876],[75.30769,18.55712]]]]}},{"type":"Feature","properties":{"lgdCode":"167739","name":"Nannaj","blockCode":"4214","blockName":"Jamkhed","areaHectares":2865.7985,"memberVillagesDrawn":["558702"],"memberVillagesNotDrawn":[]},"geometry":{"type":"MultiPolygon","coordinates":[[[[75.3089,18.61924],[75.31814,18.62007],[75.32313,18.61446],[75.325,18.61642],[75.3279,18.61569],[75.33121,18.6131],[75.335,18.61583],[75.3408,18.61845],[75.34108,18.61561],[75.33703,18.61506],[75.33711,18.61241],[75.33783,18.61113],[75.33844,18.61139],[75.3388,18.61021],[75.33856,18.60867],[75.33775,18.60798],[75.33501,18.60368],[75.33544,18.60215],[75.33885,18.60176],[75.33853,18.59771],[75.34492,18.59795],[75.34508,18.59727],[75.34541,18.59719],[75.34468,18.59593],[75.34471,18.59343],[75.34362,18.5888],[75.35251,18.58802],[75.35264,18.58689],[75.34944,18.58748],[75.34553,18.58768],[75.34036,18.58862],[75.33963,18.58594],[75.33809,18.58675],[75.3389,18.58938],[75.33749,18.59002],[75.33687,18.58865],[75.33581,18.58849],[75.33329,18.58895],[75.33282,18.58566],[75.33349,18.58185],[75.33154,18.58184],[75.33144,18.5823],[75.3249,18.5833],[75.3255,18.5812],[75.32666,18.57883],[75.32836,18.57128],[75.3281,18.57102],[75.32824,18.57062],[75.32925,18.5702],[75.33097,18.56876],[75.33188,18.5676],[75.33273,18.56511],[75.33363,18.56372],[75.33489,18.56385],[75.33637,18.55986],[75.33171,18.5606],[75.33136,18.56536],[75.32882,18.56562],[75.31737,18.56791],[75.31734,18.56921],[75.30752,18.56955],[75.30752,18.57079],[75.3057,18.57165],[75.30257,18.574],[75.29475,18.57831],[75.28972,18.58184],[75.28601,18.58273],[75.28424,18.58251],[75.28158,18.58743],[75.27687,18.595],[75.2749,18.59722],[75.27511,18.59923],[75.27639,18.60239],[75.27719,18.60566],[75.27727,18.61202],[75.28083,18.60981],[75.28381,18.60898],[75.28393,18.61037],[75.28555,18.61025],[75.28591,18.61545],[75.28616,18.61548],[75.28633,18.61671],[75.29405,18.6163],[75.29651,18.61507],[75.29623,18.61428],[75.3027,18.61359],[75.30288,18.61249],[75.3047,18.61266],[75.30344,18.61653],[75.30554,18.61703],[75.30861,18.61676],[75.3089,18.61924]]]]}},{"type":"Feature","properties":{"lgdCode":"167741","name":"Padali","blockCode":"4214","blockName":"Jamkhed","areaHectares":1125.7463,"memberVillagesDrawn":["558657"],"memberVillagesNotDrawn":[]},"geometry":{"type":"MultiPolygon","coordinates":[[[[75.30336,18.68468],[75.31129,18.68371],[75.3158,18.68421],[75.32157,18.68589],[75.32166,18.68647],[75.32766,18.68626],[75.32842,18.68558],[75.32939,18.68274],[75.32875,18.67726],[75.32938,18.67084],[75.32781,18.66514],[75.32762,18.6578],[75.32795,18.65358],[75.32911,18.649],[75.32952,18.6453],[75.3238,18.64561],[75.32115,18.64621],[75.31692,18.64664],[75.31469,18.64642],[75.312,18.64517],[75.31158,18.64544],[75.30678,18.64343],[75.30579,18.65183],[75.30525,18.65381],[75.30537,18.65754],[75.30498,18.66353],[75.30336,18.66991],[75.30187,18.66988],[75.30177,18.67464],[75.30231,18.67805],[75.30206,18.67818],[75.30336,18.68468]]]]}},{"type":"Feature","properties":{"lgdCode":"167742","name":"Pimpalgaon Alva","blockCode":"4214","blockName":"Jamkhed","areaHectares":1230.9123,"memberVillagesDrawn":["558688"],"memberVillagesNotDrawn":[]},"geometry":{"type":"MultiPolygon","coordinates":[[[[75.39903,18.67561],[75.40112,18.67498],[75.4013,18.67113],[75.40096,18.66736],[75.39939,18.66199],[75.39776,18.65902],[75.39469,18.65083],[75.39482,18.64736],[75.39455,18.6461],[75.39501,18.64508],[75.39486,18.64287],[75.39539,18.64193],[75.39767,18.64074],[75.40127,18.64],[75.40482,18.64019],[75.4046,18.63631],[75.40009,18.63643],[75.39691,18.6376],[75.39331,18.63794],[75.38845,18.63782],[75.38111,18.63705],[75.37554,18.63741],[75.37366,18.63969],[75.36977,18.64243],[75.3682,18.64759],[75.3642,18.65837],[75.36275,18.66378],[75.36252,18.66653],[75.36981,18.66639],[75.37473,18.66732],[75.38675,18.67282],[75.39021,18.67412],[75.39903,18.67561]]]]}},{"type":"Feature","properties":{"lgdCode":"167743","name":"Pimpalgaon Unda","blockCode":"4214","blockName":"Jamkhed","areaHectares":962.8068,"memberVillagesDrawn":["558704"],"memberVillagesNotDrawn":[]},"geometry":{"type":"MultiPolygon","coordinates":[[[[75.37419,18.61641],[75.39225,18.6142],[75.39938,18.61378],[75.40178,18.61399],[75.40259,18.613],[75.40282,18.61175],[75.39925,18.605],[75.39834,18.60236],[75.39658,18.59131],[75.39495,18.58806],[75.39313,18.58568],[75.39275,18.58432],[75.38866,18.58408],[75.38123,18.58276],[75.37804,18.58279],[75.36832,18.58395],[75.36848,18.58594],[75.37008,18.59077],[75.37035,18.59495],[75.3734,18.6018],[75.37424,18.60567],[75.37409,18.61049],[75.37371,18.61186],[75.37408,18.61217],[75.37379,18.61481],[75.37419,18.61641]]]]}},{"type":"Feature","properties":{"lgdCode":"167744","name":"Patoda","blockCode":"4214","blockName":"Jamkhed","areaHectares":404.622,"memberVillagesDrawn":["558654"],"memberVillagesNotDrawn":[]},"geometry":{"type":"MultiPolygon","coordinates":[[[[75.24164,18.68658],[75.23959,18.67979],[75.23885,18.6779],[75.23702,18.67493],[75.23674,18.67327],[75.23685,18.67187],[75.23732,18.67133],[75.2396,18.67025],[75.23988,18.6695],[75.23771,18.66964],[75.22933,18.67161],[75.21675,18.67606],[75.21293,18.67702],[75.21594,18.68783],[75.22327,18.68724],[75.22992,18.68587],[75.23333,18.68585],[75.23866,18.68662],[75.24164,18.68658]]]]}},{"type":"Feature","properties":{"lgdCode":"167745","name":"Pimparkhed","blockCode":"4214","blockName":"Jamkhed","areaHectares":1351.3741,"memberVillagesDrawn":["558667"],"memberVillagesNotDrawn":[]},"geometry":{"type":"MultiPolygon","coordinates":[[[[75.19926,18.65086],[75.20277,18.65065],[75.20357,18.64746],[75.20535,18.64335],[75.21286,18.64181],[75.21858,18.6397],[75.21956,18.6401],[75.22192,18.63872],[75.22313,18.63704],[75.22386,18.63713],[75.22463,18.63773],[75.22821,18.63385],[75.23033,18.6307],[75.23293,18.63077],[75.23474,18.63138],[75.23607,18.62541],[75.23548,18.61553],[75.23274,18.61526],[75.22981,18.61314],[75.22898,18.60874],[75.22533,18.60796],[75.22248,18.60643],[75.21567,18.60353],[75.21354,18.60327],[75.21326,18.60805],[75.21387,18.61927],[75.21029,18.61932],[75.20929,18.61607],[75.20484,18.6189],[75.20385,18.62024],[75.20188,18.6204],[75.20026,18.61984],[75.19901,18.62054],[75.19594,18.62016],[75.19338,18.61909],[75.1914,18.61876],[75.19214,18.62508],[75.1922,18.6324],[75.19526,18.64858],[75.19935,18.64863],[75.19926,18.65086]],[[75.21067,18.63199],[75.20678,18.63201],[75.20753,18.62989],[75.20911,18.62837],[75.21016,18.62613],[75.21061,18.62614],[75.21098,18.62683],[75.21109,18.63188],[75.21067,18.63199]]]]}},{"type":"Feature","properties":{"lgdCode":"167746","name":"Potewadi","blockCode":"4214","blockName":"Jamkhed","areaHectares":588.1809,"memberVillagesDrawn":["558710"],"memberVillagesNotDrawn":[]},"geometry":{"type":"MultiPolygon","coordinates":[[[[75.344,18.56082],[75.34275,18.56087],[75.34145,18.55967],[75.33943,18.55407],[75.3373,18.55458],[75.33722,18.55848],[75.33637,18.55986],[75.33489,18.56385],[75.33363,18.56372],[75.33273,18.56511],[75.33188,18.5676],[75.33097,18.56876],[75.32925,18.5702],[75.32824,18.57062],[75.3281,18.57102],[75.32836,18.57128],[75.32666,18.57883],[75.3255,18.5812],[75.3249,18.5833],[75.33144,18.5823],[75.33154,18.58184],[75.33349,18.58185],[75.33282,18.58566],[75.33329,18.58895],[75.33581,18.58849],[75.33687,18.58865],[75.33749,18.59002],[75.3389,18.58938],[75.33809,18.58675],[75.33963,18.58594],[75.34036,18.58862],[75.34553,18.58768],[75.34944,18.58748],[75.35264,18.58689],[75.35171,18.5844],[75.34848,18.57959],[75.34803,18.57666],[75.34803,18.57386],[75.34692,18.56932],[75.34644,18.56839],[75.346,18.56829],[75.3444,18.56472],[75.344,18.56082]]]]}},{"type":"Feature","properties":{"lgdCode":"167747","name":"Rajewadi","blockCode":"4214","blockName":"Jamkhed","areaHectares":505.9581,"memberVillagesDrawn":["558701"],"memberVillagesNotDrawn":[]},"geometry":{"type":"MultiPolygon","coordinates":[[[[75.28582,18.63206],[75.28755,18.63201],[75.28944,18.63068],[75.29185,18.6304],[75.2947,18.62896],[75.29613,18.62871],[75.29619,18.62842],[75.29902,18.62827],[75.30163,18.62752],[75.30217,18.62705],[75.30266,18.62538],[75.30354,18.62466],[75.30484,18.62216],[75.30531,18.62185],[75.30547,18.6207],[75.30924,18.62013],[75.30865,18.61851],[75.30861,18.61676],[75.30554,18.61703],[75.30344,18.61653],[75.3047,18.61266],[75.30288,18.61249],[75.3027,18.61359],[75.29623,18.61428],[75.29651,18.61507],[75.29405,18.6163],[75.28633,18.61671],[75.28616,18.61548],[75.28591,18.61545],[75.28555,18.61025],[75.28393,18.61037],[75.28381,18.60898],[75.27987,18.61026],[75.27509,18.61344],[75.27383,18.61378],[75.27554,18.61689],[75.27995,18.62282],[75.28107,18.62702],[75.28144,18.63147],[75.28582,18.63206]]]]}},{"type":"Feature","properties":{"lgdCode":"167748","name":"Rajuri","blockCode":"4214","blockName":"Jamkhed","areaHectares":1066.6942,"memberVillagesDrawn":["558674"],"memberVillagesNotDrawn":[]},"geometry":{"type":"MultiPolygon","coordinates":[[[[75.36319,18.70104],[75.36389,18.70152],[75.37344,18.70214],[75.3793,18.70291],[75.38138,18.70324],[75.3829,18.70392],[75.38204,18.70028],[75.38129,18.70101],[75.38069,18.70069],[75.38072,18.70107],[75.38037,18.7011],[75.37932,18.69287],[75.38096,18.69271],[75.38144,18.6935],[75.3819,18.69334],[75.38192,18.69267],[75.38311,18.69231],[75.38658,18.69004],[75.38683,18.68766],[75.39555,18.69048],[75.39796,18.6816],[75.39903,18.67561],[75.39021,18.67412],[75.38675,18.67282],[75.37473,18.66732],[75.36981,18.66639],[75.36258,18.66656],[75.36264,18.67458],[75.36302,18.67863],[75.3623,18.68711],[75.36269,18.69784],[75.36319,18.70104]]]]}},{"type":"Feature","properties":{"lgdCode":"167749","name":"Ratanapur","blockCode":"4214","blockName":"Jamkhed","areaHectares":1209.819,"memberVillagesDrawn":["558634"],"memberVillagesNotDrawn":[]},"geometry":{"type":"MultiPolygon","coordinates":[[[[75.27695,18.72984],[75.2768,18.72954],[75.2786,18.72777],[75.28205,18.72336],[75.28439,18.71955],[75.28537,18.71674],[75.28669,18.71415],[75.28685,18.71295],[75.28628,18.71041],[75.28685,18.70742],[75.2861,18.70269],[75.28424,18.70095],[75.28256,18.69847],[75.28003,18.69876],[75.27657,18.69585],[75.26738,18.69439],[75.26388,18.69343],[75.25999,18.69325],[75.25183,18.69496],[75.25033,18.69647],[75.25076,18.70645],[75.25117,18.70959],[75.25079,18.70965],[75.25448,18.72016],[75.25494,18.72007],[75.25518,18.72136],[75.263,18.7266],[75.2671,18.72815],[75.27276,18.72926],[75.27606,18.7304],[75.27695,18.72984]]]]}},{"type":"Feature","properties":{"lgdCode":"167750","name":"Sakat","blockCode":"4214","blockName":"Jamkhed","areaHectares":529.8874,"memberVillagesDrawn":["558641"],"memberVillagesNotDrawn":[]},"geometry":{"type":"MultiPolygon","coordinates":[[[[75.40222,18.82877],[75.40363,18.82729],[75.40585,18.82693],[75.40799,18.82591],[75.4103,18.82399],[75.41507,18.82278],[75.41866,18.81939],[75.41998,18.81845],[75.42105,18.81815],[75.4214,18.81737],[75.41973,18.81532],[75.41979,18.81438],[75.42176,18.81318],[75.4235,18.8116],[75.42194,18.81108],[75.41937,18.81082],[75.41928,18.81113],[75.41069,18.80949],[75.41079,18.80806],[75.41142,18.80636],[75.41111,18.80631],[75.40657,18.80653],[75.40681,18.80933],[75.40412,18.80921],[75.40471,18.81191],[75.40131,18.8105],[75.40102,18.80807],[75.39163,18.80971],[75.39251,18.81445],[75.39257,18.8181],[75.39208,18.81997],[75.39361,18.82321],[75.39779,18.83005],[75.39964,18.83148],[75.40222,18.82877]]]]}},{"type":"Feature","properties":{"lgdCode":"167751","name":"Sarola","blockCode":"4214","blockName":"Jamkhed","areaHectares":381.2378,"memberVillagesDrawn":["558673"],"memberVillagesNotDrawn":[]},"geometry":{"type":"MultiPolygon","coordinates":[[[[75.35425,18.71321],[75.35466,18.71317],[75.35745,18.71005],[75.36319,18.70104],[75.36269,18.69784],[75.36262,18.69465],[75.36119,18.69378],[75.35746,18.69431],[75.35511,18.69338],[75.35296,18.69367],[75.35221,18.69248],[75.34982,18.69316],[75.34935,18.6928],[75.3388,18.69663],[75.33779,18.69825],[75.33886,18.70012],[75.34021,18.70113],[75.34134,18.70341],[75.34762,18.70894],[75.35135,18.71087],[75.35241,18.7118],[75.35278,18.71254],[75.35355,18.71315],[75.35425,18.71321]]]]}},{"type":"Feature","properties":{"lgdCode":"167753","name":"Savargaon","blockCode":"4214","blockName":"Jamkhed","areaHectares":954.5499,"memberVillagesDrawn":["558643"],"memberVillagesNotDrawn":[]},"geometry":{"type":"MultiPolygon","coordinates":[[[[75.385,18.76513],[75.39035,18.76466],[75.39119,18.76179],[75.39074,18.75987],[75.39011,18.75311],[75.38788,18.74851],[75.38615,18.74182],[75.38417,18.73966],[75.38078,18.73886],[75.37818,18.73647],[75.37303,18.73525],[75.35896,18.73577],[75.35632,18.73611],[75.3565,18.73792],[75.35599,18.74126],[75.35661,18.74396],[75.35658,18.74864],[75.35752,18.75508],[75.35828,18.75696],[75.36054,18.7599],[75.36377,18.76252],[75.36561,18.76248],[75.36731,18.76103],[75.37048,18.76075],[75.37531,18.76253],[75.37943,18.7629],[75.381,18.76396],[75.38383,18.76506],[75.385,18.76513]]]]}},{"type":"Feature","properties":{"lgdCode":"167754","name":"Shiur","blockCode":"4214","blockName":"Jamkhed","areaHectares":2436.5738,"memberVillagesDrawn":["558644"],"memberVillagesNotDrawn":[]},"geometry":{"type":"MultiPolygon","coordinates":[[[[75.40634,18.75285],[75.40741,18.74876],[75.40798,18.74776],[75.41007,18.74587],[75.41099,18.73881],[75.4113,18.73815],[75.41141,18.73483],[75.41095,18.73277],[75.40794,18.72972],[75.4073,18.72789],[75.40714,18.72427],[75.40511,18.72247],[75.40128,18.7131],[75.40243,18.71273],[75.40173,18.71229],[75.39906,18.70737],[75.39687,18.70777],[75.39479,18.70761],[75.39253,18.70659],[75.38646,18.70501],[75.38162,18.70355],[75.38138,18.70324],[75.37344,18.70214],[75.36389,18.70152],[75.36329,18.7009],[75.35745,18.71005],[75.35466,18.71317],[75.35425,18.71321],[75.35444,18.72483],[75.3541,18.726],[75.35492,18.73245],[75.35593,18.73616],[75.35896,18.73577],[75.37303,18.73525],[75.37818,18.73647],[75.38078,18.73886],[75.38417,18.73966],[75.38615,18.74182],[75.38788,18.74851],[75.39011,18.75311],[75.39074,18.75987],[75.39119,18.76179],[75.39035,18.76466],[75.39291,18.76486],[75.3931,18.76717],[75.39018,18.76771],[75.3904,18.7681],[75.39329,18.76801],[75.39327,18.76977],[75.39359,18.76969],[75.39395,18.76802],[75.39489,18.76043],[75.39864,18.76089],[75.39934,18.76072],[75.40279,18.76307],[75.40314,18.76293],[75.40171,18.75991],[75.40103,18.75672],[75.40193,18.75651],[75.40634,18.75285]]]]}},{"type":"Feature","properties":{"lgdCode":"167755","name":"Sonegaon","blockCode":"4214","blockName":"Jamkhed","areaHectares":1107.6467,"memberVillagesDrawn":["558717"],"memberVillagesNotDrawn":[]},"geometry":{"type":"MultiPolygon","coordinates":[[[[75.39657,18.58437],[75.40054,18.5831],[75.40242,18.58144],[75.40445,18.58032],[75.4075,18.57973],[75.41262,18.57953],[75.41433,18.58015],[75.41489,18.58121],[75.41551,18.5811],[75.41635,18.58067],[75.41714,18.57907],[75.41879,18.57915],[75.41886,18.57855],[75.42258,18.57796],[75.42836,18.57595],[75.42975,18.5751],[75.4312,18.57482],[75.43495,18.57511],[75.43574,18.57574],[75.43694,18.57583],[75.44141,18.57564],[75.44151,18.57286],[75.4404,18.56625],[75.43783,18.5581],[75.43557,18.55359],[75.42711,18.5564],[75.42383,18.55786],[75.42288,18.55801],[75.41986,18.55753],[75.41249,18.55719],[75.40794,18.55846],[75.40435,18.5603],[75.40225,18.56277],[75.3972,18.56639],[75.39505,18.56735],[75.39344,18.5676],[75.39313,18.58568],[75.39657,18.58437]]]]}},{"type":"Feature","properties":{"lgdCode":"167756","name":"Taradgaon Group","blockCode":"4214","blockName":"Jamkhed","areaHectares":417.2085,"memberVillagesDrawn":["558708"],"memberVillagesNotDrawn":[]},"geometry":{"type":"MultiPolygon","coordinates":[[[[75.40282,18.61175],[75.41164,18.60863],[75.41117,18.60231],[75.41034,18.60008],[75.41435,18.5993],[75.41308,18.59309],[75.41223,18.5933],[75.41223,18.58947],[75.40843,18.59058],[75.40818,18.59004],[75.4075,18.59021],[75.40705,18.58936],[75.40907,18.58636],[75.40853,18.58492],[75.40702,18.58449],[75.40698,18.58345],[75.4063,18.58331],[75.40614,18.58396],[75.40493,18.58393],[75.40322,18.58338],[75.40324,18.58369],[75.40052,18.58432],[75.40047,18.58511],[75.39724,18.58578],[75.39657,18.58437],[75.39313,18.58568],[75.39495,18.58806],[75.39658,18.59131],[75.39834,18.60236],[75.39925,18.605],[75.40282,18.61175]]]]}},{"type":"Feature","properties":{"lgdCode":"167758","name":"Wagha","blockCode":"4214","blockName":"Jamkhed","areaHectares":734.5162,"memberVillagesDrawn":["558703"],"memberVillagesNotDrawn":[]},"geometry":{"type":"MultiPolygon","coordinates":[[[[75.35178,18.61858],[75.35299,18.61848],[75.3535,18.61891],[75.35961,18.61846],[75.36,18.61947],[75.36172,18.61898],[75.36316,18.61806],[75.36343,18.61756],[75.36799,18.61636],[75.37182,18.616],[75.374,18.61644],[75.37379,18.61481],[75.37408,18.61217],[75.37371,18.61186],[75.37409,18.61049],[75.37424,18.60567],[75.3734,18.6018],[75.37035,18.59495],[75.37008,18.59077],[75.36848,18.58594],[75.36832,18.58395],[75.36115,18.58447],[75.35264,18.58689],[75.35233,18.59415],[75.35276,18.59706],[75.35397,18.60093],[75.35434,18.60417],[75.35409,18.60808],[75.35312,18.61066],[75.35178,18.61641],[75.35178,18.61858]]]]}},{"type":"Feature","properties":{"lgdCode":"167760","name":"Zikri","blockCode":"4214","blockName":"Jamkhed","areaHectares":521.3731,"memberVillagesDrawn":["558656"],"memberVillagesNotDrawn":[]},"geometry":{"type":"MultiPolygon","coordinates":[[[[75.30187,18.66988],[75.30336,18.66991],[75.30498,18.66353],[75.30537,18.65754],[75.30525,18.65381],[75.30579,18.65183],[75.30678,18.64343],[75.30068,18.64162],[75.2927,18.64154],[75.28642,18.64206],[75.28716,18.64944],[75.28686,18.6611],[75.28891,18.66174],[75.29204,18.66328],[75.29622,18.66452],[75.29821,18.66893],[75.29885,18.66949],[75.30006,18.66981],[75.30187,18.66988]]]]}}],"ext":{"atlas":{"schemaVersion":1,"planId":"mh-ahilyanagar-v1","blockCode":"4214","blockName":"Jamkhed","acquiredAt":"2026-09-02","sourceSha256":"244b872927b2d5fd2e8817c98c3e375b43d387cfe209f7a23d86a10f46469775","featureCount":46,"rights":{"status":"share-alike","license":"ODbL 1.0","attribution":"DataMeet, indian_village_boundaries (github.com/datameet/indian_village_boundaries), ODbL 1.0"}}}}
