{"type":"FeatureCollection","features":[{"type":"Feature","geometry":{"type":"MultiPolygon","coordinates":[[[[76.4499,11.71891],[76.44977,11.71891],[76.44962,11.71892],[76.44949,11.71895],[76.44945,11.719],[76.44943,11.71907],[76.44944,11.71918],[76.44945,11.71923],[76.44951,11.71931],[76.44955,11.71934],[76.44974,11.71935],[76.44992,11.71931],[76.45005,11.71923],[76.45008,11.71908],[76.45001,11.71895],[76.4499,11.71891]]]]},"properties":{"tankId":"KA27010091","category":"Blue","shedId":"C05CAM18"}},{"type":"Feature","geometry":{"type":"MultiPolygon","coordinates":[[[[76.44319,11.69051],[76.44313,11.69051],[76.44311,11.69051],[76.44303,11.69055],[76.44294,11.69062],[76.44283,11.69074],[76.44283,11.69078],[76.44283,11.69084],[76.44285,11.69089],[76.44299,11.69103],[76.44307,11.69108],[76.44311,11.69109],[76.44316,11.69109],[76.44324,11.69108],[76.44332,11.69105],[76.44335,11.69101],[76.44339,11.69095],[76.44341,11.69088],[76.44343,11.6908],[76.44342,11.6907],[76.44341,11.69066],[76.44338,11.69061],[76.44332,11.69056],[76.44328,11.69054],[76.44319,11.69051]]]]},"properties":{"tankId":"KA27010092","category":"Blue","shedId":"C05CAM18"}},{"type":"Feature","geometry":{"type":"MultiPolygon","coordinates":[[[[76.42022,11.67411],[76.42012,11.67408],[76.42002,11.67409],[76.41995,11.67412],[76.41992,11.6742],[76.41992,11.6743],[76.42001,11.67438],[76.42014,11.67441],[76.42028,11.67441],[76.42035,11.67437],[76.42036,11.67429],[76.42033,11.67419],[76.42022,11.67411]]]]},"properties":{"tankId":"KA27010093","category":"Blue","shedId":"C05CAM18"}},{"type":"Feature","geometry":{"type":"MultiPolygon","coordinates":[[[[76.37762,11.83043],[76.37751,11.83043],[76.37746,11.83048],[76.37742,11.83053],[76.37738,11.83069],[76.37737,11.83075],[76.37735,11.831],[76.37737,11.83112],[76.37748,11.83121],[76.37769,11.83126],[76.37785,11.83124],[76.37802,11.83119],[76.37808,11.83113],[76.37813,11.83102],[76.37812,11.83094],[76.37801,11.83074],[76.3779,11.83056],[76.3778,11.83049],[76.37767,11.83044],[76.37762,11.83043]]]]},"properties":{"tankId":"KA26080036","category":"Blue","shedId":"C05CAM18"}},{"type":"Feature","geometry":{"type":"MultiPolygon","coordinates":[[[[76.38603,11.82518],[76.38586,11.82518],[76.3857,11.82521],[76.38553,11.82529],[76.38536,11.82542],[76.38531,11.82554],[76.38531,11.82567],[76.38537,11.82577],[76.38553,11.82591],[76.38567,11.82602],[76.38579,11.82616],[76.38601,11.82629],[76.38613,11.82637],[76.38625,11.82643],[76.38634,11.82642],[76.38636,11.82637],[76.38636,11.82626],[76.38632,11.82612],[76.38626,11.82594],[76.38624,11.8258],[76.38622,11.82566],[76.38622,11.82546],[76.38621,11.82535],[76.38613,11.82523],[76.38603,11.82518]]]]},"properties":{"tankId":"KA26080037","category":"Blue","shedId":"C05CAM18"}},{"type":"Feature","geometry":{"type":"MultiPolygon","coordinates":[[[[76.44351,11.7438],[76.44341,11.74378],[76.44325,11.74383],[76.4432,11.74391],[76.44314,11.74405],[76.44314,11.74418],[76.44317,11.74425],[76.44326,11.74427],[76.44336,11.74422],[76.44347,11.74414],[76.44355,11.74404],[76.44357,11.744],[76.44358,11.74392],[76.44356,11.74386],[76.44351,11.7438]]]]},"properties":{"tankId":"KA27010085","category":"Blue","shedId":"C05CAM18"}},{"type":"Feature","geometry":{"type":"MultiPolygon","coordinates":[[[[76.45671,11.73263],[76.45658,11.73263],[76.45649,11.73266],[76.45647,11.73267],[76.45644,11.73272],[76.45644,11.73281],[76.45647,11.73288],[76.45656,11.73297],[76.45669,11.7331],[76.45685,11.73322],[76.45704,11.73326],[76.45715,11.73327],[76.45724,11.73323],[76.45725,11.73312],[76.45724,11.73298],[76.45719,11.73286],[76.45706,11.73277],[76.45688,11.73267],[76.45671,11.73263]]]]},"properties":{"tankId":"KA27010086","category":"Blue","shedId":"C05CAM18"}},{"type":"Feature","geometry":{"type":"MultiPolygon","coordinates":[[[[76.44641,11.69043],[76.44631,11.69042],[76.44626,11.69045],[76.44623,11.69052],[76.44625,11.69062],[76.4463,11.69073],[76.44641,11.69081],[76.4466,11.69086],[76.44672,11.69085],[76.44683,11.69082],[76.44689,11.69074],[76.44691,11.69066],[76.44691,11.69059],[76.44683,11.69055],[76.44665,11.69051],[76.44654,11.69048],[76.44641,11.69043]]]]},"properties":{"tankId":"KA27010087","category":"Blue","shedId":"C05CAM18"}},{"type":"Feature","geometry":{"type":"MultiPolygon","coordinates":[[[[76.46672,11.74718],[76.46666,11.74718],[76.46659,11.7472],[76.46651,11.74725],[76.46646,11.7473],[76.4664,11.74735],[76.46637,11.74739],[76.46632,11.74748],[76.46631,11.7475],[76.4663,11.74757],[76.4663,11.74767],[76.4663,11.74775],[76.46631,11.74783],[76.46632,11.74786],[76.46637,11.74788],[76.46645,11.74791],[76.46653,11.74792],[76.46664,11.74792],[76.46679,11.74791],[76.46683,11.7479],[76.46689,11.74788],[76.46695,11.74783],[76.46697,11.74779],[76.46698,11.74765],[76.46698,11.74757],[76.46695,11.74747],[76.46694,11.74744],[76.4669,11.74736],[76.46688,11.74731],[76.46686,11.74727],[76.46682,11.74723],[76.46679,11.7472],[76.46672,11.74718]]]]},"properties":{"tankId":"KA27010094","category":"Blue","shedId":"C05CAM18"}},{"type":"Feature","geometry":{"type":"MultiPolygon","coordinates":[[[[76.45732,11.74343],[76.4573,11.74343],[76.45726,11.74344],[76.45724,11.74345],[76.45719,11.74347],[76.45716,11.74349],[76.45715,11.7435],[76.4571,11.74353],[76.45708,11.74355],[76.45703,11.74364],[76.45703,11.74371],[76.45704,11.74377],[76.45708,11.74381],[76.45714,11.74384],[76.45722,11.74385],[76.4573,11.74384],[76.45737,11.74381],[76.45742,11.74377],[76.45743,11.74374],[76.45745,11.74371],[76.45746,11.74368],[76.45747,11.74365],[76.45747,11.7436],[76.45746,11.74356],[76.45745,11.74352],[76.45743,11.74348],[76.45741,11.74346],[76.45739,11.74344],[76.45735,11.74343],[76.45732,11.74343]]]]},"properties":{"tankId":"KA27010095","category":"Blue","shedId":"C05CAM18"}},{"type":"Feature","geometry":{"type":"MultiPolygon","coordinates":[[[[76.48873,11.73953],[76.48865,11.73953],[76.48861,11.73953],[76.48853,11.73954],[76.48846,11.73955],[76.48843,11.73956],[76.48841,11.73958],[76.4884,11.73959],[76.4884,11.73961],[76.4884,11.73965],[76.4884,11.73967],[76.48841,11.73969],[76.48842,11.73972],[76.48843,11.73975],[76.48845,11.73978],[76.48847,11.7398],[76.48849,11.73981],[76.48851,11.73982],[76.48855,11.73984],[76.48859,11.73985],[76.48862,11.73986],[76.48864,11.73986],[76.48868,11.73986],[76.48871,11.73986],[76.48876,11.73985],[76.4888,11.73984],[76.48882,11.73983],[76.48884,11.73981],[76.48885,11.73977],[76.48886,11.73975],[76.48886,11.73973],[76.48886,11.73971],[76.48886,11.73967],[76.48885,11.73961],[76.48884,11.73958],[76.48882,11.73956],[76.48882,11.73955],[76.48879,11.73954],[76.48878,11.73954],[76.48877,11.73953],[76.48873,11.73953]]]]},"properties":{"tankId":"KA27010096","category":"Blue","shedId":"C05CAM18"}},{"type":"Feature","geometry":{"type":"MultiPolygon","coordinates":[[[[76.46069,11.73548],[76.46066,11.73548],[76.46063,11.73549],[76.46061,11.73549],[76.4606,11.7355],[76.46056,11.73552],[76.46054,11.73556],[76.46052,11.7356],[76.46051,11.73565],[76.46051,11.73569],[76.46052,11.73576],[76.46054,11.73578],[76.46055,11.73582],[76.46057,11.73584],[76.46063,11.73591],[76.46064,11.73592],[76.46067,11.73595],[76.46073,11.73599],[76.46074,11.736],[76.46078,11.73602],[76.46084,11.73605],[76.46087,11.73606],[76.46091,11.73606],[76.46097,11.73606],[76.46104,11.73606],[76.46106,11.73606],[76.46108,11.73606],[76.46111,11.73603],[76.46113,11.73602],[76.46114,11.73601],[76.46116,11.73597],[76.46118,11.73594],[76.46118,11.73592],[76.46118,11.73589],[76.46118,11.73585],[76.46118,11.73581],[76.46118,11.73579],[76.46118,11.73576],[76.46117,11.73573],[76.46116,11.73571],[76.46115,11.73568],[76.46113,11.73565],[76.4611,11.73563],[76.46109,11.73561],[76.46107,11.73558],[76.46106,11.73557],[76.46103,11.73554],[76.46101,11.73553],[76.46098,11.73553],[76.46096,11.73552],[76.46088,11.73551],[76.46082,11.73549],[76.46074,11.73549],[76.46069,11.73548]]]]},"properties":{"tankId":"KA27010097","category":"Blue","shedId":"C05CAM18"}},{"type":"Feature","geometry":{"type":"MultiPolygon","coordinates":[[[[76.49245,11.73121],[76.49241,11.73119],[76.49237,11.73118],[76.49235,11.73119],[76.4923,11.73119],[76.49227,11.73119],[76.49224,11.7312],[76.49222,11.73121],[76.4922,11.73124],[76.49218,11.73126],[76.49217,11.73129],[76.49216,11.73131],[76.49215,11.73137],[76.49215,11.73141],[76.49215,11.73144],[76.49216,11.73149],[76.49217,11.73152],[76.49218,11.73155],[76.49219,11.73156],[76.49221,11.73159],[76.49224,11.7316],[76.49227,11.73162],[76.49231,11.73162],[76.49234,11.73162],[76.49237,11.73162],[76.4924,11.73161],[76.49241,11.7316],[76.49243,11.7316],[76.49244,11.73158],[76.49245,11.73157],[76.49247,11.73154],[76.49249,11.73151],[76.49251,11.73148],[76.49252,11.73143],[76.49252,11.73141],[76.49252,11.73137],[76.49252,11.73134],[76.49251,11.7313],[76.4925,11.73127],[76.49248,11.73124],[76.49245,11.73121]]]]},"properties":{"tankId":"KA27010098","category":"Blue","shedId":"C05CAM18"}},{"type":"Feature","geometry":{"type":"MultiPolygon","coordinates":[[[[76.43932,11.74185],[76.43927,11.74185],[76.43922,11.74185],[76.43918,11.74186],[76.43913,11.74188],[76.43909,11.7419],[76.43905,11.74193],[76.43902,11.74197],[76.439,11.74201],[76.43898,11.74205],[76.43896,11.74209],[76.43895,11.74214],[76.43895,11.74219],[76.43896,11.74223],[76.43898,11.74228],[76.439,11.74232],[76.43902,11.74236],[76.43905,11.74239],[76.43909,11.74242],[76.43913,11.74244],[76.43918,11.74246],[76.43922,11.74247],[76.43927,11.74247],[76.43932,11.74247],[76.43936,11.74246],[76.43941,11.74244],[76.43945,11.74242],[76.43949,11.74239],[76.43952,11.74236],[76.43955,11.74232],[76.43957,11.74228],[76.43958,11.74223],[76.43959,11.74219],[76.43959,11.74214],[76.43958,11.74209],[76.43957,11.74205],[76.43954,11.74201],[76.43952,11.74197],[76.43949,11.74193],[76.43945,11.7419],[76.43941,11.74188],[76.43936,11.74186],[76.43932,11.74185]]]]},"properties":{"tankId":"KA27010116","category":"Blue","shedId":"C05CAM18"}}]}