{
  "nvdm": "1.0",
  "dataset": "atlas/water-bodies",
  "scope": {
    "kind": "district",
    "id": "tn-tiruchirappalli"
  },
  "provenance": {
    "sources": [
      {
        "id": "tngis-generic-viewer-water-bodies",
        "title": "TNGIS generic viewer: all water bodies (WFS layer generic_viewer:all_water_bodies)",
        "publisher": "Tamil Nadu e-Governance Agency (TNGIS)",
        "license": "LICENCE UNVERIFIED - see notes. TNGIS/TNeGA terms restrict public display, redistribution and commercial use to prior approval; the reuse confirmation requested 2026-07-27 has no reply. Only derived counts, areas, centroids and digests are published; cited with attribution.",
        "role": "asserts",
        "url": "https://tngis.tn.gov.in/tngismaps/ows",
        "retrieved": "2026-07-26"
      }
    ],
    "method": "api",
    "produced_at": "2026-07-26",
    "produced_by": "scripts/atlas-water-bodies-tn-district.ts",
    "internal_inputs": [
      "public/data/atlas/tn/tiruchirappalli/directory.json"
    ],
    "note": "TNGIS all-water-bodies register for ANDHANALLUR block: 13 Gram Panchayats with 45 water bodies between them, rolled up per Panchayat (count, named count, summed and largest waterspread computed from the geometry, contributing departments, a digest of the sorted names). Geometry is null and names are withheld: TNGIS terms require prior approval for public display or redistribution and the confirmation requested on 2026-07-27 has no reply. A Panchayat absent here has no water body in the register.",
    "conventions": {
      "geometry": "null by rule until TNGIS/TNeGA approval is recorded; areas are hectares computed from the withheld polygons",
      "join": "panchayat_lgdvcode is the LGD Gram Panchayat code; features with code 0 (towns, corporations) are dropped, never pooled",
      "vintage": "the layer merges five departments' registers and carries no survey date"
    }
  },
  "ext": {
    "atlas": {
      "schemaVersion": 1,
      "planId": "tn-tiruchirappalli-v1",
      "blockCode": "6675",
      "blockName": "ANDHANALLUR",
      "districtLgdCode": "545",
      "acquiredAt": "2026-07-26",
      "layer": "generic_viewer:all_water_bodies",
      "sourceUrl": "https://tngis.tn.gov.in/tngismaps/ows?service=WFS&version=2.0.0&request=GetFeature&typeNames=generic_viewer%3Aall_water_bodies&CQL_FILTER=rd_lgddcod%3D545&outputFormat=application%2Fjson",
      "rights": {
        "status": "permission-required",
        "termsUrl": "https://tngis.tn.gov.in/user.html",
        "termsQuote": "GIS based data available in TNGIS should be used for informational purpose only and Not for legal use/not to be shared / published in the public media in any form or in the social media without any prior approval / permission from TNGIS/TNeGA.",
        "approval": null
      },
      "contributingDepartments": [
        "AED",
        "DOSS",
        "NRSC",
        "TNRD",
        "WRD"
      ],
      "snapshotSha256": "2301e55909aecb47241ef2bbaf77cdbfb6f36312010af715d1538e0723fc6501",
      "featureCount": 45,
      "recordCount": 13,
      "recordsSha256": "5ed50258deeeaa3953a15cf08822fab5fdbd8d1be68bddbefb947ecd713eeb60"
    }
  },
  "type": "FeatureCollection",
  "features": [
    {
      "type": "Feature",
      "geometry": null,
      "properties": {
        "lgdGramPanchayatCode": "230082",
        "count": 2,
        "namedCount": 2,
        "areaHectares": 0.0546,
        "largestAreaHectares": 0.0364,
        "byDepartment": [
          {
            "department": "NRSC",
            "count": 2
          }
        ],
        "namesSha256": "54459dbe127d5cada5edca98dcd9cc943ceccfc1e627fbdb2f5152dc5d5c98e6",
        "lgdBlockCode": "6675"
      }
    },
    {
      "type": "Feature",
      "geometry": null,
      "properties": {
        "lgdGramPanchayatCode": "230085",
        "count": 5,
        "namedCount": 5,
        "areaHectares": 0.1032,
        "largestAreaHectares": 0.0425,
        "byDepartment": [
          {
            "department": "NRSC",
            "count": 5
          }
        ],
        "namesSha256": "7b2df4fe18d707b8dc0a0c1e86a2029f368f79e7eefa55ff964cdb7a6e3134a6",
        "lgdBlockCode": "6675"
      }
    },
    {
      "type": "Feature",
      "geometry": null,
      "properties": {
        "lgdGramPanchayatCode": "230086",
        "count": 3,
        "namedCount": 3,
        "areaHectares": 5.5616,
        "largestAreaHectares": 5.1974,
        "byDepartment": [
          {
            "department": "NRSC",
            "count": 3
          }
        ],
        "namesSha256": "59b6ee0dfb3935b71bcb3376277ffc610803726e03f3000364bc89212086ab35",
        "lgdBlockCode": "6675"
      }
    },
    {
      "type": "Feature",
      "geometry": null,
      "properties": {
        "lgdGramPanchayatCode": "230087",
        "count": 1,
        "namedCount": 0,
        "areaHectares": 1.3176,
        "largestAreaHectares": 1.3176,
        "byDepartment": [
          {
            "department": "AED",
            "count": 1
          }
        ],
        "namesSha256": "4f53cda18c2baa0c0354bb5f9a3ecbe5ed12ab4d8e11ba873c2f11161202b945",
        "lgdBlockCode": "6675"
      }
    },
    {
      "type": "Feature",
      "geometry": null,
      "properties": {
        "lgdGramPanchayatCode": "230088",
        "count": 6,
        "namedCount": 5,
        "areaHectares": 1.1293,
        "largestAreaHectares": 0.5829,
        "byDepartment": [
          {
            "department": "NRSC",
            "count": 5
          },
          {
            "department": "AED",
            "count": 1
          }
        ],
        "namesSha256": "7b2df4fe18d707b8dc0a0c1e86a2029f368f79e7eefa55ff964cdb7a6e3134a6",
        "lgdBlockCode": "6675"
      }
    },
    {
      "type": "Feature",
      "geometry": null,
      "properties": {
        "lgdGramPanchayatCode": "230092",
        "count": 1,
        "namedCount": 0,
        "areaHectares": 0.249,
        "largestAreaHectares": 0.249,
        "byDepartment": [
          {
            "department": "AED",
            "count": 1
          }
        ],
        "namesSha256": "4f53cda18c2baa0c0354bb5f9a3ecbe5ed12ab4d8e11ba873c2f11161202b945",
        "lgdBlockCode": "6675"
      }
    },
    {
      "type": "Feature",
      "geometry": null,
      "properties": {
        "lgdGramPanchayatCode": "230095",
        "count": 2,
        "namedCount": 2,
        "areaHectares": 1.0322,
        "largestAreaHectares": 0.6375,
        "byDepartment": [
          {
            "department": "NRSC",
            "count": 2
          }
        ],
        "namesSha256": "54459dbe127d5cada5edca98dcd9cc943ceccfc1e627fbdb2f5152dc5d5c98e6",
        "lgdBlockCode": "6675"
      }
    },
    {
      "type": "Feature",
      "geometry": null,
      "properties": {
        "lgdGramPanchayatCode": "230097",
        "count": 2,
        "namedCount": 2,
        "areaHectares": 0.0668,
        "largestAreaHectares": 0.0668,
        "byDepartment": [
          {
            "department": "NRSC",
            "count": 2
          }
        ],
        "namesSha256": "54459dbe127d5cada5edca98dcd9cc943ceccfc1e627fbdb2f5152dc5d5c98e6",
        "lgdBlockCode": "6675"
      }
    },
    {
      "type": "Feature",
      "geometry": null,
      "properties": {
        "lgdGramPanchayatCode": "230099",
        "count": 4,
        "namedCount": 4,
        "areaHectares": 3.0414,
        "largestAreaHectares": 2.9564,
        "byDepartment": [
          {
            "department": "NRSC",
            "count": 4
          }
        ],
        "namesSha256": "3c286f9b4d57446613534121f26f9e032e291835f3d12dc06ec242dd9916d2e4",
        "lgdBlockCode": "6675"
      }
    },
    {
      "type": "Feature",
      "geometry": null,
      "properties": {
        "lgdGramPanchayatCode": "230100",
        "count": 6,
        "namedCount": 3,
        "areaHectares": 8.314,
        "largestAreaHectares": 3.9717,
        "byDepartment": [
          {
            "department": "AED",
            "count": 3
          },
          {
            "department": "NRSC",
            "count": 3
          }
        ],
        "namesSha256": "59b6ee0dfb3935b71bcb3376277ffc610803726e03f3000364bc89212086ab35",
        "lgdBlockCode": "6675"
      }
    },
    {
      "type": "Feature",
      "geometry": null,
      "properties": {
        "lgdGramPanchayatCode": "230102",
        "count": 6,
        "namedCount": 5,
        "areaHectares": 12.6493,
        "largestAreaHectares": 10.9915,
        "byDepartment": [
          {
            "department": "NRSC",
            "count": 4
          },
          {
            "department": "AED",
            "count": 1
          },
          {
            "department": "TNRD",
            "count": 1
          }
        ],
        "namesSha256": "1f70c29ef7713cdd2f6f22fd6ec6671346d0d9ab3768226435d4991e740f8446",
        "lgdBlockCode": "6675"
      }
    },
    {
      "type": "Feature",
      "geometry": null,
      "properties": {
        "lgdGramPanchayatCode": "230104",
        "count": 3,
        "namedCount": 3,
        "areaHectares": 0.2671,
        "largestAreaHectares": 0.2246,
        "byDepartment": [
          {
            "department": "NRSC",
            "count": 3
          }
        ],
        "namesSha256": "59b6ee0dfb3935b71bcb3376277ffc610803726e03f3000364bc89212086ab35",
        "lgdBlockCode": "6675"
      }
    },
    {
      "type": "Feature",
      "geometry": null,
      "properties": {
        "lgdGramPanchayatCode": "230105",
        "count": 4,
        "namedCount": 4,
        "areaHectares": 0.6983,
        "largestAreaHectares": 0.3218,
        "byDepartment": [
          {
            "department": "NRSC",
            "count": 4
          }
        ],
        "namesSha256": "3c286f9b4d57446613534121f26f9e032e291835f3d12dc06ec242dd9916d2e4",
        "lgdBlockCode": "6675"
      }
    }
  ]
}
