{"nvdm":"1.0","dataset":"basins/admin-block","scope":{"kind":"basin","id":"krishnagiri-rivers"},"provenance":{"sources":[{"id":"tngis-open-geoserver","title":"TNGIS open GeoServer (WFS): district, taluk, block and village panchayat boundaries, TN WRD sub-basins and reservoirs, micro-watershed atlas, all-water-bodies and all-tanks registers, mine leases, industry register matched to land parcels","publisher":"Tamil Nadu e-Governance Agency (TNGIS)","license":"Tamil Nadu government data on an open GeoServer (WFS, no login); published with TNGIS's permission and with attribution.","role":"input","url":"https://tngis.tn.gov.in/tngismaps/ows"}],"method":"derived","produced_at":"2026-09-18","produced_by":"scripts/build_krishnagiri_rivers_basin.py","internal_inputs":["public/data/basins/krishnagiri-rivers/sub-hydrosheds.geojson"],"note":"Krishnagiri district's rivers, groundwater and industry (scope krishnagiri-rivers; the district's own scope id is tn-krishnagiri). The district boundary is the frame and TN WRD's sub-basins, clipped to it, are the catchments (shedId): the Thenpennai's to the east, the Cauvery's Chinnar and Dodda Halla to the south-west. The industry register holds only units TNGIS matched to a land parcel, so every count is a lower bound; sector comes from the reviewed TNPCB type-code lookup pipeline-inputs/basins/krishnagiri-rivers/tnpcb-type-sectors.json."},"type":"FeatureCollection","features":[{"type":"Feature","properties":{"name":"Bargur","level":"block","lgdBlockCode":6510,"parentDistrict":"Krishnagiri","pagePath":"/atlas/tn/krishnagiri/blocks/6510","pageLabel":"Open this block's page","shedId":"SBP05"},"geometry":{"type":"MultiPolygon","coordinates":[[[[78.2562,12.5053],[78.2576,12.5047],[78.2563,12.5053],[78.2566,12.5066],[78.2605,12.5136],[78.2647,12.5306],[78.2632,12.5346],[78.2612,12.5351],[78.263,12.5416],[78.2613,12.5427],[78.2635,12.5433],[78.2637,12.5445],[78.2629,12.5485],[78.2688,12.5482],[78.275,12.5555],[78.2762,12.5554],[78.2802,12.5646],[78.2825,12.5656],[78.2838,12.5703],[78.2876,12.5714],[78.2884,12.5731],[78.2864,12.577],[78.2786,12.579],[78.278,12.5824],[78.2725,12.5833],[78.2726,12.5869],[78.2696,12.5871],[78.2656,12.5894],[78.2625,12.5943],[78.2626,12.5981],[78.2691,12.6095],[78.269,12.6182],[78.2713,12.6176],[78.2755,12.6111],[78.2834,12.6129],[78.2843,12.6144],[78.2858,12.6123],[78.2943,12.6116],[78.2951,12.6086],[78.3037,12.6036],[78.3056,12.6069],[78.3099,12.6064],[78.3098,12.6117],[78.3116,12.6143],[78.3137,12.6124],[78.32,12.6115],[78.3195,12.6173],[78.3121,12.6311],[78.3065,12.6382],[78.3011,12.6581],[78.3014,12.6666],[78.3057,12.6673],[78.3085,12.6641],[78.3186,12.6613],[78.3252,12.6554],[78.3311,12.6532],[78.3328,12.6492],[78.3438,12.6486],[78.3526,12.6411],[78.3556,12.6365],[78.3628,12.6343],[78.3696,12.6276],[78.3737,12.6256],[78.3792,12.6256],[78.3886,12.6283],[78.3985,12.6272],[78.412,12.628],[78.4067,12.6214],[78.4097,12.6133],[78.407,12.6023],[78.4104,12.5994],[78.4103,12.5918],[78.4093,12.5923],[78.4105,12.5858],[78.4133,12.5839],[78.4183,12.5769],[78.421,12.5703],[78.4202,12.563],[78.4199,12.5646],[78.4182,12.564],[78.4186,12.5569],[78.4163,12.5501],[78.4179,12.5415],[78.4173,12.5344],[78.4137,12.5299],[78.4148,12.5249],[78.4164,12.5243],[78.4128,12.5171],[78.4192,12.5139],[78.4187,12.5099],[78.4197,12.5087],[78.416,12.4987],[78.4154,12.4933],[78.4166,12.4913],[78.4157,12.4891],[78.4183,12.4835],[78.4248,12.4802],[78.4245,12.4764],[78.4295,12.4721],[78.4342,12.4622],[78.4456,12.4545],[78.4477,12.4508],[78.4494,12.4506],[78.4487,12.448],[78.4474,12.4478],[78.4457,12.4484],[78.4459,12.4507],[78.4442,12.4511],[78.4385,12.4443],[78.4335,12.4427],[78.4317,12.4449],[78.4269,12.4454],[78.4247,12.4405],[78.4254,12.4384],[78.4214,12.4331],[78.4197,12.4326],[78.4174,12.4265],[78.4125,12.4273],[78.4128,12.4306],[78.4104,12.4316],[78.4115,12.4337],[78.4093,12.4379],[78.4107,12.4433],[78.4074,12.4426],[78.4077,12.4441],[78.4062,12.4457],[78.3997,12.4471],[78.3996,12.4493],[78.393,12.4512],[78.3938,12.446],[78.3917,12.4463],[78.3874,12.4405],[78.377,12.4441],[78.3749,12.4407],[78.3762,12.4408],[78.3767,12.4379],[78.3756,12.4359],[78.3775,12.4328],[78.3764,12.4282],[78.3742,12.4288],[78.3718,12.4273],[78.3678,12.4222],[78.3705,12.421],[78.363,12.4096],[78.3689,12.407],[78.3785,12.3994],[78.3798,12.4011],[78.389,12.3994],[78.389,12.3992],[78.389,12.3985],[78.3906,12.3953],[78.3998,12.3864],[78.4001,12.3834],[78.4044,12.3798],[78.4008,12.3754],[78.3986,12.3757],[78.3929,12.37],[78.3896,12.369],[78.3867,12.3652],[78.3851,12.3581],[78.3875,12.3574],[78.3887,12.3474],[78.3837,12.3331],[78.3871,12.3302],[78.3985,12.3301],[78.4035,12.3351],[78.411,12.3354],[78.4142,12.3407],[78.4188,12.3422],[78.4174,12.3355],[78.418,12.3336],[78.4198,12.3328],[78.4199,12.3301],[78.4294,12.3269],[78.4271,12.3206],[78.4271,12.3125],[78.4124,12.3036],[78.4093,12.3035],[78.4039,12.2894],[78.3887,12.2889],[78.389,12.2852],[78.3864,12.283],[78.3818,12.2714],[78.369,12.273],[78.3657,12.2696],[78.3547,12.2714],[78.3502,12.2736],[78.351,12.2749],[78.3494,12.2753],[78.3494,12.2772],[78.3479,12.2785],[78.3372,12.2802],[78.3363,12.2837],[78.3258,12.2908],[78.3319,12.3008],[78.3324,12.3074],[78.3357,12.3118],[78.3372,12.3267],[78.3432,12.3401],[78.3397,12.344],[78.3415,12.3442],[78.3449,12.3536],[78.3377,12.3546],[78.3385,12.3571],[78.3374,12.3615],[78.3329,12.3636],[78.3306,12.3632],[78.3276,12.3658],[78.3274,12.369],[78.3234,12.373],[78.3214,12.3723],[78.322,12.3733],[78.3208,12.3741],[78.3158,12.3733],[78.3138,12.3775],[78.3108,12.3745],[78.3094,12.3746],[78.306,12.3785],[78.3056,12.3827],[78.3044,12.3832],[78.3024,12.3794],[78.2996,12.3781],[78.2966,12.3789],[78.2968,12.3834],[78.2944,12.3868],[78.2942,12.39],[78.3019,12.3912],[78.3014,12.3956],[78.3033,12.3956],[78.3032,12.3975],[78.3009,12.3996],[78.3046,12.4049],[78.3031,12.4073],[78.3049,12.4072],[78.3016,12.4121],[78.301,12.42],[78.2976,12.4233],[78.3012,12.4309],[78.2991,12.4323],[78.296,12.4299],[78.2942,12.4258],[78.2907,12.4251],[78.2845,12.4303],[78.2821,12.4374],[78.2794,12.4363],[78.2764,12.4368],[78.2747,12.444],[78.2729,12.4457],[78.2708,12.4567],[78.2611,12.4586],[78.2644,12.4658],[78.2611,12.4801],[78.249,12.4869],[78.2528,12.4982],[78.2562,12.5025],[78.2556,12.5043],[78.2562,12.5053]],[[78.3966,12.3742],[78.3955,12.3749],[78.3951,12.3756],[78.3954,12.3749],[78.3966,12.3742]],[[78.2578,12.5044],[78.2577,12.5042],[78.2578,12.5042],[78.2578,12.5044]]],[[[78.417,12.3419],[78.4165,12.3432],[78.417,12.342],[78.417,12.3419]]],[[[78.389,12.3992],[78.3891,12.4003],[78.3892,12.3992],[78.389,12.3992]]]]}},{"type":"Feature","properties":{"name":"Hosur","level":"block","lgdBlockCode":6511,"parentDistrict":"Krishnagiri","pagePath":"/atlas/tn/krishnagiri/blocks/6511","pageLabel":"Open this block's page","shedId":"SBP16"},"geometry":{"type":"Polygon","coordinates":[[[77.7788,12.6717],[77.7748,12.6722],[77.7732,12.6703],[77.773,12.677],[77.7674,12.6785],[77.7676,12.6919],[77.7622,12.697],[77.7649,12.7029],[77.7661,12.7127],[77.7697,12.7129],[77.771,12.7183],[77.7745,12.7243],[77.7622,12.7266],[77.761,12.7272],[77.761,12.7296],[77.763,12.7363],[77.7645,12.7376],[77.771,12.7404],[77.7839,12.7409],[77.7923,12.7465],[77.7947,12.7582],[77.7853,12.7622],[77.7788,12.7683],[77.7851,12.7772],[77.788,12.7792],[77.7968,12.7936],[77.7996,12.7959],[77.8006,12.7944],[77.8015,12.7964],[77.8037,12.7945],[77.8067,12.7942],[77.8092,12.7971],[77.8074,12.7998],[77.8054,12.8003],[77.804,12.8049],[77.8,12.8054],[77.8022,12.8173],[77.8103,12.8158],[77.8081,12.8235],[77.8099,12.831],[77.7955,12.8347],[77.7924,12.8423],[77.7948,12.8452],[77.7967,12.8448],[77.7989,12.8519],[77.8082,12.8478],[77.811,12.8524],[77.8153,12.8559],[77.8227,12.8557],[77.8256,12.8603],[77.8319,12.8621],[77.8325,12.8675],[77.8367,12.8705],[77.8414,12.8689],[77.848,12.8688],[77.8508,12.8654],[77.8568,12.867],[77.8571,12.8691],[77.8731,12.867],[77.8755,12.8671],[77.8764,12.8684],[77.8825,12.8682],[77.8854,12.8708],[77.891,12.8701],[77.8951,12.8786],[77.9079,12.8787],[77.9076,12.8853],[77.9196,12.8843],[77.9233,12.8827],[77.922,12.884],[77.9247,12.8888],[77.9286,12.8908],[77.9364,12.8875],[77.9362,12.8824],[77.9347,12.8804],[77.92777,12.8815],[77.9296,12.8666],[77.9315,12.8661],[77.9326,12.8631],[77.9309,12.863],[77.93,12.8658],[77.9289,12.8653],[77.9288,12.8676],[77.9261,12.8662],[77.9263,12.8609],[77.9231,12.8554],[77.9244,12.8508],[77.9182,12.8405],[77.918,12.8319],[77.9209,12.8283],[77.9228,12.8304],[77.9255,12.8307],[77.932,12.8247],[77.9413,12.8232],[77.9385,12.8166],[77.9338,12.814],[77.9335,12.8118],[77.9342,12.8095],[77.9364,12.8092],[77.9369,12.8048],[77.94,12.8044],[77.9405,12.8009],[77.9393,12.7973],[77.9334,12.7939],[77.9305,12.7905],[77.9308,12.7889],[77.927,12.789],[77.9244,12.7906],[77.9217,12.7824],[77.922,12.7794],[77.9344,12.7761],[77.9378,12.7807],[77.9481,12.7782],[77.9501,12.7713],[77.9493,12.7648],[77.9465,12.7657],[77.9449,12.7632],[77.9429,12.7627],[77.9329,12.7654],[77.9319,12.7595],[77.928,12.7542],[77.9232,12.7385],[77.9188,12.735],[77.9182,12.738],[77.9151,12.7394],[77.9095,12.739],[77.9011,12.7409],[77.9012,12.7423],[77.8967,12.7467],[77.8943,12.7464],[77.8916,12.7419],[77.8884,12.743],[77.8844,12.7318],[77.8968,12.7262],[77.8951,12.7181],[77.9035,12.7133],[77.9025,12.7073],[77.897,12.7084],[77.8954,12.7029],[77.8982,12.7034],[77.9106,12.6928],[77.9126,12.6862],[77.9106,12.6714],[77.9063,12.6719],[77.9019,12.67],[77.8965,12.6699],[77.8915,12.667],[77.8843,12.6655],[77.88,12.6659],[77.878,12.664],[77.8785,12.6625],[77.8735,12.6622],[77.8577,12.6673],[77.8541,12.6766],[77.8486,12.6737],[77.8461,12.6663],[77.8396,12.6678],[77.8322,12.6512],[77.829,12.6512],[77.8259,12.6484],[77.8164,12.6488],[77.8174,12.6358],[77.8121,12.629],[77.8146,12.6243],[77.8169,12.6249],[77.8182,12.6227],[77.8194,12.6171],[77.8187,12.6083],[77.8133,12.6088],[77.8075,12.6067],[77.8014,12.6068],[77.7987,12.5971],[77.7972,12.5943],[77.7951,12.5935],[77.7961,12.5872],[77.7949,12.5855],[77.7894,12.5925],[77.7821,12.5955],[77.7787,12.5938],[77.7775,12.5878],[77.768,12.589],[77.7681,12.5806],[77.764,12.5776],[77.76,12.5782],[77.7588,12.5765],[77.7558,12.579],[77.7559,12.583],[77.7593,12.5877],[77.7609,12.5964],[77.7633,12.5952],[77.7645,12.5927],[77.7673,12.5916],[77.7695,12.5996],[77.7733,12.6033],[77.7695,12.6094],[77.7658,12.6114],[77.7664,12.6138],[77.7645,12.6153],[77.7636,12.6194],[77.7653,12.6293],[77.7578,12.6321],[77.7575,12.635],[77.756,12.6355],[77.7559,12.639],[77.7576,12.6414],[77.7728,12.6467],[77.7769,12.6537],[77.782,12.6552],[77.7804,12.6599],[77.7809,12.6635],[77.7781,12.6663],[77.7788,12.6717]],[[77.92738,12.88163],[77.9265,12.8819],[77.926,12.882],[77.9262,12.8819],[77.92738,12.88163]],[[77.8567,12.865],[77.8567,12.8657],[77.8566,12.8647],[77.8567,12.865]],[[77.9148,12.8047],[77.913,12.7993],[77.919,12.7969],[77.9203,12.7981],[77.9196,12.8034],[77.923,12.808],[77.9256,12.8151],[77.9154,12.8175],[77.9114,12.8114],[77.9113,12.8065],[77.9148,12.8047]],[[77.9046,12.7773],[77.9085,12.7886],[77.9037,12.7951],[77.9036,12.7979],[77.8978,12.8],[77.8946,12.792],[77.8909,12.7898],[77.8853,12.7916],[77.8863,12.7885],[77.8853,12.7864],[77.9003,12.7815],[77.9021,12.7805],[77.9032,12.7774],[77.9046,12.7773]]]}},{"type":"Feature","properties":{"name":"Kaveripattinam","level":"block","lgdBlockCode":6512,"parentDistrict":"Krishnagiri","pagePath":"/atlas/tn/krishnagiri/blocks/6512","pageLabel":"Open this block's page","shedId":"SBP17"},"geometry":{"type":"MultiPolygon","coordinates":[[[[78.1661,12.4244],[78.1733,12.4298],[78.1747,12.436],[78.1736,12.4374],[78.1749,12.439],[78.1733,12.442],[78.1759,12.4434],[78.171,12.445],[78.1698,12.4479],[78.1656,12.4502],[78.1704,12.4688],[78.1669,12.4694],[78.183,12.4674],[78.1897,12.4696],[78.1921,12.4624],[78.1973,12.4585],[78.2163,12.453],[78.2162,12.4581],[78.2181,12.4591],[78.2229,12.4583],[78.2305,12.452],[78.2314,12.451],[78.2307,12.4491],[78.2333,12.4472],[78.2315,12.4431],[78.2325,12.4418],[78.2311,12.4357],[78.2321,12.4312],[78.236,12.4335],[78.2361,12.4358],[78.2382,12.4377],[78.2462,12.454],[78.2483,12.4532],[78.2538,12.4561],[78.2529,12.46],[78.2541,12.458],[78.2603,12.4596],[78.2708,12.4567],[78.2764,12.4368],[78.2821,12.4374],[78.2845,12.4303],[78.2907,12.4251],[78.2936,12.4256],[78.2952,12.4293],[78.299,12.4324],[78.3011,12.4312],[78.2976,12.4233],[78.301,12.42],[78.3016,12.4121],[78.304,12.409],[78.3032,12.4083],[78.3055,12.4066],[78.3046,12.4054],[78.3033,12.4066],[78.3046,12.4049],[78.3009,12.3996],[78.3032,12.3975],[78.3033,12.3956],[78.3014,12.3956],[78.3019,12.3912],[78.2942,12.39],[78.2944,12.3868],[78.2968,12.3834],[78.2966,12.3789],[78.2996,12.3781],[78.3024,12.3794],[78.3044,12.3832],[78.3056,12.3827],[78.306,12.3785],[78.3094,12.3746],[78.3108,12.3745],[78.3138,12.3775],[78.3158,12.3733],[78.3208,12.3741],[78.322,12.3733],[78.3214,12.3723],[78.3234,12.373],[78.3274,12.369],[78.3276,12.3658],[78.3306,12.3632],[78.3329,12.3636],[78.3374,12.3615],[78.3385,12.3571],[78.3377,12.3546],[78.3449,12.3536],[78.3415,12.3442],[78.3397,12.344],[78.3432,12.3401],[78.3372,12.3267],[78.3357,12.3118],[78.3324,12.3074],[78.3319,12.3008],[78.3258,12.2908],[78.3363,12.2837],[78.3372,12.2802],[78.3479,12.2785],[78.3494,12.2772],[78.3494,12.2753],[78.351,12.2749],[78.3502,12.2736],[78.3547,12.2714],[78.3526,12.2616],[78.3549,12.2601],[78.3508,12.2491],[78.3443,12.252],[78.3345,12.2641],[78.328,12.2651],[78.3259,12.2635],[78.323,12.2578],[78.3198,12.2584],[78.314,12.2613],[78.311,12.2653],[78.3057,12.2659],[78.3027,12.272],[78.2977,12.2731],[78.2981,12.2717],[78.2906,12.2701],[78.2885,12.2681],[78.2834,12.2688],[78.2788,12.2636],[78.2779,12.2592],[78.2659,12.2631],[78.2665,12.2654],[78.264,12.2664],[78.2647,12.2687],[78.2608,12.2712],[78.2623,12.2752],[78.259,12.2765],[78.2596,12.2783],[78.2587,12.2786],[78.2617,12.284],[78.26,12.2847],[78.2613,12.2889],[78.2573,12.2897],[78.2585,12.2938],[78.2534,12.2948],[78.2463,12.2998],[78.2328,12.3021],[78.2353,12.3076],[78.2349,12.3103],[78.2294,12.3131],[78.2287,12.3149],[78.2288,12.3154],[78.2315,12.3191],[78.2367,12.3186],[78.2401,12.3202],[78.2417,12.3234],[78.2456,12.3265],[78.2449,12.3289],[78.2404,12.3314],[78.241,12.3327],[78.2376,12.3347],[78.2395,12.3365],[78.2366,12.3399],[78.2375,12.3419],[78.2363,12.3433],[78.2378,12.3451],[78.2367,12.3466],[78.2333,12.3468],[78.2311,12.3487],[78.2233,12.3463],[78.2214,12.3439],[78.2185,12.3434],[78.2133,12.3318],[78.2039,12.3274],[78.2048,12.3286],[78.203,12.3279],[78.203,12.3315],[78.1998,12.3352],[78.1965,12.3323],[78.1883,12.3348],[78.185,12.3324],[78.1822,12.3351],[78.1801,12.3355],[78.1784,12.3339],[78.1755,12.3349],[78.1741,12.3382],[78.1706,12.3404],[78.1697,12.3435],[78.1659,12.3462],[78.1646,12.3508],[78.165,12.3556],[78.1675,12.3616],[78.1539,12.3642],[78.1533,12.3666],[78.1519,12.3656],[78.1485,12.3682],[78.142,12.3694],[78.142,12.3734],[78.1374,12.3833],[78.1372,12.3889],[78.1293,12.4038],[78.1348,12.4079],[78.1343,12.4106],[78.132,12.4097],[78.1316,12.4145],[78.1368,12.4181],[78.1398,12.4229],[78.1395,12.4259],[78.141,12.4252],[78.1429,12.4265],[78.1411,12.4332],[78.1479,12.4308],[78.1488,12.4331],[78.1576,12.4329],[78.1638,12.4281],[78.1596,12.4236],[78.1541,12.4223],[78.153,12.4207],[78.157,12.4133],[78.1545,12.4095],[78.1574,12.4078],[78.163,12.4085],[78.1647,12.4152],[78.1636,12.4221],[78.1654,12.4235],[78.1631,12.4242],[78.1661,12.4244]]],[[[78.2435,12.3289],[78.2437,12.3287],[78.2434,12.3282],[78.2435,12.3289]]],[[[78.1674,12.4289],[78.1652,12.4277],[78.1655,12.4305],[78.1674,12.4289]]]]}},{"type":"Feature","properties":{"name":"Kelamangalam","level":"block","lgdBlockCode":6513,"parentDistrict":"Krishnagiri","pagePath":"/atlas/tn/krishnagiri/blocks/6513","pageLabel":"Open this block's page","shedId":"SB115"},"geometry":{"type":"MultiPolygon","coordinates":[[[[77.8541,12.6766],[77.8577,12.6673],[77.86,12.6659],[77.8754,12.6622],[77.8736,12.653],[77.8715,12.65],[77.8775,12.6437],[77.8735,12.6428],[77.8715,12.6395],[77.8694,12.6398],[77.8668,12.6378],[77.8641,12.6376],[77.8613,12.6259],[77.8624,12.6214],[77.8637,12.62],[77.8775,12.6177],[77.8816,12.6119],[77.8901,12.6075],[77.9032,12.6036],[77.906,12.6048],[77.9094,12.6088],[77.9162,12.6013],[77.922,12.6031],[77.9225,12.6007],[77.9298,12.5998],[77.93,12.5976],[77.9329,12.5951],[77.933,12.5924],[77.9315,12.5904],[77.9353,12.5901],[77.9399,12.5848],[77.9435,12.5849],[77.9557,12.5794],[77.9557,12.574],[77.9544,12.5721],[77.9501,12.5703],[77.9498,12.5689],[77.9498,12.5609],[77.9549,12.5546],[77.9733,12.559],[77.9757,12.564],[77.9758,12.568],[77.9715,12.5717],[77.969,12.5723],[77.9704,12.5774],[77.9748,12.579],[77.9787,12.5853],[77.9861,12.5803],[77.9941,12.5776],[77.9983,12.5807],[78.0002,12.5841],[78.0014,12.58],[78.0081,12.5715],[78.0103,12.5706],[78.0139,12.5715],[78.0168,12.5746],[78.0216,12.5746],[78.0241,12.5769],[78.0243,12.5806],[78.0275,12.5812],[78.0297,12.5774],[78.0364,12.576],[78.0385,12.5742],[78.0418,12.5768],[78.0489,12.5781],[78.0543,12.5706],[78.0725,12.5682],[78.0744,12.5724],[78.0784,12.5703],[78.0766,12.5652],[78.0785,12.5543],[78.0795,12.555],[78.0793,12.5498],[78.0764,12.5454],[78.0744,12.5361],[78.071,12.5323],[78.0657,12.5348],[78.0624,12.5344],[78.0632,12.5264],[78.0621,12.5206],[78.0574,12.5134],[78.0503,12.4949],[78.0523,12.4787],[78.0497,12.4787],[78.0463,12.4728],[78.0427,12.4732],[78.0413,12.4718],[78.0384,12.4622],[78.0404,12.4621],[78.0406,12.4619],[78.0353,12.4626],[78.0325,12.4649],[78.0288,12.464],[78.0274,12.466],[78.0243,12.4651],[78.0229,12.4674],[78.0213,12.4666],[78.0207,12.4688],[78.0219,12.4707],[78.0204,12.4716],[78.0208,12.4732],[78.0165,12.4758],[78.0164,12.4779],[78.0135,12.4802],[78.0152,12.4911],[78.0132,12.4928],[78.0124,12.4962],[78.0134,12.5021],[78.0126,12.5006],[78.0113,12.5029],[78.0041,12.5028],[78.0027,12.5005],[77.9966,12.5001],[77.9925,12.5026],[77.9898,12.5082],[77.9841,12.5083],[77.9824,12.5032],[77.9844,12.4978],[77.9812,12.4963],[77.9774,12.4973],[77.9762,12.4959],[77.9726,12.4972],[77.9674,12.4916],[77.9679,12.4891],[77.9663,12.485],[77.9621,12.4853],[77.9608,12.4835],[77.9536,12.4858],[77.9542,12.4931],[77.9525,12.498],[77.9541,12.4994],[77.9531,12.5022],[77.9513,12.5025],[77.9492,12.5065],[77.9476,12.5047],[77.9475,12.5009],[77.9459,12.4994],[77.9475,12.5047],[77.9401,12.5135],[77.9199,12.504],[77.9123,12.5059],[77.9087,12.5102],[77.9053,12.5051],[77.9007,12.5031],[77.8991,12.504],[77.9017,12.5014],[77.9075,12.4992],[77.9101,12.4924],[77.9223,12.4915],[77.924,12.4904],[77.9269,12.4827],[77.9348,12.4718],[77.9342,12.4705],[77.936,12.4668],[77.9333,12.4593],[77.935,12.453],[77.9383,12.4492],[77.9395,12.4515],[77.9435,12.4515],[77.9477,12.4468],[77.9478,12.443],[77.9526,12.4401],[77.9533,12.4406],[77.9512,12.4436],[77.9521,12.4428],[77.9546,12.4391],[77.9528,12.4399],[77.9586,12.4332],[77.9628,12.4304],[77.9666,12.4188],[77.9711,12.413],[77.9727,12.4128],[77.9713,12.4123],[77.9711,12.4093],[77.9686,12.4055],[77.9681,12.4021],[77.9703,12.4009],[77.9677,12.3936],[77.9501,12.3751],[77.9505,12.3626],[77.9536,12.3573],[77.9544,12.3514],[77.9487,12.3486],[77.9475,12.3411],[77.9482,12.3363],[77.9349,12.3301],[77.9326,12.3269],[77.927,12.3253],[77.9218,12.3256],[77.9176,12.3282],[77.9119,12.3284],[77.9085,12.3265],[77.902,12.331],[77.8964,12.3318],[77.8946,12.3335],[77.8813,12.3337],[77.8785,12.3359],[77.8748,12.3331],[77.8669,12.3302],[77.8613,12.3336],[77.8512,12.337],[77.849,12.3358],[77.8406,12.3252],[77.8375,12.324],[77.8339,12.3261],[77.8288,12.3343],[77.8193,12.345],[77.8198,12.3493],[77.8287,12.366],[77.8327,12.3711],[77.8371,12.3736],[77.8505,12.3897],[77.8515,12.3922],[77.8484,12.4056],[77.8347,12.4067],[77.834,12.4051],[77.8241,12.4092],[77.817,12.4139],[77.813,12.4148],[77.8132,12.4248],[77.8159,12.4273],[77.8178,12.4338],[77.8083,12.4344],[77.8066,12.4399],[77.8035,12.4437],[77.7933,12.446],[77.7905,12.4447],[77.7917,12.4406],[77.79,12.4392],[77.7899,12.4371],[77.7873,12.4363],[77.7811,12.4374],[77.7808,12.4409],[77.7714,12.4375],[77.7691,12.4379],[77.7734,12.4461],[77.7747,12.4587],[77.7793,12.4666],[77.7809,12.4664],[77.789,12.4712],[77.8,12.4681],[77.8,12.4696],[77.8008,12.4688],[77.8015,12.4705],[77.8025,12.4703],[77.8022,12.4715],[77.805,12.4704],[77.8055,12.469],[77.8036,12.4656],[77.804,12.4645],[77.8039,12.4657],[77.8147,12.4662],[77.814,12.475],[77.8131,12.4773],[77.8109,12.4763],[77.8123,12.4786],[77.8099,12.4827],[77.8036,12.4849],[77.8013,12.4842],[77.8002,12.4813],[77.7989,12.482],[77.7938,12.4755],[77.7916,12.476],[77.7905,12.4797],[77.7857,12.4801],[77.7861,12.4834],[77.7903,12.4838],[77.7906,12.4871],[77.7891,12.4878],[77.7887,12.492],[77.7876,12.4928],[77.7885,12.4948],[77.7878,12.4974],[77.7828,12.503],[77.7813,12.5029],[77.7823,12.5058],[77.7839,12.5062],[77.7848,12.5091],[77.7837,12.5118],[77.7859,12.5136],[77.7871,12.5171],[77.7852,12.5184],[77.7867,12.5227],[77.783,12.5259],[77.7768,12.5281],[77.7723,12.523],[77.7676,12.522],[77.7639,12.5116],[77.7689,12.506],[77.7684,12.5007],[77.7634,12.4916],[77.7631,12.4875],[77.7572,12.4859],[77.7539,12.4809],[77.7519,12.4813],[77.7511,12.4836],[77.7463,12.4844],[77.7451,12.4857],[77.7283,12.4885],[77.7277,12.4941],[77.7255,12.496],[77.7236,12.5027],[77.7203,12.5058],[77.7221,12.5179],[77.7209,12.5256],[77.7216,12.5318],[77.7304,12.5394],[77.7442,12.5383],[77.7452,12.5409],[77.7491,12.5419],[77.7495,12.5447],[77.7507,12.5443],[77.7504,12.5419],[77.7527,12.5451],[77.7561,12.5436],[77.7555,12.5491],[77.7614,12.5473],[77.7683,12.5367],[77.7709,12.5354],[77.7715,12.5367],[77.7771,12.5338],[77.777,12.5319],[77.7787,12.532],[77.78,12.5282],[77.7847,12.5289],[77.7854,12.5326],[77.783,12.5372],[77.7859,12.5419],[77.7893,12.5412],[77.7893,12.5364],[77.7918,12.5391],[77.7921,12.535],[77.7995,12.5349],[77.8028,12.5325],[77.8043,12.533],[77.8038,12.5313],[77.8055,12.5299],[77.8105,12.54],[77.8164,12.5396],[77.8155,12.5354],[77.8105,12.5344],[77.8051,12.5282],[77.8111,12.5265],[77.8138,12.5242],[77.817,12.5254],[77.8167,12.528],[77.8189,12.5309],[77.8241,12.5304],[77.8273,12.5366],[77.8323,12.539],[77.8328,12.5419],[77.8357,12.5447],[77.8363,12.549],[77.8337,12.5522],[77.8284,12.5535],[77.8301,12.5554],[77.8252,12.5612],[77.8272,12.57],[77.8289,12.5716],[77.8357,12.569],[77.8375,12.5717],[77.835,12.5752],[77.832,12.5759],[77.8306,12.5743],[77.8283,12.5784],[77.8216,12.58],[77.8183,12.5796],[77.816,12.5775],[77.8114,12.5791],[77.8084,12.5781],[77.8025,12.5831],[77.7965,12.5839],[77.7929,12.5826],[77.7914,12.5873],[77.7919,12.5901],[77.7949,12.5855],[77.7961,12.5872],[77.7951,12.5935],[77.7972,12.5943],[77.7987,12.5971],[77.8014,12.6068],[77.8075,12.6067],[77.8133,12.6088],[77.8187,12.6083],[77.8194,12.6171],[77.8182,12.6227],[77.8169,12.6249],[77.8146,12.6243],[77.8121,12.629],[77.8174,12.6358],[77.8164,12.6488],[77.8259,12.6484],[77.829,12.6512],[77.8322,12.6512],[77.8397,12.6679],[77.8457,12.6661],[77.8472,12.6674],[77.8486,12.6737],[77.8541,12.6766]],[[78.0136,12.5024],[78.0137,12.5024],[78.0138,12.5025],[78.0136,12.5024]],[[77.8697,12.4448],[77.8683,12.4418],[77.8691,12.4333],[77.8746,12.4357],[77.8737,12.4451],[77.8697,12.4448]]],[[[77.92195,12.6034],[77.922,12.6038],[77.9221,12.6043],[77.92195,12.6034]]],[[[77.8151,12.3896],[77.8221,12.3891],[77.8255,12.3873],[77.8237,12.3805],[77.8246,12.3766],[77.8228,12.3748],[77.8156,12.3826],[77.8137,12.383],[77.8151,12.3896]]],[[[77.7919,12.4745],[77.7925,12.473],[77.7919,12.473],[77.7919,12.4745]]]]}},{"type":"Feature","properties":{"name":"Krishnagiri","level":"block","lgdBlockCode":6514,"parentDistrict":"Krishnagiri","pagePath":"/atlas/tn/krishnagiri/blocks/6514","pageLabel":"Open this block's page","shedId":"SBP16"},"geometry":{"type":"MultiPolygon","coordinates":[[[[78.1001,12.577],[78.1087,12.5796],[78.1168,12.5786],[78.1224,12.5798],[78.1339,12.5767],[78.1404,12.5716],[78.1495,12.5697],[78.1494,12.5759],[78.1574,12.5734],[78.1631,12.5733],[78.1645,12.5719],[78.1636,12.5737],[78.1653,12.5774],[78.1714,12.5778],[78.1727,12.5743],[78.1711,12.5709],[78.174,12.57],[78.1732,12.5683],[78.1761,12.5663],[78.1769,12.5608],[78.1807,12.5621],[78.182,12.5614],[78.1847,12.5638],[78.1947,12.5631],[78.1999,12.565],[78.2015,12.5706],[78.2058,12.5773],[78.2057,12.5798],[78.2042,12.5812],[78.2049,12.5842],[78.2032,12.5947],[78.2012,12.5947],[78.1997,12.5964],[78.1983,12.6022],[78.2002,12.6108],[78.2064,12.6176],[78.205,12.6208],[78.2169,12.622],[78.2195,12.6255],[78.2197,12.6299],[78.2221,12.6303],[78.2194,12.6378],[78.2157,12.6394],[78.215,12.6415],[78.2156,12.6453],[78.2143,12.6494],[78.2133,12.6495],[78.215,12.6542],[78.2138,12.6558],[78.2161,12.6583],[78.2185,12.6576],[78.2199,12.6556],[78.2238,12.6573],[78.227,12.6569],[78.2364,12.6644],[78.238,12.6747],[78.2368,12.6815],[78.2384,12.6977],[78.2401,12.7027],[78.2441,12.7043],[78.2451,12.7064],[78.2609,12.7046],[78.2693,12.7054],[78.276,12.7021],[78.2918,12.6817],[78.2959,12.6747],[78.2965,12.671],[78.3013,12.6676],[78.3011,12.6581],[78.3065,12.6382],[78.3121,12.6311],[78.3195,12.6173],[78.32,12.6115],[78.3137,12.6124],[78.3116,12.6143],[78.3098,12.6117],[78.3099,12.6064],[78.3056,12.6069],[78.3037,12.6036],[78.2951,12.6086],[78.2943,12.6116],[78.2858,12.6123],[78.2843,12.6144],[78.2834,12.6129],[78.2755,12.6111],[78.2713,12.6176],[78.269,12.6182],[78.2691,12.6095],[78.2626,12.5981],[78.2625,12.5943],[78.2656,12.5894],[78.2696,12.5871],[78.2726,12.5869],[78.2725,12.5833],[78.278,12.5824],[78.2786,12.579],[78.2864,12.577],[78.2884,12.5731],[78.2876,12.5714],[78.2838,12.5703],[78.2825,12.5656],[78.2802,12.5646],[78.2762,12.5554],[78.275,12.5555],[78.2688,12.5482],[78.2629,12.5485],[78.2635,12.5433],[78.2613,12.5427],[78.263,12.5416],[78.2612,12.5351],[78.264,12.5332],[78.2641,12.5268],[78.2605,12.5136],[78.2566,12.5066],[78.2563,12.5053],[78.2576,12.5047],[78.2578,12.5044],[78.2562,12.5053],[78.2556,12.5043],[78.2562,12.5025],[78.2528,12.4982],[78.249,12.4869],[78.2611,12.4801],[78.264,12.4704],[78.2644,12.4658],[78.263,12.4615],[78.2614,12.4595],[78.2556,12.4582],[78.2541,12.458],[78.2529,12.46],[78.2538,12.4561],[78.2483,12.4532],[78.2462,12.454],[78.2382,12.4377],[78.2361,12.4358],[78.236,12.4335],[78.232,12.4311],[78.2311,12.4357],[78.2325,12.4418],[78.2315,12.4431],[78.2333,12.4472],[78.2307,12.4491],[78.2314,12.451],[78.2305,12.452],[78.2229,12.4583],[78.2181,12.4591],[78.2162,12.4581],[78.2163,12.453],[78.1973,12.4585],[78.1921,12.4624],[78.1897,12.4696],[78.183,12.4674],[78.1705,12.469],[78.1654,12.4509],[78.1664,12.4492],[78.1698,12.4479],[78.171,12.445],[78.1759,12.4434],[78.1733,12.442],[78.1749,12.439],[78.1736,12.4374],[78.1747,12.436],[78.173,12.4293],[78.1661,12.4244],[78.1631,12.4242],[78.1654,12.4236],[78.1636,12.4221],[78.1645,12.4132],[78.163,12.4085],[78.1613,12.4077],[78.1586,12.4075],[78.1546,12.4093],[78.157,12.4133],[78.153,12.4202],[78.1541,12.4223],[78.1596,12.4236],[78.1638,12.4281],[78.1608,12.4296],[78.1589,12.4323],[78.1488,12.4331],[78.1479,12.4308],[78.1433,12.4318],[78.1398,12.4344],[78.121,12.4423],[78.1182,12.4421],[78.116,12.4466],[78.1172,12.45],[78.1185,12.4502],[78.1172,12.454],[78.1159,12.4543],[78.111,12.4549],[78.1082,12.4534],[78.1065,12.4501],[78.1013,12.4481],[78.0999,12.4445],[78.098,12.4446],[78.0982,12.4435],[78.0938,12.4461],[78.0815,12.4481],[78.0785,12.4537],[78.0795,12.4585],[78.0783,12.4622],[78.0716,12.4642],[78.0607,12.4642],[78.0476,12.4749],[78.0497,12.4787],[78.0523,12.4787],[78.0503,12.4949],[78.0574,12.5134],[78.0621,12.5206],[78.0632,12.5264],[78.0624,12.5344],[78.0657,12.5348],[78.071,12.5323],[78.0744,12.5361],[78.0764,12.5454],[78.0793,12.5498],[78.0795,12.555],[78.0847,12.5612],[78.0905,12.5619],[78.0946,12.564],[78.0961,12.5682],[78.0979,12.5682],[78.1001,12.577]]],[[[78.2578,12.5044],[78.2578,12.5042],[78.2577,12.5042],[78.2578,12.5044]]]]}},{"type":"Feature","properties":{"name":"Mathur","level":"block","lgdBlockCode":6515,"parentDistrict":"Krishnagiri","pagePath":"/atlas/tn/krishnagiri/blocks/6515","pageLabel":"Open this block's page","shedId":"SBP05"},"geometry":{"type":"MultiPolygon","coordinates":[[[[78.389,12.3992],[78.3798,12.4011],[78.3785,12.3994],[78.3689,12.407],[78.363,12.4096],[78.3705,12.421],[78.3678,12.4222],[78.3718,12.4273],[78.3742,12.4288],[78.3764,12.4282],[78.3775,12.4328],[78.3756,12.4359],[78.3767,12.4379],[78.3762,12.4408],[78.3749,12.4407],[78.377,12.4441],[78.3874,12.4405],[78.3917,12.4463],[78.3938,12.446],[78.3927,12.4504],[78.3946,12.4514],[78.4,12.4491],[78.3997,12.4471],[78.4008,12.4464],[78.4062,12.4457],[78.4077,12.4441],[78.4074,12.4426],[78.4107,12.4433],[78.4093,12.4379],[78.4115,12.4337],[78.4104,12.4316],[78.4128,12.4306],[78.4125,12.4273],[78.4174,12.4265],[78.4197,12.4326],[78.4214,12.4331],[78.4254,12.4384],[78.4247,12.4405],[78.4269,12.4454],[78.4317,12.4449],[78.4335,12.4427],[78.4385,12.4443],[78.4442,12.4511],[78.4459,12.4507],[78.4457,12.4484],[78.4484,12.4478],[78.447,12.4419],[78.4502,12.4392],[78.4522,12.4317],[78.4556,12.4299],[78.4539,12.425],[78.4505,12.4216],[78.4475,12.4137],[78.4453,12.4143],[78.4408,12.4084],[78.4402,12.4039],[78.439,12.4036],[78.4348,12.3948],[78.4408,12.3904],[78.4453,12.3915],[78.453,12.3868],[78.46,12.3849],[78.4616,12.3859],[78.4633,12.3913],[78.4733,12.3895],[78.4741,12.3904],[78.4859,12.3896],[78.4883,12.3871],[78.4919,12.3999],[78.4887,12.4],[78.4889,12.4012],[78.4958,12.4128],[78.5053,12.4003],[78.5097,12.3992],[78.5131,12.4011],[78.515,12.4068],[78.5251,12.4005],[78.526,12.3958],[78.5246,12.393],[78.5258,12.39],[78.5239,12.3895],[78.5261,12.3861],[78.5265,12.3794],[78.5239,12.3753],[78.5274,12.373],[78.526,12.3691],[78.524,12.3666],[78.5229,12.3672],[78.5222,12.3629],[78.5207,12.3629],[78.5204,12.3571],[78.5274,12.3536],[78.5319,12.3549],[78.5335,12.3566],[78.5356,12.3558],[78.5348,12.3499],[78.5369,12.3386],[78.5303,12.3363],[78.5273,12.3397],[78.5195,12.3425],[78.5162,12.3424],[78.5151,12.3407],[78.5184,12.3364],[78.5171,12.3347],[78.5187,12.3334],[78.5184,12.3324],[78.5176,12.3334],[78.515,12.3331],[78.5089,12.3258],[78.5077,12.3223],[78.5097,12.3175],[78.5085,12.3155],[78.5061,12.3147],[78.5052,12.3117],[78.5105,12.3084],[78.5107,12.3069],[78.5108,12.3069],[78.5106,12.3084],[78.515,12.3123],[78.5133,12.3135],[78.5133,12.3153],[78.5158,12.3143],[78.5163,12.3158],[78.5219,12.315],[78.522,12.3138],[78.5241,12.3137],[78.5238,12.3115],[78.5253,12.3105],[78.5241,12.3045],[78.5168,12.3045],[78.5158,12.3005],[78.5106,12.3015],[78.5123,12.2953],[78.5072,12.2961],[78.502,12.2929],[78.5031,12.2882],[78.4981,12.2907],[78.4953,12.2904],[78.4925,12.2896],[78.489,12.2844],[78.481,12.2856],[78.4788,12.2835],[78.4755,12.2706],[78.4678,12.2643],[78.4875,12.2577],[78.4858,12.2533],[78.4891,12.2527],[78.4891,12.2487],[78.4903,12.2489],[78.492,12.245],[78.487,12.2428],[78.4816,12.2375],[78.4786,12.2311],[78.4753,12.2324],[78.4638,12.2459],[78.4586,12.2461],[78.4542,12.2494],[78.4545,12.2511],[78.4516,12.2511],[78.4486,12.2537],[78.4448,12.2549],[78.4439,12.2539],[78.4407,12.2552],[78.4366,12.2533],[78.4347,12.2577],[78.4323,12.259],[78.4317,12.2574],[78.4269,12.2586],[78.4264,12.257],[78.425,12.2574],[78.4247,12.2455],[78.4259,12.2456],[78.4246,12.2454],[78.4235,12.2421],[78.4167,12.243],[78.415,12.2409],[78.4115,12.2419],[78.4107,12.2406],[78.4084,12.2412],[78.4074,12.2502],[78.4001,12.2531],[78.3988,12.2555],[78.4,12.2577],[78.3919,12.2594],[78.3913,12.2566],[78.3887,12.2574],[78.3878,12.256],[78.3862,12.2562],[78.3853,12.2509],[78.3828,12.251],[78.3814,12.2487],[78.3691,12.2526],[78.362,12.2517],[78.3591,12.2534],[78.3552,12.2476],[78.3508,12.2491],[78.3549,12.2601],[78.3526,12.2616],[78.3547,12.2714],[78.3657,12.2696],[78.369,12.273],[78.3818,12.2714],[78.3864,12.283],[78.389,12.2852],[78.3887,12.2889],[78.4039,12.2894],[78.4093,12.3035],[78.4124,12.3036],[78.4271,12.3125],[78.4271,12.3206],[78.4294,12.3269],[78.4199,12.3301],[78.4198,12.3328],[78.418,12.3336],[78.4174,12.3355],[78.4188,12.3422],[78.4142,12.3407],[78.411,12.3354],[78.4035,12.3351],[78.3985,12.3301],[78.3871,12.3302],[78.3837,12.3331],[78.3887,12.3474],[78.3875,12.3574],[78.3851,12.3581],[78.3867,12.3652],[78.3896,12.369],[78.3929,12.37],[78.3986,12.3757],[78.4008,12.3754],[78.4044,12.3798],[78.4001,12.3834],[78.3998,12.3864],[78.3906,12.3953],[78.389,12.3992]],[[78.389,12.3992],[78.3892,12.3992],[78.3891,12.4003],[78.389,12.3992]],[[78.417,12.3419],[78.417,12.342],[78.4165,12.3432],[78.417,12.3419]]],[[[78.3966,12.3742],[78.3954,12.3749],[78.3951,12.3756],[78.3955,12.3749],[78.3966,12.3742]]],[[[78.4259,12.2456],[78.426,12.2457],[78.426,12.2456],[78.4259,12.2456]]],[[[78.5199,12.286],[78.5239,12.2831],[78.5216,12.2829],[78.5215,12.2806],[78.5268,12.2782],[78.526,12.2741],[78.5094,12.2778],[78.5137,12.2843],[78.5199,12.286]]]]}},{"type":"Feature","properties":{"name":"Shoolagiri","level":"block","lgdBlockCode":6516,"parentDistrict":"Krishnagiri","pagePath":"/atlas/tn/krishnagiri/blocks/6516","pageLabel":"Open this block's page","shedId":"SBP02"},"geometry":{"type":"MultiPolygon","coordinates":[[[[77.9032,12.6036],[77.8859,12.6094],[77.8816,12.6119],[77.8773,12.6178],[77.8637,12.62],[77.8613,12.6259],[77.8641,12.6376],[77.8668,12.6378],[77.8694,12.6398],[77.8715,12.6395],[77.8735,12.6428],[77.8775,12.6437],[77.8715,12.65],[77.8736,12.653],[77.8754,12.6623],[77.8785,12.6625],[77.878,12.664],[77.88,12.6659],[77.8843,12.6655],[77.8915,12.667],[77.8965,12.6699],[77.9019,12.67],[77.9063,12.6719],[77.9106,12.6714],[77.9126,12.6862],[77.9106,12.6928],[77.8982,12.7034],[77.8955,12.7024],[77.897,12.7084],[77.9025,12.7073],[77.9035,12.7133],[77.8951,12.7181],[77.8968,12.7262],[77.8896,12.7301],[77.8844,12.7313],[77.8876,12.7419],[77.8884,12.743],[77.8916,12.7419],[77.8943,12.7464],[77.8967,12.7467],[77.9012,12.7423],[77.9011,12.7411],[77.907,12.7394],[77.9154,12.7394],[77.9182,12.738],[77.9188,12.735],[77.9232,12.7385],[77.928,12.7542],[77.9319,12.7595],[77.9329,12.7654],[77.9429,12.7627],[77.9449,12.7632],[77.9465,12.7657],[77.9493,12.7648],[77.9501,12.7713],[77.9481,12.7782],[77.9378,12.7807],[77.9344,12.7761],[77.9223,12.7792],[77.9217,12.7824],[77.9244,12.7906],[77.927,12.789],[77.9308,12.7889],[77.9302,12.7899],[77.9321,12.7926],[77.9393,12.7973],[77.9402,12.7997],[77.94,12.8044],[77.9369,12.8048],[77.9364,12.8092],[77.9342,12.8095],[77.9335,12.8118],[77.9338,12.814],[77.9385,12.8166],[77.9413,12.8232],[77.941,12.8271],[77.9451,12.8369],[77.9468,12.8381],[77.9407,12.8453],[77.9401,12.8509],[77.9411,12.8558],[77.9453,12.8578],[77.9523,12.8567],[77.953,12.8554],[77.9511,12.8522],[77.9537,12.8527],[77.9533,12.8503],[77.9594,12.8487],[77.964,12.8504],[77.9655,12.8484],[77.965,12.845],[77.9619,12.8366],[77.9606,12.836],[77.9624,12.8366],[77.9645,12.8333],[77.9664,12.8328],[77.9734,12.8331],[77.9745,12.8354],[77.981,12.8348],[77.9796,12.8274],[77.9859,12.8233],[77.9912,12.8218],[77.9889,12.8084],[77.9962,12.8063],[77.997,12.8082],[78.0055,12.808],[78.0101,12.8053],[78.0127,12.8078],[78.0154,12.8135],[78.0129,12.818],[78.009,12.8191],[78.0039,12.8232],[78.0037,12.8261],[78.0104,12.8305],[78.0143,12.8295],[78.0184,12.8309],[78.0191,12.8436],[78.0239,12.8415],[78.0294,12.8476],[78.0292,12.8494],[78.0259,12.8507],[78.0231,12.8555],[78.0273,12.8582],[78.0305,12.8571],[78.0311,12.8522],[78.0379,12.8521],[78.0432,12.8494],[78.05,12.8484],[78.0506,12.8511],[78.0535,12.8536],[78.0589,12.8505],[78.0595,12.8431],[78.0755,12.8404],[78.0774,12.8384],[78.0749,12.8356],[78.0743,12.8308],[78.0767,12.8302],[78.0782,12.8317],[78.0841,12.8322],[78.0868,12.8313],[78.0881,12.8271],[78.087,12.825],[78.0902,12.8233],[78.0898,12.8173],[78.091,12.8166],[78.0837,12.806],[78.0873,12.7975],[78.084,12.7966],[78.081,12.7895],[78.0765,12.7841],[78.0775,12.7843],[78.0802,12.7782],[78.0795,12.7766],[78.0809,12.7725],[78.0793,12.7713],[78.0779,12.7659],[78.0732,12.7626],[78.0733,12.761],[78.0713,12.7612],[78.0714,12.7593],[78.0733,12.7587],[78.0723,12.7569],[78.0732,12.7534],[78.0714,12.7487],[78.0722,12.7464],[78.0706,12.745],[78.0706,12.7413],[78.0681,12.7365],[78.0687,12.7308],[78.0675,12.7229],[78.0753,12.7186],[78.078,12.7158],[78.0866,12.7156],[78.0903,12.7202],[78.0956,12.7176],[78.0994,12.7095],[78.0939,12.7063],[78.0953,12.7004],[78.092,12.696],[78.0927,12.6934],[78.0942,12.6905],[78.0967,12.6916],[78.1008,12.6891],[78.1025,12.6815],[78.1047,12.6797],[78.1015,12.6707],[78.104,12.6679],[78.1037,12.6636],[78.1077,12.6638],[78.1087,12.6628],[78.1114,12.656],[78.1155,12.6519],[78.1171,12.6475],[78.1213,12.6437],[78.1226,12.639],[78.1226,12.6378],[78.1118,12.6383],[78.1148,12.6371],[78.1151,12.6349],[78.12,12.6294],[78.1247,12.6288],[78.126,12.6228],[78.12135,12.6138],[78.1133,12.6132],[78.1129,12.6067],[78.1168,12.6062],[78.1094,12.6056],[78.1095,12.6001],[78.1011,12.5954],[78.1001,12.5761],[78.0986,12.5741],[78.0979,12.5682],[78.0961,12.5682],[78.0946,12.564],[78.084,12.5607],[78.0828,12.5577],[78.0785,12.5543],[78.0766,12.5652],[78.0784,12.5703],[78.0744,12.5724],[78.0727,12.5682],[78.0543,12.5706],[78.0489,12.5781],[78.0418,12.5768],[78.0385,12.5742],[78.0364,12.576],[78.0297,12.5774],[78.0275,12.5812],[78.0243,12.5806],[78.0241,12.5769],[78.0216,12.5746],[78.0168,12.5746],[78.0139,12.5715],[78.0103,12.5706],[78.0081,12.5715],[78.0014,12.58],[78.0002,12.5841],[77.9983,12.5807],[77.9941,12.5776],[77.9861,12.5803],[77.9787,12.5853],[77.9748,12.579],[77.9704,12.5774],[77.969,12.5723],[77.9715,12.5717],[77.9758,12.568],[77.9757,12.564],[77.9733,12.559],[77.9549,12.5546],[77.9498,12.5609],[77.9498,12.5689],[77.9501,12.5703],[77.9544,12.5721],[77.9557,12.574],[77.9557,12.5794],[77.9435,12.5849],[77.9399,12.5848],[77.9353,12.5901],[77.9315,12.5904],[77.933,12.5924],[77.9329,12.5951],[77.93,12.5976],[77.9298,12.5998],[77.9225,12.6007],[77.922,12.6031],[77.9162,12.6013],[77.9094,12.6088],[77.906,12.6048],[77.9032,12.6036]],[[77.92195,12.6034],[77.9221,12.6043],[77.922,12.6038],[77.92195,12.6034]]],[[[78.1077,12.6638],[78.1067,12.6679],[78.1072,12.6689],[78.1086,12.6649],[78.1077,12.6638]]],[[[77.9262,12.8662],[77.9288,12.8676],[77.9289,12.8653],[77.93,12.8658],[77.9309,12.863],[77.9326,12.8631],[77.9315,12.8661],[77.9296,12.8666],[77.9286,12.8709],[77.9297,12.875],[77.9369,12.8727],[77.942,12.8727],[77.9418,12.8673],[77.9367,12.8668],[77.9361,12.8619],[77.9316,12.8617],[77.9286,12.8574],[77.9265,12.8568],[77.9244,12.857],[77.9263,12.8609],[77.9262,12.8662]]],[[[77.9226,12.8074],[77.9196,12.8034],[77.9204,12.7987],[77.9195,12.7973],[77.913,12.7993],[77.9148,12.8047],[77.9113,12.8065],[77.9114,12.8114],[77.9154,12.8175],[77.9256,12.8151],[77.9226,12.8074]]],[[[77.8978,12.8],[77.9036,12.7979],[77.9037,12.7951],[77.9083,12.7902],[77.9082,12.7866],[77.9046,12.7772],[77.9032,12.7774],[77.9021,12.7805],[77.9003,12.7815],[77.8853,12.7864],[77.8863,12.7885],[77.8853,12.7916],[77.8909,12.7898],[77.8946,12.792],[77.8978,12.8]]]]}},{"type":"Feature","properties":{"name":"Uthangarai","level":"block","lgdBlockCode":6518,"parentDistrict":"Krishnagiri","pagePath":"/atlas/tn/krishnagiri/blocks/6518","pageLabel":"Open this block's page","shedId":"SBP05"},"geometry":{"type":"MultiPolygon","coordinates":[[[[78.3546,12.2289],[78.3569,12.23],[78.3578,12.2325],[78.3573,12.2369],[78.3543,12.2414],[78.354,12.2476],[78.3552,12.2476],[78.3591,12.2534],[78.362,12.2517],[78.3691,12.2526],[78.3814,12.2487],[78.3828,12.251],[78.3853,12.2509],[78.3862,12.2562],[78.3878,12.256],[78.3887,12.2574],[78.3913,12.2566],[78.3919,12.2594],[78.4,12.2577],[78.3988,12.2555],[78.4001,12.2531],[78.4074,12.2502],[78.4084,12.2412],[78.4107,12.2406],[78.4114,12.2419],[78.415,12.2409],[78.4167,12.243],[78.4235,12.2421],[78.4255,12.2523],[78.4244,12.2525],[78.4248,12.2569],[78.4264,12.257],[78.4269,12.2586],[78.4317,12.2574],[78.4323,12.259],[78.4347,12.2577],[78.4366,12.2533],[78.4407,12.2552],[78.4481,12.2539],[78.4516,12.2511],[78.4545,12.2511],[78.4542,12.2494],[78.4586,12.2461],[78.4638,12.2459],[78.4753,12.2324],[78.4786,12.2311],[78.4816,12.2375],[78.4869,12.2427],[78.492,12.245],[78.4903,12.2489],[78.4891,12.2487],[78.4891,12.2527],[78.4858,12.2533],[78.4875,12.2577],[78.4678,12.2643],[78.4755,12.2706],[78.4788,12.2835],[78.481,12.2856],[78.489,12.2844],[78.4925,12.2896],[78.4953,12.2904],[78.4981,12.2907],[78.5028,12.2888],[78.502,12.2929],[78.5072,12.2961],[78.5123,12.2953],[78.5107,12.3014],[78.5158,12.3005],[78.5168,12.3045],[78.5241,12.3045],[78.5253,12.3105],[78.5238,12.3115],[78.5241,12.3137],[78.522,12.3138],[78.5219,12.315],[78.5163,12.3158],[78.5158,12.3143],[78.5133,12.3153],[78.5133,12.3135],[78.515,12.3123],[78.5106,12.3081],[78.5052,12.3117],[78.5061,12.3147],[78.5085,12.3155],[78.5097,12.3175],[78.5077,12.3223],[78.5089,12.3258],[78.515,12.3331],[78.5176,12.3334],[78.5184,12.3324],[78.5171,12.3345],[78.5184,12.3364],[78.5151,12.3407],[78.5162,12.3424],[78.5195,12.3425],[78.5273,12.3397],[78.5303,12.3363],[78.5369,12.3386],[78.5348,12.3499],[78.5356,12.3558],[78.5335,12.3566],[78.5319,12.3549],[78.5274,12.3536],[78.5204,12.3571],[78.5207,12.3629],[78.5222,12.3629],[78.5229,12.3672],[78.524,12.3666],[78.526,12.3691],[78.5274,12.373],[78.5249,12.3747],[78.5265,12.3819],[78.5261,12.3861],[78.5239,12.3895],[78.5258,12.39],[78.5247,12.3938],[78.5259,12.3987],[78.5277,12.3996],[78.5354,12.3967],[78.5413,12.3983],[78.5473,12.395],[78.5484,12.3932],[78.5549,12.3904],[78.5693,12.3879],[78.5691,12.3814],[78.5774,12.3702],[78.5825,12.3658],[78.5839,12.3603],[78.6105,12.3525],[78.6167,12.3477],[78.6138,12.3432],[78.615,12.338],[78.6107,12.3301],[78.6045,12.332],[78.5992,12.3234],[78.594,12.3221],[78.5921,12.3169],[78.5882,12.3124],[78.5888,12.3095],[78.5932,12.3071],[78.5987,12.3134],[78.6036,12.3128],[78.6097,12.3096],[78.6096,12.2979],[78.613,12.2948],[78.6108,12.2888],[78.6039,12.2781],[78.6011,12.267],[78.6031,12.2627],[78.6079,12.261],[78.6133,12.2626],[78.6175,12.2677],[78.6232,12.2647],[78.6288,12.2699],[78.6319,12.2708],[78.6375,12.2774],[78.6409,12.2786],[78.6399,12.2794],[78.6406,12.2813],[78.6415,12.282],[78.6431,12.281],[78.644,12.2804],[78.6417,12.278],[78.6429,12.2776],[78.643,12.2755],[78.6393,12.2713],[78.6404,12.2684],[78.6387,12.2639],[78.63525,12.26147],[78.6476,12.2579],[78.6481,12.2562],[78.6527,12.253],[78.6526,12.245],[78.6505,12.2419],[78.6509,12.2395],[78.6653,12.2333],[78.6689,12.2288],[78.6695,12.2235],[78.6712,12.2205],[78.6687,12.2183],[78.6682,12.2111],[78.6655,12.2071],[78.6616,12.2057],[78.657,12.1991],[78.6546,12.2016],[78.6526,12.2004],[78.6436,12.2054],[78.6357,12.1858],[78.6345,12.1791],[78.6328,12.1769],[78.6217,12.1835],[78.6154,12.1834],[78.6037,12.1772],[78.5963,12.1692],[78.5839,12.1644],[78.5821,12.1623],[78.5781,12.1758],[78.576,12.1889],[78.5735,12.1938],[78.566,12.1924],[78.5544,12.1808],[78.5514,12.1809],[78.5507,12.1797],[78.5267,12.1797],[78.5195,12.179],[78.5161,12.1771],[78.516,12.1758],[78.5175,12.1751],[78.5176,12.1717],[78.5147,12.1642],[78.5082,12.156],[78.5083,12.144],[78.5065,12.1433],[78.5021,12.1451],[78.501,12.1424],[78.4988,12.1425],[78.497,12.1397],[78.4856,12.1435],[78.483,12.1432],[78.4693,12.1491],[78.468,12.1478],[78.4712,12.1472],[78.4704,12.1393],[78.4726,12.1389],[78.4727,12.1362],[78.4748,12.1327],[78.4721,12.1302],[78.4711,12.131],[78.4722,12.1322],[78.4685,12.1334],[78.4628,12.1388],[78.4606,12.1495],[78.4651,12.147],[78.4704,12.1626],[78.4675,12.166],[78.472,12.1732],[78.4672,12.1779],[78.4485,12.1864],[78.4468,12.1879],[78.4464,12.1914],[78.4217,12.1898],[78.4112,12.1964],[78.406,12.1955],[78.4052,12.1922],[78.3996,12.1878],[78.3953,12.1893],[78.3938,12.1858],[78.3904,12.1858],[78.3856,12.1923],[78.3862,12.1936],[78.3781,12.1955],[78.3747,12.1951],[78.3763,12.202],[78.3826,12.2068],[78.3918,12.2043],[78.3981,12.2124],[78.4032,12.2127],[78.4002,12.2172],[78.4044,12.2244],[78.4031,12.2238],[78.3854,12.2286],[78.3812,12.2267],[78.3795,12.2274],[78.379,12.2228],[78.3764,12.2223],[78.3742,12.2263],[78.3696,12.2264],[78.3691,12.2246],[78.3641,12.2254],[78.363,12.2237],[78.3585,12.2242],[78.3546,12.2264],[78.3546,12.2289]],[[78.5893,12.3144],[78.5885,12.3143],[78.5885,12.3142],[78.5893,12.3144]],[[78.6232,12.2647],[78.6233,12.2646],[78.6234,12.2646],[78.6232,12.2647]]],[[[78.3631,12.2234],[78.3632,12.2234],[78.36286,12.22297],[78.3631,12.2234]]],[[[78.5296,12.1795],[78.5297,12.1794],[78.5296,12.1794],[78.5296,12.1795]]]]}},{"type":"Feature","properties":{"name":"Thally","level":"block","lgdBlockCode":6517,"parentDistrict":"Krishnagiri","pagePath":"/atlas/tn/krishnagiri/blocks/6517","pageLabel":"Open this block's page","shedId":"SB117"},"geometry":{"type":"MultiPolygon","coordinates":[[[[77.633,12.4704],[77.635,12.471],[77.6331,12.4705],[77.6323,12.4717],[77.6324,12.4791],[77.6346,12.4876],[77.6295,12.4945],[77.6261,12.4963],[77.6165,12.4828],[77.6074,12.4751],[77.5984,12.4762],[77.5957,12.4748],[77.5935,12.4764],[77.5887,12.4777],[77.5864,12.4771],[77.5837,12.4788],[77.5889,12.4857],[77.5918,12.4852],[77.6024,12.4971],[77.6148,12.5044],[77.6162,12.5098],[77.6124,12.5149],[77.6066,12.5142],[77.5938,12.5163],[77.5873,12.5152],[77.5879,12.5206],[77.5904,12.5226],[77.5898,12.5234],[77.5868,12.5213],[77.5875,12.5273],[77.5851,12.5337],[77.5864,12.5457],[77.5804,12.5517],[77.5807,12.566],[77.5794,12.5679],[77.5793,12.5731],[77.5836,12.5763],[77.5898,12.5902],[77.5895,12.593],[77.5914,12.5922],[77.591,12.6154],[77.5931,12.6205],[77.6051,12.6275],[77.6058,12.6291],[77.6031,12.6358],[77.6045,12.6384],[77.6006,12.6433],[77.5994,12.6429],[77.5963,12.6493],[77.5986,12.6675],[77.6124,12.671],[77.6128,12.6668],[77.6174,12.6604],[77.6229,12.6562],[77.6258,12.6558],[77.6283,12.657],[77.6302,12.663],[77.6336,12.666],[77.6335,12.6704],[77.628,12.6735],[77.6273,12.6782],[77.6349,12.6799],[77.6373,12.6776],[77.6398,12.6786],[77.6503,12.6756],[77.6573,12.6754],[77.6604,12.6761],[77.6626,12.683],[77.6771,12.6792],[77.6756,12.6737],[77.6774,12.6713],[77.6764,12.6635],[77.6785,12.6625],[77.679,12.6602],[77.6897,12.6584],[77.6918,12.6604],[77.7029,12.6609],[77.7108,12.6665],[77.7123,12.6747],[77.7119,12.6831],[77.7232,12.6794],[77.7234,12.6739],[77.7254,12.6704],[77.7301,12.6729],[77.7395,12.6725],[77.7409,12.6737],[77.7417,12.6821],[77.741,12.6853],[77.7361,12.6917],[77.7358,12.6942],[77.7377,12.6984],[77.7409,12.7007],[77.7529,12.6972],[77.7621,12.697],[77.7676,12.6919],[77.7674,12.6785],[77.773,12.677],[77.7732,12.6703],[77.7748,12.6722],[77.7788,12.6718],[77.7781,12.6663],[77.7809,12.6635],[77.7804,12.6599],[77.782,12.6552],[77.7769,12.6537],[77.7728,12.6467],[77.7576,12.6414],[77.7559,12.639],[77.756,12.6355],[77.7575,12.635],[77.7578,12.6321],[77.7653,12.6293],[77.7636,12.6194],[77.7645,12.6153],[77.7664,12.6138],[77.7658,12.6114],[77.7695,12.6094],[77.7733,12.6032],[77.7695,12.5996],[77.7673,12.5916],[77.7645,12.5927],[77.7633,12.5952],[77.7609,12.5964],[77.7593,12.5877],[77.7559,12.583],[77.7558,12.579],[77.7588,12.5765],[77.76,12.5782],[77.764,12.5776],[77.7661,12.5789],[77.7684,12.5817],[77.768,12.589],[77.7775,12.5878],[77.7787,12.5938],[77.7821,12.5955],[77.7894,12.5925],[77.7917,12.5903],[77.7929,12.5826],[77.7965,12.5839],[77.8025,12.5831],[77.8084,12.5781],[77.8114,12.5791],[77.816,12.5775],[77.8183,12.5796],[77.8216,12.58],[77.8281,12.5785],[77.83,12.5769],[77.8296,12.575],[77.8306,12.5743],[77.832,12.5759],[77.8341,12.5758],[77.8375,12.5717],[77.8357,12.569],[77.8289,12.5716],[77.8272,12.57],[77.8252,12.5612],[77.8301,12.5554],[77.8284,12.5535],[77.8347,12.5516],[77.8363,12.549],[77.8361,12.5459],[77.8328,12.5419],[77.8323,12.539],[77.8273,12.5366],[77.8249,12.531],[77.8189,12.5309],[77.8167,12.528],[77.817,12.5254],[77.8138,12.5242],[77.8111,12.5265],[77.8051,12.5282],[77.8105,12.5344],[77.8155,12.5354],[77.8164,12.5396],[77.8105,12.54],[77.8055,12.5299],[77.8038,12.5313],[77.8043,12.533],[77.8028,12.5325],[77.7995,12.5349],[77.7921,12.535],[77.7918,12.5391],[77.7893,12.5364],[77.7893,12.5412],[77.7859,12.5419],[77.783,12.5372],[77.7854,12.5326],[77.7847,12.5289],[77.78,12.5282],[77.7787,12.532],[77.777,12.5319],[77.7771,12.5338],[77.7715,12.5367],[77.7709,12.5354],[77.7683,12.5367],[77.7614,12.5473],[77.7555,12.5491],[77.7561,12.5436],[77.7527,12.5451],[77.7504,12.5419],[77.7507,12.5443],[77.7495,12.5447],[77.7491,12.5419],[77.7452,12.5409],[77.7446,12.5383],[77.7304,12.5394],[77.7216,12.5318],[77.7209,12.5256],[77.7221,12.5179],[77.7203,12.5058],[77.7236,12.5027],[77.7255,12.496],[77.7277,12.4941],[77.7283,12.4885],[77.7451,12.4857],[77.7463,12.4844],[77.7511,12.4836],[77.7519,12.4813],[77.7539,12.4809],[77.7572,12.4859],[77.7631,12.4875],[77.7634,12.4916],[77.7684,12.5007],[77.7689,12.506],[77.7639,12.5116],[77.7676,12.522],[77.7723,12.523],[77.7768,12.5281],[77.783,12.5259],[77.7867,12.5227],[77.7852,12.5184],[77.7871,12.5171],[77.7859,12.5136],[77.7837,12.5118],[77.7848,12.5091],[77.7839,12.5062],[77.7823,12.5058],[77.7813,12.5029],[77.7828,12.503],[77.7878,12.4974],[77.7885,12.4948],[77.7876,12.4928],[77.7887,12.492],[77.7891,12.4878],[77.7906,12.4871],[77.7903,12.4838],[77.7861,12.4834],[77.7857,12.4801],[77.7905,12.4797],[77.7916,12.476],[77.7938,12.4755],[77.7989,12.482],[77.8002,12.4813],[77.8013,12.4842],[77.8036,12.4849],[77.8099,12.4827],[77.8123,12.4786],[77.8109,12.4763],[77.8131,12.4773],[77.814,12.475],[77.8147,12.4662],[77.8039,12.4657],[77.804,12.4645],[77.8036,12.4656],[77.8055,12.469],[77.805,12.4704],[77.8022,12.4715],[77.8025,12.4703],[77.8015,12.4705],[77.8008,12.4688],[77.8,12.4696],[77.8,12.4681],[77.789,12.4712],[77.7809,12.4664],[77.7793,12.4666],[77.7747,12.4587],[77.7734,12.4461],[77.7691,12.4379],[77.7714,12.4375],[77.7808,12.4409],[77.7811,12.4374],[77.7873,12.4363],[77.7899,12.4371],[77.79,12.4392],[77.7917,12.4406],[77.7905,12.4447],[77.7933,12.446],[77.8035,12.4437],[77.8066,12.4399],[77.8083,12.4344],[77.8178,12.4338],[77.8159,12.4273],[77.8132,12.4248],[77.813,12.4148],[77.817,12.4139],[77.8241,12.4092],[77.834,12.4051],[77.8347,12.4067],[77.8484,12.4056],[77.8515,12.3922],[77.8505,12.3897],[77.8371,12.3736],[77.8327,12.3711],[77.8287,12.366],[77.8198,12.3493],[77.8193,12.345],[77.8288,12.3343],[77.8339,12.3261],[77.8375,12.324],[77.8406,12.3252],[77.849,12.3358],[77.8512,12.337],[77.8613,12.3336],[77.8669,12.3302],[77.8692,12.3224],[77.871,12.3223],[77.871,12.3165],[77.8732,12.3129],[77.876,12.3024],[77.875,12.2937],[77.8736,12.292],[77.8743,12.2874],[77.8712,12.2819],[77.8704,12.2738],[77.8626,12.2542],[77.8605,12.2539],[77.8588,12.2581],[77.8549,12.2614],[77.8469,12.2623],[77.8437,12.2603],[77.8355,12.2473],[77.8191,12.2368],[77.8117,12.2282],[77.8091,12.1964],[77.8037,12.1753],[77.8,12.1722],[77.7963,12.1715],[77.7944,12.147],[77.7898,12.1485],[77.7769,12.1571],[77.7728,12.1714],[77.7612,12.1688],[77.747,12.1551],[77.7437,12.1617],[77.7354,12.1696],[77.7343,12.1765],[77.7313,12.1801],[77.7209,12.1832],[77.711,12.1825],[77.6986,12.1852],[77.67,12.1954],[77.6652,12.1982],[77.6561,12.1996],[77.6376,12.1967],[77.6298,12.2023],[77.621,12.1999],[77.6166,12.2019],[77.6129,12.2057],[77.6093,12.2062],[77.6053,12.2056],[77.5994,12.2003],[77.5964,12.1992],[77.5883,12.1995],[77.5804,12.1981],[77.5745,12.201],[77.5694,12.1998],[77.5653,12.1963],[77.5459,12.2047],[77.5402,12.2024],[77.5358,12.1986],[77.5297,12.1993],[77.5231,12.1975],[77.5185,12.1945],[77.4927,12.1973],[77.4864,12.2038],[77.4754,12.2056],[77.472,12.2079],[77.4826,12.2289],[77.4822,12.2334],[77.4785,12.2401],[77.4711,12.2435],[77.4735,12.2554],[77.4779,12.2587],[77.477,12.2646],[77.4789,12.2711],[77.4847,12.2747],[77.4871,12.2798],[77.4934,12.2786],[77.4964,12.2819],[77.5,12.2826],[77.5085,12.2759],[77.5142,12.2754],[77.5271,12.2787],[77.5328,12.2915],[77.5392,12.2904],[77.5512,12.2912],[77.5529,12.2988],[77.5577,12.3031],[77.5576,12.3059],[77.5661,12.3064],[77.5752,12.3254],[77.5785,12.3356],[77.5822,12.3378],[77.5918,12.3404],[77.5987,12.35],[77.6009,12.3585],[77.6144,12.3623],[77.6169,12.3701],[77.618,12.3801],[77.6196,12.3808],[77.6207,12.3841],[77.6233,12.4123],[77.6296,12.4182],[77.6291,12.4251],[77.6261,12.4308],[77.627,12.4411],[77.6292,12.4476],[77.6271,12.4576],[77.6273,12.4586],[77.6291,12.4581],[77.6295,12.4587],[77.6304,12.4653],[77.6291,12.4668],[77.6305,12.47],[77.633,12.4704]],[[77.7919,12.4745],[77.7925,12.473],[77.793,12.4743],[77.7919,12.4745]]],[[[77.6186,12.3814],[77.6183,12.3814],[77.6192,12.3817],[77.6186,12.3814]]]]}},{"type":"Feature","properties":{"name":"Veppanapalli","level":"block","lgdBlockCode":6519,"parentDistrict":"Krishnagiri","pagePath":"/atlas/tn/krishnagiri/blocks/6519","pageLabel":"Open this block's page","shedId":"SBP03"},"geometry":{"type":"Polygon","coordinates":[[[78.091,12.8168],[78.1087,12.8047],[78.125,12.7984],[78.125,12.7963],[78.1263,12.7954],[78.1254,12.7914],[78.1301,12.7881],[78.1308,12.7851],[78.1344,12.7818],[78.1456,12.7815],[78.1677,12.7701],[78.171,12.7746],[78.177,12.7764],[78.1822,12.7746],[78.1848,12.7761],[78.1887,12.7716],[78.1916,12.7745],[78.1955,12.7742],[78.2079,12.7689],[78.2114,12.7644],[78.2165,12.7662],[78.2216,12.7662],[78.2307,12.7606],[78.2324,12.7452],[78.2349,12.741],[78.2347,12.7393],[78.2385,12.7373],[78.2412,12.7332],[78.2414,12.7295],[78.2305,12.7137],[78.2267,12.7161],[78.2184,12.7097],[78.2126,12.7115],[78.2126,12.708],[78.207,12.7082],[78.2053,12.7057],[78.2076,12.7043],[78.2071,12.702],[78.2101,12.7018],[78.2096,12.6999],[78.2065,12.6989],[78.2046,12.6956],[78.2026,12.6959],[78.2016,12.6945],[78.1993,12.6952],[78.201,12.6917],[78.2022,12.693],[78.2097,12.6903],[78.2122,12.6878],[78.2105,12.6857],[78.2337,12.6869],[78.2377,12.6856],[78.2368,12.6803],[78.238,12.6747],[78.2366,12.6653],[78.227,12.6569],[78.2238,12.6573],[78.2199,12.6556],[78.2185,12.6576],[78.2161,12.6583],[78.2138,12.6558],[78.215,12.6542],[78.2133,12.6495],[78.2143,12.6494],[78.2156,12.6453],[78.215,12.6415],[78.2157,12.6394],[78.2194,12.6378],[78.2221,12.6303],[78.2197,12.6299],[78.2195,12.6255],[78.2169,12.622],[78.205,12.6208],[78.2064,12.6176],[78.2002,12.6108],[78.1983,12.6022],[78.1997,12.5964],[78.2012,12.5947],[78.2032,12.5947],[78.2049,12.5842],[78.2042,12.5812],[78.2057,12.5798],[78.2058,12.5773],[78.2015,12.5706],[78.1999,12.565],[78.1988,12.5653],[78.1982,12.564],[78.1947,12.5631],[78.1847,12.5638],[78.182,12.5614],[78.1807,12.5621],[78.1769,12.5608],[78.1761,12.5663],[78.1732,12.5683],[78.174,12.57],[78.1711,12.5709],[78.1727,12.5743],[78.1714,12.5778],[78.1653,12.5774],[78.1636,12.5737],[78.1645,12.5719],[78.1631,12.5733],[78.1574,12.5734],[78.1494,12.5759],[78.1495,12.5697],[78.1404,12.5716],[78.1339,12.5767],[78.1224,12.5798],[78.1168,12.5786],[78.1087,12.5796],[78.1001,12.577],[78.1011,12.5954],[78.1095,12.6001],[78.1094,12.6056],[78.1135,12.6065],[78.1133,12.6132],[78.12135,12.6138],[78.1256,12.6206],[78.1254,12.627],[78.1238,12.6295],[78.12,12.6294],[78.1151,12.6349],[78.1149,12.638],[78.1226,12.6378],[78.1213,12.6437],[78.1171,12.6475],[78.1155,12.6519],[78.1114,12.656],[78.1087,12.6628],[78.10773,12.66377],[78.1037,12.6636],[78.104,12.6679],[78.1015,12.6707],[78.1047,12.6797],[78.1025,12.6815],[78.1008,12.6891],[78.0967,12.6916],[78.0942,12.6905],[78.0927,12.6934],[78.092,12.696],[78.0953,12.7004],[78.0939,12.7063],[78.0994,12.7095],[78.0956,12.7176],[78.0903,12.7202],[78.0866,12.7156],[78.078,12.7158],[78.0753,12.7186],[78.0675,12.7229],[78.0687,12.7308],[78.0681,12.7365],[78.0706,12.7413],[78.0706,12.745],[78.0722,12.7464],[78.0714,12.7487],[78.0732,12.7534],[78.0723,12.7569],[78.0733,12.7587],[78.0714,12.7593],[78.0713,12.7612],[78.0733,12.761],[78.0732,12.7626],[78.0779,12.7659],[78.0793,12.7713],[78.0809,12.7725],[78.0795,12.7766],[78.0802,12.7782],[78.0775,12.7843],[78.0765,12.7841],[78.081,12.7895],[78.084,12.7966],[78.0873,12.7975],[78.0837,12.806],[78.091,12.8168]]]}}]}