{"nvdm":"1.0","dataset":"basins/canals","scope":{"kind":"basin","id":"krishnagiri-rivers"},"provenance":{"sources":[{"id":"nwic-nwdp-cwc-canal-network","title":"CWC canal network and water resource project (command area) layers, National Water Data Portal","publisher":"Central Water Commission, via the National Water Informatics Centre (NWIC)","license":"Government of India open data portal: its copyright policy permits reproduction free of charge in any format without specific permission, reproduced accurately and with the source prominently acknowledged; cited with attribution","role":"input","url":"https://nwdp.nwic.gov.in/","as_of":"2025"},{"id":"tngis-open-geoserver","title":"TNGIS open GeoServer (WFS): district, taluk, block and village panchayat boundaries, TN WRD sub-basins and reservoirs, micro-watershed atlas, all-water-bodies and all-tanks registers, mine leases, industry register matched to land parcels","publisher":"Tamil Nadu e-Governance Agency (TNGIS)","license":"Tamil Nadu government data on an open GeoServer (WFS, no login); published with TNGIS's permission and with attribution.","role":"input","url":"https://tngis.tn.gov.in/tngismaps/ows"}],"method":"derived","produced_at":"2026-09-18","produced_by":"scripts/build_krishnagiri_rivers_basin.py","internal_inputs":["public/data/basins/krishnagiri-rivers/sub-hydrosheds.geojson"],"note":"Krishnagiri district's rivers, groundwater and industry (scope krishnagiri-rivers; the district's own scope id is tn-krishnagiri). The district boundary is the frame and TN WRD's sub-basins, clipped to it, are the catchments (shedId): the Thenpennai's to the east, the Cauvery's Chinnar and Dodda Halla to the south-west. The industry register holds only units TNGIS matched to a land parcel, so every count is a lower bound; sector comes from the reviewed TNPCB type-code lookup pipeline-inputs/basins/krishnagiri-rivers/tnpcb-type-sectors.json."},"type":"FeatureCollection","features":[{"type":"Feature","properties":{"name":"East Main Channel","kind":"main","canalType":"Main Canal","project":"Barur Tank System","lengthInDistrictKm":17.1,"shedId":"SBP17"},"geometry":{"type":"MultiLineString","coordinates":[[[78.31937,12.30787],[78.32042,12.30721],[78.32053,12.30718],[78.32059,12.30719],[78.32068,12.30723],[78.32075,12.30731],[78.32097,12.30795],[78.32129,12.309],[78.32137,12.30908],[78.32152,12.30912],[78.32375,12.30952],[78.32425,12.30955],[78.32473,12.30956],[78.32493,12.30956],[78.32514,12.30953],[78.32537,12.30945],[78.32551,12.30937],[78.3256,12.30927],[78.32569,12.30912],[78.32572,12.30898],[78.32572,12.30881],[78.3257,12.30868],[78.32566,12.30854],[78.32554,12.3083],[78.32469,12.30741],[78.32455,12.30719],[78.32441,12.3069],[78.32422,12.3065],[78.32415,12.30616],[78.32399,12.30538],[78.32395,12.30506],[78.32392,12.30486],[78.32393,12.30466],[78.32396,12.30454],[78.32439,12.30369],[78.32449,12.30355],[78.32465,12.30345],[78.32482,12.30343],[78.32503,12.30349],[78.32529,12.30362],[78.32556,12.30372],[78.32576,12.3038],[78.32591,12.30381],[78.32603,12.30377],[78.32608,12.30368],[78.32609,12.30356],[78.32609,12.30339],[78.32608,12.30316],[78.32604,12.30299],[78.32604,12.30281],[78.32608,12.3027],[78.32614,12.30261],[78.32624,12.30252],[78.32681,12.30205],[78.32693,12.30194],[78.32697,12.30189],[78.327,12.30183],[78.327,12.30176],[78.32698,12.3017],[78.32674,12.30146],[78.32567,12.30051],[78.32554,12.30034],[78.32548,12.30022],[78.3252,12.29928],[78.32513,12.29899],[78.32513,12.29885],[78.32517,12.29868],[78.32518,12.2986],[78.32522,12.29849],[78.32531,12.29841],[78.3257,12.29813],[78.32579,12.29802],[78.32594,12.2972],[78.32594,12.29703],[78.3259,12.29688],[78.32558,12.29581],[78.32555,12.29568],[78.32542,12.29543],[78.32533,12.29532],[78.32525,12.29521],[78.32518,12.29511],[78.32508,12.29495],[78.325,12.29471],[78.32476,12.29406],[78.32471,12.29393],[78.3247,12.29385],[78.3247,12.2937],[78.3247,12.2935],[78.32474,12.29336],[78.32481,12.29326],[78.32495,12.29313],[78.32521,12.29301],[78.32583,12.29275],[78.32617,12.29264],[78.32629,12.29267],[78.3265,12.29279],[78.32695,12.29306],[78.32711,12.29309],[78.32732,12.29312],[78.32773,12.29318],[78.32789,12.29323],[78.32798,12.2933],[78.3289,12.29452],[78.32963,12.29533],[78.32985,12.29548],[78.33002,12.29556],[78.33021,12.2956],[78.33035,12.29564],[78.33061,12.29576],[78.33079,12.29588],[78.33091,12.29598],[78.33107,12.29607],[78.33123,12.29613],[78.3314,12.29617],[78.33157,12.29623],[78.33171,12.2963],[78.33185,12.2964],[78.33199,12.29653],[78.33278,12.29768],[78.33308,12.29799],[78.33325,12.29815],[78.33353,12.29849],[78.33373,12.29893],[78.3338,12.29917],[78.33375,12.29969],[78.33372,12.30055],[78.33368,12.30066],[78.33363,12.30073],[78.3335,12.30084],[78.33292,12.30124],[78.33287,12.30134],[78.33288,12.30164],[78.33288,12.30198],[78.33301,12.30222],[78.33311,12.30231],[78.3332,12.30237],[78.33337,12.30247],[78.33357,12.30254],[78.33442,12.3026],[78.33513,12.3027],[78.33667,12.30349],[78.33863,12.30356],[78.33964,12.30383],[78.34045,12.3042],[78.34127,12.30455],[78.34212,12.30512],[78.34387,12.30635],[78.34419,12.30651],[78.34431,12.30657],[78.34451,12.30663],[78.34464,12.30667],[78.34474,12.30667],[78.34496,12.30653],[78.34505,12.30645],[78.34511,12.30637],[78.34512,12.30627],[78.34512,12.30614],[78.34496,12.30561],[78.34476,12.30513],[78.34416,12.30378],[78.34372,12.30273],[78.34366,12.30265],[78.34361,12.30261],[78.34348,12.30257],[78.34321,12.3025],[78.34317,12.30246],[78.34312,12.30239],[78.34306,12.30219],[78.34295,12.30155],[78.34295,12.30136],[78.34294,12.3012],[78.34292,12.30099],[78.34288,12.3009],[78.34261,12.30057],[78.34237,12.30033],[78.34223,12.30022],[78.34216,12.30016],[78.34212,12.3001],[78.34207,12.29998],[78.34209,12.29985],[78.34231,12.29882],[78.34243,12.29852],[78.34246,12.29844],[78.34256,12.29836],[78.34329,12.29796],[78.34344,12.29787],[78.34353,12.29781],[78.34361,12.29774],[78.34364,12.29767],[78.34364,12.29753],[78.34365,12.29739],[78.34366,12.29727],[78.34365,12.2972],[78.34362,12.29716],[78.34301,12.2967],[78.34173,12.2959],[78.34166,12.29582],[78.34163,12.29566],[78.34169,12.29429],[78.34168,12.29418],[78.34165,12.29413],[78.34161,12.29408],[78.3411,12.29382],[78.34044,12.29369],[78.33998,12.2937],[78.33979,12.29367],[78.33967,12.29362],[78.33959,12.29358],[78.33953,12.29354],[78.33948,12.29349],[78.33945,12.29343],[78.33937,12.29329],[78.33936,12.29321],[78.33935,12.29293],[78.33956,12.29231],[78.34038,12.29068],[78.3406,12.29013],[78.3406,12.29004],[78.34059,12.28994],[78.33942,12.28855],[78.33941,12.28842],[78.33941,12.28832],[78.33949,12.28807],[78.33961,12.28767],[78.33966,12.28757],[78.3398,12.28747],[78.3409,12.28662],[78.34161,12.28644],[78.34227,12.28635],[78.34256,12.28635],[78.34269,12.28638],[78.34287,12.2865],[78.34307,12.28664],[78.34326,12.28675],[78.34344,12.28681],[78.34353,12.2868],[78.34364,12.28675],[78.3438,12.28665],[78.34386,12.28656],[78.34387,12.28646],[78.34385,12.28636],[78.34371,12.28618],[78.34329,12.28575],[78.34284,12.28527],[78.34263,12.2847],[78.34246,12.28308],[78.34243,12.28173],[78.34252,12.2815],[78.34266,12.28123],[78.34286,12.281],[78.34293,12.28098],[78.34319,12.28098],[78.34541,12.28189],[78.3456,12.28192],[78.34575,12.28192],[78.34583,12.28183],[78.34585,12.2817],[78.34606,12.28144],[78.34624,12.28132],[78.34645,12.28125],[78.34666,12.28122],[78.34693,12.28122],[78.34723,12.28134],[78.34785,12.28183],[78.34832,12.28234],[78.34875,12.28282],[78.34892,12.28291],[78.34948,12.2832],[78.34959,12.28324],[78.34981,12.28327],[78.34998,12.28328],[78.35019,12.28327],[78.35033,12.28327],[78.35044,12.28329],[78.3506,12.28337],[78.35073,12.28351],[78.35081,12.28369],[78.35101,12.28393],[78.35114,12.28399],[78.35128,12.28401],[78.35144,12.28398],[78.35181,12.28383],[78.35205,12.28369],[78.35213,12.28365],[78.35222,12.28357],[78.35224,12.28353],[78.35254,12.2837],[78.35266,12.2838],[78.35273,12.28387],[78.35279,12.28396],[78.35281,12.28406],[78.35272,12.28458],[78.35272,12.28478],[78.35277,12.285],[78.35283,12.28511],[78.35297,12.28523],[78.35315,12.28531],[78.35382,12.28561],[78.354,12.28571],[78.35419,12.28588],[78.35435,12.28611],[78.35443,12.28626],[78.35444,12.2867],[78.35412,12.28751],[78.35311,12.28867],[78.35267,12.28908],[78.35246,12.28941],[78.35233,12.28963],[78.35226,12.29011],[78.35229,12.29022],[78.35248,12.29042],[78.35275,12.29049],[78.35332,12.29038],[78.3537,12.29022],[78.35409,12.29],[78.35443,12.28975],[78.35501,12.28941],[78.35542,12.28923],[78.35616,12.28909],[78.35645,12.28908],[78.35673,12.28912],[78.35696,12.28923],[78.35713,12.28945],[78.35722,12.28977],[78.35725,12.2901],[78.35725,12.29029],[78.35726,12.29049],[78.35737,12.29091],[78.35751,12.29107],[78.35771,12.29115],[78.35799,12.29118],[78.35916,12.29074],[78.35968,12.29065],[78.35999,12.29065],[78.36022,12.29065],[78.36052,12.29072],[78.3611,12.29093],[78.36131,12.29104],[78.36147,12.29124],[78.3615,12.29157],[78.36151,12.29218],[78.36162,12.2933],[78.36168,12.29347],[78.3618,12.29364],[78.36191,12.29373],[78.36203,12.29378],[78.36227,12.2937],[78.36244,12.29357],[78.36268,12.29323],[78.36293,12.29293],[78.36324,12.29257],[78.36354,12.29232],[78.36391,12.29209],[78.36461,12.29184],[78.3648,12.29178],[78.36496,12.29177],[78.36509,12.29181],[78.36518,12.29188],[78.36535,12.29219],[78.36588,12.29325],[78.36643,12.2942],[78.36656,12.29442],[78.36667,12.29454],[78.36673,12.29458],[78.36684,12.29456],[78.36701,12.29449],[78.36722,12.2944],[78.36736,12.29436],[78.36754,12.29433],[78.36773,12.29435],[78.36795,12.29438],[78.36811,12.29443],[78.36821,12.29443],[78.36828,12.29441],[78.3684,12.2943],[78.36858,12.294],[78.36876,12.29356],[78.36877,12.29341],[78.36877,12.29324],[78.36877,12.29308],[78.36878,12.2929],[78.3689,12.29258],[78.36956,12.29149],[78.37037,12.29011],[78.37046,12.29003],[78.37063,12.28996],[78.37082,12.28992],[78.37253,12.29006],[78.37319,12.29017],[78.37344,12.29021],[78.37359,12.29027],[78.37372,12.29035],[78.37382,12.2905],[78.3742,12.29164],[78.37432,12.29238],[78.37435,12.29255],[78.37431,12.29266],[78.37426,12.29277],[78.37419,12.29288],[78.37406,12.29298],[78.37385,12.29309],[78.37334,12.29341],[78.37315,12.29363],[78.37308,12.29372],[78.37285,12.29408],[78.37254,12.29524],[78.3726,12.29555],[78.37265,12.29565],[78.37274,12.29573],[78.37366,12.29633],[78.37386,12.29648],[78.37408,12.2967],[78.37422,12.29688],[78.37429,12.29703],[78.37447,12.29751],[78.37465,12.29854],[78.37464,12.29873],[78.3746,12.29885],[78.37453,12.29895],[78.37437,12.29909],[78.37399,12.29933],[78.3736,12.29945],[78.37336,12.2995],[78.37319,12.29951],[78.37301,12.29951],[78.37272,12.29943],[78.37247,12.29931],[78.37237,12.29929],[78.37217,12.29925],[78.37194,12.29926],[78.37186,12.29932],[78.3718,12.29944]]]}},{"type":"Feature","properties":{"name":"Barur Tank System: distributary","kind":"distributary","canalType":"Distributary","project":"Barur Tank System","lengthInDistrictKm":2.3,"shedId":"SBP17"},"geometry":{"type":"MultiLineString","coordinates":[[[78.33941,12.28842],[78.33817,12.28821],[78.33669,12.28807],[78.33648,12.28806],[78.33631,12.28803],[78.33621,12.288],[78.33558,12.28746],[78.33498,12.28674],[78.3346,12.28603],[78.33449,12.28579],[78.3344,12.28558],[78.33435,12.2855],[78.33424,12.28535],[78.33263,12.28375],[78.33228,12.28307],[78.33181,12.28218],[78.33127,12.2813],[78.33115,12.28095],[78.33115,12.28083],[78.33115,12.28064],[78.3312,12.28041],[78.33124,12.28022],[78.33124,12.28009],[78.33124,12.27999],[78.33119,12.27981],[78.33085,12.27903],[78.33079,12.27887],[78.33069,12.27872],[78.33046,12.27852],[78.32926,12.27762],[78.32907,12.27746],[78.32895,12.27725],[78.32888,12.27703],[78.32883,12.27661],[78.32883,12.27639],[78.32884,12.27619],[78.32885,12.27587],[78.32887,12.27568],[78.32887,12.27549],[78.3288,12.27534],[78.32845,12.27459],[78.32833,12.27425],[78.32828,12.274],[78.32827,12.27372],[78.32827,12.27348],[78.32827,12.27336],[78.32832,12.27313]]]}},{"type":"Feature","properties":{"name":"Barur Tank Supply Channel","kind":"main","canalType":"Main Canal","project":"Barur Tank System","lengthInDistrictKm":11.7,"shedId":"SBP17"},"geometry":{"type":"MultiLineString","coordinates":[[[78.26724,12.37234],[78.26736,12.37224],[78.26744,12.37215],[78.26749,12.37206],[78.26754,12.37193],[78.26763,12.37168],[78.26765,12.37137],[78.26761,12.37121],[78.26751,12.37094],[78.26742,12.37078],[78.26731,12.37055],[78.26723,12.37036],[78.26718,12.37017],[78.26717,12.36994],[78.26697,12.36833],[78.26668,12.36695],[78.26665,12.36684],[78.26663,12.36671],[78.26663,12.36655],[78.26709,12.36546],[78.26759,12.36447],[78.26857,12.36284],[78.26902,12.36209],[78.26921,12.36138],[78.26939,12.36044],[78.26975,12.35898],[78.26977,12.35888],[78.2698,12.35878],[78.26983,12.35873],[78.27017,12.35843],[78.27118,12.35776],[78.27205,12.35733],[78.27225,12.3572],[78.27246,12.35705],[78.27264,12.35688],[78.27272,12.35678],[78.27306,12.35632],[78.27358,12.35531],[78.27434,12.35388],[78.27537,12.35184],[78.27631,12.35022],[78.27635,12.35014],[78.27631,12.3496],[78.27629,12.34903],[78.27634,12.34882],[78.27649,12.34848],[78.27658,12.34835],[78.27665,12.34826],[78.27684,12.34811],[78.2775,12.3479],[78.27768,12.3478],[78.27781,12.34764],[78.27787,12.34756],[78.27795,12.34742],[78.27807,12.34727],[78.27821,12.34713],[78.27836,12.34705],[78.27855,12.34698],[78.27954,12.34669],[78.2797,12.34667],[78.27993,12.34667],[78.28018,12.34675],[78.28073,12.34705],[78.28164,12.34789],[78.28198,12.34822],[78.28222,12.34839],[78.28255,12.3486],[78.28281,12.34876],[78.28311,12.34899],[78.28342,12.3492],[78.28361,12.34927],[78.28382,12.3493],[78.28399,12.34931],[78.28413,12.3493],[78.28428,12.34928],[78.28438,12.34922],[78.28446,12.34914],[78.28459,12.34897],[78.28502,12.34851],[78.28523,12.34834],[78.28554,12.34815],[78.28566,12.34812],[78.28582,12.3481],[78.28595,12.3481],[78.28613,12.34811],[78.28635,12.3482],[78.2871,12.34877],[78.28798,12.34917],[78.28815,12.34925],[78.2883,12.3493],[78.28848,12.34935],[78.28867,12.34935],[78.2889,12.34934],[78.28922,12.34928],[78.28968,12.34914],[78.28996,12.34904],[78.29016,12.34896],[78.2905,12.34867],[78.2906,12.34853],[78.29083,12.34795],[78.29084,12.34782],[78.29084,12.34766],[78.29084,12.34757],[78.29082,12.34739],[78.29071,12.34713],[78.29066,12.34708],[78.29002,12.34595],[78.28937,12.34506],[78.28905,12.34476],[78.28887,12.34461],[78.28879,12.34452],[78.28873,12.34442],[78.28855,12.3441],[78.28844,12.34393],[78.28836,12.34383],[78.28826,12.34374],[78.28794,12.34339],[78.28783,12.34323],[78.28778,12.34311],[78.28776,12.34296],[78.28781,12.3428],[78.28792,12.3426],[78.28799,12.34244],[78.28807,12.34224],[78.28825,12.34183],[78.28851,12.34153],[78.28877,12.34141],[78.28893,12.34138],[78.28924,12.34146],[78.28969,12.3416],[78.29004,12.34179],[78.29037,12.34194],[78.29064,12.34198],[78.2909,12.342],[78.29169,12.34225],[78.29211,12.34233],[78.29244,12.34233],[78.29271,12.34233],[78.29305,12.34231],[78.29342,12.34224],[78.29469,12.34193],[78.29494,12.34183],[78.29506,12.34176],[78.29521,12.34164],[78.29529,12.34158],[78.29545,12.34137],[78.29557,12.34082],[78.29557,12.34068],[78.29554,12.34055],[78.29548,12.34038],[78.29543,12.34026],[78.29538,12.34017],[78.29532,12.34006],[78.29528,12.34],[78.29511,12.33992],[78.29374,12.33922],[78.29365,12.33915],[78.29357,12.33905],[78.2934,12.33883],[78.29283,12.33789],[78.29229,12.33675],[78.29137,12.33518],[78.29117,12.33484],[78.29103,12.33471],[78.29093,12.33463],[78.29087,12.33456],[78.2908,12.33445],[78.29075,12.33433],[78.29074,12.33417],[78.29077,12.33404],[78.29082,12.33393],[78.29096,12.3338],[78.29111,12.33369],[78.2913,12.33366],[78.29154,12.33366],[78.29166,12.33365],[78.29174,12.33362],[78.29181,12.33358],[78.29188,12.33351],[78.292,12.33331],[78.29238,12.33264],[78.29261,12.3322],[78.29269,12.33205],[78.29272,12.33192],[78.29272,12.3318],[78.29271,12.33159],[78.29257,12.33119],[78.29258,12.33103],[78.29262,12.33092],[78.29268,12.33084],[78.29277,12.3307],[78.29283,12.3306],[78.29288,12.33049],[78.29291,12.33038],[78.29292,12.33028],[78.29292,12.33014],[78.29289,12.33],[78.29276,12.32987],[78.29264,12.32974],[78.29238,12.32958],[78.29175,12.32931],[78.29166,12.32923],[78.2916,12.32915],[78.29152,12.32904],[78.29093,12.32823],[78.29091,12.32808],[78.29091,12.32797],[78.29095,12.32777],[78.29112,12.32726],[78.29158,12.32632],[78.2916,12.3262],[78.2916,12.32604],[78.29156,12.32476],[78.29157,12.32458],[78.29163,12.32437],[78.29181,12.32389],[78.29221,12.32347],[78.29278,12.32294],[78.29296,12.32276],[78.2931,12.3226],[78.29323,12.32248],[78.29335,12.32241],[78.29357,12.32241],[78.29501,12.32244],[78.29516,12.3224],[78.29571,12.32214],[78.29582,12.32206],[78.29589,12.32198],[78.29594,12.32186],[78.29594,12.32167],[78.29596,12.32132],[78.29598,12.32125],[78.29604,12.32121],[78.29821,12.32127],[78.29832,12.32126],[78.29839,12.32122],[78.29843,12.32117],[78.29865,12.32027],[78.2991,12.31927],[78.29936,12.31891],[78.2995,12.31882],[78.29984,12.31873],[78.3001,12.31866],[78.30021,12.3186],[78.30071,12.318],[78.3008,12.31794],[78.30092,12.31788],[78.30099,12.31783],[78.301,12.31774],[78.30087,12.31645],[78.30083,12.31605],[78.3009,12.3156],[78.30096,12.31547],[78.30106,12.31537],[78.30116,12.31528],[78.3013,12.31522],[78.30177,12.3152],[78.30246,12.31533],[78.30436,12.31575],[78.30524,12.31606],[78.30561,12.31628],[78.30582,12.31638],[78.30598,12.31643],[78.30611,12.31645],[78.3064,12.31638],[78.30663,12.31629],[78.30693,12.31613],[78.30735,12.31576],[78.30772,12.31512],[78.30814,12.31428],[78.30881,12.31344],[78.30908,12.31309]]]}},{"type":"Feature","properties":{"name":"Barur Tank System: main canal","kind":"main","canalType":"Main Canal","project":"Barur Tank System","lengthInDistrictKm":7.9,"shedId":"SBP17"},"geometry":{"type":"MultiLineString","coordinates":[[[78.35224,12.28353],[78.35227,12.28348],[78.35229,12.28339],[78.3523,12.28319],[78.35228,12.28302],[78.35224,12.28288],[78.35217,12.28277],[78.35214,12.28271],[78.35209,12.2826],[78.3521,12.28245],[78.35238,12.28106],[78.35254,12.28015],[78.35269,12.27986],[78.35279,12.27972],[78.35291,12.27954],[78.35301,12.27937],[78.35316,12.27923],[78.35345,12.27907],[78.35355,12.27902],[78.35364,12.27898],[78.35372,12.27893],[78.35374,12.27888],[78.35372,12.27881],[78.35368,12.27874],[78.35361,12.27865],[78.35328,12.27821],[78.35303,12.27783],[78.35296,12.27768],[78.35293,12.27756],[78.35293,12.27746],[78.35293,12.27729],[78.35296,12.27716],[78.35302,12.27701],[78.35311,12.27689],[78.35323,12.27677],[78.35351,12.27655],[78.35362,12.27645],[78.35367,12.27638],[78.35369,12.2763],[78.35369,12.27623],[78.35368,12.27615],[78.35368,12.27606],[78.35368,12.27595],[78.35369,12.27582],[78.35373,12.27568],[78.35384,12.27515],[78.35394,12.27464],[78.35395,12.27343],[78.35399,12.27326],[78.35405,12.27312],[78.35407,12.27302],[78.35408,12.27292],[78.35403,12.2728],[78.35397,12.27266],[78.35392,12.27253],[78.3539,12.27242],[78.3539,12.27221],[78.35393,12.27204],[78.35394,12.27191],[78.35394,12.27178],[78.35393,12.2717],[78.35386,12.2716],[78.35313,12.27114],[78.35204,12.27032],[78.35181,12.27007],[78.35173,12.26992],[78.35169,12.2698],[78.35168,12.26966],[78.35168,12.26957],[78.35169,12.26948],[78.35172,12.26943],[78.35178,12.26938],[78.35193,12.26935],[78.35244,12.2694],[78.35376,12.26979],[78.3541,12.26985],[78.35426,12.26986],[78.35441,12.26985],[78.35457,12.26981],[78.35473,12.26974],[78.35521,12.26952],[78.3553,12.26944],[78.3554,12.26932],[78.35622,12.26828],[78.35723,12.26739],[78.35815,12.26547],[78.35836,12.26462],[78.35838,12.2644],[78.35838,12.2642],[78.35836,12.26403],[78.3583,12.2638],[78.35813,12.26349],[78.35804,12.26335],[78.35781,12.26316],[78.35599,12.26217],[78.35577,12.26204],[78.35567,12.26198],[78.35562,12.2619],[78.35556,12.2618],[78.35553,12.26173],[78.35553,12.26162],[78.35556,12.26144],[78.35559,12.26133],[78.35627,12.26001],[78.35653,12.25963],[78.35828,12.25796],[78.35883,12.25738],[78.35895,12.25721],[78.35903,12.25711],[78.35918,12.25692],[78.35996,12.25627],[78.36118,12.25525],[78.36166,12.25478],[78.36172,12.25468],[78.36175,12.25459],[78.36181,12.25446],[78.36182,12.25437],[78.36182,12.25427],[78.36158,12.2533],[78.36153,12.25314],[78.36148,12.25303],[78.36141,12.2529],[78.36104,12.25238],[78.36089,12.25214],[78.36086,12.25203],[78.36085,12.25076],[78.36096,12.25007],[78.36108,12.24982],[78.36122,12.24959],[78.3614,12.24926],[78.3615,12.24902],[78.36156,12.24884],[78.36158,12.24867],[78.36158,12.2485],[78.36136,12.2478],[78.36122,12.24753],[78.36105,12.24727],[78.36092,12.24701],[78.36069,12.24636],[78.36061,12.24594],[78.36059,12.2458],[78.3606,12.24569],[78.36098,12.24508],[78.36112,12.24479],[78.36142,12.24377],[78.36176,12.24276],[78.36229,12.24166],[78.36318,12.23995],[78.364,12.23891],[78.36532,12.23694],[78.36542,12.23528],[78.36544,12.23514],[78.36547,12.23501],[78.36553,12.23487],[78.36621,12.23406],[78.36675,12.23348],[78.36676,12.23339],[78.36676,12.23332],[78.36628,12.23201],[78.36617,12.23175],[78.36613,12.23157],[78.36613,12.23137],[78.36613,12.23115],[78.36612,12.23086],[78.36609,12.23061],[78.36582,12.22993],[78.36567,12.22934],[78.36563,12.22911],[78.36574,12.22786],[78.36596,12.2263],[78.36607,12.22531]]]}},{"type":"Feature","properties":{"name":"Right Main Canal","kind":"main","canalType":"Main Canal","project":"Krishnagiri","lengthInDistrictKm":21.1,"shedId":"SBP17"},"geometry":{"type":"MultiLineString","coordinates":[[[78.18321,12.47396],[78.18408,12.47301],[78.18509,12.47202],[78.18544,12.47181],[78.18558,12.47174],[78.18572,12.47164],[78.18584,12.47154],[78.18589,12.47144],[78.18598,12.47126],[78.18616,12.47088],[78.18649,12.4698],[78.1865,12.46962],[78.1865,12.46953],[78.1865,12.46942],[78.18616,12.46864],[78.18601,12.46818],[78.18597,12.46805],[78.18597,12.46794],[78.18637,12.46667],[78.18668,12.46574],[78.1869,12.46488],[78.18693,12.46479],[78.18698,12.46469],[78.18706,12.46458],[78.18719,12.46443],[78.18727,12.46435],[78.18733,12.46427],[78.18734,12.46421],[78.18734,12.46405],[78.18725,12.46301],[78.18721,12.4625],[78.18721,12.46233],[78.18721,12.46221],[78.18721,12.46207],[78.18731,12.46182],[78.18775,12.46084],[78.18794,12.46066],[78.18842,12.46031],[78.18881,12.45979],[78.18888,12.4597],[78.18892,12.45963],[78.18894,12.45955],[78.18895,12.45946],[78.18893,12.45921],[78.18865,12.45839],[78.18857,12.45805],[78.18847,12.45751],[78.18825,12.45649],[78.18811,12.45594],[78.18766,12.45498],[78.18736,12.45436],[78.18712,12.45404],[78.18661,12.45356],[78.1865,12.45346],[78.18642,12.45334],[78.18637,12.45326],[78.18634,12.4532],[78.18634,12.45313],[78.18634,12.45302],[78.18635,12.45285],[78.18669,12.45152],[78.18696,12.45048],[78.18711,12.44996],[78.1876,12.44907],[78.18773,12.44884],[78.18786,12.44836],[78.18784,12.4472],[78.18787,12.44577],[78.18787,12.44564],[78.18789,12.44549],[78.18794,12.44539],[78.18802,12.4453],[78.18833,12.44507],[78.1895,12.44427],[78.19011,12.44381],[78.19019,12.44373],[78.1902,12.44367],[78.1902,12.44361],[78.18992,12.44296],[78.18938,12.44159],[78.18902,12.44054],[78.18897,12.44032],[78.18893,12.44005],[78.1889,12.43983],[78.18877,12.43823],[78.18839,12.43666],[78.18834,12.4366],[78.18831,12.43655],[78.18793,12.4363],[78.18745,12.43613],[78.18679,12.43597],[78.18669,12.43593],[78.1866,12.4359],[78.18655,12.43587],[78.18649,12.43578],[78.18642,12.43537],[78.18636,12.43524],[78.18628,12.43512],[78.18626,12.43508],[78.18583,12.43481],[78.18576,12.43473],[78.18572,12.43465],[78.18571,12.43458],[78.18569,12.43449],[78.18572,12.43442],[78.18576,12.43435],[78.1859,12.43426],[78.1871,12.43368],[78.18897,12.43274],[78.19009,12.4322],[78.19102,12.43126],[78.19275,12.42956],[78.19319,12.42909],[78.19331,12.42893],[78.19342,12.42875],[78.19348,12.42861],[78.19418,12.42746],[78.19477,12.42638],[78.19491,12.42627],[78.19506,12.42616],[78.1961,12.42563],[78.1962,12.42549],[78.19626,12.42536],[78.19627,12.42524],[78.19626,12.42506],[78.1962,12.42482],[78.19615,12.42471],[78.19615,12.42461],[78.19618,12.4245],[78.19637,12.42419],[78.1964,12.42402],[78.19635,12.42242],[78.19624,12.42169],[78.19588,12.41977],[78.19551,12.41848],[78.19548,12.41836],[78.19549,12.41823],[78.19552,12.41813],[78.19552,12.41804],[78.19514,12.41693],[78.1948,12.41579],[78.19464,12.41536],[78.19462,12.41521],[78.19462,12.41504],[78.19462,12.41484],[78.19459,12.41459],[78.19457,12.41435],[78.19422,12.41351],[78.19412,12.41324],[78.19405,12.41301],[78.19402,12.41288],[78.19401,12.41278],[78.19409,12.41264],[78.19421,12.41254],[78.19444,12.41242],[78.19468,12.41234],[78.19476,12.41231],[78.19487,12.41224],[78.19491,12.41215],[78.19488,12.41186],[78.19444,12.41028],[78.19429,12.40943],[78.19428,12.40913],[78.19431,12.40899],[78.19439,12.40888],[78.19454,12.40874],[78.19479,12.40859],[78.19494,12.40853],[78.19515,12.40848],[78.19537,12.40847],[78.19581,12.40857],[78.19606,12.40866],[78.19632,12.40877],[78.19655,12.40894],[78.19671,12.40906],[78.1969,12.40914],[78.19704,12.40921],[78.19727,12.40927],[78.19747,12.40928],[78.19759,12.4093],[78.19785,12.40942],[78.19857,12.41003],[78.19879,12.41019],[78.19893,12.41026],[78.19905,12.41031],[78.19917,12.41031],[78.1994,12.41027],[78.19976,12.41015],[78.19994,12.41007],[78.20003,12.40998],[78.20005,12.40993],[78.20006,12.40983],[78.20004,12.40956],[78.1995,12.40851],[78.19929,12.40797],[78.19924,12.40779],[78.19925,12.40769],[78.1993,12.4076],[78.19998,12.40648],[78.20017,12.4061],[78.20021,12.40569],[78.20005,12.40514],[78.20001,12.40501],[78.2,12.40489],[78.20001,12.40473],[78.20006,12.40459],[78.2003,12.40447],[78.20058,12.40442],[78.20109,12.40441],[78.20176,12.40443],[78.20198,12.40451],[78.2021,12.40463],[78.20242,12.40515],[78.20251,12.40549],[78.20258,12.40576],[78.20265,12.406],[78.20268,12.4061],[78.20275,12.40622],[78.2029,12.40638],[78.20411,12.40709],[78.20423,12.40712],[78.20434,12.40711],[78.20448,12.40708],[78.20476,12.4069],[78.20553,12.40636],[78.20631,12.40606],[78.2092,12.40493],[78.20938,12.40486],[78.20952,12.40478],[78.2096,12.40471],[78.20963,12.40462],[78.20964,12.40454],[78.20965,12.40443],[78.20964,12.40427],[78.20943,12.40395],[78.20893,12.40313],[78.20883,12.40296],[78.20877,12.40289],[78.20871,12.40276],[78.20868,12.40257],[78.20868,12.40228],[78.2087,12.40146],[78.2087,12.40135],[78.2087,12.4013],[78.20863,12.40123],[78.20837,12.40113],[78.20758,12.401],[78.20736,12.401],[78.20704,12.40108],[78.20686,12.40113],[78.20676,12.40116],[78.2067,12.4012],[78.20668,12.40129],[78.20667,12.40159],[78.20666,12.4021],[78.20658,12.40228],[78.20648,12.40243],[78.2064,12.40252],[78.20623,12.40259],[78.20615,12.40259],[78.20582,12.40246],[78.20565,12.40232],[78.20548,12.40213],[78.20532,12.4018],[78.20499,12.40104],[78.2049,12.40081],[78.20487,12.40063],[78.20482,12.40024],[78.20479,12.40011],[78.20474,12.39999],[78.20468,12.39988],[78.20459,12.3997],[78.20452,12.39959],[78.20445,12.39947],[78.20432,12.39926],[78.2042,12.39916],[78.20372,12.39882],[78.20359,12.39872],[78.20353,12.39864],[78.20348,12.39856],[78.20341,12.39821],[78.20338,12.39805],[78.20338,12.39794],[78.20347,12.39773],[78.20359,12.39744],[78.2037,12.3973],[78.2038,12.39722],[78.20396,12.39716],[78.2043,12.39706],[78.20469,12.39697],[78.20497,12.39692],[78.20514,12.39686],[78.20523,12.39679],[78.20532,12.39667],[78.20559,12.39647],[78.20573,12.39639],[78.20605,12.39617],[78.20661,12.39519],[78.20694,12.39455],[78.20705,12.39441],[78.20719,12.3943],[78.20729,12.3942],[78.20737,12.39408],[78.20746,12.39394],[78.20753,12.39378],[78.20766,12.3929],[78.20766,12.39268],[78.20766,12.39256],[78.20758,12.39222],[78.20726,12.3911],[78.20726,12.391],[78.20727,12.39088],[78.20744,12.3903],[78.20766,12.38938],[78.20763,12.38925],[78.20761,12.38919],[78.20658,12.38785],[78.20651,12.38761],[78.2065,12.38743],[78.20651,12.38734],[78.20656,12.38725],[78.20713,12.38651],[78.20739,12.38607],[78.20751,12.38587],[78.20757,12.38563],[78.20757,12.38551],[78.20757,12.38535],[78.20749,12.38512],[78.20741,12.38498],[78.20726,12.3848],[78.20716,12.38469],[78.207,12.38455],[78.20667,12.38432],[78.20635,12.38413],[78.20619,12.38407],[78.20613,12.38402],[78.20607,12.38393],[78.20604,12.38357],[78.20602,12.3835],[78.206,12.38345],[78.20585,12.38343],[78.20386,12.38362],[78.20371,12.38362],[78.20363,12.3836],[78.20353,12.38354],[78.20299,12.38309],[78.20288,12.38299],[78.20283,12.38289],[78.20274,12.38266],[78.20255,12.38205],[78.20255,12.38195],[78.20257,12.38182],[78.20277,12.38156],[78.20341,12.38039],[78.20425,12.37869],[78.20425,12.3786],[78.20346,12.37666],[78.20315,12.37609],[78.20309,12.37572],[78.20328,12.37423],[78.20345,12.37287],[78.20345,12.37248],[78.20343,12.37232],[78.20341,12.37211],[78.20341,12.37201],[78.20341,12.37187],[78.20358,12.37174],[78.20562,12.37123],[78.20793,12.37115],[78.21017,12.37116],[78.21026,12.37113],[78.21028,12.37106],[78.21031,12.37093],[78.21062,12.36953],[78.2109,12.36805],[78.21112,12.36697],[78.21124,12.36636],[78.21124,12.36606],[78.21124,12.36584],[78.21129,12.36553],[78.21134,12.36536],[78.21139,12.36519],[78.21142,12.36502],[78.21146,12.36469],[78.21146,12.36445],[78.21142,12.36423],[78.21139,12.36385],[78.21142,12.3636],[78.21152,12.36333],[78.21163,12.36303],[78.21172,12.36282],[78.21179,12.3626],[78.2118,12.36238],[78.2117,12.36078],[78.21135,12.35764],[78.21106,12.35493],[78.21098,12.3547],[78.21088,12.35449],[78.21079,12.35431],[78.21071,12.35418],[78.21063,12.35408],[78.21053,12.35398],[78.21046,12.35387],[78.21043,12.35378],[78.21044,12.35361],[78.21065,12.35258],[78.21091,12.35116],[78.21095,12.35098],[78.21104,12.35082],[78.2111,12.35068],[78.21114,12.35048],[78.21112,12.35033],[78.21081,12.34925],[78.2107,12.34872],[78.2107,12.34852],[78.21071,12.34847],[78.21077,12.34832],[78.21107,12.34812],[78.21236,12.3478],[78.21245,12.34772],[78.2125,12.34758],[78.21254,12.34738],[78.2126,12.34668],[78.21284,12.34513],[78.21257,12.34383],[78.21261,12.34298],[78.21266,12.34269],[78.21279,12.34256],[78.21288,12.34254],[78.21314,12.34254],[78.21342,12.34254],[78.21355,12.3425],[78.21367,12.34245],[78.2138,12.34235],[78.21411,12.34185],[78.21469,12.34061],[78.21512,12.33937],[78.21676,12.33915],[78.21749,12.339]]]}},{"type":"Feature","properties":{"name":"Left Main Canal","kind":"main","canalType":"Main Canal","project":"Krishnagiri","lengthInDistrictKm":17.9,"shedId":"SBP17"},"geometry":{"type":"MultiLineString","coordinates":[[[78.1885,12.47839],[78.19037,12.47778],[78.19058,12.47766],[78.19076,12.47746],[78.19103,12.47692],[78.19134,12.47604],[78.19253,12.47336],[78.1927,12.47303],[78.19281,12.47287],[78.19297,12.47266],[78.19327,12.47244],[78.19368,12.47226],[78.19467,12.47168],[78.19543,12.47123],[78.19564,12.47116],[78.19597,12.47109],[78.19718,12.47085],[78.19743,12.47078],[78.19758,12.47071],[78.19991,12.46971],[78.20096,12.46913],[78.20114,12.46906],[78.20133,12.46901],[78.20155,12.46896],[78.20191,12.46892],[78.20372,12.46883],[78.20587,12.46872],[78.20598,12.46875],[78.20611,12.46879],[78.20624,12.46885],[78.20637,12.46895],[78.20647,12.46904],[78.20655,12.46915],[78.20662,12.46928],[78.20665,12.46938],[78.20668,12.46949],[78.20673,12.4699],[78.20697,12.4716],[78.20729,12.4744],[78.20843,12.47582],[78.20863,12.47614],[78.20952,12.47802],[78.21074,12.48072],[78.21188,12.48292],[78.21203,12.48319],[78.21204,12.4832]],[[78.21651,12.48275],[78.2168,12.48264],[78.21692,12.48256],[78.217,12.48247],[78.21719,12.48217],[78.21722,12.48202],[78.21724,12.4818],[78.21745,12.47963],[78.21745,12.47946],[78.21741,12.47926],[78.21731,12.47908],[78.21676,12.47793],[78.2167,12.47774],[78.21666,12.47755],[78.21661,12.47726],[78.21628,12.47538],[78.21611,12.47461],[78.21605,12.47427],[78.21603,12.47405],[78.216,12.47367],[78.21593,12.47285],[78.21591,12.47271],[78.21556,12.47169],[78.21551,12.47156],[78.2155,12.4715],[78.2155,12.47142],[78.21555,12.47133],[78.21562,12.47127],[78.2158,12.47119],[78.21742,12.47087],[78.21765,12.47081],[78.2178,12.47076],[78.21796,12.47069],[78.2182,12.47049],[78.21826,12.47038],[78.21833,12.47024],[78.21842,12.47011],[78.21849,12.47001],[78.2186,12.46994],[78.22067,12.4686],[78.22209,12.46771],[78.22291,12.46618],[78.22295,12.46609],[78.22303,12.46598],[78.22312,12.46589],[78.22323,12.4658],[78.22333,12.46573],[78.2234,12.46565],[78.22346,12.46555],[78.22351,12.46545],[78.22384,12.46437],[78.22393,12.46422],[78.22403,12.46411],[78.2241,12.46404],[78.22421,12.46396],[78.22433,12.46389],[78.22442,12.46387],[78.22452,12.46383],[78.22463,12.46378],[78.2248,12.46369],[78.22485,12.46363],[78.2249,12.46347],[78.22494,12.46328],[78.22495,12.46315],[78.22497,12.46302],[78.22501,12.46293],[78.22505,12.46286],[78.22511,12.46277],[78.22535,12.4626],[78.22628,12.46181],[78.22705,12.46097],[78.22797,12.45995],[78.22809,12.45979],[78.22819,12.45966],[78.22824,12.45958],[78.22829,12.45948],[78.22832,12.45939],[78.22832,12.45929],[78.22832,12.45911],[78.22832,12.45875],[78.22838,12.4586],[78.22844,12.45844],[78.22887,12.45752],[78.22957,12.45609],[78.2296,12.45496],[78.22972,12.45421],[78.22974,12.45412],[78.22977,12.45404],[78.22983,12.45393],[78.22988,12.45387],[78.23008,12.45375],[78.23144,12.45294],[78.23165,12.45281],[78.23174,12.45274],[78.23183,12.45261],[78.23189,12.45251],[78.23196,12.45241],[78.2321,12.45227],[78.23274,12.45166],[78.23284,12.45156],[78.23295,12.45144],[78.23306,12.45133],[78.23315,12.45119],[78.23316,12.45106],[78.23316,12.45096],[78.23316,12.4508],[78.23321,12.4507],[78.23364,12.45023],[78.23383,12.4501],[78.23397,12.44998],[78.23407,12.4499],[78.23415,12.4498],[78.23427,12.44962],[78.23438,12.44942],[78.23471,12.4487],[78.23499,12.44843],[78.23526,12.44822],[78.23578,12.44788],[78.23605,12.44777],[78.23619,12.44773],[78.23634,12.44765],[78.23648,12.44754],[78.2366,12.44744],[78.2367,12.44733],[78.23677,12.44721],[78.23709,12.44644],[78.23774,12.44523],[78.2382,12.44453],[78.23955,12.44389],[78.23971,12.44377],[78.2398,12.44369],[78.24064,12.44279],[78.24195,12.44138],[78.24347,12.44055],[78.24549,12.43989],[78.2473,12.43914],[78.24827,12.43859],[78.24837,12.43849],[78.24841,12.43842],[78.24865,12.43685],[78.24896,12.43513],[78.24926,12.43348],[78.2491,12.43164],[78.2494,12.43023],[78.24966,12.42906],[78.24931,12.42805],[78.24873,12.42704],[78.24829,12.4255],[78.24836,12.42514],[78.2487,12.42442],[78.24916,12.42368],[78.25072,12.42317],[78.2515,12.42193],[78.25192,12.4211],[78.25237,12.42004],[78.25245,12.41973],[78.25246,12.41956],[78.25246,12.41931],[78.25246,12.4191],[78.25244,12.41888],[78.25237,12.41873],[78.25227,12.41829],[78.25227,12.41812],[78.25227,12.418],[78.25227,12.41779],[78.25241,12.41689],[78.25247,12.41679],[78.25261,12.41666],[78.25283,12.41654],[78.25429,12.41611],[78.25463,12.416],[78.25472,12.4159],[78.25476,12.41582],[78.25485,12.41567],[78.25497,12.41535],[78.25499,12.41518],[78.25502,12.41502],[78.25508,12.4148],[78.25512,12.41472],[78.25519,12.41467],[78.25542,12.41462],[78.25565,12.41459],[78.25573,12.41457],[78.25579,12.41448],[78.2558,12.41434],[78.25582,12.41387],[78.25587,12.41271],[78.25635,12.41078],[78.25686,12.40892],[78.25642,12.40699],[78.25623,12.40612],[78.25622,12.40604],[78.25623,12.40595],[78.25676,12.40529],[78.25676,12.40518],[78.25676,12.40501],[78.25656,12.40409],[78.25656,12.40215],[78.25659,12.40197],[78.25669,12.40193],[78.25684,12.40188],[78.25695,12.40184],[78.25703,12.40178],[78.2571,12.40162],[78.25741,12.40107],[78.25845,12.39959],[78.25821,12.399],[78.25836,12.39869],[78.25848,12.39855],[78.25859,12.39854],[78.25884,12.39855],[78.25903,12.39867],[78.25909,12.39873],[78.25931,12.3987],[78.25982,12.39855],[78.26013,12.39851],[78.26027,12.39857],[78.26059,12.39871],[78.26077,12.39879],[78.26117,12.39879],[78.26155,12.39878],[78.26192,12.39878],[78.26226,12.3988],[78.26259,12.39892],[78.26277,12.399],[78.26432,12.39913],[78.26607,12.39893],[78.26617,12.39893],[78.26624,12.39896],[78.26684,12.3996],[78.26699,12.39978],[78.26707,12.39995],[78.2671,12.40007],[78.26711,12.40021],[78.26707,12.40032],[78.26696,12.40049],[78.26687,12.40063],[78.26682,12.40075],[78.26682,12.40085],[78.26689,12.40098],[78.26709,12.40113],[78.26741,12.40128],[78.26756,12.40133],[78.26764,12.40133],[78.26778,12.40132],[78.2679,12.40125],[78.26854,12.4006],[78.26862,12.40054],[78.26867,12.4005],[78.26875,12.4005],[78.26881,12.40053],[78.269,12.4007],[78.27008,12.40185],[78.27087,12.40275],[78.27094,12.40289],[78.27097,12.40311],[78.27103,12.40342],[78.27113,12.40366],[78.27135,12.40403],[78.27169,12.40428],[78.27181,12.40435],[78.27196,12.40442],[78.27208,12.40446],[78.27217,12.40446],[78.27229,12.40441],[78.27242,12.40432],[78.27263,12.40413]]]}}]}