{"nvdm":"1.0","dataset":"basins/groundwater-wells","scope":{"kind":"basin","id":"krishnagiri-rivers"},"provenance":{"sources":[{"id":"nwic-nwdp-groundwater-level","title":"National Water Data Portal: Ground Water Level datasets for Tamil Nadu (CGWB telemetry 2026-2030, Tamil Nadu SW GW telemetry 2026-2030, CGWB manual quarterly 2021-2025)","publisher":"National Water Informatics Centre (NWIC), Ministry of Jal Shakti","license":"Government of India open data portal: its copyright policy permits reproduction free of charge in any format without specific permission, reproduced accurately and with the source prominently acknowledged; cited with attribution","role":"input","url":"https://nwdp.nwic.gov.in/"},{"id":"tngis-open-geoserver","title":"TNGIS open GeoServer (WFS): district, taluk, block and village panchayat boundaries, TN WRD sub-basins and reservoirs, micro-watershed atlas, all-water-bodies and all-tanks registers, mine leases, industry register matched to land parcels","publisher":"Tamil Nadu e-Governance Agency (TNGIS)","license":"Tamil Nadu government data on an open GeoServer (WFS, no login); published with TNGIS's permission and with attribution.","role":"input","url":"https://tngis.tn.gov.in/tngismaps/ows"}],"method":"derived","produced_at":"2026-09-18","produced_by":"scripts/build_krishnagiri_rivers_basin.py","internal_inputs":["public/data/basins/krishnagiri-rivers/sub-hydrosheds.geojson"],"note":"Krishnagiri district's rivers, groundwater and industry (scope krishnagiri-rivers; the district's own scope id is tn-krishnagiri). The district boundary is the frame and TN WRD's sub-basins, clipped to it, are the catchments (shedId): the Thenpennai's to the east, the Cauvery's Chinnar and Dodda Halla to the south-west. The industry register holds only units TNGIS matched to a land parcel, so every count is a lower bound; sector comes from the reviewed TNPCB type-code lookup pipeline-inputs/basins/krishnagiri-rivers/tnpcb-type-sectors.json."},"type":"FeatureCollection","features":[{"type":"Feature","properties":{"name":"Athimugam1 1","kind":"cgwb-telemetry","network":"CGWB telemetry, six-hourly, 2026","agency":"CGWB","tehsil":"Hosur","latestDepthMbgl":10.74,"latestReading":"2026-09-09","shallowestMbgl":4.72,"deepestMbgl":10.74,"firstReading":"2026-01-01","readingsCount":870,"shedId":"SBP02"},"geometry":{"type":"Point","coordinates":[77.9792,12.7583]}},{"type":"Feature","properties":{"name":"Bargur 1","kind":"cgwb-telemetry","network":"CGWB telemetry, six-hourly, 2026","agency":"CGWB","tehsil":"Krishnagiri","latestDepthMbgl":3.43,"latestReading":"2026-09-01","shallowestMbgl":1.22,"deepestMbgl":3.43,"firstReading":"2026-01-01","readingsCount":299,"shedId":"SBP05"},"geometry":{"type":"Point","coordinates":[78.3583,12.5458]}},{"type":"Feature","properties":{"name":"Billakottai Pz KRISHNAGIRI Krishnagiri Tamil Nadu","kind":"cgwb-telemetry","network":"CGWB telemetry, six-hourly, 2026","agency":"CGWB","tehsil":"Krishnagiri","latestDepthMbgl":38.48,"latestReading":"2026-09-16","shallowestMbgl":33.62,"deepestMbgl":38.49,"firstReading":"2026-01-01","readingsCount":1021,"shedId":"SBP17"},"geometry":{"type":"Point","coordinates":[78.1658,12.4072]}},{"type":"Feature","properties":{"name":"Billanakuppam 1","kind":"cgwb-telemetry","network":"CGWB telemetry, six-hourly, 2026","agency":"CGWB","tehsil":"Krishnagiri","latestDepthMbgl":7.73,"latestReading":"2026-08-01","shallowestMbgl":0.03,"deepestMbgl":8.16,"firstReading":"2026-01-01","readingsCount":435,"shedId":"SBP16"},"geometry":{"type":"Point","coordinates":[78.1853,12.6025]}},{"type":"Feature","properties":{"name":"ENUSONAI 2","kind":"cgwb-telemetry","network":"CGWB telemetry, six-hourly, 2026","agency":"CGWB","tehsil":"Denkanikottai","latestDepthMbgl":49.75,"latestReading":"2026-09-09","shallowestMbgl":16.28,"deepestMbgl":49.76,"firstReading":"2026-01-01","readingsCount":886,"shedId":"SBP16"},"geometry":{"type":"Point","coordinates":[78.0175,12.6136]}},{"type":"Feature","properties":{"name":"Gurubarapalli (Billanakuppam) 1","kind":"cgwb-telemetry","network":"CGWB telemetry, six-hourly, 2026","agency":"CGWB","tehsil":"Krishnagiri","latestDepthMbgl":29.82,"latestReading":"2026-09-01","shallowestMbgl":23.3,"deepestMbgl":30.52,"firstReading":"2026-01-01","readingsCount":628,"shedId":"SBP03"},"geometry":{"type":"Point","coordinates":[78.1331,12.5972]}},{"type":"Feature","properties":{"name":"Hosur HP","kind":"cgwb-telemetry","network":"CGWB telemetry, six-hourly, 2026","agency":"CGWB","tehsil":"Hosur","latestDepthMbgl":11.05,"latestReading":"2026-09-09","shallowestMbgl":10.14,"deepestMbgl":11.83,"firstReading":"2026-01-01","readingsCount":874,"shedId":"SBP16"},"geometry":{"type":"Point","coordinates":[77.8333,12.7167]}},{"type":"Feature","properties":{"name":"Kattupatti OW","kind":"cgwb-telemetry","network":"CGWB telemetry, six-hourly, 2026","agency":"CGWB","tehsil":"Uthangarai","latestDepthMbgl":18.16,"latestReading":"2026-09-01","shallowestMbgl":12.95,"deepestMbgl":18.38,"firstReading":"2026-01-01","readingsCount":628,"shedId":"SBP17"},"geometry":{"type":"Point","coordinates":[78.415,12.2442]}},{"type":"Feature","properties":{"name":"Kaveripatnam 1","kind":"cgwb-telemetry","network":"CGWB telemetry, six-hourly, 2026","agency":"CGWB","tehsil":"Krishnagiri","latestDepthMbgl":9.06,"latestReading":"2026-09-01","shallowestMbgl":3.34,"deepestMbgl":9.13,"firstReading":"2026-01-01","readingsCount":644,"shedId":"SBP17"},"geometry":{"type":"Point","coordinates":[78.2292,12.4125]}},{"type":"Feature","properties":{"name":"Keezhkuppam Pz UTHANGARAI Krishnagiri Tamil Nadu","kind":"cgwb-telemetry","network":"CGWB telemetry, six-hourly, 2026","agency":"CGWB","tehsil":"Krishnagiri","latestDepthMbgl":11.93,"latestReading":"2026-08-09","shallowestMbgl":9.05,"deepestMbgl":11.97,"firstReading":"2026-01-30","readingsCount":753,"shedId":"SBP17"},"geometry":{"type":"Point","coordinates":[78.5283,12.2228]}},{"type":"Feature","properties":{"name":"Krishnagiri1 1","kind":"cgwb-telemetry","network":"CGWB telemetry, six-hourly, 2026","agency":"CGWB","tehsil":"Krishnagiri","latestDepthMbgl":13.37,"latestReading":"2026-09-09","shallowestMbgl":6.85,"deepestMbgl":13.79,"firstReading":"2026-01-01","readingsCount":882,"shedId":"SBP17"},"geometry":{"type":"Point","coordinates":[78.2306,12.5306]}},{"type":"Feature","properties":{"name":"Mallapadi OW 1","kind":"cgwb-telemetry","network":"CGWB telemetry, six-hourly, 2026","agency":"CGWB","tehsil":"Krishnagiri","latestDepthMbgl":13.63,"latestReading":"2026-09-01","shallowestMbgl":10.28,"deepestMbgl":13.75,"firstReading":"2026-01-01","readingsCount":644,"shedId":"SBP05"},"geometry":{"type":"Point","coordinates":[78.375,12.5342]}},{"type":"Feature","properties":{"name":"Manchukondapalli Thally Krishnagiri Tamil Nadu","kind":"cgwb-telemetry","network":"CGWB telemetry, six-hourly, 2026","agency":"CGWB","tehsil":"Krishnagiri","latestDepthMbgl":83.33,"latestReading":"2026-09-16","shallowestMbgl":1.82,"deepestMbgl":190.78,"firstReading":"2026-01-01","readingsCount":907,"shedId":"SB117"},"geometry":{"type":"Point","coordinates":[77.5353,12.2492]}},{"type":"Feature","properties":{"name":"Mattur2 1","kind":"cgwb-telemetry","network":"CGWB telemetry, six-hourly, 2026","agency":"CGWB","tehsil":"Pochampalli","latestDepthMbgl":9.5,"latestReading":"2026-09-09","shallowestMbgl":7.26,"deepestMbgl":11.14,"firstReading":"2026-01-01","readingsCount":886,"shedId":"SBP05"},"geometry":{"type":"Point","coordinates":[78.4167,12.3833]}},{"type":"Feature","properties":{"name":"Megalachinnapalli 1","kind":"cgwb-telemetry","network":"CGWB telemetry, six-hourly, 2026","agency":"CGWB","tehsil":"Krishnagiri","latestDepthMbgl":5.41,"latestReading":"2026-09-09","shallowestMbgl":2.12,"deepestMbgl":5.69,"firstReading":"2026-01-01","readingsCount":864,"shedId":"SBP17"},"geometry":{"type":"Point","coordinates":[78.2542,12.625]}},{"type":"Feature","properties":{"name":"Nattanmai Kottai 1","kind":"cgwb-telemetry","network":"CGWB telemetry, six-hourly, 2026","agency":"CGWB","tehsil":"Krishnagiri","latestDepthMbgl":25.81,"latestReading":"2026-09-09","shallowestMbgl":7.68,"deepestMbgl":27.28,"firstReading":"2026-01-01","readingsCount":886,"shedId":"SBP17"},"geometry":{"type":"Point","coordinates":[78.2153,12.4719]}},{"type":"Feature","properties":{"name":"Pannandur Ow Pochampalli Krishnagiri Tamil Nadu","kind":"cgwb-telemetry","network":"CGWB telemetry, six-hourly, 2026","agency":"CGWB","tehsil":"Krishnagiri","latestDepthMbgl":5.41,"latestReading":"2026-09-16","shallowestMbgl":3.51,"deepestMbgl":6.34,"firstReading":"2026-01-30","readingsCount":901,"shedId":"SBP17"},"geometry":{"type":"Point","coordinates":[78.2786,12.3014]}},{"type":"Feature","properties":{"name":"Pannandur 1","kind":"cgwb-telemetry","network":"CGWB telemetry, six-hourly, 2026","agency":"CGWB","tehsil":"Pochampalli","latestDepthMbgl":6.37,"latestReading":"2026-09-01","shallowestMbgl":3.97,"deepestMbgl":7.44,"firstReading":"2026-01-01","readingsCount":636,"shedId":"SBP17"},"geometry":{"type":"Point","coordinates":[78.2794,12.3011]}},{"type":"Feature","properties":{"name":"Pudur Punganai OW 1","kind":"cgwb-telemetry","network":"CGWB telemetry, six-hourly, 2026","agency":"CGWB","tehsil":"Uthangarai","latestDepthMbgl":5.45,"latestReading":"2026-09-01","shallowestMbgl":3.1,"deepestMbgl":7.69,"firstReading":"2026-01-01","readingsCount":623,"shedId":"SBP17"},"geometry":{"type":"Point","coordinates":[78.4842,12.1861]}},{"type":"Feature","properties":{"name":"Udhanapalli (Muthanthalli) OW SHOOLAGIRI Krishnagiri Tamil Nadu","kind":"cgwb-telemetry","network":"CGWB telemetry, six-hourly, 2026","agency":"CGWB","tehsil":"Krishnagiri","latestDepthMbgl":17.07,"latestReading":"2026-09-16","shallowestMbgl":8.88,"deepestMbgl":17.11,"firstReading":"2026-01-01","readingsCount":1019,"shedId":"SBP16"},"geometry":{"type":"Point","coordinates":[77.9394,12.6103]}},{"type":"Feature","properties":{"name":"Unichetty (P.H) Gullatty OW KELAMANGALAM Krishnagiri Tamil Nadu","kind":"cgwb-telemetry","network":"CGWB telemetry, six-hourly, 2026","agency":"CGWB","tehsil":"Krishnagiri","latestDepthMbgl":33.47,"latestReading":"2026-09-16","shallowestMbgl":10.75,"deepestMbgl":33.59,"firstReading":"2026-01-01","readingsCount":1018,"shedId":"SB115"},"geometry":{"type":"Point","coordinates":[77.8503,12.4369]}},{"type":"Feature","properties":{"name":"Anchetty","kind":"state-telemetry","network":"Tamil Nadu state telemetry, six-hourly, 2026","agency":"Tamil Nadu SW GW","tehsil":"Denganikottai","latestDepthMbgl":8.92,"latestReading":"2026-09-16","shallowestMbgl":6.09,"deepestMbgl":9.16,"firstReading":"2026-01-01","readingsCount":679,"shedId":"SB117"},"geometry":{"type":"Point","coordinates":[77.7203,12.3519]}},{"type":"Feature","properties":{"name":"Anginayanapalli","kind":"state-telemetry","network":"Tamil Nadu state telemetry, six-hourly, 2026","agency":"Tamil Nadu SW GW","tehsil":"Krishnagiri","latestDepthMbgl":29.73,"latestReading":"2026-09-16","shallowestMbgl":16.62,"deepestMbgl":131.94,"firstReading":"2026-03-26","readingsCount":423,"shedId":"SBP05"},"geometry":{"type":"Point","coordinates":[78.3894,12.5344]}},{"type":"Feature","properties":{"name":"Bandarampalli","kind":"state-telemetry","network":"Tamil Nadu state telemetry, six-hourly, 2026","agency":"Tamil Nadu SW GW","tehsil":"Krishnagiri","latestDepthMbgl":20.79,"latestReading":"2026-09-16","shallowestMbgl":20.25,"deepestMbgl":42.87,"firstReading":"2026-01-01","readingsCount":800,"shedId":"SBP16"},"geometry":{"type":"Point","coordinates":[78.16675,12.57538]}},{"type":"Feature","properties":{"name":"Bellarampalli","kind":"state-telemetry","network":"Tamil Nadu state telemetry, six-hourly, 2026","agency":"Tamil Nadu SW GW","tehsil":"Krishnagiri","latestDepthMbgl":11.35,"latestReading":"2026-09-16","shallowestMbgl":3.58,"deepestMbgl":12.48,"firstReading":"2026-01-01","readingsCount":923,"shedId":"SBP16"},"geometry":{"type":"Point","coordinates":[78.15081,12.50497]}},{"type":"Feature","properties":{"name":"Chembarasanapalli","kind":"state-telemetry","network":"Tamil Nadu state telemetry, six-hourly, 2026","agency":"Tamil Nadu SW GW","tehsil":"Hosur","latestDepthMbgl":17.92,"latestReading":"2026-09-16","shallowestMbgl":3.84,"deepestMbgl":18.24,"firstReading":"2026-01-01","readingsCount":942,"shedId":"SBP02"},"geometry":{"type":"Point","coordinates":[78.025,12.7083]}},{"type":"Feature","properties":{"name":"Chennasandiram","kind":"state-telemetry","network":"Tamil Nadu state telemetry, six-hourly, 2026","agency":"Tamil Nadu SW GW","tehsil":"Hosur","latestDepthMbgl":73.57,"latestReading":"2026-09-16","shallowestMbgl":24.19,"deepestMbgl":74.31,"firstReading":"2026-01-01","readingsCount":935,"shedId":"SBP03"},"geometry":{"type":"Point","coordinates":[78.0233,12.8328]}},{"type":"Feature","properties":{"name":"Jeemangalam","kind":"state-telemetry","network":"Tamil Nadu state telemetry, six-hourly, 2026","agency":"Tamil Nadu SW GW","tehsil":"Hosur","latestDepthMbgl":29.74,"latestReading":"2026-09-16","shallowestMbgl":14.59,"deepestMbgl":29.74,"firstReading":"2026-02-02","readingsCount":802,"shedId":"SBP16"},"geometry":{"type":"Point","coordinates":[77.8642,12.8003]}},{"type":"Feature","properties":{"name":"Kundukottai","kind":"state-telemetry","network":"Tamil Nadu state telemetry, six-hourly, 2026","agency":"Tamil Nadu SW GW","tehsil":"Denganikottai","latestDepthMbgl":25.34,"latestReading":"2026-08-03","shallowestMbgl":17.59,"deepestMbgl":25.34,"firstReading":"2026-01-01","readingsCount":861,"shedId":"SB117"},"geometry":{"type":"Point","coordinates":[77.7558,12.4233]}},{"type":"Feature","properties":{"name":"Maharajakadai","kind":"state-telemetry","network":"Tamil Nadu state telemetry, six-hourly, 2026","agency":"Tamil Nadu SW GW","tehsil":"Krishnagiri","latestDepthMbgl":6.53,"latestReading":"2026-09-16","shallowestMbgl":3.02,"deepestMbgl":6.56,"firstReading":"2026-01-01","readingsCount":926,"shedId":"SBP17"},"geometry":{"type":"Point","coordinates":[78.2436,12.6192]}},{"type":"Feature","properties":{"name":"Marigoundanchauvlur","kind":"state-telemetry","network":"Tamil Nadu state telemetry, six-hourly, 2026","agency":"Tamil Nadu SW GW","tehsil":"Krishnagiri","latestDepthMbgl":5.11,"latestReading":"2026-09-16","shallowestMbgl":5.11,"deepestMbgl":6.21,"firstReading":"2026-01-01","readingsCount":873,"shedId":"SBP17"},"geometry":{"type":"Point","coordinates":[78.2456,12.4008]}},{"type":"Feature","properties":{"name":"Mookampatti","kind":"state-telemetry","network":"Tamil Nadu state telemetry, six-hourly, 2026","agency":"Tamil Nadu SW GW","tehsil":"Pochampalli","latestDepthMbgl":10.76,"latestReading":"2026-09-16","shallowestMbgl":5.62,"deepestMbgl":11.22,"firstReading":"2026-01-01","readingsCount":909,"shedId":"SB117"},"geometry":{"type":"Point","coordinates":[77.7811,12.4256]}},{"type":"Feature","properties":{"name":"Moramadugu","kind":"state-telemetry","network":"Tamil Nadu state telemetry, six-hourly, 2026","agency":"Tamil Nadu SW GW","tehsil":"Krishnagiri","latestDepthMbgl":7.64,"latestReading":"2026-09-16","shallowestMbgl":6.62,"deepestMbgl":7.71,"firstReading":"2026-07-31","readingsCount":190,"shedId":"SBP16"},"geometry":{"type":"Point","coordinates":[78.1231,12.4817]}},{"type":"Feature","properties":{"name":"Moramadugu 1","kind":"state-telemetry","network":"Tamil Nadu state telemetry, six-hourly, 2026","agency":"Tamil Nadu SW GW","latestDepthMbgl":4.41,"latestReading":"2026-05-28","shallowestMbgl":3.06,"deepestMbgl":5.8,"firstReading":"2026-01-01","readingsCount":540,"shedId":"SBP16"},"geometry":{"type":"Point","coordinates":[78.1231,12.4817]}},{"type":"Feature","properties":{"name":"Nagamangalam 1","kind":"state-telemetry","network":"Tamil Nadu state telemetry, six-hourly, 2026","agency":"Tamil Nadu SW GW","tehsil":"Denkanikottai","latestDepthMbgl":9.04,"latestReading":"2026-09-16","shallowestMbgl":5.56,"deepestMbgl":10.98,"firstReading":"2026-01-01","readingsCount":955,"shedId":"SBP16"},"geometry":{"type":"Point","coordinates":[78.0014,12.6097]}},{"type":"Feature","properties":{"name":"Nagamangalam 2","kind":"state-telemetry","network":"Tamil Nadu state telemetry, six-hourly, 2026","agency":"Tamil Nadu SW GW","tehsil":"Denkanikottai","latestDepthMbgl":4.3,"latestReading":"2026-09-16","shallowestMbgl":1.5,"deepestMbgl":4.7,"firstReading":"2026-01-01","readingsCount":924,"shedId":"SBP16"},"geometry":{"type":"Point","coordinates":[77.94053,12.56901]}},{"type":"Feature","properties":{"name":"Naranikuppam","kind":"state-telemetry","network":"Tamil Nadu state telemetry, six-hourly, 2026","agency":"Tamil Nadu SW GW","tehsil":"Krishnagiri","latestDepthMbgl":31.4,"latestReading":"2026-09-16","shallowestMbgl":16.08,"deepestMbgl":31.43,"firstReading":"2026-01-01","readingsCount":949,"shedId":"SBP16"},"geometry":{"type":"Point","coordinates":[78.1867,12.635]}},{"type":"Feature","properties":{"name":"Orappam","kind":"state-telemetry","network":"Tamil Nadu state telemetry, six-hourly, 2026","agency":"Tamil Nadu SW GW","tehsil":"Krishnagiri","latestDepthMbgl":6.4,"latestReading":"2026-09-16","shallowestMbgl":4.19,"deepestMbgl":7.16,"firstReading":"2026-01-01","readingsCount":959,"shedId":"SBP05"},"geometry":{"type":"Point","coordinates":[78.2825,12.535]}},{"type":"Feature","properties":{"name":"P.Ettipatti","kind":"state-telemetry","network":"Tamil Nadu state telemetry, six-hourly, 2026","agency":"Tamil Nadu SW GW","tehsil":"Uthangarai","latestDepthMbgl":3.61,"latestReading":"2026-09-16","shallowestMbgl":3.35,"deepestMbgl":3.86,"firstReading":"2026-01-01","readingsCount":846,"shedId":"SBP18"},"geometry":{"type":"Point","coordinates":[78.6039,12.1817]}},{"type":"Feature","properties":{"name":"Pachanapannati","kind":"state-telemetry","network":"Tamil Nadu state telemetry, six-hourly, 2026","agency":"Tamil Nadu SW GW","tehsil":"Denkanikottai","latestDepthMbgl":7.04,"latestReading":"2026-09-16","shallowestMbgl":5.43,"deepestMbgl":7.3,"firstReading":"2026-01-01","readingsCount":947,"shedId":"SB115"},"geometry":{"type":"Point","coordinates":[77.85222,12.55417]}},{"type":"Feature","properties":{"name":"Pasanthi","kind":"state-telemetry","network":"Tamil Nadu state telemetry, six-hourly, 2026","agency":"Tamil Nadu SW GW","tehsil":"Uthangarai","latestDepthMbgl":13.27,"latestReading":"2026-09-16","shallowestMbgl":5.33,"deepestMbgl":13.53,"firstReading":"2026-01-01","readingsCount":946,"shedId":"SBP05"},"geometry":{"type":"Point","coordinates":[78.4756,12.2922]}},{"type":"Feature","properties":{"name":"Rayakottai 2","kind":"state-telemetry","network":"Tamil Nadu state telemetry, six-hourly, 2026","agency":"Tamil Nadu SW GW","tehsil":"Denkanikottai","latestDepthMbgl":10.54,"latestReading":"2026-09-16","shallowestMbgl":0.44,"deepestMbgl":11.08,"firstReading":"2026-01-01","readingsCount":927,"shedId":"SB115"},"geometry":{"type":"Point","coordinates":[78.02722,12.51667]}},{"type":"Feature","properties":{"name":"Santhur 1","kind":"state-telemetry","network":"Tamil Nadu state telemetry, six-hourly, 2026","agency":"Tamil Nadu SW GW","tehsil":"Pochampalli","latestDepthMbgl":0.22,"latestReading":"2026-09-16","shallowestMbgl":0.22,"deepestMbgl":7.41,"firstReading":"2026-01-01","readingsCount":861,"shedId":"SBP05"},"geometry":{"type":"Point","coordinates":[78.34306,12.38972]}},{"type":"Feature","properties":{"name":"Shoolagiri Agaram hosur Krishnagiri Tamil Nadu","kind":"state-telemetry","network":"Tamil Nadu state telemetry, six-hourly, 2026","agency":"Tamil Nadu SW GW","latestDepthMbgl":13.93,"latestReading":"2026-09-16","shallowestMbgl":4.95,"deepestMbgl":14.26,"firstReading":"2026-01-01","readingsCount":989,"shedId":"SBP16"},"geometry":{"type":"Point","coordinates":[77.9247,12.6314]}},{"type":"Feature","properties":{"name":"Thally 1","kind":"state-telemetry","network":"Tamil Nadu state telemetry, six-hourly, 2026","agency":"Tamil Nadu SW GW","tehsil":"Denkanikottai","latestDepthMbgl":23.2,"latestReading":"2026-08-17","shallowestMbgl":9.11,"deepestMbgl":27.23,"firstReading":"2026-01-01","readingsCount":718,"shedId":"SB115"},"geometry":{"type":"Point","coordinates":[77.65194,12.58778]}},{"type":"Feature","properties":{"name":"Anusonai","kind":"cgwb-manual","network":"CGWB manual quarterly, 2021 to 2025","agency":"CGWB","tehsil":"Denganikottai","latestDepthMbgl":2.65,"latestReading":"2024-08-30","shallowestMbgl":0.8,"deepestMbgl":7.17,"firstReading":"2021-01-10","readingsCount":14,"shedId":"SB115"},"geometry":{"type":"Point","coordinates":[77.9,12.56667]}},{"type":"Feature","properties":{"name":"Athimugam1","kind":"cgwb-manual","network":"CGWB manual quarterly, 2021 to 2025","agency":"CGWB","tehsil":"Hosur","latestDepthMbgl":6.46,"latestReading":"2024-08-30","shallowestMbgl":0.98,"deepestMbgl":8.85,"firstReading":"2021-01-10","readingsCount":14,"shedId":"SBP02"},"geometry":{"type":"Point","coordinates":[77.97917,12.75833]}},{"type":"Feature","properties":{"name":"BILLANAKUPPAM","kind":"cgwb-manual","network":"CGWB manual quarterly, 2021 to 2025","agency":"CGWB","latestDepthMbgl":18.8,"latestReading":"2024-05-30","shallowestMbgl":8.22,"deepestMbgl":18.8,"firstReading":"2023-01-01","readingsCount":3,"shedId":"SBP16"},"geometry":{"type":"Point","coordinates":[78.19,12.6]}},{"type":"Feature","properties":{"name":"Bargur","kind":"cgwb-manual","network":"CGWB manual quarterly, 2021 to 2025","agency":"CGWB","tehsil":"Pochampalli","latestDepthMbgl":2.76,"latestReading":"2023-08-30","shallowestMbgl":0.97,"deepestMbgl":2.76,"firstReading":"2022-11-30","readingsCount":4,"shedId":"SBP05"},"geometry":{"type":"Point","coordinates":[78.35833,12.54583]}},{"type":"Feature","properties":{"name":"Bargur1","kind":"cgwb-manual","network":"CGWB manual quarterly, 2021 to 2025","agency":"CGWB","tehsil":"Pochampalli","latestDepthMbgl":5.86,"latestReading":"2024-08-30","shallowestMbgl":0.97,"deepestMbgl":35.27,"firstReading":"2021-01-10","readingsCount":8,"shedId":"SBP05"},"geometry":{"type":"Point","coordinates":[78.35833,12.54167]}},{"type":"Feature","properties":{"name":"Billakottai2","kind":"cgwb-manual","network":"CGWB manual quarterly, 2021 to 2025","agency":"CGWB","tehsil":"Pochampalli","latestDepthMbgl":12.36,"latestReading":"2024-08-30","shallowestMbgl":3.2,"deepestMbgl":12.36,"firstReading":"2023-01-20","readingsCount":7,"shedId":"SBP17"},"geometry":{"type":"Point","coordinates":[78.16611,12.40722]}},{"type":"Feature","properties":{"name":"Billanakuppam 1","kind":"cgwb-manual","network":"CGWB manual quarterly, 2021 to 2025","agency":"CGWB","tehsil":"Krishnagiri","latestDepthMbgl":15.15,"latestReading":"2024-08-30","shallowestMbgl":6.5,"deepestMbgl":15.15,"firstReading":"2023-01-20","readingsCount":3,"shedId":"SBP16"},"geometry":{"type":"Point","coordinates":[78.1853,12.6025]}},{"type":"Feature","properties":{"name":"Dekanikottai","kind":"cgwb-manual","network":"CGWB manual quarterly, 2021 to 2025","agency":"CGWB","tehsil":"Denganikottai","latestDepthMbgl":7.87,"latestReading":"2024-08-30","shallowestMbgl":6.96,"deepestMbgl":11.8,"firstReading":"2021-01-10","readingsCount":7,"shedId":"SB115"},"geometry":{"type":"Point","coordinates":[77.79167,12.52917]}},{"type":"Feature","properties":{"name":"Denkanikottai1","kind":"cgwb-manual","network":"CGWB manual quarterly, 2021 to 2025","agency":"CGWB","tehsil":"Denganikottai","latestDepthMbgl":5.94,"latestReading":"2024-08-30","shallowestMbgl":2.57,"deepestMbgl":10.05,"firstReading":"2021-01-10","readingsCount":15,"shedId":"SB115"},"geometry":{"type":"Point","coordinates":[77.78333,12.525]}},{"type":"Feature","properties":{"name":"ENUSONAI 1","kind":"cgwb-manual","network":"CGWB manual quarterly, 2021 to 2025","agency":"CGWB","latestDepthMbgl":34.05,"latestReading":"2024-01-10","shallowestMbgl":24.85,"deepestMbgl":34.05,"firstReading":"2023-05-31","readingsCount":2,"shedId":"SBP16"},"geometry":{"type":"Point","coordinates":[78.02,12.61]}},{"type":"Feature","properties":{"name":"ENUSONAI 2","kind":"cgwb-manual","network":"CGWB manual quarterly, 2021 to 2025","agency":"CGWB","tehsil":"Denkanikottai","latestDepthMbgl":100.0,"latestReading":"2024-08-30","shallowestMbgl":24.05,"deepestMbgl":100.0,"firstReading":"2023-01-20","readingsCount":2,"shedId":"SBP16"},"geometry":{"type":"Point","coordinates":[78.0175,12.6136]}},{"type":"Feature","properties":{"name":"Gurubarapalli (Billanakuppam) OW","kind":"cgwb-manual","network":"CGWB manual quarterly, 2021 to 2025","agency":"CGWB","latestDepthMbgl":10.47,"latestReading":"2024-01-10","shallowestMbgl":7.76,"deepestMbgl":10.47,"firstReading":"2023-05-31","readingsCount":2,"shedId":"SBP03"},"geometry":{"type":"Point","coordinates":[78.13,12.6]}},{"type":"Feature","properties":{"name":"Gurubarapalli (Billanakuppam) 1","kind":"cgwb-manual","network":"CGWB manual quarterly, 2021 to 2025","agency":"CGWB","tehsil":"Krishnagiri","latestDepthMbgl":23.97,"latestReading":"2024-08-30","shallowestMbgl":7.03,"deepestMbgl":46.45,"firstReading":"2023-01-20","readingsCount":3,"shedId":"SBP03"},"geometry":{"type":"Point","coordinates":[78.1331,12.5972]}},{"type":"Feature","properties":{"name":"Guruvinayanpalli","kind":"cgwb-manual","network":"CGWB manual quarterly, 2021 to 2025","agency":"CGWB","tehsil":"Pochampalli","latestDepthMbgl":14.89,"latestReading":"2024-08-30","shallowestMbgl":3.49,"deepestMbgl":16.04,"firstReading":"2021-01-10","readingsCount":10,"shedId":"SBP05"},"geometry":{"type":"Point","coordinates":[78.32917,12.65]}},{"type":"Feature","properties":{"name":"Hosur HP","kind":"cgwb-manual","network":"CGWB manual quarterly, 2021 to 2025","agency":"CGWB","tehsil":"Hosur","latestDepthMbgl":8.2,"latestReading":"2023-01-20","shallowestMbgl":8.2,"deepestMbgl":8.2,"firstReading":"2023-01-20","readingsCount":1,"shedId":"SBP16"},"geometry":{"type":"Point","coordinates":[77.8333,12.7167]}},{"type":"Feature","properties":{"name":"Hosur2","kind":"cgwb-manual","network":"CGWB manual quarterly, 2021 to 2025","agency":"CGWB","tehsil":"Hosur","latestDepthMbgl":10.48,"latestReading":"2024-08-30","shallowestMbgl":5.08,"deepestMbgl":10.48,"firstReading":"2021-01-10","readingsCount":11,"shedId":"SBP16"},"geometry":{"type":"Point","coordinates":[77.83333,12.71667]}},{"type":"Feature","properties":{"name":"Karapattu","kind":"cgwb-manual","network":"CGWB manual quarterly, 2021 to 2025","agency":"CGWB","tehsil":"Uthangarai","latestDepthMbgl":3.43,"latestReading":"2023-05-31","shallowestMbgl":3.43,"deepestMbgl":3.43,"firstReading":"2023-05-31","readingsCount":1,"shedId":"SBP05"},"geometry":{"type":"Point","coordinates":[78.5475,12.36222]}},{"type":"Feature","properties":{"name":"Karukkanchavadi","kind":"cgwb-manual","network":"CGWB manual quarterly, 2021 to 2025","agency":"CGWB","tehsil":"Pochampalli","latestDepthMbgl":1.5,"latestReading":"2024-08-30","shallowestMbgl":0.87,"deepestMbgl":2.25,"firstReading":"2021-01-10","readingsCount":13,"shedId":"SBP17"},"geometry":{"type":"Point","coordinates":[78.20833,12.40833]}},{"type":"Feature","properties":{"name":"Kattupatti OW","kind":"cgwb-manual","network":"CGWB manual quarterly, 2021 to 2025","agency":"CGWB","tehsil":"Uthangarai","latestDepthMbgl":8.0,"latestReading":"2024-08-30","shallowestMbgl":6.66,"deepestMbgl":8.0,"firstReading":"2024-05-30","readingsCount":2,"shedId":"SBP17"},"geometry":{"type":"Point","coordinates":[78.415,12.2442]}},{"type":"Feature","properties":{"name":"Kaveripatnam","kind":"cgwb-manual","network":"CGWB manual quarterly, 2021 to 2025","agency":"CGWB","tehsil":"Pochampalli","latestDepthMbgl":2.46,"latestReading":"2024-08-30","shallowestMbgl":2.2,"deepestMbgl":5.16,"firstReading":"2021-01-10","readingsCount":14,"shedId":"SBP17"},"geometry":{"type":"Point","coordinates":[78.22917,12.4125]}},{"type":"Feature","properties":{"name":"Kawthalam","kind":"cgwb-manual","network":"CGWB manual quarterly, 2021 to 2025","agency":"CGWB","tehsil":"Denganikottai","latestDepthMbgl":5.73,"latestReading":"2022-08-30","shallowestMbgl":2.49,"deepestMbgl":6.18,"firstReading":"2021-08-31","readingsCount":3,"shedId":"SBP16"},"geometry":{"type":"Point","coordinates":[78.04889,12.53472]}},{"type":"Feature","properties":{"name":"Keezkuppam I","kind":"cgwb-manual","network":"CGWB manual quarterly, 2021 to 2025","agency":"CGWB","tehsil":"Uthangarai","latestDepthMbgl":9.95,"latestReading":"2024-08-30","shallowestMbgl":9.61,"deepestMbgl":12.4,"firstReading":"2023-05-31","readingsCount":6,"shedId":"SBP17"},"geometry":{"type":"Point","coordinates":[78.52833,12.2225]}},{"type":"Feature","properties":{"name":"Keezkuppam II","kind":"cgwb-manual","network":"CGWB manual quarterly, 2021 to 2025","agency":"CGWB","tehsil":"Uthangarai","latestDepthMbgl":8.5,"latestReading":"2023-01-20","shallowestMbgl":8.5,"deepestMbgl":8.5,"firstReading":"2023-01-20","readingsCount":1,"shedId":"SBP17"},"geometry":{"type":"Point","coordinates":[78.52833,12.22278]}},{"type":"Feature","properties":{"name":"Kelamangalam","kind":"cgwb-manual","network":"CGWB manual quarterly, 2021 to 2025","agency":"CGWB","tehsil":"Denganikottai","latestDepthMbgl":1.58,"latestReading":"2022-01-30","shallowestMbgl":1.58,"deepestMbgl":1.58,"firstReading":"2022-01-30","readingsCount":1,"shedId":"SB115"},"geometry":{"type":"Point","coordinates":[77.86389,12.60278]}},{"type":"Feature","properties":{"name":"Konnanur","kind":"cgwb-manual","network":"CGWB manual quarterly, 2021 to 2025","agency":"CGWB","latestDepthMbgl":2.03,"latestReading":"2024-08-30","shallowestMbgl":1.94,"deepestMbgl":6.4,"firstReading":"2024-01-10","readingsCount":3,"shedId":"SBP05"},"geometry":{"type":"Point","coordinates":[78.35028,12.33278]}},{"type":"Feature","properties":{"name":"Krishnagiri1","kind":"cgwb-manual","network":"CGWB manual quarterly, 2021 to 2025","agency":"CGWB","tehsil":"Krishnagiri","latestDepthMbgl":7.83,"latestReading":"2024-08-30","shallowestMbgl":4.73,"deepestMbgl":10.67,"firstReading":"2021-01-10","readingsCount":13,"shedId":"SBP17"},"geometry":{"type":"Point","coordinates":[78.23056,12.53056]}},{"type":"Feature","properties":{"name":"Machinayampalli","kind":"cgwb-manual","network":"CGWB manual quarterly, 2021 to 2025","agency":"CGWB","latestDepthMbgl":6.5,"latestReading":"2024-08-30","shallowestMbgl":6.4,"deepestMbgl":6.57,"firstReading":"2024-01-10","readingsCount":3,"shedId":"SB115"},"geometry":{"type":"Point","coordinates":[77.78444,12.61556]}},{"type":"Feature","properties":{"name":"Machinkanakottai","kind":"cgwb-manual","network":"CGWB manual quarterly, 2021 to 2025","agency":"CGWB","latestDepthMbgl":2.8,"latestReading":"2024-08-30","shallowestMbgl":2.8,"deepestMbgl":3.62,"firstReading":"2024-01-10","readingsCount":2,"shedId":"SBP17"},"geometry":{"type":"Point","coordinates":[78.17083,12.41306]}},{"type":"Feature","properties":{"name":"Madagondapalli","kind":"cgwb-manual","network":"CGWB manual quarterly, 2021 to 2025","agency":"CGWB","tehsil":"Denganikottai","latestDepthMbgl":1.7,"latestReading":"2023-05-31","shallowestMbgl":1.7,"deepestMbgl":23.15,"firstReading":"2021-08-31","readingsCount":3,"shedId":"SB115"},"geometry":{"type":"Point","coordinates":[77.74472,12.64278]}},{"type":"Feature","properties":{"name":"Mahadeva Gollahalli","kind":"cgwb-manual","network":"CGWB manual quarterly, 2021 to 2025","agency":"CGWB","latestDepthMbgl":5.73,"latestReading":"2024-08-30","shallowestMbgl":5.47,"deepestMbgl":8.91,"firstReading":"2023-05-31","readingsCount":4,"shedId":"SBP05"},"geometry":{"type":"Point","coordinates":[78.34361,12.4025]}},{"type":"Feature","properties":{"name":"Mallapadi OW","kind":"cgwb-manual","network":"CGWB manual quarterly, 2021 to 2025","agency":"CGWB","latestDepthMbgl":17.45,"latestReading":"2024-05-30","shallowestMbgl":12.81,"deepestMbgl":17.45,"firstReading":"2023-05-31","readingsCount":3,"shedId":"SBP05"},"geometry":{"type":"Point","coordinates":[78.38,12.53]}},{"type":"Feature","properties":{"name":"Mallapadi OW 1","kind":"cgwb-manual","network":"CGWB manual quarterly, 2021 to 2025","agency":"CGWB","tehsil":"Krishnagiri","latestDepthMbgl":20.18,"latestReading":"2024-08-30","shallowestMbgl":9.43,"deepestMbgl":20.18,"firstReading":"2023-01-20","readingsCount":2,"shedId":"SBP05"},"geometry":{"type":"Point","coordinates":[78.375,12.5342]}},{"type":"Feature","properties":{"name":"Mattur","kind":"cgwb-manual","network":"CGWB manual quarterly, 2021 to 2025","agency":"CGWB","tehsil":"Uthangarai","latestDepthMbgl":5.32,"latestReading":"2024-08-30","shallowestMbgl":5.32,"deepestMbgl":7.7,"firstReading":"2021-11-30","readingsCount":11,"shedId":"SBP05"},"geometry":{"type":"Point","coordinates":[78.41389,12.38333]}},{"type":"Feature","properties":{"name":"Mattur1","kind":"cgwb-manual","network":"CGWB manual quarterly, 2021 to 2025","agency":"CGWB","tehsil":"Uthangarai","latestDepthMbgl":7.6,"latestReading":"2023-08-30","shallowestMbgl":7.6,"deepestMbgl":7.6,"firstReading":"2023-08-30","readingsCount":1,"shedId":"SBP05"},"geometry":{"type":"Point","coordinates":[78.41389,12.38333]}},{"type":"Feature","properties":{"name":"Mattur2","kind":"cgwb-manual","network":"CGWB manual quarterly, 2021 to 2025","agency":"CGWB","tehsil":"Uthangarai","latestDepthMbgl":5.3,"latestReading":"2024-08-30","shallowestMbgl":4.88,"deepestMbgl":9.1,"firstReading":"2021-01-10","readingsCount":13,"shedId":"SBP05"},"geometry":{"type":"Point","coordinates":[78.41667,12.38333]}},{"type":"Feature","properties":{"name":"Megalachinnapalli","kind":"cgwb-manual","network":"CGWB manual quarterly, 2021 to 2025","agency":"CGWB","tehsil":"Krishnagiri","latestDepthMbgl":18.65,"latestReading":"2022-01-30","shallowestMbgl":18.65,"deepestMbgl":43.25,"firstReading":"2021-01-10","readingsCount":4,"shedId":"SBP17"},"geometry":{"type":"Point","coordinates":[78.25417,12.625]}},{"type":"Feature","properties":{"name":"NATTANMAI KOTTAI","kind":"cgwb-manual","network":"CGWB manual quarterly, 2021 to 2025","agency":"CGWB","latestDepthMbgl":32.1,"latestReading":"2024-08-30","shallowestMbgl":25.58,"deepestMbgl":32.1,"firstReading":"2023-05-31","readingsCount":4,"shedId":"SBP17"},"geometry":{"type":"Point","coordinates":[78.22,12.47]}},{"type":"Feature","properties":{"name":"Nagathunai","kind":"cgwb-manual","network":"CGWB manual quarterly, 2021 to 2025","agency":"CGWB","latestDepthMbgl":6.18,"latestReading":"2024-08-30","shallowestMbgl":1.93,"deepestMbgl":6.18,"firstReading":"2023-05-31","readingsCount":4,"shedId":"SBP16"},"geometry":{"type":"Point","coordinates":[77.91278,12.56389]}},{"type":"Feature","properties":{"name":"Nattanmai Kottai 1","kind":"cgwb-manual","network":"CGWB manual quarterly, 2021 to 2025","agency":"CGWB","tehsil":"Krishnagiri","latestDepthMbgl":30.7,"latestReading":"2023-01-20","shallowestMbgl":30.7,"deepestMbgl":30.7,"firstReading":"2023-01-20","readingsCount":1,"shedId":"SBP17"},"geometry":{"type":"Point","coordinates":[78.2153,12.4719]}},{"type":"Feature","properties":{"name":"PANNANDUR","kind":"cgwb-manual","network":"CGWB manual quarterly, 2021 to 2025","agency":"CGWB","latestDepthMbgl":2.52,"latestReading":"2024-08-30","shallowestMbgl":2.52,"deepestMbgl":4.87,"firstReading":"2023-05-31","readingsCount":4,"shedId":"SBP17"},"geometry":{"type":"Point","coordinates":[78.28,12.3]}},{"type":"Feature","properties":{"name":"Pannandur 1","kind":"cgwb-manual","network":"CGWB manual quarterly, 2021 to 2025","agency":"CGWB","tehsil":"Pochampalli","latestDepthMbgl":2.54,"latestReading":"2024-08-30","shallowestMbgl":2.54,"deepestMbgl":3.68,"firstReading":"2023-01-20","readingsCount":3,"shedId":"SBP17"},"geometry":{"type":"Point","coordinates":[78.2794,12.3011]}},{"type":"Feature","properties":{"name":"Panneswara Madam","kind":"cgwb-manual","network":"CGWB manual quarterly, 2021 to 2025","agency":"CGWB","latestDepthMbgl":5.35,"latestReading":"2024-08-30","shallowestMbgl":5.3,"deepestMbgl":6.0,"firstReading":"2023-05-31","readingsCount":4,"shedId":"SBP17"},"geometry":{"type":"Point","coordinates":[78.24694,12.39167]}},{"type":"Feature","properties":{"name":"Pudur Punganai OW","kind":"cgwb-manual","network":"CGWB manual quarterly, 2021 to 2025","agency":"CGWB","latestDepthMbgl":11.94,"latestReading":"2024-01-10","shallowestMbgl":10.67,"deepestMbgl":11.94,"firstReading":"2023-05-31","readingsCount":2,"shedId":"SBP17"},"geometry":{"type":"Point","coordinates":[78.48,12.19]}},{"type":"Feature","properties":{"name":"Pudur Punganai OW 1","kind":"cgwb-manual","network":"CGWB manual quarterly, 2021 to 2025","agency":"CGWB","tehsil":"Uthangarai","latestDepthMbgl":8.82,"latestReading":"2024-08-30","shallowestMbgl":8.2,"deepestMbgl":8.82,"firstReading":"2023-01-20","readingsCount":2,"shedId":"SBP17"},"geometry":{"type":"Point","coordinates":[78.4842,12.1861]}},{"type":"Feature","properties":{"name":"Rayakottai1","kind":"cgwb-manual","network":"CGWB manual quarterly, 2021 to 2025","agency":"CGWB","tehsil":"Denganikottai","latestDepthMbgl":4.7,"latestReading":"2024-08-30","shallowestMbgl":0.58,"deepestMbgl":6.25,"firstReading":"2021-01-10","readingsCount":10,"shedId":"SB115"},"geometry":{"type":"Point","coordinates":[78.03083,12.51111]}},{"type":"Feature","properties":{"name":"Sulagiri","kind":"cgwb-manual","network":"CGWB manual quarterly, 2021 to 2025","agency":"CGWB","tehsil":"Hosur","latestDepthMbgl":9.54,"latestReading":"2024-08-30","shallowestMbgl":5.45,"deepestMbgl":10.02,"firstReading":"2021-01-10","readingsCount":13,"shedId":"SBP02"},"geometry":{"type":"Point","coordinates":[78.025,12.66667]}},{"type":"Feature","properties":{"name":"Talli","kind":"cgwb-manual","network":"CGWB manual quarterly, 2021 to 2025","agency":"CGWB","tehsil":"Denganikottai","latestDepthMbgl":8.55,"latestReading":"2021-01-10","shallowestMbgl":8.55,"deepestMbgl":8.55,"firstReading":"2021-01-10","readingsCount":1,"shedId":"SB115"},"geometry":{"type":"Point","coordinates":[77.65833,12.57917]}},{"type":"Feature","properties":{"name":"Tattarhalli","kind":"cgwb-manual","network":"CGWB manual quarterly, 2021 to 2025","agency":"CGWB","latestDepthMbgl":5.5,"latestReading":"2024-08-30","shallowestMbgl":4.13,"deepestMbgl":7.0,"firstReading":"2023-05-31","readingsCount":4,"shedId":"SBP17"},"geometry":{"type":"Point","coordinates":[78.24583,12.34083]}},{"type":"Feature","properties":{"name":"Udhanapalli (Muthanthalli) OW","kind":"cgwb-manual","network":"CGWB manual quarterly, 2021 to 2025","agency":"CGWB","latestDepthMbgl":28.03,"latestReading":"2024-08-30","shallowestMbgl":2.9,"deepestMbgl":28.03,"firstReading":"2023-05-31","readingsCount":4,"shedId":"SBP16"},"geometry":{"type":"Point","coordinates":[77.94,12.61]}},{"type":"Feature","properties":{"name":"Unichetty (P.H) Gullatty OW","kind":"cgwb-manual","network":"CGWB manual quarterly, 2021 to 2025","agency":"CGWB","latestDepthMbgl":13.07,"latestReading":"2024-08-30","shallowestMbgl":12.32,"deepestMbgl":40.34,"firstReading":"2023-05-31","readingsCount":4,"shedId":"SB115"},"geometry":{"type":"Point","coordinates":[77.85,12.44]}},{"type":"Feature","properties":{"name":"Uthangarai1","kind":"cgwb-manual","network":"CGWB manual quarterly, 2021 to 2025","agency":"CGWB","tehsil":"Uthangarai","latestDepthMbgl":2.05,"latestReading":"2023-01-20","shallowestMbgl":2.05,"deepestMbgl":2.05,"firstReading":"2023-01-20","readingsCount":1,"shedId":"SBP05"},"geometry":{"type":"Point","coordinates":[78.52917,12.26667]}},{"type":"Feature","properties":{"name":"Uthankarai","kind":"cgwb-manual","network":"CGWB manual quarterly, 2021 to 2025","agency":"CGWB","tehsil":"Uthangarai","latestDepthMbgl":6.9,"latestReading":"2023-05-31","shallowestMbgl":6.9,"deepestMbgl":6.9,"firstReading":"2023-05-31","readingsCount":1,"shedId":"SBP05"},"geometry":{"type":"Point","coordinates":[78.53611,12.26389]}},{"type":"Feature","properties":{"name":"Uttangarai","kind":"cgwb-manual","network":"CGWB manual quarterly, 2021 to 2025","agency":"CGWB","tehsil":"Uthangarai","latestDepthMbgl":3.35,"latestReading":"2024-08-30","shallowestMbgl":2.2,"deepestMbgl":7.42,"firstReading":"2021-01-10","readingsCount":12,"shedId":"SBP05"},"geometry":{"type":"Point","coordinates":[78.52917,12.26667]}},{"type":"Feature","properties":{"name":"Vanambli","kind":"cgwb-manual","network":"CGWB manual quarterly, 2021 to 2025","agency":"CGWB","latestDepthMbgl":1.8,"latestReading":"2024-08-30","shallowestMbgl":1.8,"deepestMbgl":5.8,"firstReading":"2023-05-31","readingsCount":4,"shedId":"SBP05"},"geometry":{"type":"Point","coordinates":[78.555,12.3475]}},{"type":"Feature","properties":{"name":"Veppanapalli","kind":"cgwb-manual","network":"CGWB manual quarterly, 2021 to 2025","agency":"CGWB","tehsil":"Krishnagiri","latestDepthMbgl":15.61,"latestReading":"2024-08-30","shallowestMbgl":11.87,"deepestMbgl":15.61,"firstReading":"2022-11-30","readingsCount":6,"shedId":"SBP03"},"geometry":{"type":"Point","coordinates":[78.18472,12.70417]}},{"type":"Feature","properties":{"name":"Virupakshinagar","kind":"cgwb-manual","network":"CGWB manual quarterly, 2021 to 2025","agency":"CGWB","latestDepthMbgl":1.17,"latestReading":"2024-08-30","shallowestMbgl":1.17,"deepestMbgl":1.47,"firstReading":"2023-05-31","readingsCount":4,"shedId":"SB115"},"geometry":{"type":"Point","coordinates":[77.86806,12.59333]}}]}