{"nvdm":"1.0","dataset":"basins/realtime-stations","scope":{"kind":"basin","id":"krishnagiri-rivers"},"provenance":{"sources":[{"id":"tnpcb-realtime-wq-dashboard","title":"TNPCB real-time water quality monitoring dashboard: monthly means of sensor readings","publisher":"Tamil Nadu Pollution Control Board","license":"LICENCE UNVERIFIED - see notes. Public Tamil Nadu government dashboard with no reuse terms stated; its own page switches the download buttons off. Monthly means published with attribution.","role":"input","url":"https://tnpcb.gov.in/rtwqmstnpcb"},{"id":"tngis-open-geoserver","title":"TNGIS open GeoServer (WFS): district, taluk, block and village panchayat boundaries, TN WRD sub-basins and reservoirs, micro-watershed atlas, all-water-bodies and all-tanks registers, mine leases, industry register matched to land parcels","publisher":"Tamil Nadu e-Governance Agency (TNGIS)","license":"Tamil Nadu government data on an open GeoServer (WFS, no login); published with TNGIS's permission and with attribution.","role":"input","url":"https://tngis.tn.gov.in/tngismaps/ows"}],"method":"derived","produced_at":"2026-09-18","produced_by":"scripts/build_krishnagiri_rivers_basin.py","internal_inputs":["public/data/basins/krishnagiri-rivers/sub-hydrosheds.geojson"],"note":"Krishnagiri district's rivers, groundwater and industry (scope krishnagiri-rivers; the district's own scope id is tn-krishnagiri). The district boundary is the frame and TN WRD's sub-basins, clipped to it, are the catchments (shedId): the Thenpennai's to the east, the Cauvery's Chinnar and Dodda Halla to the south-west. The industry register holds only units TNGIS matched to a land parcel, so every count is a lower bound; sector comes from the reviewed TNPCB type-code lookup pipeline-inputs/basins/krishnagiri-rivers/tnpcb-type-sectors.json."},"type":"FeatureCollection","features":[{"type":"Feature","properties":{"name":"Thenpennai - Kelavarapalli Dam","kind":"realtime-station","stationKey":"thp-kel-ds-8","hasReadings":true,"stationCode":"THP-KEL-DS-8","river":"Thenpennai","agency":"TNPCB","location":"Kelavarapalli dam - Kelavarapalli dam, Basthi road, Avalapalli village, hosur, Tamil Nadu 635109","monthsWithReadings":"2025-12 to 2026-09","latestMonthlyMeanBod":"26.1 mg/L (2026-09)","latestMonthlyMeanTds":"699.76 mg/L (2026-09)","note":"Sensor readings as TNPCB's dashboard publishes them; not laboratory results.","dataUrl":"https://tnpcb.gov.in/rtwqmstnpcb","shedId":"SBP16"},"geometry":{"type":"Point","coordinates":[77.82295,12.71834]}}]}