{"nvdm":"1.0","dataset":"basins/rivers","scope":{"kind":"basin","id":"krishnagiri-rivers"},"provenance":{"sources":[{"id":"osm-overpass","title":"OpenStreetMap (Overpass API extract: named river courses)","publisher":"OpenStreetMap contributors","license":"ODbL 1.0","role":"input"},{"id":"tngis-open-geoserver","title":"TNGIS open GeoServer (WFS): district, taluk, block and village panchayat boundaries, TN WRD sub-basins and reservoirs, micro-watershed atlas, all-water-bodies and all-tanks registers, mine leases, industry register matched to land parcels","publisher":"Tamil Nadu e-Governance Agency (TNGIS)","license":"Tamil Nadu government data on an open GeoServer (WFS, no login); published with TNGIS's permission and with attribution.","role":"input","url":"https://tngis.tn.gov.in/tngismaps/ows"}],"method":"derived","produced_at":"2026-09-18","produced_by":"scripts/build_krishnagiri_rivers_basin.py","note":"Krishnagiri district's rivers, groundwater and industry (scope krishnagiri-rivers; the district's own scope id is tn-krishnagiri). The district boundary is the frame and TN WRD's sub-basins, clipped to it, are the catchments (shedId): the Thenpennai's to the east, the Cauvery's Chinnar and Dodda Halla to the south-west. The industry register holds only units TNGIS matched to a land parcel, so every count is a lower bound; sector comes from the reviewed TNPCB type-code lookup pipeline-inputs/basins/krishnagiri-rivers/tnpcb-type-sectors.json."},"type":"FeatureCollection","features":[{"type":"Feature","properties":{"river_id":"cauvery","name":"Cauvery","waterway":"river","lengthInDistrictKm":43.0,"osmWays":1,"source":"OpenStreetMap"},"geometry":{"type":"MultiLineString","coordinates":[[[77.45659,12.24743],[77.45683,12.24752],[77.45698,12.24766],[77.45708,12.24781],[77.45718,12.24796],[77.45731,12.24805],[77.45777,12.24829],[77.45843,12.24852],[77.45857,12.24855],[77.45884,12.24859],[77.45902,12.24865],[77.45915,12.24872],[77.45929,12.24878],[77.45942,12.24882],[77.45971,12.24885],[77.46018,12.24879],[77.46077,12.2486],[77.46118,12.24825],[77.46177,12.24771],[77.46227,12.24723],[77.46288,12.24653],[77.46373,12.24572],[77.46417,12.24525],[77.46468,12.24472],[77.46515,12.24441],[77.46577,12.24407],[77.46655,12.2436],[77.46728,12.24333],[77.46803,12.24323],[77.46846,12.24326],[77.46875,12.2434],[77.46896,12.24369],[77.4691,12.24381],[77.46929,12.24385],[77.46952,12.24382],[77.47056,12.24348],[77.47121,12.24329],[77.47204,12.24315],[77.47351,12.24282],[77.47424,12.24258],[77.47484,12.24225],[77.47524,12.24188],[77.47577,12.24153],[77.47625,12.24129],[77.47752,12.24071],[77.47826,12.24019],[77.47878,12.23955],[77.4794,12.23847],[77.47986,12.23757],[77.48026,12.23679],[77.48047,12.23605],[77.48068,12.23543],[77.48104,12.23475],[77.48179,12.23382],[77.48219,12.23335],[77.48256,12.23282],[77.48277,12.23237],[77.48285,12.23202],[77.4825,12.22851],[77.48218,12.22756],[77.48087,12.22565],[77.48032,12.22423],[77.47965,12.22327],[77.47898,12.22236],[77.47831,12.22125],[77.47598,12.21662],[77.47508,12.21465],[77.47393,12.21305],[77.47338,12.21195],[77.473,12.21132],[77.47202,12.20915],[77.47202,12.20864],[77.47227,12.20804],[77.47325,12.20712],[77.47478,12.20619],[77.47617,12.20562],[77.47725,12.20527],[77.47935,12.20489],[77.48142,12.20426],[77.48374,12.20433],[77.48605,12.20408],[77.48656,12.20397],[77.48716,12.20375],[77.48782,12.2032],[77.4886,12.20184],[77.48923,12.20139],[77.49013,12.20077],[77.49089,12.20006],[77.49202,12.19828],[77.49252,12.19768],[77.4932,12.19723],[77.49388,12.19718],[77.49613,12.19753],[77.49785,12.19742],[77.49818,12.19735],[77.49993,12.19698],[77.50122,12.1966],[77.50415,12.19621],[77.50572,12.19599],[77.50747,12.19573],[77.50922,12.19543],[77.51137,12.19523],[77.51298,12.19527],[77.514,12.19542],[77.51542,12.19549],[77.51563,12.19545],[77.51706,12.19516],[77.51818,12.19478],[77.51892,12.19467],[77.51975,12.19485],[77.52046,12.19533],[77.5212,12.19596],[77.52268,12.19721],[77.52405,12.19786],[77.52607,12.19842],[77.52777,12.199],[77.52801,12.19908],[77.52861,12.19929],[77.5296,12.19946],[77.53252,12.19943],[77.53471,12.19905],[77.53598,12.19904],[77.53718,12.19915],[77.5375,12.19921],[77.53833,12.19937],[77.53951,12.20024],[77.54021,12.2012],[77.54107,12.20241],[77.54288,12.20365],[77.54414,12.20419],[77.54617,12.20479],[77.54739,12.20486],[77.54828,12.20476],[77.54947,12.20435],[77.55264,12.20225],[77.55496,12.20131],[77.55661,12.20071],[77.55722,12.20038],[77.5578,12.20003],[77.55881,12.19956],[77.55987,12.19919],[77.56112,12.19875],[77.56168,12.19842],[77.56217,12.198],[77.5636,12.1968],[77.56446,12.1964],[77.56527,12.19625],[77.56684,12.19618],[77.56798,12.19645],[77.56868,12.19681],[77.56936,12.19767],[77.56965,12.19863],[77.56989,12.19922],[77.57029,12.19969],[77.57129,12.20017],[77.57321,12.20091],[77.57432,12.20102],[77.57525,12.20079],[77.5781,12.1989],[77.5795,12.1984],[77.5805,12.19827],[77.58299,12.19843],[77.58662,12.19922],[77.58864,12.19957],[77.59031,12.19957],[77.59185,12.19947],[77.59464,12.19913],[77.59596,12.1992],[77.59801,12.19974],[77.59929,12.2003],[77.60093,12.2017],[77.60199,12.20292],[77.60283,12.20371],[77.60383,12.20425],[77.6066,12.20541],[77.60784,12.20573],[77.60813,12.2058],[77.60949,12.20607],[77.6104,12.20607],[77.61143,12.20594],[77.61211,12.20589],[77.61289,12.20566],[77.61347,12.20535],[77.61398,12.20504],[77.61517,12.20391],[77.6165,12.20209],[77.61878,12.20059],[77.62063,12.19989],[77.62249,12.2],[77.62448,12.20052],[77.62566,12.20114],[77.62732,12.203],[77.62797,12.20333],[77.6285,12.20338],[77.62991,12.20306],[77.63035,12.20286],[77.63089,12.20243],[77.63111,12.20204],[77.63128,12.20156],[77.63143,12.20122],[77.63273,12.1999],[77.6337,12.19871],[77.63473,12.19778],[77.63608,12.19706],[77.63757,12.1965],[77.63948,12.19633],[77.64148,12.19662],[77.64338,12.19754],[77.64564,12.19838],[77.64775,12.19876],[77.65139,12.19882],[77.65241,12.19895],[77.65331,12.19913],[77.65482,12.19944],[77.65578,12.19952],[77.65713,12.19936],[77.65834,12.19889],[77.65908,12.19818],[77.65996,12.19722],[77.66062,12.19683],[77.66134,12.19677],[77.66293,12.19679],[77.66571,12.1968],[77.66714,12.19659],[77.6677,12.19646],[77.66867,12.19618],[77.66987,12.19559],[77.67164,12.19475],[77.67351,12.19406],[77.67569,12.19315],[77.67814,12.19218],[77.67985,12.1917],[77.68147,12.19152],[77.68231,12.19143],[77.68294,12.1914],[77.68343,12.19134],[77.68381,12.1912],[77.68485,12.19057],[77.68589,12.19008],[77.68917,12.18893],[77.69353,12.18708],[77.69533,12.18634],[77.69803,12.18536],[77.70075,12.18457],[77.70427,12.18362],[77.70674,12.18305],[77.71094,12.18251],[77.71408,12.18251],[77.71685,12.18283],[77.71973,12.18303],[77.72305,12.18262],[77.72678,12.18156],[77.72844,12.18102],[77.7297,12.18054],[77.73084,12.17989],[77.73194,12.17911],[77.73304,12.17807],[77.7339,12.17669],[77.73456,12.17501],[77.73491,12.17183],[77.73521,12.1702],[77.73565,12.16896],[77.73617,12.16765],[77.73645,12.16637],[77.73612,12.16533],[77.73632,12.16436],[77.73665,12.16344],[77.73736,12.16261],[77.73864,12.16204],[77.73949,12.16186],[77.74094,12.16145],[77.74151,12.16117],[77.74282,12.15986],[77.7447,12.15744],[77.74526,12.15687],[77.74639,12.15583],[77.74737,12.15518],[77.74779,12.15473],[77.74819,12.15416],[77.74836,12.15345],[77.74828,12.15233],[77.74809,12.15143],[77.7477,12.15064],[77.74734,12.15003],[77.7467,12.14876],[77.74654,12.14739],[77.74685,12.14471],[77.7475,12.14251],[77.74872,12.14022]]]}},{"type":"Feature","properties":{"river_id":"chinnar","name":"Chinnar","waterway":"river","lengthInDistrictKm":29.1,"osmWays":2,"source":"OpenStreetMap"},"geometry":{"type":"MultiLineString","coordinates":[[[77.85097,12.5826],[77.85234,12.58073],[77.85354,12.5788],[77.85519,12.57756],[77.85588,12.57446],[77.85802,12.56876],[77.86108,12.56337],[77.8624,12.5618],[77.86412,12.56077],[77.86533,12.55932],[77.86556,12.55866],[77.86497,12.55793],[77.86516,12.55704],[77.86604,12.55598],[77.869,12.55428],[77.86948,12.55371],[77.86956,12.55291],[77.86907,12.55193],[77.86964,12.55091],[77.87049,12.54945],[77.87278,12.5475],[77.87477,12.54664],[77.87783,12.54562],[77.88053,12.54555],[77.8808,12.54547],[77.88077,12.54479],[77.88097,12.54409],[77.88097,12.54336],[77.87961,12.5424],[77.87837,12.54125],[77.87904,12.54013],[77.87994,12.53981],[77.8803,12.53914],[77.88033,12.53898],[77.88031,12.53848],[77.88022,12.53793],[77.8802,12.53759],[77.88023,12.53735],[77.88055,12.53697],[77.88085,12.5369],[77.88133,12.53689],[77.88198,12.53739],[77.88301,12.53777],[77.88373,12.53781],[77.88506,12.53782],[77.88589,12.53758],[77.88737,12.53696],[77.88833,12.53658],[77.88868,12.53637],[77.88899,12.53602],[77.88931,12.53495],[77.88957,12.53438],[77.88979,12.53402],[77.88993,12.53389],[77.89019,12.5337],[77.8908,12.53341],[77.89404,12.53221],[77.89521,12.53243],[77.8962,12.53274],[77.89662,12.53278],[77.89729,12.53258],[77.89803,12.53186],[77.89896,12.53057],[77.89933,12.5299],[77.89951,12.52858],[77.89947,12.52821],[77.89927,12.52781],[77.89867,12.52714],[77.89826,12.52644],[77.89815,12.5261],[77.89809,12.52575],[77.89811,12.5255],[77.89821,12.52511],[77.89848,12.52474],[77.89933,12.52368],[77.89962,12.52341],[77.89989,12.52323],[77.90017,12.52315],[77.90088,12.52324],[77.90161,12.52354],[77.90205,12.5237],[77.90261,12.52369],[77.90285,12.52363],[77.90327,12.52324],[77.90367,12.52248],[77.90437,12.5209],[77.90451,12.52033],[77.90455,12.51889],[77.90458,12.51737],[77.90462,12.51644],[77.90471,12.516],[77.90498,12.51552],[77.90545,12.51497],[77.90662,12.51386],[77.90694,12.5135],[77.90702,12.51321],[77.90733,12.51288],[77.9078,12.51239],[77.90822,12.51187],[77.90885,12.51103],[77.90949,12.5099],[77.91003,12.5089],[77.91068,12.50793],[77.91149,12.50667],[77.91193,12.50585],[77.91243,12.50513],[77.91258,12.50492],[77.91287,12.50467],[77.91334,12.50437],[77.91414,12.5039],[77.91519,12.5034],[77.91643,12.50277],[77.91727,12.5024],[77.91767,12.50212],[77.91816,12.50168],[77.92231,12.49423],[77.9268,12.4862],[77.92822,12.48393],[77.9292,12.48286],[77.92964,12.48124],[77.92931,12.47945],[77.92939,12.47871],[77.92986,12.47764],[77.93043,12.47731],[77.932,12.47687],[77.93365,12.47673],[77.93412,12.47571],[77.93478,12.47416],[77.93522,12.47386],[77.93555,12.47387],[77.93595,12.47401],[77.93652,12.47452],[77.93694,12.47494],[77.93751,12.47542],[77.93794,12.47556],[77.93836,12.47559],[77.9387,12.47547],[77.93891,12.47525],[77.93935,12.47468],[77.93987,12.4732],[77.94012,12.47129],[77.94051,12.4697],[77.94119,12.46794],[77.94149,12.46769],[77.94168,12.46768],[77.94203,12.46771],[77.94261,12.46789],[77.94308,12.468],[77.94343,12.46795],[77.94431,12.46751],[77.94464,12.46719],[77.94486,12.46654],[77.94477,12.46616],[77.94465,12.46597],[77.94446,12.46593],[77.94409,12.46594],[77.94363,12.46589],[77.94306,12.46563],[77.94257,12.46497],[77.94244,12.46437],[77.94239,12.46375],[77.94267,12.46319],[77.94306,12.46282],[77.94374,12.46255],[77.94525,12.46214],[77.94674,12.46164],[77.94757,12.46097],[77.94825,12.46015],[77.95011,12.4586],[77.95082,12.45845],[77.952,12.45919],[77.95281,12.45917],[77.95382,12.458],[77.9544,12.45777],[77.95512,12.4578],[77.95552,12.45787],[77.95592,12.4578],[77.95631,12.45753],[77.9567,12.45709],[77.9578,12.4555],[77.95873,12.45405],[77.95968,12.45234],[77.96021,12.45149],[77.96043,12.45113],[77.96105,12.45052],[77.9619,12.44994],[77.96269,12.44944],[77.96338,12.44911],[77.96435,12.44891],[77.96499,12.44868],[77.96541,12.44835]],[[77.96901,12.44445],[77.96899,12.44387],[77.96902,12.44362],[77.96906,12.44344],[77.96918,12.44329],[77.96935,12.44318],[77.9697,12.443],[77.97029,12.44293],[77.97071,12.44288],[77.97095,12.4428],[77.97116,12.4427],[77.97132,12.44251],[77.97136,12.44231],[77.97148,12.4414],[77.97149,12.44117],[77.97149,12.44099],[77.97143,12.44088],[77.97133,12.44082],[77.9712,12.44073],[77.97094,12.44071],[77.97068,12.44068],[77.97056,12.44065],[77.97041,12.44058],[77.97024,12.44042],[77.97017,12.44011],[77.97026,12.43962],[77.97057,12.43924],[77.97116,12.43842],[77.97169,12.43743],[77.97194,12.43721],[77.97219,12.43684],[77.97244,12.43629],[77.97264,12.43582],[77.97283,12.43555],[77.97302,12.43534],[77.97319,12.43503],[77.97329,12.43471],[77.97364,12.43407],[77.97439,12.43292],[77.97457,12.43261],[77.97478,12.43246],[77.97494,12.43238],[77.97509,12.43237],[77.97529,12.43241],[77.97563,12.4326],[77.9759,12.43269],[77.97607,12.43267],[77.97621,12.43265],[77.97651,12.4325],[77.97668,12.43237],[77.97689,12.43201],[77.97703,12.43156],[77.97726,12.43079],[77.9774,12.43045],[77.97757,12.43023],[77.97787,12.42971],[77.97805,12.42927],[77.9781,12.42896],[77.97814,12.42823],[77.97819,12.42783],[77.97833,12.4274],[77.9786,12.42703],[77.97874,12.42681],[77.9789,12.42649],[77.97899,12.42633],[77.97912,12.42623],[77.97932,12.42611],[77.97967,12.42594],[77.9802,12.42569],[77.98028,12.42562],[77.98037,12.42548],[77.98043,12.42539],[77.98045,12.42521],[77.98041,12.42507],[77.98017,12.42456],[77.97989,12.42378],[77.97971,12.4235],[77.97949,12.42301],[77.97933,12.42245],[77.97914,12.42167],[77.9791,12.42107],[77.97907,12.41968],[77.979,12.41924],[77.9791,12.41894],[77.97922,12.41873],[77.97939,12.41857],[77.97991,12.4184],[77.98064,12.41818],[77.98116,12.41779],[77.98148,12.4175],[77.98172,12.41715],[77.98179,12.41684],[77.98207,12.41505],[77.98214,12.41413],[77.98222,12.4138],[77.98265,12.41295],[77.98282,12.41259],[77.98289,12.41236],[77.98293,12.41156],[77.98301,12.41034],[77.98309,12.40984],[77.98324,12.40937],[77.98349,12.40898],[77.98399,12.40844],[77.98431,12.40818],[77.98462,12.40815],[77.98479,12.40816],[77.98503,12.40827],[77.98517,12.40827],[77.98536,12.40824],[77.98584,12.40809],[77.98607,12.40783],[77.98619,12.40751]],[[77.98511,12.39938],[77.98511,12.39937],[77.98493,12.39897],[77.98477,12.3985],[77.98471,12.39805],[77.98472,12.39779],[77.98489,12.39739]],[[77.98586,12.40623],[77.98583,12.4062],[77.98559,12.40609],[77.98533,12.40606],[77.98502,12.40605],[77.98476,12.4061],[77.98466,12.40609],[77.9845,12.40601],[77.98417,12.40575],[77.98402,12.40543],[77.98399,12.40494],[77.98404,12.4047],[77.9841,12.40451],[77.98433,12.40417],[77.98503,12.40327],[77.98506,12.40323]]]}},{"type":"Feature","properties":{"river_id":"dodda-halla","name":"Dodda Halla","waterway":"river","lengthInDistrictKm":15.0,"osmWays":1,"source":"OpenStreetMap"},"geometry":{"type":"MultiLineString","coordinates":[[[77.70687,12.29984],[77.70734,12.29962],[77.70772,12.29889],[77.70769,12.29816],[77.70687,12.29775],[77.70519,12.29662],[77.70174,12.29597],[77.69969,12.29295],[77.69927,12.29092],[77.70007,12.28883],[77.69969,12.28797],[77.69918,12.28773],[77.69744,12.28836],[77.69638,12.28815],[77.69621,12.28728],[77.69642,12.28622],[77.69714,12.28417],[77.69697,12.28257],[77.69695,12.28229],[77.69597,12.27946],[77.69472,12.2776],[77.69302,12.2767],[77.69267,12.27301],[77.69057,12.27172],[77.68971,12.26976],[77.69152,12.26742],[77.69083,12.26077],[77.69083,12.25416],[77.68959,12.24794],[77.68439,12.24528],[77.67968,12.23649],[77.67861,12.23305],[77.67994,12.22978],[77.67894,12.2281],[77.67595,12.22453],[77.67602,12.22373],[77.67661,12.22139],[77.67771,12.21864],[77.6774,12.21731],[77.67533,12.21694],[77.6738,12.2161],[77.67378,12.21487],[77.67473,12.21422],[77.67451,12.2135],[77.67314,12.21138],[77.67161,12.2106],[77.67118,12.21019],[77.67105,12.20983],[77.67112,12.20942],[77.67131,12.20908],[77.67162,12.20871],[77.67212,12.20833],[77.67301,12.20763],[77.6735,12.20726],[77.67377,12.20694],[77.67396,12.20649],[77.67396,12.20606],[77.67371,12.20562],[77.67346,12.2054],[77.6732,12.20532],[77.67235,12.20527],[77.67167,12.20533],[77.67078,12.20556],[77.66987,12.20579],[77.66939,12.20576],[77.66905,12.20565],[77.66877,12.20548],[77.66823,12.20526],[77.66793,12.20507],[77.66749,12.20462],[77.66708,12.2043],[77.66648,12.20395],[77.66611,12.20355],[77.66557,12.2026],[77.66543,12.20218],[77.66547,12.20161],[77.66569,12.20098],[77.66599,12.20025],[77.66631,12.19976],[77.66653,12.19951],[77.6667,12.19922],[77.66687,12.1987],[77.6672,12.19809],[77.66759,12.19733],[77.66802,12.19678],[77.66867,12.19618]]]}},{"type":"Feature","properties":{"river_id":"markandeya","name":"Markandeya","waterway":"river","lengthInDistrictKm":33.5,"osmWays":3,"source":"OpenStreetMap"},"geometry":{"type":"MultiLineString","coordinates":[[[78.14362,12.65463],[78.14323,12.65431],[78.14259,12.65352],[78.14205,12.65268],[78.14183,12.65223],[78.14163,12.65081],[78.14161,12.65031],[78.14163,12.64985],[78.14227,12.64783],[78.14261,12.64763],[78.14293,12.64743],[78.14295,12.64706],[78.14285,12.64638],[78.14283,12.64605],[78.14276,12.64571],[78.14285,12.64537],[78.14276,12.6447],[78.14293,12.64425],[78.14337,12.64359],[78.14366,12.64263],[78.14366,12.64193],[78.14339,12.64128],[78.14321,12.64098],[78.14238,12.64023],[78.14217,12.63993],[78.1413,12.63921],[78.14114,12.63891],[78.14102,12.63857],[78.14102,12.63821],[78.14107,12.63787],[78.14118,12.63755],[78.14158,12.63697],[78.14217,12.6366],[78.14252,12.63645],[78.14384,12.63567],[78.1444,12.63475],[78.14452,12.63443],[78.14478,12.63421],[78.145,12.63395],[78.14525,12.63331],[78.14566,12.63195],[78.14565,12.63161],[78.14551,12.63092],[78.1453,12.63061],[78.14516,12.63031],[78.14506,12.62998],[78.14486,12.62968],[78.1446,12.62946],[78.14429,12.62929],[78.14394,12.62915],[78.14236,12.62893],[78.14126,12.62881],[78.14095,12.62866],[78.13932,12.62767],[78.13902,12.62745],[78.13878,12.62718],[78.13822,12.62672],[78.13789,12.62655],[78.1368,12.6262],[78.13603,12.62603],[78.13565,12.62598],[78.13528,12.62588],[78.13462,12.62557],[78.13434,12.62533],[78.13412,12.62504],[78.13405,12.62469],[78.13386,12.62401],[78.13332,12.6225],[78.13316,12.62219],[78.1332,12.62185],[78.13339,12.62155],[78.13358,12.62084],[78.13373,12.62055],[78.13426,12.62004],[78.13589,12.61933],[78.13617,12.61914],[78.13662,12.6186],[78.13673,12.61829],[78.13688,12.618],[78.13692,12.61766],[78.1368,12.61732],[78.13676,12.61698],[78.13643,12.61636],[78.13441,12.61164],[78.13333,12.60952],[78.13325,12.60916],[78.1333,12.60882],[78.13353,12.60855],[78.1338,12.60835],[78.13443,12.60811],[78.1348,12.60811],[78.13514,12.60814],[78.13549,12.60819],[78.13711,12.60853],[78.1378,12.60858],[78.1389,12.60792],[78.13923,12.60778],[78.13968,12.60724],[78.1397,12.60692],[78.13956,12.60661],[78.13937,12.60633],[78.13923,12.606],[78.13867,12.60554],[78.13838,12.60534],[78.13709,12.60414],[78.13589,12.6024],[78.13474,12.5995],[78.13393,12.59723],[78.13364,12.59586],[78.13344,12.5954],[78.13334,12.59439],[78.13339,12.59293],[78.13351,12.59245],[78.13356,12.59195],[78.13354,12.59144],[78.13344,12.59096],[78.13339,12.59051],[78.13319,12.59003],[78.13287,12.58847],[78.13292,12.58799],[78.1331,12.58753],[78.13391,12.58669],[78.13399,12.58626],[78.13442,12.58597],[78.13474,12.58559],[78.13548,12.58496],[78.13573,12.5845],[78.13563,12.584],[78.13546,12.58352],[78.13533,12.58306],[78.13516,12.58261],[78.13497,12.58218],[78.13445,12.5816],[78.13447,12.58112],[78.1346,12.58062],[78.13482,12.58018],[78.13511,12.57925],[78.13533,12.57877],[78.13558,12.57836],[78.13575,12.5779],[78.1359,12.57732],[78.13602,12.57666],[78.13615,12.57615],[78.13629,12.57562],[78.13649,12.57519],[78.13659,12.57474],[78.13698,12.57445],[78.13731,12.57357]],[[78.14493,12.79628],[78.14465,12.7961],[78.14419,12.79575],[78.14407,12.79529],[78.14383,12.79466],[78.14355,12.79417],[78.14352,12.79323],[78.14359,12.79276],[78.14355,12.7923],[78.14343,12.79185],[78.14274,12.79157],[78.14241,12.79116],[78.1415,12.79007],[78.14105,12.78937],[78.14054,12.78911],[78.13996,12.78871],[78.13971,12.78848],[78.13927,12.78788],[78.13908,12.78755],[78.13881,12.78654],[78.13803,12.78606],[78.13753,12.78555],[78.13736,12.78458],[78.13723,12.78378],[78.13711,12.78292],[78.13657,12.78229],[78.13628,12.78207],[78.13608,12.78195],[78.13572,12.78176],[78.13501,12.78075],[78.13457,12.78026],[78.13419,12.77963],[78.13322,12.77846],[78.13256,12.77764],[78.13163,12.77633],[78.13051,12.77495],[78.12912,12.7735],[78.12816,12.77264],[78.12752,12.77188],[78.12721,12.77168],[78.12585,12.77038],[78.12548,12.77008],[78.12534,12.76955],[78.1253,12.76894],[78.12568,12.76808],[78.12602,12.76582],[78.12597,12.76535],[78.12574,12.76495],[78.12522,12.76487],[78.12448,12.76504],[78.12402,12.76527],[78.12245,12.76552],[78.12049,12.76542],[78.11939,12.76514],[78.11834,12.76497],[78.11754,12.76496],[78.11682,12.76507],[78.1166,12.76495],[78.11647,12.76474],[78.11628,12.76459],[78.11601,12.76382],[78.11594,12.76312],[78.116,12.76288],[78.11626,12.76246],[78.11648,12.76176],[78.11706,12.76073],[78.11683,12.76001],[78.1166,12.75988],[78.11601,12.75936],[78.11565,12.75868],[78.11514,12.75814],[78.11458,12.75724],[78.11409,12.75586],[78.1139,12.75513],[78.11361,12.75471],[78.11297,12.75427],[78.11283,12.75407],[78.11132,12.75371],[78.1102,12.75317],[78.10968,12.75267],[78.10966,12.75251],[78.10967,12.75199],[78.10987,12.7518],[78.11033,12.75165],[78.11109,12.75155],[78.11137,12.75145],[78.11198,12.75089],[78.1126,12.7496],[78.11277,12.74869],[78.11255,12.74827],[78.1121,12.74686],[78.10969,12.74393],[78.10946,12.74334],[78.10943,12.7431],[78.10953,12.7427],[78.10951,12.74223],[78.10977,12.74183],[78.11021,12.74162],[78.11071,12.74148],[78.11114,12.74127],[78.11163,12.74118],[78.11208,12.74101],[78.11249,12.74076],[78.1135,12.74057],[78.11398,12.74059],[78.11562,12.74005],[78.11598,12.73972],[78.11634,12.73886],[78.11708,12.7385],[78.11759,12.73853],[78.11806,12.73845],[78.11978,12.73815],[78.12064,12.73771],[78.12093,12.73736],[78.12115,12.73693],[78.12088,12.73651],[78.12076,12.73602],[78.12011,12.73473],[78.12,12.73399],[78.11997,12.73381],[78.12035,12.73346],[78.12079,12.73325],[78.12225,12.73288],[78.12271,12.73266],[78.12302,12.73227],[78.12343,12.73201],[78.12432,12.73156],[78.12483,12.7314],[78.12572,12.73098],[78.12704,12.73051],[78.12825,12.73023],[78.12855,12.73015],[78.12904,12.72999],[78.12968,12.72929],[78.12993,12.72889],[78.13031,12.72863],[78.1306,12.72823],[78.13103,12.72638],[78.13091,12.72544],[78.13098,12.72448],[78.1312,12.72406],[78.13151,12.72312],[78.13195,12.7223],[78.13209,12.72185],[78.13235,12.7204],[78.13269,12.71901],[78.13486,12.71796],[78.13522,12.71761],[78.13555,12.71594],[78.13529,12.71549],[78.1344,12.7143],[78.13291,12.71303],[78.13207,12.71212],[78.13161,12.71181],[78.13125,12.71146],[78.13108,12.71099],[78.13108,12.71052],[78.13122,12.71005],[78.13144,12.70963],[78.13185,12.70932],[78.13267,12.70886],[78.1331,12.70867],[78.13392,12.70815],[78.13546,12.7074],[78.13565,12.70696],[78.13577,12.70649],[78.13589,12.70463],[78.13613,12.70423],[78.13673,12.70344],[78.13767,12.70238],[78.13827,12.70088],[78.13837,12.69994],[78.13851,12.69947],[78.13851,12.699],[78.13875,12.69811],[78.1393,12.69677],[78.14024,12.69565],[78.14029,12.69476],[78.14024,12.69431],[78.14055,12.69342],[78.14039,12.69253],[78.14053,12.69208],[78.14077,12.69168],[78.1412,12.69145],[78.14212,12.69136],[78.14267,12.69103],[78.14294,12.69069],[78.14309,12.68987],[78.14321,12.68967],[78.14335,12.68949],[78.14389,12.68904],[78.14398,12.68882],[78.14405,12.68811],[78.1444,12.68739],[78.14455,12.68693],[78.1449,12.68659],[78.14546,12.68585],[78.14696,12.68425],[78.14748,12.68388],[78.14761,12.68366],[78.14763,12.6832],[78.14746,12.68275],[78.14711,12.68238],[78.14668,12.68214],[78.14644,12.68206],[78.14592,12.68199],[78.14471,12.68218],[78.14419,12.68215],[78.14273,12.68156],[78.14203,12.68082],[78.14173,12.68043],[78.14134,12.6798],[78.14125,12.67957],[78.14121,12.67934],[78.14126,12.6791],[78.14156,12.67873],[78.14244,12.67682],[78.14253,12.67635],[78.14253,12.67588],[78.14269,12.67544],[78.14275,12.67498],[78.14251,12.67454],[78.14179,12.6738],[78.14169,12.67243],[78.14171,12.67122],[78.14134,12.67029],[78.14134,12.66963],[78.14146,12.6693],[78.14185,12.66872],[78.14197,12.6684],[78.14221,12.66814],[78.14277,12.66795],[78.14299,12.66772],[78.14346,12.6664],[78.14394,12.6655],[78.14482,12.66492],[78.14503,12.66465],[78.14533,12.66407],[78.14608,12.66319],[78.14646,12.66276],[78.14685,12.66151],[78.14645,12.6605],[78.14643,12.66031],[78.14634,12.65926],[78.1463,12.65891],[78.14618,12.65858],[78.1454,12.65783],[78.14525,12.65751],[78.14499,12.65654],[78.14399,12.65511]]]}},{"type":"Feature","properties":{"river_id":"pambar","name":"Pambar","waterway":"river","lengthInDistrictKm":24.2,"osmWays":4,"source":"OpenStreetMap"},"geometry":{"type":"MultiLineString","coordinates":[[[78.55663,12.40729],[78.55867,12.38559],[78.55864,12.37064],[78.55772,12.3695],[78.55744,12.36619],[78.558,12.36091],[78.55772,12.35967],[78.55647,12.35896],[78.55588,12.35757],[78.5559,12.34854],[78.55719,12.34498],[78.55816,12.34395],[78.55814,12.34286],[78.55726,12.34188],[78.55544,12.34039],[78.55475,12.33844],[78.55487,12.33664],[78.55427,12.33383],[78.55416,12.33095],[78.5541,12.32555],[78.55626,12.31787],[78.55629,12.31777],[78.55644,12.31723],[78.55696,12.3141],[78.55909,12.31148],[78.55923,12.31071],[78.55917,12.30993],[78.55847,12.30747],[78.55912,12.30428],[78.56131,12.29207],[78.56336,12.28193],[78.56463,12.27862],[78.56544,12.27578],[78.56775,12.26368],[78.56829,12.25964],[78.56837,12.25709],[78.5687,12.25237],[78.56926,12.2479],[78.56941,12.2462],[78.56978,12.2435],[78.57006,12.24113],[78.57016,12.23903],[78.57046,12.23656],[78.57104,12.23211],[78.57139,12.22924],[78.57161,12.22622],[78.57206,12.22292],[78.57235,12.22061],[78.57273,12.21853],[78.57271,12.21632],[78.57297,12.21421],[78.57315,12.2124],[78.57356,12.20868],[78.57374,12.20686],[78.57395,12.20373],[78.57429,12.2002],[78.57476,12.19651],[78.57499,12.1948],[78.57504,12.19444]]]}},{"type":"Feature","properties":{"river_id":"thenpennai","name":"Thenpennai (Ponnaiyar)","waterway":"river","lengthInDistrictKm":171.7,"osmWays":9,"source":"OpenStreetMap"},"geometry":{"type":"MultiLineString","coordinates":[[[77.8311,12.88556],[77.83133,12.88535],[77.83158,12.88513],[77.83159,12.88468],[77.83164,12.88412],[77.83194,12.88333],[77.8323,12.88292],[77.8323,12.88254],[77.83247,12.882],[77.83232,12.88155],[77.83207,12.8813],[77.83169,12.88115],[77.83137,12.88097],[77.83111,12.88046],[77.831,12.88008],[77.83085,12.87963],[77.83054,12.87905],[77.83018,12.87868],[77.82997,12.87851],[77.82988,12.87822],[77.82989,12.87792],[77.83006,12.87755],[77.83048,12.87749],[77.83086,12.87754],[77.83108,12.87745],[77.8314,12.87742],[77.83158,12.87732],[77.83194,12.87697],[77.83194,12.87647],[77.83177,12.87616],[77.83167,12.8757],[77.83158,12.87513],[77.8318,12.87441],[77.83209,12.87374],[77.83255,12.87332],[77.83337,12.87244],[77.83423,12.87187],[77.83504,12.87147],[77.83564,12.87127],[77.8363,12.87078],[77.83636,12.87029],[77.83578,12.86998],[77.83485,12.86951],[77.83396,12.86903],[77.83311,12.86832],[77.83236,12.86783],[77.83209,12.86743],[77.83199,12.86685],[77.83203,12.86578],[77.83187,12.86526],[77.8317,12.86478],[77.8316,12.86427],[77.83194,12.86378],[77.83236,12.86322],[77.83255,12.8628],[77.83248,12.86205],[77.83261,12.86169],[77.83292,12.86124],[77.83433,12.86127],[77.83576,12.86115],[77.83712,12.86117],[77.8382,12.86142],[77.83924,12.86155],[77.84061,12.86173],[77.84175,12.86184],[77.84283,12.86186],[77.84335,12.86111],[77.84375,12.86023],[77.84434,12.85931],[77.8449,12.85878],[77.8455,12.85841],[77.84651,12.8575],[77.8468,12.85678],[77.84689,12.85627],[77.84726,12.85586],[77.84718,12.85519],[77.84716,12.85455],[77.84752,12.85413],[77.84799,12.85388],[77.84807,12.85345],[77.84812,12.8529],[77.84846,12.85247],[77.84911,12.85181],[77.84954,12.85115],[77.85042,12.85037],[77.85128,12.84949],[77.8519,12.8489],[77.85286,12.84781],[77.85327,12.84714],[77.85405,12.84633],[77.85481,12.84581],[77.85633,12.84454],[77.85703,12.84389],[77.85777,12.84354],[77.85849,12.84314],[77.85905,12.8427],[77.85938,12.84181],[77.85946,12.84089],[77.85972,12.84009],[77.8603,12.83967],[77.86091,12.83935],[77.86149,12.83945],[77.86174,12.83922],[77.86237,12.83888],[77.86292,12.83883],[77.86366,12.83869],[77.86426,12.83864],[77.86514,12.83835],[77.86597,12.83764],[77.86658,12.83675],[77.8669,12.83571],[77.86683,12.83471],[77.86668,12.83375],[77.86683,12.83324],[77.8676,12.83261],[77.86907,12.83192],[77.8702,12.83136],[77.87111,12.83083],[77.87175,12.83079],[77.87235,12.83052],[77.87261,12.83003],[77.87287,12.82922],[77.87333,12.82786],[77.87361,12.82709],[77.87372,12.8267],[77.87368,12.82591],[77.8738,12.82558],[77.87379,12.82433],[77.8738,12.82355],[77.8741,12.82322],[77.87545,12.82237],[77.87708,12.82117],[77.87793,12.82029],[77.8787,12.81943],[77.87919,12.81829],[77.87983,12.81739],[77.88036,12.81666],[77.88133,12.81633],[77.88189,12.81626],[77.8825,12.81586],[77.88286,12.81499],[77.88324,12.81392],[77.88369,12.81283],[77.8842,12.812],[77.88465,12.81156],[77.88519,12.8112],[77.8858,12.81103],[77.8858,12.81097],[77.88649,12.81116],[77.88707,12.81115],[77.88789,12.81096],[77.88827,12.81095],[77.89012,12.81038],[77.89047,12.80975],[77.8902,12.80674],[77.88972,12.80517],[77.88883,12.8037],[77.88776,12.80295],[77.88668,12.80253],[77.88651,12.80203],[77.88703,12.80078],[77.88643,12.79952],[77.88549,12.79902],[77.88462,12.79801],[77.88488,12.79584],[77.88488,12.7945],[77.88548,12.79307],[77.88488,12.79115],[77.88574,12.78914],[77.88565,12.78805],[77.88351,12.78663],[77.88179,12.78579],[77.87999,12.78604],[77.87905,12.78713],[77.87887,12.78889],[77.87862,12.7904],[77.87664,12.7909],[77.87578,12.78989],[77.87424,12.78814],[77.87338,12.78671],[77.87347,12.78395],[77.87433,12.78219],[77.87375,12.78025],[77.87244,12.77985],[77.87227,12.77801],[77.87278,12.77709],[77.87347,12.77633],[77.87587,12.77558],[77.87604,12.77466],[77.87398,12.77173],[77.87454,12.77079],[77.87558,12.77029],[77.87648,12.7698],[77.87683,12.76963],[77.87703,12.76947],[77.87697,12.76921],[77.87686,12.76897],[77.87682,12.76846],[77.87682,12.7682],[77.87677,12.76794],[77.87678,12.76768],[77.8769,12.76744],[77.87699,12.76718],[77.87722,12.76701],[77.87781,12.76648],[77.87797,12.76626],[77.87808,12.76603],[77.8781,12.76577],[77.87809,12.76553],[77.87805,12.76526],[77.87796,12.765],[77.87744,12.76387],[77.8774,12.76363],[77.87742,12.76285],[77.87732,12.76259],[77.87613,12.76053],[77.87607,12.76026],[77.87614,12.76],[77.87628,12.75975],[77.87642,12.75952],[77.87658,12.75931],[77.87666,12.75907],[77.87678,12.75885],[77.87883,12.7559],[77.87987,12.75477],[77.88008,12.7546],[77.88032,12.75448],[77.88055,12.75439],[77.88079,12.75426],[77.881,12.7541],[77.88172,12.75291],[77.88181,12.75266],[77.88188,12.7524],[77.882,12.75215],[77.88257,12.75159],[77.88282,12.75146],[77.88332,12.75131],[77.88357,12.75125],[77.88462,12.75094],[77.88569,12.75031],[77.8859,12.74998],[77.88598,12.74946],[77.88605,12.7492],[77.88597,12.74695],[77.88579,12.74675],[77.88561,12.74653],[77.88548,12.74629],[77.88537,12.74605],[77.88524,12.74583],[77.88522,12.74557],[77.88514,12.74531],[77.88511,12.74505],[77.88531,12.74456],[77.88532,12.74431],[77.88539,12.74406],[77.88559,12.74387],[77.88583,12.74378],[77.88609,12.7437],[77.88635,12.74366],[77.88661,12.74365],[77.88755,12.74379],[77.88781,12.74378],[77.88793,12.74354],[77.88797,12.74303],[77.88796,12.74276],[77.88786,12.74235],[77.88764,12.74217],[77.88761,12.74204],[77.8877,12.74195],[77.88785,12.74191],[77.88812,12.74193],[77.88826,12.74193],[77.88839,12.74191],[77.88852,12.74195],[77.88864,12.74204],[77.88868,12.74217],[77.8888,12.74224],[77.88893,12.74226],[77.88945,12.74213],[77.89042,12.74217],[77.89068,12.74228],[77.89093,12.74237],[77.89145,12.74262],[77.89168,12.7428],[77.8919,12.74294],[77.89209,12.74367],[77.8921,12.74392],[77.89224,12.74414],[77.89243,12.74434],[77.89255,12.74458],[77.89272,12.74482],[77.89305,12.74553],[77.89322,12.74573],[77.8936,12.74611],[77.89377,12.74633],[77.89398,12.74648],[77.8942,12.7466],[77.89447,12.74669],[77.89473,12.74671],[77.895,12.74671],[77.89525,12.74665],[77.89549,12.74653],[77.89574,12.74644],[77.89626,12.74633],[77.89671,12.74606],[77.8972,12.74586],[77.89742,12.74571],[77.89816,12.74528],[77.89852,12.74488],[77.89873,12.74471],[77.89892,12.74451],[77.89912,12.74432],[77.89934,12.7442],[77.89946,12.74398],[77.90056,12.74299],[77.90075,12.7428],[77.90089,12.74228],[77.90092,12.74203],[77.90091,12.74178],[77.90087,12.74152],[77.90087,12.74126],[77.9008,12.74102],[77.90068,12.74077],[77.90059,12.74051],[77.90053,12.74026],[77.90039,12.74004],[77.89999,12.73964],[77.89957,12.7393],[77.8993,12.73918],[77.89875,12.73902],[77.89851,12.7389],[77.89827,12.73873],[77.89807,12.73853],[77.89801,12.73827],[77.8982,12.73778],[77.89822,12.73752],[77.8983,12.73725],[77.89839,12.737],[77.89875,12.7354],[77.89867,12.73512],[77.89859,12.73456],[77.8986,12.73431],[77.89857,12.73406],[77.89867,12.73354],[77.89864,12.73328],[77.89859,12.73304],[77.89852,12.73251],[77.89843,12.73226],[77.89844,12.732],[77.89839,12.73121],[77.89836,12.73096],[77.89826,12.73043],[77.8983,12.7299],[77.89815,12.72966],[77.89806,12.72942],[77.89801,12.7289],[77.89793,12.72863],[77.89793,12.72836],[77.89761,12.72767],[77.89752,12.72743],[77.8971,12.727],[77.89689,12.72682],[77.89672,12.7266],[77.89635,12.72622],[77.89599,12.7258],[77.89598,12.72554],[77.89594,12.72528],[77.89609,12.72508],[77.89615,12.72481],[77.89611,12.72455],[77.89614,12.72429],[77.89607,12.72376],[77.89607,12.72349],[77.89612,12.72323],[77.89614,12.72299],[77.89575,12.72052],[77.89467,12.71783],[77.89443,12.71733],[77.89297,12.71567],[77.89273,12.71535],[77.8925,12.71522],[77.89205,12.71489],[77.89178,12.7148],[77.89152,12.71478],[77.89095,12.71478],[77.89039,12.71491],[77.89013,12.71483],[77.8899,12.71468],[77.88966,12.71454],[77.88949,12.71434],[77.88927,12.71416],[77.88901,12.71402],[77.88879,12.71387],[77.88825,12.71375],[77.88769,12.71368],[77.88742,12.71359],[77.88717,12.71348],[77.88595,12.71232],[77.88586,12.71204],[77.88562,12.71189],[77.88544,12.71168],[77.88539,12.71144],[77.88527,12.71122],[77.88525,12.71096],[77.88529,12.7107],[77.88539,12.71046],[77.88552,12.70994],[77.88552,12.70968],[77.8855,12.7094],[77.88545,12.70915],[77.88521,12.70666],[77.88529,12.70602],[77.88578,12.70301],[77.8855,12.70201],[77.88454,12.70099],[77.88278,12.70021],[77.88248,12.69962],[77.88219,12.69842],[77.88203,12.6982],[77.88186,12.69799],[77.88133,12.69786],[77.88107,12.69791],[77.88083,12.69804],[77.88059,12.69822],[77.88035,12.69835],[77.87958,12.69867],[77.87931,12.69869],[77.879,12.69867],[77.87815,12.69849],[77.8779,12.69839],[77.87769,12.69821],[77.87747,12.69807],[77.87729,12.69786],[77.87696,12.69742],[77.87666,12.69699],[77.87653,12.69676],[77.87605,12.695],[77.8763,12.69407],[77.87747,12.69162],[77.87762,12.6914],[77.87782,12.69123],[77.87804,12.6911],[77.87826,12.69099],[77.87851,12.69092],[77.87878,12.69088],[77.87904,12.69079],[77.87932,12.69074],[77.87957,12.69072],[77.87982,12.69074],[77.88034,12.69066],[77.8806,12.69057],[77.881,12.69021],[77.88115,12.68999],[77.88123,12.68973],[77.88137,12.68953],[77.88218,12.68866],[77.88323,12.6884],[77.88349,12.68844],[77.88403,12.68861],[77.88456,12.68874],[77.88483,12.68883],[77.88535,12.68896],[77.8856,12.68905],[77.88606,12.68928],[77.88659,12.68928],[77.88684,12.68937],[77.88711,12.68942],[77.88737,12.68941],[77.88702,12.68973],[77.88702,12.68988],[77.8871,12.68999],[77.88721,12.69024],[77.88746,12.69039],[77.88765,12.69059],[77.88778,12.69063],[77.88804,12.69068],[77.8883,12.6907],[77.88843,12.69066],[77.88877,12.69045],[77.88882,12.69031],[77.88884,12.69019],[77.88889,12.69006],[77.88906,12.68986],[77.88914,12.68975],[77.88931,12.68956],[77.88949,12.68906],[77.88975,12.68875],[77.89015,12.68772],[77.89031,12.6875],[77.89042,12.68743],[77.89055,12.68737],[77.89069,12.68736],[77.89082,12.6874],[77.89093,12.68746],[77.89133,12.68786],[77.89157,12.68802],[77.89221,12.68866],[77.89236,12.68903],[77.89241,12.68921],[77.89251,12.68938],[77.89263,12.68955],[77.89277,12.68969],[77.893,12.69004],[77.89316,12.69016],[77.89361,12.69056],[77.89395,12.6908],[77.89407,12.69094],[77.89417,12.69111],[77.89466,12.69141],[77.89483,12.69148],[77.89535,12.69159],[77.89572,12.69162],[77.89591,12.69161],[77.8961,12.69158],[77.89619,12.6912],[77.89621,12.69103],[77.8963,12.69087],[77.89642,12.69073],[77.89657,12.69037],[77.89671,12.69023],[77.89698,12.68992],[77.89772,12.68926],[77.89782,12.68909],[77.89786,12.6889],[77.89793,12.68874],[77.89806,12.6886],[77.89837,12.68832],[77.89859,12.68797],[77.89874,12.68784],[77.89892,12.68777],[77.89911,12.68773],[77.89933,12.68772],[77.89952,12.68769],[77.89975,12.68764],[77.89998,12.68757],[77.90032,12.68743],[77.90088,12.68738],[77.90108,12.68733],[77.90146,12.6873],[77.9033,12.68683],[77.90348,12.68682],[77.90364,12.68673],[77.90376,12.68659],[77.90405,12.68635],[77.90419,12.68614],[77.90452,12.68595],[77.90494,12.68588],[77.90581,12.68621],[77.90636,12.68636],[77.90686,12.68638],[77.90751,12.68625],[77.90806,12.68645],[77.90869,12.6867],[77.90897,12.68677],[77.90934,12.68667],[77.90978,12.68672],[77.91029,12.687],[77.9107,12.68703],[77.91133,12.68712],[77.91148,12.68705],[77.91166,12.68674],[77.91175,12.68653],[77.91182,12.68623],[77.9117,12.68604],[77.91133,12.68587],[77.9111,12.68538],[77.91091,12.68353],[77.91075,12.68231],[77.91056,12.68137],[77.91017,12.68065],[77.90985,12.67985],[77.90965,12.67953],[77.9096,12.67936],[77.90965,12.67911],[77.90968,12.67891],[77.90964,12.67846],[77.90973,12.67807],[77.90982,12.67785],[77.91,12.67757],[77.91055,12.67741],[77.91105,12.67734],[77.91154,12.67736],[77.9121,12.67752],[77.91216,12.67754],[77.91238,12.67762],[77.91301,12.67798],[77.91424,12.67815],[77.91525,12.67864],[77.91539,12.67891],[77.9155,12.67923],[77.91563,12.6794],[77.91604,12.67958],[77.91687,12.67987],[77.91829,12.68034],[77.91923,12.68085],[77.92005,12.68116],[77.92085,12.68127],[77.92138,12.68141],[77.92192,12.68139],[77.92221,12.68128],[77.92276,12.68087],[77.92318,12.68042],[77.92351,12.68022],[77.92423,12.67991],[77.92483,12.67979],[77.92527,12.67975],[77.92567,12.67996],[77.92593,12.67987],[77.9261,12.67959],[77.9263,12.67932],[77.92653,12.67915],[77.92692,12.67923],[77.92728,12.67945],[77.92777,12.67945],[77.92833,12.67939],[77.92865,12.67919],[77.9296,12.67843],[77.92987,12.67803],[77.93002,12.67763],[77.92992,12.67735],[77.93008,12.67714],[77.93067,12.67668],[77.93126,12.67613],[77.93202,12.67525],[77.9323,12.67467],[77.93276,12.6743],[77.93339,12.67377],[77.93396,12.67336],[77.93423,12.67283],[77.93418,12.67238],[77.93397,12.6718],[77.93401,12.67137],[77.93443,12.66968],[77.93444,12.66907],[77.93452,12.66884],[77.93469,12.66866],[77.93467,12.66811],[77.93455,12.66723],[77.93446,12.6665],[77.93474,12.66592],[77.93518,12.66514],[77.9356,12.66463],[77.93592,12.66456],[77.93644,12.66471],[77.93716,12.66462],[77.93765,12.66444],[77.93841,12.66403],[77.9389,12.66376],[77.94356,12.66094],[77.94406,12.6606],[77.94467,12.66014],[77.94619,12.6585],[77.94714,12.65754],[77.94775,12.65717],[77.94818,12.65736],[77.94839,12.65749],[77.94861,12.65752],[77.94871,12.65739],[77.94878,12.65719],[77.94902,12.65664],[77.9492,12.65617],[77.94932,12.6547],[77.94943,12.65395],[77.94955,12.6538],[77.9497,12.65372],[77.94991,12.65373],[77.95035,12.65383],[77.95089,12.65393],[77.95122,12.65383],[77.95175,12.65344],[77.95242,12.65287],[77.95256,12.65251],[77.95257,12.65222],[77.95248,12.65199],[77.95247,12.65155],[77.95258,12.65073],[77.9525,12.64976],[77.95245,12.6496],[77.95211,12.6486],[77.95204,12.64803],[77.95206,12.64775],[77.95213,12.64758],[77.95227,12.64755],[77.95237,12.64744],[77.95244,12.64724],[77.95248,12.64704],[77.95245,12.64685],[77.95227,12.64657],[77.95217,12.6463],[77.95213,12.64614],[77.95213,12.64594],[77.95213,12.64576],[77.95208,12.6456],[77.95204,12.64548],[77.95202,12.64532],[77.95204,12.6448],[77.95195,12.64343],[77.95223,12.64222],[77.95284,12.64091],[77.95322,12.64054],[77.95445,12.63903],[77.95493,12.63882],[77.95659,12.63868],[77.95737,12.63873],[77.95828,12.63915],[77.95878,12.63918],[77.95919,12.63884],[77.95948,12.63821],[77.95996,12.63718],[77.95978,12.63657],[77.95919,12.63569],[77.95894,12.63454],[77.95908,12.63392],[77.95973,12.63295],[77.96048,12.6321],[77.96184,12.63078],[77.96254,12.63003],[77.96319,12.62869],[77.96383,12.62806],[77.96557,12.62709],[77.96666,12.62627],[77.96707,12.62551],[77.96733,12.62464],[77.96799,12.62221],[77.96827,12.62108],[77.96869,12.62066],[77.96918,12.62037],[77.97012,12.62012],[77.97056,12.61977],[77.97069,12.61933],[77.97062,12.61903],[77.97074,12.61865],[77.97118,12.61786],[77.97132,12.61731],[77.97122,12.61675],[77.97089,12.61605],[77.96993,12.6142],[77.9698,12.6134],[77.97006,12.61275],[77.97093,12.61052],[77.97116,12.60939],[77.97118,12.60735],[77.97115,12.60604],[77.97162,12.60505],[77.97226,12.60471],[77.97309,12.60477],[77.97443,12.60533],[77.97585,12.60633],[77.97717,12.60687],[77.97773,12.60691],[77.97856,12.60695],[77.97992,12.60661],[77.98059,12.60605],[77.98179,12.60531],[77.98263,12.60467],[77.98336,12.60418],[77.98446,12.60384],[77.98505,12.60315],[77.98577,12.60236],[77.98698,12.60149],[77.9876,12.60116],[77.9878,12.60085],[77.98766,12.60057],[77.9874,12.59992],[77.98743,12.59927],[77.98769,12.59858],[77.98858,12.5981],[77.98972,12.59704],[77.99082,12.59574],[77.99174,12.59451],[77.99205,12.59351],[77.99203,12.59229],[77.99188,12.59044],[77.99219,12.58868],[77.99236,12.58808],[77.99264,12.58721],[77.9938,12.58567],[77.99451,12.58546],[77.99624,12.5857],[77.99758,12.58519],[77.99955,12.58475],[78.00034,12.58441],[78.00109,12.5837],[78.0013,12.58262],[78.0013,12.58073],[78.00179,12.58003],[78.0024,12.5793],[78.00375,12.57768],[78.00436,12.57687],[78.00551,12.57584],[78.00588,12.5755],[78.00643,12.57454],[78.00679,12.57406],[78.00703,12.57381],[78.00768,12.57341],[78.00841,12.57267],[78.00936,12.57166],[78.00975,12.57134],[78.01011,12.57116],[78.01052,12.57105],[78.01101,12.57103],[78.01187,12.57126],[78.01253,12.57157],[78.01267,12.57169],[78.01275,12.57183],[78.01293,12.57226],[78.0132,12.57264],[78.01358,12.57287],[78.01383,12.57301],[78.01406,12.57313],[78.01469,12.57348],[78.01585,12.57443],[78.01744,12.57562],[78.01796,12.57584],[78.01853,12.57595],[78.01872,12.57597],[78.01891,12.57598],[78.01906,12.57596],[78.01923,12.57584],[78.01937,12.57565],[78.01975,12.57519],[78.01994,12.57495],[78.0202,12.57478],[78.02053,12.57464],[78.02069,12.57459],[78.02089,12.5746],[78.02128,12.57469],[78.02176,12.57497],[78.02226,12.57542],[78.02282,12.57596],[78.02333,12.57658],[78.02374,12.5771],[78.02383,12.57756],[78.02387,12.57844],[78.02383,12.57918],[78.02373,12.57966],[78.02364,12.58013],[78.02363,12.5805],[78.02366,12.58071],[78.0239,12.58118],[78.02417,12.58149],[78.02442,12.58153],[78.02471,12.58153],[78.02542,12.58142],[78.02615,12.58138],[78.0267,12.58146],[78.02702,12.58156],[78.02728,12.58185],[78.02739,12.582],[78.02751,12.58207],[78.02757,12.58207],[78.02767,12.58201],[78.02788,12.58168],[78.02813,12.58146],[78.02852,12.58096],[78.02878,12.58056],[78.02941,12.57965],[78.02982,12.57889],[78.03004,12.57852],[78.03042,12.57804],[78.03076,12.57774],[78.03102,12.57756],[78.0313,12.57744],[78.03156,12.57742],[78.03189,12.57748],[78.03209,12.5775],[78.03233,12.57744],[78.03261,12.57725],[78.03286,12.57707],[78.03294,12.577],[78.03339,12.57686],[78.03418,12.57702],[78.03501,12.57698],[78.03566,12.57673],[78.03669,12.57619],[78.03742,12.57542],[78.03831,12.57487],[78.03863,12.57475],[78.03896,12.57489],[78.03947,12.57553],[78.04015,12.57673],[78.04199,12.5773],[78.04386,12.57778],[78.04787,12.57927],[78.0486,12.57921],[78.04976,12.5781],[78.05031,12.57724],[78.05033,12.57644],[78.05188,12.57305],[78.05363,12.57089],[78.05566,12.57076],[78.05853,12.56993],[78.05963,12.56963],[78.06123,12.56975],[78.06423,12.56978],[78.06727,12.57002],[78.06942,12.56921],[78.07093,12.56856],[78.07184,12.5682],[78.07218,12.56816],[78.07236,12.56834],[78.073,12.57099],[78.07314,12.57202],[78.07373,12.57285],[78.07502,12.57315],[78.07626,12.5728],[78.07898,12.57193],[78.08063,12.57133],[78.08243,12.57044],[78.0844,12.57155],[78.08643,12.57158],[78.08787,12.57227],[78.08874,12.57239],[78.08955,12.57261],[78.09335,12.57402],[78.09415,12.57559],[78.09523,12.57641],[78.09583,12.57664],[78.0964,12.57654],[78.09697,12.57636],[78.09764,12.57635],[78.09912,12.5766],[78.10083,12.57685],[78.1025,12.57752],[78.10429,12.57791],[78.10527,12.57794],[78.10617,12.57806],[78.1083,12.57857],[78.1098,12.57872],[78.11216,12.57878],[78.11378,12.57847],[78.11679,12.57834],[78.11744,12.57859],[78.11794,12.57926],[78.11895,12.57946],[78.11966,12.57931],[78.1225,12.57902],[78.12505,12.57906],[78.1272,12.57778],[78.12951,12.57653],[78.13151,12.57678],[78.1328,12.57628],[78.13731,12.57357],[78.13913,12.57229],[78.13907,12.57121],[78.13924,12.57053],[78.13973,12.57004],[78.13992,12.56914],[78.13978,12.56848],[78.13932,12.56709],[78.13922,12.56543],[78.13905,12.56407],[78.13848,12.55615],[78.13902,12.54827],[78.14108,12.54274],[78.14148,12.54024],[78.14116,12.53782],[78.1408,12.53289],[78.14125,12.53185],[78.14228,12.53017],[78.14341,12.52871],[78.14403,12.52785],[78.14488,12.52707],[78.1461,12.5259],[78.14741,12.52425],[78.14802,12.5234],[78.149,12.52233],[78.14939,12.52158],[78.14987,12.52048],[78.15029,12.51905],[78.15064,12.51792],[78.15134,12.51643],[78.15216,12.51541],[78.15265,12.51494],[78.15499,12.51221],[78.15573,12.51167],[78.1561,12.51159],[78.15649,12.51161],[78.15703,12.51174],[78.15783,12.51188],[78.15821,12.51188],[78.1584,12.51181],[78.15865,12.51162],[78.15902,12.51132],[78.15933,12.51083],[78.1594,12.51036],[78.15969,12.50874],[78.16033,12.5072],[78.16163,12.50473],[78.16238,12.50417],[78.16348,12.50358],[78.16577,12.50259],[78.16813,12.50127],[78.17148,12.49486],[78.1819,12.47792],[78.18785,12.4777],[78.18796,12.47769],[78.18853,12.4753],[78.18887,12.47089],[78.19111,12.4649],[78.19247,12.4619],[78.19407,12.45986],[78.19603,12.45854],[78.20821,12.45457],[78.21412,12.45272],[78.21651,12.45192],[78.21709,12.45151],[78.21727,12.45097],[78.21643,12.44879],[78.21554,12.44663],[78.21598,12.44235],[78.21488,12.43883],[78.21397,12.43726],[78.21346,12.43538],[78.21281,12.43163],[78.21424,12.42826],[78.21569,12.42625],[78.21766,12.42509],[78.22012,12.42422],[78.22283,12.42315],[78.22571,12.42198],[78.22777,12.42194],[78.22957,12.42181],[78.23121,12.42148],[78.23264,12.42099],[78.23369,12.41992],[78.23406,12.41863],[78.23547,12.41603],[78.23614,12.41542],[78.23725,12.41373],[78.23801,12.41117],[78.23877,12.40942],[78.23907,12.40892],[78.24047,12.40739],[78.24143,12.40657],[78.24317,12.40566],[78.24499,12.40432],[78.24574,12.40313],[78.24628,12.40047],[78.24606,12.39772],[78.24606,12.39581],[78.24627,12.39455],[78.24671,12.3934],[78.24739,12.39258],[78.24846,12.39179],[78.25005,12.392],[78.25197,12.39273],[78.25343,12.39276],[78.25507,12.39239],[78.25676,12.39165],[78.25939,12.38946],[78.26086,12.38705],[78.26086,12.38573],[78.26185,12.38237],[78.2632,12.37912],[78.26542,12.376],[78.26579,12.37239],[78.26542,12.36879],[78.2648,12.36422],[78.2648,12.35978],[78.26615,12.35725],[78.26874,12.35497],[78.27144,12.35197],[78.27169,12.34884],[78.27403,12.34367],[78.27698,12.34031],[78.27796,12.33766],[78.2803,12.33502],[78.28412,12.32444],[78.28818,12.31495],[78.28965,12.31219],[78.28965,12.30822],[78.28916,12.30533],[78.2899,12.30293],[78.29174,12.29957],[78.29299,12.29769],[78.29383,12.29716],[78.29591,12.29654],[78.29772,12.29661],[78.29934,12.2969],[78.30006,12.2965],[78.30035,12.29586],[78.30035,12.29524],[78.30169,12.29374],[78.30331,12.28959],[78.30342,12.2882],[78.30338,12.28737],[78.30326,12.28694],[78.30215,12.28548],[78.30045,12.28436],[78.29932,12.2833],[78.29877,12.28271],[78.29865,12.28157],[78.29906,12.28042],[78.2996,12.27973],[78.3006,12.27853],[78.30227,12.27678],[78.30294,12.27552],[78.30311,12.2727],[78.30366,12.27144],[78.30467,12.27026],[78.30552,12.26814],[78.3053,12.26737],[78.30503,12.26646],[78.30506,12.26532],[78.30587,12.26447],[78.30757,12.26431],[78.30898,12.26489],[78.31062,12.26469],[78.31168,12.26397],[78.3128,12.26209],[78.31286,12.26109],[78.31408,12.25984],[78.31513,12.25953],[78.31618,12.25842],[78.31806,12.25741],[78.31905,12.25713],[78.32237,12.2583],[78.32315,12.25881],[78.32373,12.25966],[78.32441,12.26225],[78.32542,12.26415],[78.32638,12.26485],[78.32713,12.2654],[78.32852,12.26602],[78.32969,12.26603],[78.33116,12.26521],[78.33288,12.26458],[78.33376,12.2639],[78.33431,12.26278],[78.33641,12.25939],[78.33771,12.25785],[78.33923,12.25665],[78.34159,12.25504],[78.34372,12.25313],[78.34558,12.25145],[78.34731,12.25018],[78.3487,12.24933],[78.35047,12.24861],[78.35174,12.24817],[78.35263,12.24765],[78.35338,12.24691],[78.35361,12.24642],[78.35349,12.24536],[78.35344,12.24385],[78.35347,12.24235],[78.35362,12.24128],[78.35422,12.24049],[78.35547,12.23941],[78.35582,12.23902],[78.35621,12.23804],[78.35695,12.2375],[78.35768,12.23717],[78.35833,12.23686],[78.35877,12.23634],[78.35897,12.23539],[78.35864,12.23416],[78.35865,12.23291],[78.35846,12.23126],[78.35804,12.22999],[78.3573,12.22871],[78.35637,12.22808],[78.35439,12.22769],[78.35375,12.22655],[78.35324,12.22526],[78.35328,12.22424],[78.3537,12.22305],[78.35448,12.22169],[78.35622,12.21819],[78.35708,12.2173],[78.3579,12.2169],[78.35927,12.21707],[78.36234,12.21806],[78.36343,12.21788],[78.3647,12.21641],[78.3657,12.21352],[78.36588,12.21087],[78.36643,12.20928],[78.36797,12.20799],[78.36961,12.2079],[78.37268,12.20865],[78.3763,12.21093],[78.37781,12.21114],[78.37934,12.21093],[78.38122,12.21007],[78.38176,12.20959],[78.38234,12.20895],[78.38393,12.20703],[78.38687,12.20715],[78.39041,12.2052],[78.39216,12.20512],[78.39471,12.20868],[78.39752,12.21279],[78.39917,12.21332],[78.40143,12.21384],[78.404,12.21367],[78.4061,12.21247],[78.40738,12.20784],[78.408,12.20543],[78.41093,12.20245],[78.41281,12.20073],[78.41326,12.19742],[78.41413,12.19543],[78.41544,12.19315],[78.41744,12.19075],[78.41957,12.18928],[78.42348,12.18931],[78.42797,12.18971],[78.43205,12.18944],[78.43371,12.18972],[78.43567,12.19005],[78.43947,12.1904],[78.44376,12.1899],[78.44662,12.18957],[78.44825,12.18807],[78.45215,12.1853],[78.45833,12.18183],[78.46346,12.17891],[78.47027,12.17505],[78.47421,12.17214],[78.47684,12.17097],[78.47807,12.17027],[78.48114,12.16758],[78.48377,12.16688],[78.4864,12.16641],[78.48986,12.16898],[78.49333,12.17015],[78.49667,12.1705],[78.50157,12.17212],[78.50743,12.17435],[78.51173,12.17576],[78.51615,12.17727],[78.51937,12.17891],[78.52224,12.17891],[78.55414,12.17961],[78.55676,12.18066],[78.56274,12.18778],[78.56632,12.1907],[78.57289,12.19327],[78.57504,12.19444],[78.5754,12.19312],[78.5756,12.19172],[78.57607,12.19042],[78.57636,12.18907],[78.57714,12.18515],[78.57743,12.18262],[78.5779,12.18015],[78.57864,12.17655],[78.57941,12.17457],[78.58002,12.17258],[78.58124,12.16779],[78.58161,12.16487],[78.58189,12.16339],[78.58245,12.16259],[78.58294,12.16291],[78.5841,12.16372],[78.58549,12.16438],[78.58752,12.16495],[78.58916,12.16518],[78.58968,12.16492],[78.59132,12.1655],[78.59342,12.16696],[78.59504,12.16727],[78.59636,12.16774],[78.59767,12.16911],[78.60025,12.17232],[78.60204,12.17462],[78.60322,12.17593],[78.60553,12.17768],[78.60718,12.17856],[78.60974,12.18005],[78.61066,12.18051],[78.61218,12.1814],[78.6137,12.18192],[78.61468,12.18137],[78.61605,12.18136],[78.61713,12.18086],[78.61898,12.18077],[78.62021,12.18068],[78.62036,12.17998],[78.62159,12.17987],[78.62325,12.17956],[78.62462,12.17938],[78.62615,12.17886],[78.62648,12.17861],[78.62694,12.17831],[78.62851,12.17795],[78.63015,12.17704],[78.63106,12.1765],[78.63153,12.17542],[78.63263,12.17367],[78.63406,12.17215],[78.63512,12.17017],[78.6364,12.16861],[78.63871,12.16685],[78.64087,12.16613],[78.64266,12.16533]],[[78.01267,12.57169],[78.01299,12.57167],[78.01339,12.57175],[78.01363,12.57187],[78.01383,12.57204],[78.0139,12.57226],[78.01386,12.57268],[78.01383,12.57301]]]}}]}