{"nvdm":"1.0","dataset":"basins/tanks","scope":{"kind":"basin","id":"krishnagiri-rivers"},"provenance":{"sources":[{"id":"tngis-open-geoserver","title":"TNGIS open GeoServer (WFS): district, taluk, block and village panchayat boundaries, TN WRD sub-basins and reservoirs, micro-watershed atlas, all-water-bodies and all-tanks registers, mine leases, industry register matched to land parcels","publisher":"Tamil Nadu e-Governance Agency (TNGIS)","license":"Tamil Nadu government data on an open GeoServer (WFS, no login); published with TNGIS's permission and with attribution.","role":"input","url":"https://tngis.tn.gov.in/tngismaps/ows"}],"method":"derived","produced_at":"2026-09-18","produced_by":"scripts/build_krishnagiri_rivers_basin.py","internal_inputs":["public/data/basins/krishnagiri-rivers/sub-hydrosheds.geojson"],"note":"Krishnagiri district's rivers, groundwater and industry (scope krishnagiri-rivers; the district's own scope id is tn-krishnagiri). The district boundary is the frame and TN WRD's sub-basins, clipped to it, are the catchments (shedId): the Thenpennai's to the east, the Cauvery's Chinnar and Dodda Halla to the south-west. The industry register holds only units TNGIS matched to a land parcel, so every count is a lower bound; sector comes from the reviewed TNPCB type-code lookup pipeline-inputs/basins/krishnagiri-rivers/tnpcb-type-sectors.json."},"type":"FeatureCollection","features":[{"type":"Feature","properties":{"name":"Barur Big Tank","kind":"tank","block":"Kaveripattinam","taluk":"Pochampalli","village":"Barur","department":"WRD","waterspreadHa":258.9,"shedId":"SBP17"},"geometry":{"type":"Point","coordinates":[78.3166,12.3152]}},{"type":"Feature","properties":{"name":"Penugondapuram Tank","kind":"tank","block":"Mathur","taluk":"Pochampalli","village":"Konarahalli","department":"WRD","waterspreadHa":184.0,"shedId":"SBP05"},"geometry":{"type":"Point","coordinates":[78.41407,12.36]}},{"type":"Feature","properties":{"name":"Badathalav Tank","kind":"tank","block":"Krishnagiri","taluk":"Krishnagiri","village":"Kattinayanapalli","department":"WRD","waterspreadHa":166.2,"shedId":"SBP17"},"geometry":{"type":"Point","coordinates":[78.23683,12.55185]}},{"type":"Feature","properties":{"name":"Thimmapuram Tank","kind":"tank","block":"Kaveripattinam","taluk":"Krishnagiri","village":"Thimmapuram","department":"WRD","waterspreadHa":72.2,"shedId":"SBP17"},"geometry":{"type":"Point","coordinates":[78.22238,12.4562]}},{"type":"Feature","properties":{"name":"Thally Big Tank","kind":"tank","block":"Thally","taluk":"Denkanikottai","village":"Thalli","department":"WRD","waterspreadHa":65.4,"shedId":"SB115"},"geometry":{"type":"Point","coordinates":[77.65727,12.59135]}},{"type":"Feature","properties":{"name":"Nagendran Tank","kind":"tank","block":"Thally","taluk":"Denkanikottai","village":"Belagondapalli","department":"WRD","waterspreadHa":56.2,"shedId":"SBP01"},"geometry":{"type":"Point","coordinates":[77.75386,12.67365]}},{"type":"Feature","properties":{"name":"Athipallam Tank","kind":"tank","block":"Mathur","taluk":"Pochampalli","village":"Athipallam","department":"WRD","waterspreadHa":48.2,"shedId":"SBP05"},"geometry":{"type":"Point","coordinates":[78.43988,12.37645]}},{"type":"Feature","properties":{"name":"Anandur Tank","kind":"tank","block":"Bargur","taluk":"Pochampalli","village":"Anandur","department":"WRD","waterspreadHa":47.9,"shedId":"SBP17"},"geometry":{"type":"Point","coordinates":[78.37672,12.2756]}},{"type":"Feature","properties":{"name":"Chinnappareddy Kodigai Tank","kind":"tank","block":"Hosur","taluk":"Hosur","village":"Mathagiri","department":"WRD","waterspreadHa":46.3,"shedId":"SBP01"},"geometry":{"type":"Point","coordinates":[77.79967,12.6991]}},{"type":"Feature","properties":{"name":"Achamangalam Tank","kind":"tank","block":"Bargur","taluk":"Krishnagiri","village":"Achamangalam","department":"WRD","waterspreadHa":44.3,"shedId":"SBP05"},"geometry":{"type":"Point","coordinates":[78.32707,12.5246]}},{"type":"Feature","properties":{"name":"Chandirambigai Tank","kind":"tank","block":"Hosur","taluk":"Hosur","village":"Hosur","department":"WRD","waterspreadHa":42.5,"shedId":"SBP01"},"geometry":{"type":"Point","coordinates":[77.81539,12.74035]}},{"type":"Feature","properties":{"name":"Pannandur Tank","kind":"tank","block":"Kaveripattinam","taluk":"Pochampalli","village":"Pannandur","department":"WRD","waterspreadHa":37.6,"shedId":"SBP17"},"geometry":{"type":"Point","coordinates":[78.28419,12.30555]}},{"type":"Feature","properties":{"name":"Vadmangalam Tank","kind":"tank","block":"Kaveripattinam","taluk":"Pochampalli","village":"Vadmangalam","department":"WRD","waterspreadHa":34.2,"shedId":"SBP17"},"geometry":{"type":"Point","coordinates":[78.29384,12.28685]}},{"type":"Feature","properties":{"name":"Thadikkal Tank","kind":"tank","block":"Kelamangalam","department":"TNeGA","waterspreadHa":33.1,"shedId":"SB115"},"geometry":{"type":"Point","coordinates":[77.85452,12.50615]}},{"type":"Feature","properties":{"name":"Pannapalli Tank","kind":"tank","block":"Shoolagiri","taluk":"Hosur","village":"Pannapalli","department":"WRD","waterspreadHa":31.4,"shedId":"SBP02"},"geometry":{"type":"Point","coordinates":[77.99667,12.7892]}},{"type":"Feature","properties":{"name":"Lakshmi Goundan Tank","kind":"tank","block":"Kelamangalam","taluk":"Denkanikottai","village":"Nagamangalam","department":"WRD","waterspreadHa":31.0,"shedId":"SBP16"},"geometry":{"type":"Point","coordinates":[77.94105,12.56235]}},{"type":"Feature","properties":{"name":"Neeramapallan thalli palli eri","kind":"tank","block":"Krishnagiri","taluk":"Krishnagiri","village":"Pethalapalli","department":"WRD","waterspreadHa":31.0,"shedId":"SBP16"},"geometry":{"type":"Point","coordinates":[78.17787,12.5286]}},{"type":"Feature","properties":{"name":"Thuduganahalli Tank","kind":"tank","block":"Krishnagiri","taluk":"Krishnagiri","village":"Thuduganahalli","department":"WRD","waterspreadHa":30.9,"shedId":"SBP16"},"geometry":{"type":"Point","coordinates":[78.14995,12.4641]}},{"type":"Feature","properties":{"name":"Vilangamudi Tank","kind":"tank","block":"Kaveripattinam","taluk":"Pochampalli","village":"Vilangamudi","department":"WRD","waterspreadHa":30.3,"shedId":"SBP17"},"geometry":{"type":"Point","coordinates":[78.28511,12.3371]}},{"type":"Feature","properties":{"name":"Ettipalli Tank","kind":"tank","block":"Veppanapalli","taluk":"Krishnagiri","village":"Eittipalli","department":"WRD","waterspreadHa":29.6,"shedId":"SBP03"},"geometry":{"type":"Point","coordinates":[78.13581,12.7437]}},{"type":"Feature","properties":{"name":"Thiruvonampatti Tank","kind":"tank","block":"Uthangarai","taluk":"Uthangarai","village":"Thiruvanapatti","department":"WRD","waterspreadHa":28.4,"shedId":"SBP17"},"geometry":{"type":"Point","coordinates":[78.372,12.2486]}},{"type":"Feature","properties":{"name":"Barur Small Tank","kind":"tank","block":"Kaveripattinam","taluk":"Pochampalli","village":"Barur","department":"WRD","waterspreadHa":28.1,"shedId":"SBP17"},"geometry":{"type":"Point","coordinates":[78.29737,12.3032]}},{"type":"Feature","properties":{"name":"Mavathur Tank","kind":"tank","block":"Bargur","taluk":"Pochampalli","village":"Thadampatti","department":"WRD","waterspreadHa":27.0,"shedId":"SBP17"},"geometry":{"type":"Point","coordinates":[78.37823,12.29525]}},{"type":"Feature","properties":{"name":"Berigai peria eri","kind":"tank","block":"Berigai","taluk":"Shoolagiri","village":"Berigai","department":"WRD","waterspreadHa":26.1,"shedId":"SBP02"},"geometry":{"type":"Point","coordinates":[77.96717,12.81135]}},{"type":"Feature","properties":{"name":"South pennaiyar river in channel","kind":"tank","block":"Kelamangalam","taluk":"Denkanikottai","village":"Karukanahalli","department":"WRD","waterspreadHa":25.5,"shedId":"SBP16"},"geometry":{"type":"Point","coordinates":[78.01877,12.5647]}},{"type":"Feature","properties":{"name":"Mallappan Tank","kind":"tank","block":"Kaveripattinam","taluk":"Krishnagiri","village":"Penashwaramadam","department":"WRD","waterspreadHa":25.1,"shedId":"SBP17"},"geometry":{"type":"Point","coordinates":[78.23127,12.39375]}},{"type":"Feature","properties":{"name":"Mohammad Ghouse Tank","kind":"tank","block":"Krishnagiri","taluk":"Krishnagiri","village":"Periyamuthur","department":"WRD","waterspreadHa":25.1,"shedId":"SBP17"},"geometry":{"type":"Point","coordinates":[78.21583,12.4866]}},{"type":"Feature","properties":{"name":"Balinayanapalli Tank","kind":"tank","block":"Bargur","taluk":"Krishnagiri","village":"Balinayanapalli","department":"WRD","waterspreadHa":25.0,"shedId":"SBP05"},"geometry":{"type":"Point","coordinates":[78.30695,12.52745]}},{"type":"Feature","properties":{"name":"Byanapalli Tank","kind":"tank","block":"Krishnagiri","taluk":"Krishnagiri","village":"Byanapalli","department":"WRD","waterspreadHa":24.3,"shedId":"SBP16"},"geometry":{"type":"Point","coordinates":[78.1791,12.55725]}},{"type":"Feature","properties":{"name":"Biaskhan Tank","kind":"tank","block":"Bargur","taluk":"Krishnagiri","village":"Achamangalam","department":"WRD","waterspreadHa":24.1,"shedId":"SBP05"},"geometry":{"type":"Point","coordinates":[78.30678,12.49495]}},{"type":"Feature","properties":{"name":"Baleguli Tank","kind":"tank","block":"Kaveripattinam","taluk":"Krishnagiri","village":"Paleguli","department":"WRD","waterspreadHa":23.9,"shedId":"SBP17"},"geometry":{"type":"Point","coordinates":[78.22297,12.37895]}},{"type":"Feature","properties":{"name":"Varappam peria eri (Orappam)","kind":"tank","block":"Bargur","taluk":"Bargur","village":"orappam","department":"WRD","waterspreadHa":23.8,"shedId":"SBP05"},"geometry":{"type":"Point","coordinates":[78.27833,12.53945]}},{"type":"Feature","properties":{"name":"Devasamudhiram Tank","kind":"tank","block":"Krishnagiri","taluk":"Krishnagiri","village":"Devasamudiram","department":"WRD","waterspreadHa":23.5,"shedId":"SBP17"},"geometry":{"type":"Point","coordinates":[78.21816,12.5076]}},{"type":"Feature","properties":{"name":"Dadarao Tank","kind":"tank","block":"Hosur","taluk":"Hosur","village":"Zusuvadi","department":"WRD","waterspreadHa":22.4,"shedId":"SBP01"},"geometry":{"type":"Point","coordinates":[77.78128,12.76885]}},{"type":"Feature","properties":{"name":"Deveerahalli Tank","kind":"tank","block":"Kaveripattinam","taluk":"Pochampalli","village":"Kudimenahalli","department":"WRD","waterspreadHa":22.4,"shedId":"SBP17"},"geometry":{"type":"Point","coordinates":[78.27818,12.3188]}},{"type":"Feature","properties":{"name":"Nedungal Tank","kind":"tank","block":"Kaveripattinam","taluk":"Krishnagiri","village":"Nedungal","department":"WRD","waterspreadHa":22.3,"shedId":"SBP17"},"geometry":{"type":"Point","coordinates":[78.25635,12.37055]}},{"type":"Feature","properties":{"name":"Kareem Shaib Tank","kind":"tank","block":"Krishnagiri","taluk":"Krishnagiri","village":"Kattiganapalli","department":"WRD","waterspreadHa":21.9,"shedId":"SBP17"},"geometry":{"type":"Point","coordinates":[78.20932,12.51835]}},{"type":"Feature","properties":{"name":"Anankuttai Tank","kind":"tank","block":"Kaveripattinam","taluk":"Krishnagiri","village":"Paiyur","department":"WRD","waterspreadHa":21.4,"shedId":"SBP17"},"geometry":{"type":"Point","coordinates":[78.2749,12.4047]}},{"type":"Feature","properties":{"name":"Sonrayan eri","kind":"tank","block":"Hosur","taluk":"Hosur","village":"Muthali","department":"WRD","waterspreadHa":20.5,"shedId":"SBP16"},"geometry":{"type":"Point","coordinates":[77.90591,12.7628]}},{"type":"Feature","properties":{"name":"Vellagalahalli Tank","kind":"tank","block":"Krishnagiri","taluk":"Krishnagiri","village":"Vellagalahalli","department":"WRD","waterspreadHa":19.2,"shedId":"SBP16"},"geometry":{"type":"Point","coordinates":[78.09945,12.45975]}},{"type":"Feature","properties":{"name":"Naganna eri","kind":"tank","block":"Hosur","taluk":"Hosur","village":"Bagalur","department":"WRD","waterspreadHa":19.1,"shedId":"SBP16"},"geometry":{"type":"Point","coordinates":[77.85308,12.83155]}},{"type":"Feature","properties":{"name":"Achukuttai Tank","kind":"tank","block":"Kaveripattinam","taluk":"Krishnagiri","village":"A-Mottur","department":"WRD","waterspreadHa":18.2,"shedId":"SBP17"},"geometry":{"type":"Point","coordinates":[78.26503,12.3515]}},{"type":"Feature","properties":{"name":"Nanjaian Tank","kind":"tank","block":"Kelamangalam","taluk":"Denkanikottai","village":"Kelamangalam","department":"WRD","waterspreadHa":18.2,"shedId":"SB115"},"geometry":{"type":"Point","coordinates":[77.84613,12.6009]}},{"type":"Feature","properties":{"name":"Narayanappan Tank","kind":"tank","block":"Bargur","taluk":"Krishnagiri","village":"Achamangalam","department":"WRD","waterspreadHa":17.9,"shedId":"SBP05"},"geometry":{"type":"Point","coordinates":[78.3019,12.4592]}},{"type":"Feature","properties":{"name":"Bagalur big tank","kind":"tank","block":"Hosur","taluk":"Hosur","village":"Bagalur","department":"WRD","waterspreadHa":17.7,"shedId":"SBP16"},"geometry":{"type":"Point","coordinates":[77.85957,12.81025]}},{"type":"Feature","properties":{"name":"Kurumpatti","kind":"tank","block":"Kaveripattinam","taluk":"Krishnagiri","village":"Gundalapatti","department":"WRD","waterspreadHa":16.6,"shedId":"SBP17"},"geometry":{"type":"Point","coordinates":[78.19168,12.43605]}},{"type":"Feature","properties":{"name":"Suriyanarayanan Tank","kind":"tank","block":"Kaveripattinam","taluk":"Krishnagiri","village":"Santhapuram","department":"WRD","waterspreadHa":16.6,"shedId":"SBP17"},"geometry":{"type":"Point","coordinates":[78.21496,12.41315]}},{"type":"Feature","properties":{"name":"Naralapalli Tank","kind":"tank","block":"Krishnagiri","taluk":"Krishnagiri","village":"Naralapa;lli","department":"WRD","waterspreadHa":16.3,"shedId":"SBP17"},"geometry":{"type":"Point","coordinates":[78.23747,12.5814]}},{"type":"Feature","properties":{"name":"Malligarjuna Durgam Tank","kind":"tank","block":"Thally","taluk":"Denkanikottai","village":"Malligarjuna Durgam","department":"WRD","waterspreadHa":15.2,"shedId":"SB117"},"geometry":{"type":"Point","coordinates":[77.75454,12.46345]}},{"type":"Feature","properties":{"name":"Maruderi Tank","kind":"tank","block":"Kaveripattinam","taluk":"Pochampalli","village":"Maruderi","department":"WRD","waterspreadHa":14.2,"shedId":"SBP17"},"geometry":{"type":"Point","coordinates":[78.28448,12.34465]}},{"type":"Feature","properties":{"name":"Alagipudur eri","kind":"tank","block":"Bargur","taluk":"Bargur","village":"Balinayanapalli","department":"WRD","waterspreadHa":14.0,"shedId":"SBP05"},"geometry":{"type":"Point","coordinates":[78.30795,12.51525]}},{"type":"Feature","properties":{"name":"Koppakarai eri","kind":"tank","block":"Uthanapalli","taluk":"Shoolagiri","village":"Koppakarai","department":"WRD","waterspreadHa":14.0,"shedId":"SBP16"},"geometry":{"type":"Point","coordinates":[78.01302,12.5487]}},{"type":"Feature","properties":{"name":"Sokkarasanapalli eri","kind":"tank","block":"Hosur","taluk":"Hosur","village":"Sokkarasanapalli","department":"WRD","waterspreadHa":13.9,"shedId":"SBP16"},"geometry":{"type":"Point","coordinates":[77.83059,12.8529]}},{"type":"Feature","properties":{"name":"Thalihalli Tank","kind":"tank","block":"Kaveripattinam","taluk":"Krishnagiri","village":"Thalihalli","department":"WRD","waterspreadHa":12.3,"shedId":"SBP17"},"geometry":{"type":"Point","coordinates":[78.24524,12.4102]}},{"type":"Feature","properties":{"name":"Kurubarapalli eri","kind":"tank","block":"Berigai","taluk":"Shoolagiri","village":"B.Kurubarapalli","department":"WRD","waterspreadHa":11.8,"shedId":"SBP02"},"geometry":{"type":"Point","coordinates":[77.98483,12.79815]}},{"type":"Feature","properties":{"name":"Chinnamattarapalli Tank","kind":"tank","block":"Bargur","taluk":"Krishnagiri","village":"Chinnamattarapalli","department":"WRD","waterspreadHa":11.6,"shedId":"SBP05"},"geometry":{"type":"Point","coordinates":[78.33136,12.58885]}},{"type":"Feature","properties":{"name":"Samanapalli peria eri","kind":"tank","block":"shoolagiri","taluk":"Shoolagiri","village":"Samanapalli","department":"WRD","waterspreadHa":11.5,"shedId":"SBP16"},"geometry":{"type":"Point","coordinates":[77.97186,12.63075]}},{"type":"Feature","properties":{"name":"Gopala Joshiyar Kuttai","kind":"tank","block":"Kaveripattinam","taluk":"Krishnagiri","village":"Gundalapatti","department":"WRD","waterspreadHa":11.2,"shedId":"SBP17"},"geometry":{"type":"Point","coordinates":[78.26807,12.3951]}},{"type":"Feature","properties":{"name":"Akka Thangai Tank","kind":"tank","block":"Thally","taluk":"Denkanikottai","village":"Panai","department":"WRD","waterspreadHa":11.0,"shedId":"SB117"},"geometry":{"type":"Point","coordinates":[77.71826,12.3597]}},{"type":"Feature","properties":{"name":"Devaraipalli eri","kind":"tank","block":"Hosur","taluk":"Hosur","village":"Baliganapalli Eri","department":"WRD","waterspreadHa":11.0,"shedId":"SBP16"},"geometry":{"type":"Point","coordinates":[77.89602,12.8671]}},{"type":"Feature","properties":{"name":"Barathangithalar big tank","kind":"tank","block":"Kelamangalam","taluk":"Denkanikottai","village":"Karukanahalli","department":"WRD","waterspreadHa":10.9,"shedId":"SBP16"},"geometry":{"type":"Point","coordinates":[77.98698,12.5679]}},{"type":"Feature","properties":{"name":"Adavanga Tank","kind":"tank","block":"Thally","taluk":"Denkanikottai","village":"Kundukottai","department":"WRD","waterspreadHa":10.8,"shedId":"SB117"},"geometry":{"type":"Point","coordinates":[77.74286,12.4379]}},{"type":"Feature","properties":{"name":"Kattinaickandddi eri","kind":"tank","block":"Berigai","taluk":"Shoolagiri","village":"Kattinaicken doddi","department":"WRD","waterspreadHa":10.6,"shedId":"SBP02"},"geometry":{"type":"Point","coordinates":[77.95446,12.8229]}},{"type":"Feature","properties":{"name":"Kundal eri","kind":"tank","block":"Hosur","taluk":"Hosur","village":"Muthali","department":"WRD","waterspreadHa":10.3,"shedId":"SBP16"},"geometry":{"type":"Point","coordinates":[77.91427,12.7601]}},{"type":"Feature","properties":{"name":"Pudur tank","kind":"tank","block":"Kelamangalam","taluk":"Denkanikottai","village":"Muthanahalli","department":"WRD","waterspreadHa":10.3,"shedId":"SBP16"},"geometry":{"type":"Point","coordinates":[77.98725,12.54365]}},{"type":"Feature","properties":{"name":"Gollappatti Tank","kind":"tank","block":"Kaveripattinam","taluk":"Krishnagiri","village":"Gollapatti","department":"WRD","waterspreadHa":10.0,"shedId":"SBP17"},"geometry":{"type":"Point","coordinates":[78.2283,12.41045]}},{"type":"Feature","properties":{"name":"Poddipallai tank","kind":"tank","block":"Krishnagiri","taluk":"Krishnagiri","village":"Gangaleri","department":"WRD","waterspreadHa":9.9,"shedId":"SBP16"},"geometry":{"type":"Point","coordinates":[78.15306,12.5074]}},{"type":"Feature","properties":{"name":"Thippanankuttai Tank","kind":"tank","block":"Kaveripattinam","taluk":"Pochampalli","village":"Bendarahalli","department":"WRD","waterspreadHa":9.8,"shedId":"SBP17"},"geometry":{"type":"Point","coordinates":[78.31408,12.26795]}},{"type":"Feature","properties":{"name":"Theerthagirivalasai Tank","kind":"tank","block":"Mathur","taluk":"Uthangarai","village":"Singarapettai","department":"WRD","waterspreadHa":9.7,"shedId":"SBP05"},"geometry":{"type":"Point","coordinates":[78.42865,12.40095]}},{"type":"Feature","properties":{"name":"Attraganapalli eri (Advarappanapalli eri)","kind":"tank","block":"shoolagiri","taluk":"Shoolagiri","village":"Marudhadapalli","department":"WRD","waterspreadHa":9.4,"shedId":"SBP02"},"geometry":{"type":"Point","coordinates":[78.0007,12.6705]}},{"type":"Feature","properties":{"name":"Pudu Eri","kind":"tank","block":"Kaveripattinam","taluk":"Krishnagiri","village":"Gundalapatti","department":"WRD","waterspreadHa":9.1,"shedId":"SBP17"},"geometry":{"type":"Point","coordinates":[78.1932,12.44315]}},{"type":"Feature","properties":{"name":"Goundankulam eri","kind":"tank","block":"Bargur","taluk":"Bargur","village":"Marudepalli","department":"WRD","waterspreadHa":9.0,"shedId":"SBP05"},"geometry":{"type":"Point","coordinates":[78.27766,12.51705]}},{"type":"Feature","properties":{"name":"Dasankuttai","kind":"tank","block":"Krishnagiri","taluk":"Krishnagiri","village":"Kondapalli","department":"WRD","waterspreadHa":8.9,"shedId":"SBP16"},"geometry":{"type":"Point","coordinates":[78.16734,12.55065]}},{"type":"Feature","properties":{"name":"Dhoddur eri (Marandahalli eri)","kind":"tank","block":"Shoolagiri","taluk":"Shoolagiri","village":"Marandapalli","department":"WRD","waterspreadHa":8.6,"shedId":"SBP02"},"geometry":{"type":"Point","coordinates":[78.02807,12.6853]}},{"type":"Feature","properties":{"name":"Puliyur Jamberi Tank","kind":"tank","block":"Kaveripattinam","taluk":"Pochampalli","village":"Kottappatti","department":"WRD","waterspreadHa":8.6,"shedId":"SBP17"},"geometry":{"type":"Point","coordinates":[78.32022,12.28545]}},{"type":"Feature","properties":{"name":"Sevaganapalli eri","kind":"tank","block":"Hosur","taluk":"Hosur","village":"Sevaganapalli","department":"WRD","waterspreadHa":8.4,"shedId":"SBP16"},"geometry":{"type":"Point","coordinates":[77.81667,12.84335]}},{"type":"Feature","properties":{"name":"Sundarapalli eri","kind":"tank","block":"Bargur","taluk":"Bargur","village":"Sundarapalli","department":"WRD","waterspreadHa":8.4,"shedId":"SBP05"},"geometry":{"type":"Point","coordinates":[78.26813,12.54275]}},{"type":"Feature","properties":{"name":"Sabarathampalli eri","kind":"tank","block":"Krishnagiri","taluk":"Krishnagiri","village":"Pethathalapalli","department":"WRD","waterspreadHa":8.0,"shedId":"SBP16"},"geometry":{"type":"Point","coordinates":[78.19969,12.5284]}},{"type":"Feature","properties":{"name":"Kallipalli tank","kind":"tank","block":"Kelamangalam","taluk":"Denkanikottai","village":"Rayakottai","department":"WRD","waterspreadHa":7.8,"shedId":"SBP16"},"geometry":{"type":"Point","coordinates":[77.97556,12.5391]}},{"type":"Feature","properties":{"name":"Sulthan eri","kind":"tank","block":"Berigai","taluk":"Shoolagiri","village":"Berigai","department":"WRD","waterspreadHa":7.7,"shedId":"SBP02"},"geometry":{"type":"Point","coordinates":[77.97931,12.80045]}},{"type":"Feature","properties":{"name":"Dasappan kuttai","kind":"tank","block":"Uthanapalli","taluk":"Shoolagiri","village":"Linganampatti","department":"WRD","waterspreadHa":7.4,"shedId":"SBP16"},"geometry":{"type":"Point","coordinates":[77.94423,12.636]}},{"type":"Feature","properties":{"name":"Alasapalli eri","kind":"tank","block":"Hosur","taluk":"Hosur","village":"Batavmapalli","department":"WRD","waterspreadHa":7.1,"shedId":"SBP16"},"geometry":{"type":"Point","coordinates":[77.91028,12.8537]}},{"type":"Feature","properties":{"name":"Kottappatti Tank","kind":"tank","block":"Kaveripattinam","taluk":"Pochampalli","village":"Kottappatti","department":"WRD","waterspreadHa":7.0,"shedId":"SBP17"},"geometry":{"type":"Point","coordinates":[78.34727,12.2732]}},{"type":"Feature","properties":{"name":"Mallegoundan eri(Mulgoundan eri)","kind":"tank","block":"shoolagiri","taluk":"Shoolagiri","village":"Doripalli","department":"WRD","waterspreadHa":7.0,"shedId":"SBP02"},"geometry":{"type":"Point","coordinates":[77.97319,12.7146]}},{"type":"Feature","properties":{"name":"Thummanapalli eri","kind":"tank","block":"Hosur","taluk":"Hosur","village":"Bagalur","department":"WRD","waterspreadHa":7.0,"shedId":"SBP16"},"geometry":{"type":"Point","coordinates":[77.85955,12.83635]}},{"type":"Feature","properties":{"name":"Gollapalli peria eri","kind":"tank","block":"Berigai","taluk":"Shoolagiri","village":"Collapalli","department":"WRD","waterspreadHa":6.7,"shedId":"SBP03"},"geometry":{"type":"Point","coordinates":[78.01563,12.82505]}},{"type":"Feature","properties":{"name":"Mugalapalli eri","kind":"tank","block":"Hosur","taluk":"Hosur","village":"Bagalur","department":"WRD","waterspreadHa":6.7,"shedId":"SBP16"},"geometry":{"type":"Point","coordinates":[77.85338,12.82325]}},{"type":"Feature","properties":{"name":"Nallaganakothapalli eri (Nammakanda eri)","kind":"tank","block":"shoolagiri","taluk":"Shoolagiri","village":"Nallaganagothapalli","department":"WRD","waterspreadHa":6.4,"shedId":"SBP02"},"geometry":{"type":"Point","coordinates":[77.97988,12.66765]}},{"type":"Feature","properties":{"name":"Eluvapalli eri","kind":"tank","block":"Berigai","taluk":"Shoolagiri","village":"Eluvapalli","department":"WRD","waterspreadHa":6.3,"shedId":"SBP02"},"geometry":{"type":"Point","coordinates":[77.97645,12.81915]}},{"type":"Feature","properties":{"name":"Pappanan tank","kind":"tank","block":"Krishnagiri","taluk":"Krishnagiri","village":"kundarapalli","department":"WRD","waterspreadHa":6.2,"shedId":"SBP16"},"geometry":{"type":"Point","coordinates":[78.1861,12.56815]}},{"type":"Feature","properties":{"name":"Pee Arr","kind":"tank","block":"Mathur","taluk":"Uthangarai","village":"Singarapettai","department":"WRD","waterspreadHa":6.2,"shedId":"SBP05"},"geometry":{"type":"Point","coordinates":[78.4066,12.4003]}},{"type":"Feature","properties":{"name":"Pudhu eri","kind":"tank","block":"Hosur","taluk":"Hosur","village":"Kothagondapalli","department":"WRD","waterspreadHa":6.2,"shedId":"SBP01"},"geometry":{"type":"Point","coordinates":[77.7988,12.7542]}},{"type":"Feature","properties":{"name":"Vanamangalam eri","kind":"tank","block":"Berigai","taluk":"Shoolagiri","village":"Kattinaicken doddi","department":"WRD","waterspreadHa":6.2,"shedId":"SBP02"},"geometry":{"type":"Point","coordinates":[77.96854,12.82225]}},{"type":"Feature","properties":{"name":"Dasabandon eri","kind":"tank","block":"Hosur","taluk":"Hosur","village":"Kalasthipuram","department":"WRD","waterspreadHa":6.1,"shedId":"SBP16"},"geometry":{"type":"Point","coordinates":[77.8527,12.79115]}},{"type":"Feature","properties":{"name":"Devar eri","kind":"tank","block":"Veppanapalli","taluk":"Krishnagiri","village":"Thammandapalli","department":"WRD","waterspreadHa":6.0,"shedId":"SBP03"},"geometry":{"type":"Point","coordinates":[78.15716,12.7334]}},{"type":"Feature","properties":{"name":"Viruppampatti Tank","kind":"tank","block":"Bargur","taluk":"Pochampalli","village":"Thadampatti","department":"WRD","waterspreadHa":6.0,"shedId":"SBP17"},"geometry":{"type":"Point","coordinates":[78.37027,12.3005]}},{"type":"Feature","properties":{"name":"Sulaldinna eri","kind":"tank","block":"shoolagiri","taluk":"Shoolagiri","village":"Kalingavaram","department":"WRD","waterspreadHa":5.9,"shedId":"SBP02"},"geometry":{"type":"Point","coordinates":[78.04349,12.69705]}},{"type":"Feature","properties":{"name":"Rangappanaickan Tank","kind":"tank","block":"Bargur","taluk":"Krishnagiri","village":"Chinnamattarapalli","department":"WRD","waterspreadHa":5.8,"shedId":"SBP05"},"geometry":{"type":"Point","coordinates":[78.31477,12.6124]}},{"type":"Feature","properties":{"name":"Samanapalli chinna eri","kind":"tank","block":"shoolagiri","taluk":"Shoolagiri","village":"Samanapalli","department":"WRD","waterspreadHa":5.7,"shedId":"SBP16"},"geometry":{"type":"Point","coordinates":[77.9718,12.6233]}},{"type":"Feature","properties":{"name":"Sonanagoundan eri","kind":"tank","block":"Hosur","taluk":"Hosur","village":"Thatakanapalli","department":"WRD","waterspreadHa":5.7,"shedId":"SBP16"},"geometry":{"type":"Point","coordinates":[77.88176,12.7685]}},{"type":"Feature","properties":{"name":"Kottaiyur Eri","kind":"tank","block":"Kaveripattinam","taluk":"Krishnagiri","village":"Janapanahalli","department":"WRD","waterspreadHa":5.5,"shedId":"SBP17"},"geometry":{"type":"Point","coordinates":[78.20655,12.37765]}},{"type":"Feature","properties":{"name":"Onnammal Tank","kind":"tank","block":"Thally","taluk":"Denkanikottai","village":"Sarandapalli","department":"WRD","waterspreadHa":5.5,"shedId":"SB115"},"geometry":{"type":"Point","coordinates":[77.70439,12.57535]}},{"type":"Feature","properties":{"name":"Suligunte eri","kind":"tank","block":"Berigai","taluk":"Shoolagiri","village":"Sulagunda","department":"WRD","waterspreadHa":5.5,"shedId":"SBP02"},"geometry":{"type":"Point","coordinates":[77.99055,12.80635]}},{"type":"Feature","properties":{"name":"Govinda Goundan Tank","kind":"tank","block":"Shoolagiri","taluk":"Hosur","village":"Govindhagoundanur","department":"WRD","waterspreadHa":5.4,"shedId":"SBP16"},"geometry":{"type":"Point","coordinates":[78.09373,12.5849]}},{"type":"Feature","properties":{"name":"Thimmasandiram eri","kind":"tank","block":"shoolagiri","taluk":"Shoolagiri","village":"Akkondapalli","department":"WRD","waterspreadHa":5.4,"shedId":"SBP02"},"geometry":{"type":"Point","coordinates":[77.98951,12.729]}},{"type":"Feature","properties":{"name":"Muniyappan kuttai tank","kind":"tank","block":"Bargur","taluk":"Bargur","village":"Sundarapalli","department":"WRD","waterspreadHa":5.3,"shedId":"SBP17"},"geometry":{"type":"Point","coordinates":[78.25101,12.5519]}},{"type":"Feature","properties":{"name":"Thambalappan eri","kind":"tank","block":"Bargur","taluk":"Bargur","village":"Boosinayanapalli","department":"WRD","waterspreadHa":5.2,"shedId":"SBP05"},"geometry":{"type":"Point","coordinates":[78.39324,12.48175]}},{"type":"Feature","properties":{"name":"Alappatti tank","kind":"tank","block":"Krishnagiri","taluk":"Krishnagiri","village":"Allapatti","department":"WRD","waterspreadHa":5.1,"shedId":"SBP16"},"geometry":{"type":"Point","coordinates":[78.09458,12.4906]}},{"type":"Feature","properties":{"name":"Sokkadi Tank","kind":"tank","block":"Krishnagiri","taluk":"Krishnagiri","village":"Sokkadi","department":"WRD","waterspreadHa":5.1,"shedId":"SBP16"},"geometry":{"type":"Point","coordinates":[78.13557,12.4743]}},{"type":"Feature","properties":{"name":"Naganur eri","kind":"tank","block":"Hosur","taluk":"Hosur","village":"Naganur","department":"WRD","waterspreadHa":4.7,"shedId":"SBP16"},"geometry":{"type":"Point","coordinates":[77.84876,12.8652]}},{"type":"Feature","properties":{"name":"Peddathalapalli eri","kind":"tank","block":"Krishnagiri","taluk":"Krishnagiri","village":"peddathalapalli","department":"WRD","waterspreadHa":4.6,"shedId":"SBP16"},"geometry":{"type":"Point","coordinates":[78.16917,12.52115]}},{"type":"Feature","properties":{"name":"Allpatti Tank","kind":"tank","block":"Krishnagiri","taluk":"Krishnagiri","village":"Allpatti","department":"WRD","waterspreadHa":4.5,"shedId":"SBP16"},"geometry":{"type":"Point","coordinates":[78.09796,12.47995]}},{"type":"Feature","properties":{"name":"Oddandehalli tank","kind":"tank","block":"Kelamangalam","taluk":"Denkanikottai","village":"Rayakottai","department":"WRD","waterspreadHa":4.5,"shedId":"SBP04"},"geometry":{"type":"Point","coordinates":[78.02422,12.48735]}},{"type":"Feature","properties":{"name":"Siddhaya Goundan Tank","kind":"tank","block":"Thally","taluk":"Denkanikottai","village":"Thoddappanur","department":"WRD","waterspreadHa":4.5,"shedId":"SB115"},"geometry":{"type":"Point","coordinates":[77.67639,12.5936]}},{"type":"Feature","properties":{"name":"Malaiyandahalli Tank","kind":"tank","block":"Kaveripattinam","taluk":"Krishnagiri","village":"Malaiyandahalli","department":"WRD","waterspreadHa":4.2,"shedId":"SBP17"},"geometry":{"type":"Point","coordinates":[78.23759,12.4375]}},{"type":"Feature","properties":{"name":"Sippulangatham eri","kind":"tank","block":"Bargur","taluk":"Bargur","village":"Achamangalam","department":"WRD","waterspreadHa":4.1,"shedId":"SBP05"},"geometry":{"type":"Point","coordinates":[78.32648,12.51715]}},{"type":"Feature","properties":{"name":"Chinnakotthur eri","kind":"tank","block":"Veppanapalli","taluk":"Krishnagiri","village":"chinnakothur","department":"WRD","waterspreadHa":3.9,"shedId":"SBP03"},"geometry":{"type":"Point","coordinates":[78.13035,12.74805]}},{"type":"Feature","properties":{"name":"Errahalli Tank","kind":"tank","block":"Kaveripattinam","taluk":"Krishnagiri","village":"Errahalli","department":"WRD","waterspreadHa":3.9,"shedId":"SBP17"},"geometry":{"type":"Point","coordinates":[78.21076,12.38275]}},{"type":"Feature","properties":{"name":"Kuppamma Cheruvu Tank","kind":"tank","block":"Shoolagiri","taluk":"Hosur","village":"Gulu","department":"WRD","waterspreadHa":3.8,"shedId":"SBP03"},"geometry":{"type":"Point","coordinates":[78.02683,12.8378]}},{"type":"Feature","properties":{"name":"Malakkathimmanahalli eri","kind":"tank","block":"Bargur","taluk":"Bargur","village":"Panithalai","department":"WRD","waterspreadHa":3.8,"shedId":"SBP03"},"geometry":{"type":"Point","coordinates":[78.1903,12.6605]}},{"type":"Feature","properties":{"name":"Nagamanickam tank","kind":"tank","block":"Hosur","taluk":"Hosur","village":"Muthali","department":"WRD","waterspreadHa":3.8,"shedId":"SBP16"},"geometry":{"type":"Point","coordinates":[77.89893,12.75285]}},{"type":"Feature","properties":{"name":"Ellukuttai","kind":"tank","block":"Kaveripattinam","taluk":"Krishnagiri","village":"Ellukuttai","department":"WRD","waterspreadHa":3.7,"shedId":"SBP17"},"geometry":{"type":"Point","coordinates":[78.21115,12.4257]}},{"type":"Feature","properties":{"name":"Giddanahalli Eri","kind":"tank","block":"Karimangalam","taluk":"Karimangalam","village":"Kumbarahalli","department":"TNRD","waterspreadHa":3.6,"shedId":"SBP17"},"geometry":{"type":"Point","coordinates":[78.2265,12.34735]}},{"type":"Feature","properties":{"name":"Masthihalla Tank","kind":"tank","block":"Thally","taluk":"Denkanikottai","village":"Belalam","department":"WRD","waterspreadHa":3.6,"shedId":"SB115"},"geometry":{"type":"Point","coordinates":[77.61124,12.5776]}},{"type":"Feature","properties":{"name":"Nakkalpatti (Modikuppam) eri","kind":"tank","block":"Bargur","taluk":"Bargur","village":"Nakkalpatti","department":"WRD","waterspreadHa":3.6,"shedId":"SBP05"},"geometry":{"type":"Point","coordinates":[78.29406,12.4708]}},{"type":"Feature","properties":{"name":"Chinnagoundan Eri","kind":"tank","block":"Kaveripattinam","taluk":"Krishnagiri","village":"Sundekuppam","department":"WRD","waterspreadHa":3.5,"shedId":"SBP17"},"geometry":{"type":"Point","coordinates":[78.20686,12.46025]}},{"type":"Feature","properties":{"name":"Lingapuram tank","kind":"tank","block":"Hosur","taluk":"Hosur","village":"Bagalur","department":"WRD","waterspreadHa":3.5,"shedId":"SBP16"},"geometry":{"type":"Point","coordinates":[77.8421,12.81165]}},{"type":"Feature","properties":{"name":"Oblesampalli tank","kind":"tank","block":"Krishnagiri","taluk":"Krishnagiri","village":"Kondapalli","department":"WRD","waterspreadHa":3.5,"shedId":"SBP16"},"geometry":{"type":"Point","coordinates":[78.17099,12.54055]}},{"type":"Feature","properties":{"name":"Barathangithalar small tank","kind":"tank","block":"Kelamangalam","taluk":"Denkanikottai","village":"Nallur","department":"WRD","waterspreadHa":3.4,"shedId":"SBP16"},"geometry":{"type":"Point","coordinates":[78.02182,12.5354]}},{"type":"Feature","properties":{"name":"Bellegoundan eri","kind":"tank","block":"shoolagiri","taluk":"Shoolagiri","village":"Bellatti","department":"WRD","waterspreadHa":3.4,"shedId":"SBP02"},"geometry":{"type":"Point","coordinates":[77.99761,12.647]}},{"type":"Feature","properties":{"name":"Naganaickan eri","kind":"tank","block":"Hosur","taluk":"Hosur","village":"Muthali","department":"WRD","waterspreadHa":3.4,"shedId":"SBP16"},"geometry":{"type":"Point","coordinates":[77.89511,12.7596]}},{"type":"Feature","properties":{"name":"Nallur tank","kind":"tank","block":"Kelamangalam","taluk":"Denkanikottai","village":"Nallur","department":"WRD","waterspreadHa":3.2,"shedId":"SBP16"},"geometry":{"type":"Point","coordinates":[78.01417,12.5358]}},{"type":"Feature","properties":{"name":"Ramapuram eri","kind":"tank","block":"Berigai","taluk":"Shoolagiri","village":"Nerigam","department":"WRD","waterspreadHa":3.2,"shedId":"SBP03"},"geometry":{"type":"Point","coordinates":[78.0399,12.8231]}},{"type":"Feature","properties":{"name":"Pattalamman tank","kind":"tank","block":"Hosur","taluk":"Hosur","village":"Bagalur","department":"WRD","waterspreadHa":3.0,"shedId":"SBP16"},"geometry":{"type":"Point","coordinates":[77.84944,12.8206]}},{"type":"Feature","properties":{"name":"Srinivasapuram tank","kind":"tank","block":"Bargur","taluk":"Bargur","village":"Thondankothapalli","department":"WRD","waterspreadHa":3.0,"shedId":"SBP05"},"geometry":{"type":"Point","coordinates":[78.32429,12.4672]}},{"type":"Feature","properties":{"name":"Periya eri","kind":"tank","block":"Hosur","taluk":"Hosur","village":"Bagalur","department":"WRD","waterspreadHa":2.8,"shedId":"SBP16"},"geometry":{"type":"Point","coordinates":[77.86597,12.8254]}},{"type":"Feature","properties":{"name":"THattanapalli eri","kind":"tank","block":"Berigai","taluk":"Shoolagiri","village":"Thattanapalli","department":"WRD","waterspreadHa":2.8,"shedId":"SBP03"},"geometry":{"type":"Point","coordinates":[78.03467,12.7947]}},{"type":"Feature","properties":{"name":"Modikuppam kuppinaikan eri","kind":"tank","block":"Bargur","taluk":"Bargur","village":"modikuppam","department":"WRD","waterspreadHa":2.7,"shedId":"SBP05"},"geometry":{"type":"Point","coordinates":[78.29512,12.46825]}},{"type":"Feature","properties":{"name":"Chikkagoundan tank","kind":"tank","block":"Kelamangalam","taluk":"Denkanikottai","village":"Nallur","department":"WRD","waterspreadHa":2.5,"shedId":"SBP16"},"geometry":{"type":"Point","coordinates":[78.0084,12.54415]}},{"type":"Feature","properties":{"name":"Gangeleri","kind":"tank","block":"Krishnagiri","taluk":"Krishnagiri","village":"Gangaleri","department":"WRD","waterspreadHa":2.5,"shedId":"SBP16"},"geometry":{"type":"Point","coordinates":[78.16142,12.51295]}},{"type":"Feature","properties":{"name":"Oddankutai","kind":"tank","block":"Kaveripattinam","taluk":"Krishnagiri","village":"Errahalli","department":"WRD","waterspreadHa":2.5,"shedId":"SBP17"},"geometry":{"type":"Point","coordinates":[78.22457,12.39445]}},{"type":"Feature","properties":{"name":"Vathikuttai eri","kind":"tank","block":"Bargur","taluk":"Bargur","village":"Kondapanayakkanpatti","department":"WRD","waterspreadHa":2.5,"shedId":"SBP05"},"geometry":{"type":"Point","coordinates":[78.36417,12.4859]}},{"type":"Feature","properties":{"name":"Athimugam Thalavai Cheruvu Tank","kind":"tank","block":"Shoolagiri","taluk":"Hosur","village":"Athimugam","department":"WRD","waterspreadHa":2.4,"shedId":"SBP02"},"geometry":{"type":"Point","coordinates":[78.02457,12.74705]}},{"type":"Feature","properties":{"name":"Dulichetty Tank","kind":"tank","block":"Kelamangalam","department":"TNeGA","waterspreadHa":2.4,"shedId":"SBP16"},"geometry":{"type":"Point","coordinates":[78.01798,12.5246]}},{"type":"Feature","properties":{"name":"Kundarapalli eri","kind":"tank","block":"Krishnagiri","taluk":"Krishnagiri","village":"kundarapalli","department":"WRD","waterspreadHa":2.4,"shedId":"SBP16"},"geometry":{"type":"Point","coordinates":[78.18603,12.5629]}},{"type":"Feature","properties":{"name":"Malligarjuna Durgam Tank","kind":"tank","block":"Thally","department":"TNeGA","waterspreadHa":2.3,"shedId":"SB117"},"geometry":{"type":"Point","coordinates":[77.75698,12.45825]}},{"type":"Feature","properties":{"name":"Manikanoor Eri","kind":"tank","block":"Kaveripattinam","taluk":"Krishnagiri","village":"Jagadhap","department":"WRD","waterspreadHa":2.3,"shedId":"SBP17"},"geometry":{"type":"Point","coordinates":[78.206,12.38075]}},{"type":"Feature","properties":{"name":"Lakshmigoundan kuttai","kind":"tank","block":"Kelamangalam","taluk":"Denkanikottai","village":"Balinayakandahalli","department":"WRD","waterspreadHa":2.2,"shedId":"SBP16"},"geometry":{"type":"Point","coordinates":[78.01166,12.55575]}},{"type":"Feature","properties":{"name":"Sakkili tank","kind":"tank","block":"Hosur","taluk":"Hosur","village":"Bagalur","department":"WRD","waterspreadHa":2.2,"shedId":"SBP16"},"geometry":{"type":"Point","coordinates":[77.8491,12.8124]}},{"type":"Feature","properties":{"name":"Veppanapalli tank","kind":"tank","block":"Kelamangalam","taluk":"Denkanikottai","village":"Nallur","department":"WRD","waterspreadHa":2.1,"shedId":"SBP16"},"geometry":{"type":"Point","coordinates":[78.00109,12.54045]}},{"type":"Feature","properties":{"name":"Kalingavaram eri","kind":"tank","block":"shoolagiri","taluk":"Shoolagiri","village":"Kalingavaram","department":"WRD","waterspreadHa":2.0,"shedId":"SBP03"},"geometry":{"type":"Point","coordinates":[78.0816,12.69255]}},{"type":"Feature","properties":{"name":"Karukanahalli tank surplus","kind":"tank","block":"Kelamangalam","taluk":"Denkanikottai","village":"Karukanahalli","department":"WRD","waterspreadHa":2.0,"shedId":"SBP16"},"geometry":{"type":"Point","coordinates":[77.98699,12.56025]}},{"type":"Feature","properties":{"name":"Mittahalli Tank","kind":"tank","block":"Kaveripattinam","taluk":"Krishnagiri","village":"Mittahalli","department":"WRD","waterspreadHa":2.0,"shedId":"SBP17"},"geometry":{"type":"Point","coordinates":[78.19759,12.41995]}},{"type":"Feature","properties":{"name":"Dulichetty Tank","kind":"tank","block":"Kelamangalam","taluk":"Denkanikottai","village":"Chinnegoundanhalli","department":"WRD","waterspreadHa":1.9,"shedId":"SBP16"},"geometry":{"type":"Point","coordinates":[78.0168,12.5259]}},{"type":"Feature","properties":{"name":"Thudukkana kuttai","kind":"tank","block":"Krishnagiri","taluk":"Krishnagiri","village":"Pethalapalli","department":"WRD","waterspreadHa":1.9,"shedId":"SBP16"},"geometry":{"type":"Point","coordinates":[78.19425,12.5211]}},{"type":"Feature","properties":{"name":"Kalleri Tank","kind":"tank","block":"Kaveripattinam","taluk":"Krishnagiri","village":"Errahalli","department":"WRD","waterspreadHa":1.8,"shedId":"SBP17"},"geometry":{"type":"Point","coordinates":[78.207,12.3994]}},{"type":"Feature","properties":{"name":"Nariyanapalli eri","kind":"tank","block":"Bargur","taluk":"Bargur","village":"Nariyanpalli","department":"WRD","waterspreadHa":1.8,"shedId":"SBP16"},"geometry":{"type":"Point","coordinates":[78.1927,12.633]}},{"type":"Feature","properties":{"name":"Oddrapalayam eri (Oddanapalayam)","kind":"tank","block":"Shoolagiri","taluk":"Shoolagiri","village":"Kanalatti","department":"WRD","waterspreadHa":1.8,"shedId":"SBP16"},"geometry":{"type":"Point","coordinates":[77.95035,12.6781]}},{"type":"Feature","properties":{"name":"Abunaikan eri","kind":"tank","block":"Bargur","taluk":"Bargur","village":"Boosinayanapalli","department":"WRD","waterspreadHa":1.7,"shedId":"SBP05"},"geometry":{"type":"Point","coordinates":[78.3992,12.47555]}},{"type":"Feature","properties":{"name":"Ajjayan eri","kind":"tank","block":"Hosur","taluk":"Hosur","village":"Muthali","department":"WRD","waterspreadHa":1.7,"shedId":"SBP16"},"geometry":{"type":"Point","coordinates":[77.90344,12.76805]}},{"type":"Feature","properties":{"name":"Marigoundan eri","kind":"tank","block":"Veppanapalli","taluk":"Krishnagiri","village":"Nachikuppam","department":"WRD","waterspreadHa":1.7,"shedId":"SBP03"},"geometry":{"type":"Point","coordinates":[78.1595,12.7056]}},{"type":"Feature","properties":{"name":"Nadu Eri","kind":"tank","block":"Kaveripattinam","department":"TNeGA","waterspreadHa":1.6,"shedId":"SBP17"},"geometry":{"type":"Point","coordinates":[78.21011,12.39585]}},{"type":"Feature","properties":{"name":"Nadu Eri","kind":"tank","block":"Kaveripattinam","taluk":"Krishnagiri","village":"Errahalli","department":"WRD","waterspreadHa":1.6,"shedId":"SBP17"},"geometry":{"type":"Point","coordinates":[78.2091,12.3973]}},{"type":"Feature","properties":{"name":"Oddahalli Tank","kind":"tank","block":"Krishnagiri","taluk":"Krishnagiri","village":"Oddahalli","department":"WRD","waterspreadHa":1.6,"shedId":"SBP16"},"geometry":{"type":"Point","coordinates":[78.11249,12.56585]}},{"type":"Feature","properties":{"name":"Senguttai","kind":"tank","block":"Kaveripattinam","taluk":"Krishnagiri","village":"Errahalli","department":"WRD","waterspreadHa":1.6,"shedId":"SBP17"},"geometry":{"type":"Point","coordinates":[78.21439,12.39965]}},{"type":"Feature","properties":{"name":"Veera Rajan Tank","kind":"tank","block":"Thally","taluk":"Denkanikottai","village":"Dhevaganapalli","department":"WRD","waterspreadHa":1.6,"shedId":"SB115"},"geometry":{"type":"Point","coordinates":[77.70116,12.6193]}},{"type":"Feature","properties":{"name":"Chinnakothur eri","kind":"tank","block":"shoolagiri","taluk":"Shoolagiri","village":"Chinna kothur","department":"WRD","waterspreadHa":1.5,"shedId":"SBP03"},"geometry":{"type":"Point","coordinates":[78.07442,12.68325]}},{"type":"Feature","properties":{"name":"Darthangitaler tank","kind":"tank","block":"Kelamangalam","taluk":"Denkanikottai","village":"Nallur","department":"WRD","waterspreadHa":1.5,"shedId":"SBP16"},"geometry":{"type":"Point","coordinates":[78.01598,12.52815]}},{"type":"Feature","properties":{"name":"Thimmammacherru Tank","kind":"tank","block":"Veppanapalli","taluk":"Krishnagiri","village":"Sigaramaganapalli","department":"WRD","waterspreadHa":1.5,"shedId":"SBP03"},"geometry":{"type":"Point","coordinates":[78.18385,12.73355]}},{"type":"Feature","properties":{"name":"Thimmegoundan eri","kind":"tank","block":"Berigai","taluk":"Shoolagiri","village":"Nerigam","department":"WRD","waterspreadHa":1.5,"shedId":"SBP03"},"geometry":{"type":"Point","coordinates":[78.03239,12.8068]}},{"type":"Feature","properties":{"name":"Jogikuluasupalli tank","kind":"tank","block":"Kelamangalam","taluk":"Denkanikottai","village":"Rayakottai","department":"WRD","waterspreadHa":1.4,"shedId":"SB115"},"geometry":{"type":"Point","coordinates":[78.02666,12.51865]}},{"type":"Feature","properties":{"name":"Pappan Eri","kind":"tank","block":"Kaveripattinam","taluk":"Krishnagiri","village":"Janapanahalli","department":"WRD","waterspreadHa":1.4,"shedId":"SBP17"},"geometry":{"type":"Point","coordinates":[78.20602,12.37315]}},{"type":"Feature","properties":{"name":"Alamarathu Kuttai Tank","kind":"tank","block":"Kaveripattinam","taluk":"Krishnagiri","village":"Paiyur","department":"WRD","waterspreadHa":1.3,"shedId":"SBP17"},"geometry":{"type":"Point","coordinates":[78.21965,12.3839]}},{"type":"Feature","properties":{"name":"Oddahalli Tank","kind":"tank","block":"Krishnagiri","department":"TNeGA","waterspreadHa":1.3,"shedId":"SBP16"},"geometry":{"type":"Point","coordinates":[78.11368,12.56455]}},{"type":"Feature","properties":{"name":"Varathangi eri","kind":"tank","block":"Uthanapalli","taluk":"Shoolagiri","village":"Mollapatti","department":"WRD","waterspreadHa":1.3,"shedId":"SBP16"},"geometry":{"type":"Point","coordinates":[78.00442,12.55255]}},{"type":"Feature","properties":{"name":"Jawalanaickan Tank","kind":"tank","block":"Thally","taluk":"Denkanikottai","village":"Palayamkottai","department":"WRD","waterspreadHa":1.0,"shedId":"SB115"},"geometry":{"type":"Point","coordinates":[77.70217,12.50755]}},{"type":"Feature","properties":{"name":"Kasinaikanahalli tank","kind":"tank","block":"Kelamangalam","taluk":"Denkanikottai","village":"Karukanahalli","department":"WRD","waterspreadHa":1.0,"shedId":"SBP16"},"geometry":{"type":"Point","coordinates":[77.97216,12.5865]}},{"type":"Feature","properties":{"name":"Kayathu kuttai","kind":"tank","block":"Krishnagiri","taluk":"Krishnagiri","village":"sokkadi","department":"WRD","waterspreadHa":1.0,"shedId":"SBP16"},"geometry":{"type":"Point","coordinates":[78.13905,12.4823]}},{"type":"Feature","properties":{"name":"Marudepalli eri","kind":"tank","block":"Bargur","taluk":"Bargur","village":"Marudepalli","department":"WRD","waterspreadHa":1.0,"shedId":"SBP05"},"geometry":{"type":"Point","coordinates":[78.2824,12.52085]}},{"type":"Feature","properties":{"name":"Oddan kuttai","kind":"tank","block":"Krishnagiri","taluk":"Krishnagiri","village":"Pethapalli","department":"WRD","waterspreadHa":1.0,"shedId":"SBP16"},"geometry":{"type":"Point","coordinates":[78.19413,12.5129]}},{"type":"Feature","properties":{"name":"Mitchukan Kuttai Tank","kind":"tank","block":"Kaveripattinam","taluk":"Krishnagiri","village":"Santhapuram","department":"WRD","waterspreadHa":0.9,"shedId":"SBP17"},"geometry":{"type":"Point","coordinates":[78.22039,12.40395]}},{"type":"Feature","properties":{"name":"Neermulikutai eri","kind":"tank","block":"Krishnagiri","taluk":"Krishnagiri","village":"Belampalli","department":"WRD","waterspreadHa":0.9,"shedId":"SBP16"},"geometry":{"type":"Point","coordinates":[78.08336,12.54995]}},{"type":"Feature","properties":{"name":"Settipalli eri","kind":"tank","block":"Bargur","taluk":"Bargur","village":"Balinayanapalli","department":"WRD","waterspreadHa":0.8,"shedId":"SBP05"},"geometry":{"type":"Point","coordinates":[78.29514,12.52505]}},{"type":"Feature","properties":{"name":"Beemandapalli Tank","kind":"tank","block":"Veppanapalli","taluk":"Krishnagiri","village":"Beemandapalli","department":"WRD","waterspreadHa":0.6,"shedId":"SBP03"},"geometry":{"type":"Point","coordinates":[78.12625,12.6121]}},{"type":"Feature","properties":{"name":"Thammandapalli eri","kind":"tank","block":"Veppanapalli","taluk":"Krishnagiri","village":"Thammandapalli","department":"WRD","waterspreadHa":0.6,"shedId":"SBP03"},"geometry":{"type":"Point","coordinates":[78.1577,12.7443]}},{"type":"Feature","properties":{"name":"Kuppachiparai eri","kind":"tank","block":"Veppanapalli","taluk":"Krishnagiri","village":"Beemandapalli","department":"WRD","waterspreadHa":0.5,"shedId":"SBP03"},"geometry":{"type":"Point","coordinates":[78.11625,12.61305]}},{"type":"Feature","properties":{"name":"Paiyur Eri","kind":"tank","block":"Kaveripattinam","taluk":"Krishnagiri","village":"Paiyur","department":"WRD","waterspreadHa":0.5,"shedId":"SBP17"},"geometry":{"type":"Point","coordinates":[78.20883,12.37445]}},{"type":"Feature","properties":{"name":"Thadikkal Tank","kind":"tank","block":"Kelamangalam","taluk":"Denkanikottai","village":"Thadikal","department":"WRD","waterspreadHa":0.5,"shedId":"SB115"},"geometry":{"type":"Point","coordinates":[77.86912,12.47545]}},{"type":"Feature","properties":{"name":"Byrapalli eri","kind":"tank","block":"Krishnagiri","taluk":"Krishnagiri","village":"Pethalapalli","department":"WRD","waterspreadHa":0.4,"shedId":"SBP16"},"geometry":{"type":"Point","coordinates":[78.18894,12.50535]}},{"type":"Feature","properties":{"name":"Panjalam eri","kind":"tank","block":"Krishnagiri","taluk":"Krishnagiri","village":"Pathathapalli","department":"WRD","waterspreadHa":0.4,"shedId":"SBP16"},"geometry":{"type":"Point","coordinates":[78.19432,12.51765]}},{"type":"Feature","properties":{"name":"Sethamarapalli eri","kind":"tank","block":"Krishnagiri","taluk":"Krishnagiri","village":"Belampalli","department":"WRD","waterspreadHa":0.3,"shedId":"SBP16"},"geometry":{"type":"Point","coordinates":[78.09855,12.55985]}},{"type":"Feature","properties":{"name":"Kallikuttai","kind":"tank","block":"Krishnagiri","taluk":"Krishnagiri","village":"sokkadi","department":"WRD","waterspreadHa":0.2,"shedId":"SBP16"},"geometry":{"type":"Point","coordinates":[78.1432,12.48045]}},{"type":"Feature","properties":{"name":"Pedda Cheruvu Tank","kind":"tank","block":"Thally","taluk":"Denkanikottai","village":"Andhvanapalli","department":"WRD","waterspreadHa":0.2,"shedId":"SB117"},"geometry":{"type":"Point","coordinates":[77.7628,12.46175]}},{"type":"Feature","properties":{"name":"Kone goundanur eri","kind":"tank","block":"Veppanapalli","taluk":"Krishnagiri","village":"Veppanahalli","department":"WRD","waterspreadHa":0.1,"shedId":"SBP03"},"geometry":{"type":"Point","coordinates":[78.20065,12.70115]}},{"type":"Feature","properties":{"name":"Sadala eri","kind":"tank","block":"Veppanapalli","taluk":"Krishnagiri","village":"Veppanahalli","department":"WRD","waterspreadHa":0.1,"shedId":"SBP03"},"geometry":{"type":"Point","coordinates":[78.20673,12.70915]}}]}