{"nvdm":"1.0","dataset":"basins/water-supply","scope":{"kind":"basin","id":"krishnagiri-rivers"},"provenance":{"sources":[{"title":"Hosur City Municipal Corporation: water supply details dated 17.06.2026 and UGSS progress as on 17.06.2026 (tnurbantree.tn.gov.in/hosur)","publisher":"Hosur City Municipal Corporation, Commissionerate of Municipal Administration, Government of Tamil Nadu","license":"government page, cited with attribution","closed":true,"as_of":"2026-06-17","role":"input","url":"https://www.tnurbantree.tn.gov.in/hosur/sewerage/"},{"title":"Krishnagiri Municipality: sewerage page (tnurbantree.tn.gov.in/krishnagiri), read 2026-10-08","publisher":"Krishnagiri Municipality, Commissionerate of Municipal Administration, Government of Tamil Nadu","license":"government page, cited with attribution","closed":true,"as_of":"2026-10-08","role":"input","url":"https://www.tnurbantree.tn.gov.in/krishnagiri/sewerage/"},{"id":"osm-overpass","title":"OpenStreetMap (Overpass API extract: named river courses)","publisher":"OpenStreetMap contributors","license":"ODbL 1.0","role":"input"}],"method":"derived","produced_at":"2026-10-09","produced_by":"scripts/build_krishnagiri_rivers_basin.py","internal_inputs":["public/data/basins/krishnagiri-rivers/sub-hydrosheds.geojson"],"note":"Krishnagiri district's rivers, groundwater and industry (scope krishnagiri-rivers; the district's own scope id is tn-krishnagiri). The district boundary is the frame and TN WRD's sub-basins, clipped to it, are the catchments (shedId): the Thenpennai's to the east, the Cauvery's Chinnar and Dodda Halla to the south-west. The industry register holds only units TNGIS matched to a land parcel, so every count is a lower bound; sector comes from the reviewed TNPCB type-code lookup pipeline-inputs/basins/krishnagiri-rivers/tnpcb-type-sectors.json."},"type":"FeatureCollection","features":[{"type":"Feature","properties":{"name":"Hosur City Municipal Corporation: water supply and sewerage","kind":"ulb-record","asOn":"2026-06-17","population":379720,"wards":45,"areaSqKm":72.41,"supplyMld":"30.34 MLD: Hogenakkal scheme 10.09, local borewells 20.25","supplyLpcd":"80 LPCD now against 135 LPCD (51.26 MLD) required for the sewerage scheme","houseServiceConnections":"42,758 (43% of 95,792 property-tax assessments)","overheadTanks":"103 overhead tanks, 20 sumps, 161 public fountains","boreWells2025_26":"26 of 27 bore wells erected under the 15th Finance Commission grant (Rs.6.49 crore) and 16 under the general fund (Rs.1.60 crore); 2.25 MLD sourced through them","sewageTreatment":"No operating sewage treatment plant. Underground sewerage scheme to Hosur City Municipal Corporation: Rs.582.54 crore sanctioned (RAS G.O.Ms.No. 143 / MA&WS (MA2) / dt: 08.11.2023 for Rs.582.54 crore); Rs.135.81 crore spent (23.31%) as on 2026-06-17; sewage generated 24.727 MLD now, 43.117 MLD by 2054; Package I (zones 1 to 5), collection network 35%; Package II (zones 6 to 11), collection network 35%; Package III, the two treatment plants 63%. Second plant: Hosur Corporation STP, 20.13 MLD (under construction) at ''Ramanaikken' (trade press, as printed); no revenue village of that name in the TNGIS register, so no point is drawn'; progress: SBR basin 1 and 2: walkway concrete under progress. CCT: second-lift wall concrete completed.","locationNote":"Hosur city (OSM node 983364958)","dataUrl":"https://www.tnurbantree.tn.gov.in/hosur/wp-content/uploads/sites/146/2026/06/ws_170626.pdf","shedId":"SBP01"},"geometry":{"type":"Point","coordinates":[77.83095,12.73288]}},{"type":"Feature","properties":{"name":"Krishnagiri Municipality: sewerage","kind":"ulb-record","asOn":"2026-10-08","sewerageAsPrinted":"There is no under ground drainage system in Krishnagiri Municipality.","septicTanks":20125,"lowCostSanitationUnits":498,"dryLatrines":220,"publicConveniences":"21 (84 seats)","populationWithoutSafeDisposal":"about 25%; 75% on septic tanks","registerStp":"On the TNPCB register as 'Sewage treatment plant of Krishnagiri Municipality' (Red, Large, consent year 2017, Agasipalli); the municipality's sewerage page says the town has no underground drainage, and a sewer line along NH-48 is being laid (NHAI permission request). Whether the plant operates is not stated by any page read.","locationNote":"Krishnagiri town (OSM place node)","dataUrl":"https://www.tnurbantree.tn.gov.in/krishnagiri/sewerage/","shedId":"SBP17"},"geometry":{"type":"Point","coordinates":[78.22065,12.51888]}}]}