{"nvdm":"1.0","dataset":"basins/drainage","scope":{"kind":"basin","id":"mumbai-rivers"},"provenance":{"sources":[{"id":"osm-overpass","title":"OpenStreetMap (Overpass API extracts: rivers, water bodies, drains, industrial landuse, corporation boundaries)","publisher":"OpenStreetMap contributors","license":"ODbL 1.0","role":"input"},{"id":"fabdem-dem","title":"FABDEM v1-2 30 m bare-earth DEM","publisher":"University of Bristol (Hawker et al.), via GEE sat-io","license":"CC BY-NC-SA 4.0 (non-commercial AND share-alike); derived from Copernicus GLO-30, so the mandatory Copernicus WorldDEM-30 attribution to DLR and Airbus passes down (both notices reproduced in DATA-LICENSE.md)","role":"input"}],"method":"derived","produced_at":"2026-09-06","produced_by":"scripts/build_mumbai_rivers_basin.py","internal_inputs":["public/geojson/mumbai-drainage.geojson","public/data/basins/mumbai-rivers/sub-hydrosheds.geojson"],"note":"Mumbai's rivers and lakes basin atlas (scope mumbai-rivers; the city's own scope id 'mumbai' is the MMR region). Catchment joins (shedId) come from sub-hydrosheds.geojson, whose city half is the reviewed pipeline input pipeline-inputs/mumbai-river-catchments-fabdem.geojson (FABDEM + WhiteboxTools); CPCB stretch and station figures are read from the reviewed national table pipeline-inputs/atlas/prs/cpcb-2025.json. FABDEM lineage makes the catchment-joined families CC BY-NC-SA (non-commercial) encumbered."},"type":"FeatureCollection","features":[{"type":"Feature","properties":{"waterway":"drain","length_km":0.8,"osm_id":628897732,"shedId":"DAHISAR","source":"OpenStreetMap","year":"2026"},"geometry":{"type":"LineString","coordinates":[[72.908,19.2302],[72.90687,19.22984],[72.90595,19.22948],[72.90562,19.22926],[72.90527,19.2287],[72.9045,19.22827],[72.90379,19.22806],[72.90295,19.22748],[72.90239,19.22703],[72.902,19.22701],[72.90161,19.2267]]}}]}