{"nvdm":"1.0","dataset":"basins/drainage","scope":{"kind":"basin","id":"mumbai-rivers"},"provenance":{"sources":[{"id":"osm-overpass","title":"OpenStreetMap (Overpass API extracts: rivers, water bodies, drains, industrial landuse, corporation boundaries)","publisher":"OpenStreetMap contributors","license":"ODbL 1.0","role":"input"},{"id":"fabdem-dem","title":"FABDEM v1-2 30 m bare-earth DEM","publisher":"University of Bristol (Hawker et al.), via GEE sat-io","license":"CC BY-NC-SA 4.0 (non-commercial AND share-alike); derived from Copernicus GLO-30, so the mandatory Copernicus WorldDEM-30 attribution to DLR and Airbus passes down (both notices reproduced in DATA-LICENSE.md)","role":"input"}],"method":"derived","produced_at":"2026-09-06","produced_by":"scripts/build_mumbai_rivers_basin.py","internal_inputs":["public/geojson/mumbai-drainage.geojson","public/data/basins/mumbai-rivers/sub-hydrosheds.geojson"],"note":"Mumbai's rivers and lakes basin atlas (scope mumbai-rivers; the city's own scope id 'mumbai' is the MMR region). Catchment joins (shedId) come from sub-hydrosheds.geojson, whose city half is the reviewed pipeline input pipeline-inputs/mumbai-river-catchments-fabdem.geojson (FABDEM + WhiteboxTools); CPCB stretch and station figures are read from the reviewed national table pipeline-inputs/atlas/prs/cpcb-2025.json. FABDEM lineage makes the catchment-joined families CC BY-NC-SA (non-commercial) encumbered."},"type":"FeatureCollection","features":[{"type":"Feature","properties":{"waterway":"drain","length_km":1.13,"osm_id":49011971,"shedId":"MITHI","source":"OpenStreetMap","year":"2026"},"geometry":{"type":"LineString","coordinates":[[72.88784,19.1001],[72.88777,19.10008],[72.88755,19.09998],[72.88744,19.09995],[72.88736,19.10002],[72.88727,19.10011],[72.8872,19.10022],[72.88708,19.10023],[72.88694,19.10021],[72.8868,19.10012],[72.88664,19.10007],[72.8865,19.1],[72.88648,19.09988],[72.88644,19.09976],[72.88635,19.09967],[72.88624,19.09968],[72.8861,19.09971],[72.88603,19.09977],[72.88592,19.09976],[72.88585,19.09962],[72.88582,19.09946],[72.88575,19.09927],[72.8857,19.0991],[72.88563,19.09889],[72.88553,19.0988],[72.88543,19.09874],[72.8852,19.09863],[72.88507,19.09857],[72.88477,19.09841],[72.88474,19.09829],[72.88491,19.0981],[72.88497,19.0979],[72.88502,19.09778],[72.88506,19.09764],[72.88506,19.09753],[72.88497,19.09746],[72.88481,19.09743],[72.88468,19.09742],[72.88451,19.09743],[72.88432,19.09747],[72.8842,19.09753],[72.88413,19.09759],[72.88399,19.09757],[72.88384,19.09749],[72.88372,19.09744],[72.88365,19.09732],[72.88367,19.09712],[72.8837,19.09698],[72.88372,19.09682],[72.88366,19.09681],[72.88339,19.09675],[72.88318,19.09669],[72.88303,19.09669],[72.88283,19.0967],[72.88266,19.0967],[72.88252,19.09662],[72.88234,19.09653],[72.88216,19.09649],[72.88202,19.09649],[72.88186,19.09646],[72.88168,19.0964],[72.88139,19.0963],[72.88129,19.09626],[72.88085,19.09605],[72.88065,19.09598]]}},{"type":"Feature","properties":{"waterway":"drain","length_km":2.9,"osm_id":49055889,"shedId":"MITHI","source":"OpenStreetMap","year":"2026"},"geometry":{"type":"LineString","coordinates":[[72.84948,19.07991],[72.84941,19.07968],[72.84923,19.07931],[72.84883,19.07834],[72.84847,19.07746],[72.84791,19.07684],[72.84757,19.07665],[72.84747,19.07625],[72.84789,19.07468],[72.84816,19.07406],[72.84845,19.07376],[72.84933,19.07316],[72.84975,19.07265],[72.85166,19.06893],[72.85233,19.06765],[72.85236,19.06758],[72.85237,19.06757],[72.85308,19.06622],[72.85414,19.06536],[72.85757,19.0595],[72.85759,19.05888],[72.85722,19.05825],[72.8571,19.05731]]}},{"type":"Feature","properties":{"waterway":"drain","length_km":0.09,"osm_id":49055891,"shedId":"MITHI","source":"OpenStreetMap","year":"2026"},"geometry":{"type":"LineString","coordinates":[[72.84691,19.09114],[72.84698,19.0912],[72.84702,19.09132],[72.84698,19.09145],[72.84688,19.09158],[72.84665,19.09176]]}},{"type":"Feature","properties":{"waterway":"drain","length_km":0.58,"osm_id":49682805,"shedId":"MITHI","source":"OpenStreetMap","year":"2026"},"geometry":{"type":"LineString","coordinates":[[72.86328,19.06898],[72.86357,19.06908],[72.86364,19.06921],[72.86376,19.06963],[72.86417,19.06977],[72.86468,19.0702],[72.86592,19.07081],[72.86775,19.0713],[72.86795,19.07124]]}},{"type":"Feature","properties":{"waterway":"drain","length_km":1.31,"osm_id":53344769,"shedId":"MITHI","source":"OpenStreetMap","year":"2026"},"geometry":{"type":"LineString","coordinates":[[72.84375,19.01925],[72.84408,19.0199],[72.84468,19.02104],[72.84511,19.02181],[72.84576,19.02308],[72.84609,19.02368],[72.84688,19.02594],[72.84823,19.03003],[72.84821,19.03014]]}},{"type":"Feature","properties":{"waterway":"drain","length_km":0.45,"osm_id":67070171,"shedId":"MITHI","source":"OpenStreetMap","year":"2026"},"geometry":{"type":"LineString","coordinates":[[72.86835,19.11463],[72.86905,19.11448],[72.86932,19.1142],[72.86957,19.11414],[72.8696,19.11381],[72.86993,19.11362],[72.8697,19.11235],[72.8696,19.112],[72.86959,19.11184],[72.86957,19.11163]]}},{"type":"Feature","properties":{"waterway":"drain","length_km":0.24,"osm_id":204352217,"shedId":"MITHI","source":"OpenStreetMap","year":"2026"},"geometry":{"type":"LineString","coordinates":[[72.8789,19.09991],[72.87697,19.10062],[72.87676,19.10068]]}},{"type":"Feature","properties":{"waterway":"drain","length_km":0.96,"osm_id":219943423,"shedId":"MITHI","source":"OpenStreetMap","year":"2026"},"geometry":{"type":"LineString","coordinates":[[72.86161,19.04566],[72.86193,19.04625],[72.8622,19.04701],[72.86448,19.05043],[72.86489,19.051],[72.86625,19.05304]]}},{"type":"Feature","properties":{"waterway":"drain","length_km":0.39,"osm_id":235500048,"shedId":"MITHI","source":"OpenStreetMap","year":"2026"},"geometry":{"type":"LineString","coordinates":[[72.84232,19.05422],[72.84239,19.05373],[72.84279,19.05269],[72.84293,19.05246],[72.84319,19.05236],[72.84428,19.05276],[72.84447,19.0528],[72.84454,19.0527]]}},{"type":"Feature","properties":{"waterway":"drain","length_km":0.02,"osm_id":235500049,"shedId":"MITHI","source":"OpenStreetMap","year":"2026"},"geometry":{"type":"LineString","coordinates":[[72.84359,19.05527],[72.84363,19.05514]]}},{"type":"Feature","properties":{"waterway":"drain","length_km":0.16,"osm_id":257412667,"shedId":"MITHI","source":"OpenStreetMap","year":"2026"},"geometry":{"type":"LineString","coordinates":[[72.86625,19.05304],[72.86652,19.05351],[72.86664,19.05387],[72.8667,19.05439]]}},{"type":"Feature","properties":{"waterway":"drain","length_km":0.27,"osm_id":260766036,"shedId":"MITHI","source":"OpenStreetMap","year":"2026"},"geometry":{"type":"LineString","coordinates":[[72.86155,19.04378],[72.86134,19.04392],[72.8609,19.04419],[72.86095,19.04426],[72.86101,19.04435],[72.86111,19.04451],[72.86124,19.04472],[72.86127,19.04479],[72.86128,19.04488],[72.86129,19.04499],[72.86129,19.0451],[72.8613,19.04517],[72.86134,19.04526],[72.86139,19.04538],[72.86146,19.04546],[72.86154,19.04556],[72.86161,19.04566]]}},{"type":"Feature","properties":{"waterway":"drain","length_km":0.02,"osm_id":260766037,"shedId":"MITHI","source":"OpenStreetMap","year":"2026"},"geometry":{"type":"LineString","coordinates":[[72.86656,19.05176],[72.86674,19.05165]]}},{"type":"Feature","properties":{"waterway":"drain","length_km":0.09,"osm_id":315613888,"shedId":"MITHI","source":"OpenStreetMap","year":"2026"},"geometry":{"type":"LineString","coordinates":[[72.87676,19.10068],[72.87594,19.10094]]}},{"type":"Feature","properties":{"waterway":"drain","length_km":0.54,"osm_id":315613889,"shedId":"MITHI","source":"OpenStreetMap","year":"2026"},"geometry":{"type":"LineString","coordinates":[[72.87594,19.10094],[72.87334,19.10092],[72.87305,19.10094],[72.87289,19.10103],[72.87277,19.10123],[72.87277,19.10209],[72.87282,19.10292]]}},{"type":"Feature","properties":{"waterway":"drain","length_km":1.61,"osm_id":366912384,"shedId":"MITHI","source":"OpenStreetMap","year":"2026"},"geometry":{"type":"LineString","coordinates":[[72.89874,19.1179],[72.89821,19.11663],[72.89788,19.116],[72.89778,19.11542],[72.89776,19.11454],[72.89763,19.11424],[72.89752,19.11333],[72.89727,19.11123],[72.89692,19.10947],[72.89641,19.10955],[72.89633,19.10937],[72.89624,19.10914],[72.89616,19.109],[72.89607,19.10897],[72.89579,19.10898],[72.89552,19.1088],[72.89536,19.10866],[72.89521,19.10845],[72.8947,19.10836],[72.89449,19.10817],[72.89439,19.10809],[72.89421,19.10803],[72.89395,19.10802],[72.8938,19.10787],[72.8933,19.10765],[72.89325,19.10756],[72.89317,19.10746],[72.89299,19.10747],[72.89255,19.10765],[72.89241,19.10741],[72.8923,19.10702]]}},{"type":"Feature","properties":{"waterway":"drain","length_km":0.25,"osm_id":366912385,"shedId":"MITHI","source":"OpenStreetMap","year":"2026"},"geometry":{"type":"LineString","coordinates":[[72.8911,19.10573],[72.89071,19.10557],[72.89061,19.10542],[72.89059,19.10526],[72.89057,19.10516],[72.89052,19.10514],[72.89035,19.10513],[72.89027,19.10506],[72.89021,19.10495],[72.89011,19.10495],[72.89004,19.10491],[72.89004,19.10478],[72.89013,19.10462],[72.89014,19.10456],[72.89008,19.1045],[72.88985,19.10444],[72.88976,19.10445]]}},{"type":"Feature","properties":{"waterway":"drain","length_km":0.43,"osm_id":376930298,"shedId":"MITHI","source":"OpenStreetMap","year":"2026"},"geometry":{"type":"LineString","coordinates":[[72.84799,19.08705],[72.84798,19.08722],[72.84769,19.08747],[72.84765,19.08935],[72.84766,19.08951],[72.84817,19.0898],[72.84865,19.0904]]}},{"type":"Feature","properties":{"waterway":"drain","length_km":0.77,"osm_id":376930300,"shedId":"MITHI","source":"OpenStreetMap","year":"2026"},"geometry":{"type":"LineString","coordinates":[[72.8526,19.0947],[72.85246,19.09448],[72.8523,19.09427],[72.85205,19.09399],[72.85183,19.09374],[72.85163,19.09353],[72.85135,19.09325],[72.85113,19.09304],[72.85078,19.09269],[72.85053,19.09245],[72.85028,19.09223],[72.85005,19.09203],[72.84972,19.09174],[72.8496,19.09155],[72.84944,19.09138],[72.8493,19.09131],[72.84905,19.09125],[72.84863,19.0912],[72.84839,19.09119],[72.84801,19.09117],[72.84776,19.09117],[72.84751,19.09116],[72.84725,19.09115],[72.84691,19.09114]]}},{"type":"Feature","properties":{"waterway":"drain","length_km":0.03,"osm_id":398341612,"shedId":"MITHI","source":"OpenStreetMap","year":"2026"},"geometry":{"type":"LineString","coordinates":[[72.86674,19.05165],[72.86697,19.0515]]}},{"type":"Feature","properties":{"waterway":"drain","length_km":0.38,"osm_id":398341613,"shedId":"MITHI","source":"OpenStreetMap","year":"2026"},"geometry":{"type":"LineString","coordinates":[[72.86697,19.0515],[72.86651,19.05068],[72.86614,19.05045],[72.86495,19.0487]]}},{"type":"Feature","properties":{"waterway":"drain","length_km":0.13,"osm_id":420108363,"shedId":"MITHI","source":"OpenStreetMap","year":"2026"},"geometry":{"type":"LineString","coordinates":[[72.85041,19.04671],[72.85067,19.04781]]}},{"type":"Feature","properties":{"waterway":"drain","length_km":0.07,"osm_id":420108364,"shedId":"MITHI","source":"OpenStreetMap","year":"2026"},"geometry":{"type":"LineString","coordinates":[[72.84454,19.0527],[72.84488,19.05212]]}},{"type":"Feature","properties":{"waterway":"drain","length_km":0.25,"osm_id":420108367,"shedId":"MITHI","source":"OpenStreetMap","year":"2026"},"geometry":{"type":"LineString","coordinates":[[72.84806,19.04616],[72.8485,19.0463],[72.85041,19.04671]]}},{"type":"Feature","properties":{"waterway":"drain","length_km":0.06,"osm_id":420108369,"shedId":"MITHI","source":"OpenStreetMap","year":"2026"},"geometry":{"type":"LineString","coordinates":[[72.84488,19.05212],[72.84493,19.05162]]}},{"type":"Feature","properties":{"waterway":"drain","length_km":0.2,"osm_id":420108370,"shedId":"MITHI","source":"OpenStreetMap","year":"2026"},"geometry":{"type":"LineString","coordinates":[[72.85041,19.04671],[72.85103,19.04683],[72.85115,19.0469],[72.85113,19.04705],[72.85067,19.04781]]}},{"type":"Feature","properties":{"waterway":"drain","length_km":0.54,"osm_id":420108372,"shedId":"MITHI","source":"OpenStreetMap","year":"2026"},"geometry":{"type":"LineString","coordinates":[[72.85067,19.04781],[72.84881,19.05032],[72.84841,19.05075],[72.84787,19.05144],[72.8476,19.0517]]}},{"type":"Feature","properties":{"waterway":"drain","length_km":0.87,"osm_id":420108375,"shedId":"MITHI","source":"OpenStreetMap","year":"2026"},"geometry":{"type":"LineString","coordinates":[[72.84806,19.04616],[72.84764,19.04617],[72.84697,19.04605],[72.84644,19.04598],[72.8462,19.04602],[72.84587,19.04614],[72.84552,19.04632],[72.8454,19.04643],[72.84369,19.05069],[72.84369,19.05082],[72.84376,19.05133]]}},{"type":"Feature","properties":{"waterway":"drain","length_km":0.18,"osm_id":430418396,"shedId":"MITHI","source":"OpenStreetMap","year":"2026"},"geometry":{"type":"LineString","coordinates":[[72.8714,19.07227],[72.87174,19.07175],[72.87277,19.07201]]}},{"type":"Feature","properties":{"waterway":"drain","length_km":0.41,"osm_id":430418397,"shedId":"MITHI","source":"OpenStreetMap","year":"2026"},"geometry":{"type":"LineString","coordinates":[[72.86795,19.07124],[72.86847,19.07093],[72.87063,19.07207],[72.8714,19.07227]]}},{"type":"Feature","properties":{"waterway":"drain","length_km":0.33,"osm_id":434887993,"shedId":"MITHI","source":"OpenStreetMap","year":"2026"},"geometry":{"type":"LineString","coordinates":[[72.84243,19.06414],[72.8422,19.06382],[72.84188,19.06122]]}},{"type":"Feature","properties":{"waterway":"drain","length_km":0.43,"osm_id":434887994,"shedId":"MITHI","source":"OpenStreetMap","year":"2026"},"geometry":{"type":"LineString","coordinates":[[72.84188,19.06122],[72.84174,19.05978],[72.84157,19.05835],[72.84158,19.05738]]}},{"type":"Feature","properties":{"waterway":"drain","length_km":0.13,"osm_id":434904731,"shedId":"MITHI","source":"OpenStreetMap","year":"2026"},"geometry":{"type":"LineString","coordinates":[[72.84712,19.05357],[72.84777,19.05259]]}},{"type":"Feature","properties":{"waterway":"drain","length_km":0.09,"osm_id":434904732,"shedId":"MITHI","source":"OpenStreetMap","year":"2026"},"geometry":{"type":"LineString","coordinates":[[72.84777,19.05259],[72.84827,19.05189]]}},{"type":"Feature","properties":{"waterway":"drain","length_km":0.35,"osm_id":434908167,"shedId":"MITHI","source":"OpenStreetMap","year":"2026"},"geometry":{"type":"LineString","coordinates":[[72.84916,19.03639],[72.84923,19.0367],[72.85044,19.03913],[72.85054,19.03925]]}},{"type":"Feature","properties":{"waterway":"drain","length_km":0.87,"osm_id":434908168,"shedId":"MITHI","source":"OpenStreetMap","year":"2026"},"geometry":{"type":"LineString","coordinates":[[72.85054,19.03925],[72.85088,19.03992],[72.85095,19.04013],[72.85088,19.04031],[72.85001,19.04129],[72.84916,19.04219],[72.84883,19.0427],[72.84866,19.04318],[72.84856,19.04368],[72.84807,19.04604],[72.84806,19.04616]]}},{"type":"Feature","properties":{"waterway":"drain","length_km":0.75,"osm_id":436222503,"shedId":"MITHI","source":"OpenStreetMap","year":"2026"},"geometry":{"type":"LineString","coordinates":[[72.87626,19.11104],[72.87615,19.11087],[72.87614,19.11078],[72.8762,19.1107],[72.87627,19.11047],[72.87632,19.11003],[72.87678,19.10993],[72.8769,19.10991],[72.87692,19.10981],[72.87672,19.10896],[72.87653,19.10861],[72.87646,19.10854],[72.87628,19.10849],[72.87618,19.10843],[72.87585,19.10772],[72.8758,19.10753],[72.87584,19.10734],[72.87591,19.10723],[72.87592,19.10688],[72.87586,19.10678],[72.87529,19.1062],[72.87524,19.10615],[72.87499,19.10563],[72.87494,19.10562],[72.87479,19.1057]]}},{"type":"Feature","properties":{"waterway":"drain","length_km":0.19,"osm_id":436370690,"shedId":"MITHI","source":"OpenStreetMap","year":"2026"},"geometry":{"type":"LineString","coordinates":[[72.87411,19.07822],[72.87406,19.07814],[72.87403,19.07792],[72.87394,19.07761],[72.87386,19.0775],[72.87386,19.07739],[72.87371,19.07718],[72.87349,19.07696],[72.87352,19.07683],[72.87355,19.07671]]}},{"type":"Feature","properties":{"waterway":"drain","length_km":0.1,"osm_id":436370692,"shedId":"MITHI","source":"OpenStreetMap","year":"2026"},"geometry":{"type":"LineString","coordinates":[[72.88027,19.08014],[72.8796,19.08006],[72.87935,19.07998]]}},{"type":"Feature","properties":{"waterway":"drain","length_km":0.67,"osm_id":436370694,"shedId":"MITHI","source":"OpenStreetMap","year":"2026"},"geometry":{"type":"LineString","coordinates":[[72.87064,19.08162],[72.87346,19.08028],[72.87431,19.07993],[72.87597,19.07917],[72.87634,19.07898]]}},{"type":"Feature","properties":{"waterway":"drain","length_km":0.12,"osm_id":436370696,"shedId":"MITHI","source":"OpenStreetMap","year":"2026"},"geometry":{"type":"LineString","coordinates":[[72.87334,19.07767],[72.87336,19.07742],[72.8733,19.07706],[72.87343,19.0768],[72.87355,19.07671],[72.87358,19.07667]]}},{"type":"Feature","properties":{"waterway":"drain","length_km":0.07,"osm_id":439865745,"shedId":"MITHI","source":"OpenStreetMap","year":"2026"},"geometry":{"type":"LineString","coordinates":[[72.84665,19.09176],[72.84644,19.09215],[72.84639,19.09235]]}},{"type":"Feature","properties":{"waterway":"drain","length_km":0.01,"osm_id":439865746,"shedId":"MITHI","source":"OpenStreetMap","year":"2026"},"geometry":{"type":"LineString","coordinates":[[72.84639,19.09235],[72.84639,19.09238],[72.84642,19.09245],[72.84643,19.09247]]}},{"type":"Feature","properties":{"waterway":"drain","length_km":0.17,"osm_id":439865747,"shedId":"MITHI","source":"OpenStreetMap","year":"2026"},"geometry":{"type":"LineString","coordinates":[[72.84594,19.08994],[72.84592,19.09003],[72.8462,19.09032],[72.8465,19.09066],[72.84673,19.09087],[72.84691,19.09114]]}},{"type":"Feature","properties":{"waterway":"drain","length_km":0.12,"osm_id":477875991,"shedId":"MITHI","source":"OpenStreetMap","year":"2026"},"geometry":{"type":"LineString","coordinates":[[72.84818,19.08601],[72.84825,19.08617],[72.84815,19.0864],[72.84804,19.08666],[72.84799,19.08705]]}},{"type":"Feature","properties":{"waterway":"drain","length_km":0.15,"osm_id":628785883,"shedId":"MITHI","source":"OpenStreetMap","year":"2026"},"geometry":{"type":"LineString","coordinates":[[72.86955,19.11537],[72.8694,19.11473],[72.86946,19.11458],[72.86942,19.11432],[72.86957,19.11414]]}},{"type":"Feature","properties":{"waterway":"drain","length_km":0.39,"osm_id":632099207,"shedId":"MITHI","source":"OpenStreetMap","year":"2026"},"geometry":{"type":"LineString","coordinates":[[72.88606,19.14118],[72.88656,19.14118],[72.88664,19.1411],[72.88608,19.14047],[72.88524,19.13926],[72.88527,19.13904],[72.88512,19.13864]]}},{"type":"Feature","properties":{"waterway":"drain","length_km":0.07,"osm_id":786149540,"shedId":"MITHI","source":"OpenStreetMap","year":"2026"},"geometry":{"type":"LineString","coordinates":[[72.84342,19.05584],[72.84359,19.05527]]}},{"type":"Feature","properties":{"waterway":"drain","length_km":0.28,"osm_id":786149541,"shedId":"MITHI","source":"OpenStreetMap","year":"2026"},"geometry":{"type":"LineString","coordinates":[[72.84363,19.05514],[72.844,19.05387],[72.84417,19.05343],[72.84447,19.0528]]}},{"type":"Feature","properties":{"waterway":"drain","length_km":0.01,"osm_id":786167565,"shedId":"MITHI","source":"OpenStreetMap","year":"2026"},"geometry":{"type":"LineString","coordinates":[[72.84156,19.05649],[72.84157,19.05642]]}},{"type":"Feature","properties":{"waterway":"drain","length_km":0.1,"osm_id":786167566,"shedId":"MITHI","source":"OpenStreetMap","year":"2026"},"geometry":{"type":"LineString","coordinates":[[72.84158,19.05738],[72.84155,19.05694],[72.84156,19.05649]]}},{"type":"Feature","properties":{"waterway":"drain","length_km":0.03,"osm_id":788516617,"shedId":"MITHI","source":"OpenStreetMap","year":"2026"},"geometry":{"type":"LineString","coordinates":[[72.84821,19.03014],[72.84817,19.03043]]}},{"type":"Feature","properties":{"waterway":"drain","length_km":0.68,"osm_id":788516618,"shedId":"MITHI","source":"OpenStreetMap","year":"2026"},"geometry":{"type":"LineString","coordinates":[[72.84817,19.03043],[72.84815,19.0305],[72.84848,19.03089],[72.84862,19.03152],[72.84898,19.03367],[72.84903,19.03388],[72.84915,19.03443],[72.84918,19.03493],[72.84916,19.03522],[72.84916,19.03551],[72.84911,19.03624],[72.84916,19.03639]]}},{"type":"Feature","properties":{"waterway":"drain","length_km":0.05,"osm_id":789931745,"shedId":"MITHI","source":"OpenStreetMap","year":"2026"},"geometry":{"type":"LineString","coordinates":[[72.84949,19.08032],[72.84948,19.07991]]}},{"type":"Feature","properties":{"waterway":"drain","length_km":0.71,"osm_id":789931746,"shedId":"MITHI","source":"OpenStreetMap","year":"2026"},"geometry":{"type":"LineString","coordinates":[[72.84818,19.08601],[72.8482,19.08588],[72.84819,19.08575],[72.84827,19.08545],[72.84835,19.08514],[72.84835,19.08486],[72.84826,19.08466],[72.84783,19.08426],[72.8477,19.08405],[72.8477,19.08387],[72.84808,19.08256],[72.84828,19.08224],[72.84863,19.08174],[72.84887,19.08125],[72.84935,19.08078],[72.84945,19.08059],[72.84949,19.08032]]}},{"type":"Feature","properties":{"waterway":"drain","length_km":0.28,"osm_id":833520643,"shedId":"MITHI","source":"OpenStreetMap","year":"2026"},"geometry":{"type":"LineString","coordinates":[[72.86956,19.11156],[72.86954,19.11131],[72.86944,19.11101],[72.86958,19.11087],[72.87029,19.11041],[72.87036,19.11021],[72.87031,19.10955],[72.87034,19.10951]]}},{"type":"Feature","properties":{"waterway":"drain","length_km":0.01,"osm_id":833520644,"shedId":"MITHI","source":"OpenStreetMap","year":"2026"},"geometry":{"type":"LineString","coordinates":[[72.86957,19.11163],[72.86956,19.11156]]}},{"type":"Feature","properties":{"waterway":"drain","length_km":1.02,"osm_id":833520645,"shedId":"MITHI","source":"OpenStreetMap","year":"2026"},"geometry":{"type":"LineString","coordinates":[[72.87039,19.10937],[72.87056,19.10922],[72.8707,19.1091],[72.87078,19.1086],[72.87078,19.10839],[72.87053,19.10791],[72.87041,19.10796],[72.87032,19.10773],[72.87023,19.1077],[72.87011,19.10767],[72.86995,19.10773],[72.86976,19.10773],[72.86952,19.10774],[72.86942,19.10756],[72.86942,19.10745],[72.86969,19.10728],[72.86989,19.10699],[72.86999,19.10628],[72.87003,19.10591],[72.86998,19.10564],[72.87062,19.10534],[72.87172,19.10474],[72.87271,19.10426],[72.87276,19.10408],[72.87276,19.10401],[72.87272,19.10379],[72.87259,19.10345],[72.87259,19.10331],[72.87264,19.10322]]}},{"type":"Feature","properties":{"waterway":"drain","length_km":0.02,"osm_id":833520646,"shedId":"MITHI","source":"OpenStreetMap","year":"2026"},"geometry":{"type":"LineString","coordinates":[[72.87034,19.10951],[72.87039,19.10937]]}},{"type":"Feature","properties":{"waterway":"drain","length_km":0.01,"osm_id":833520647,"shedId":"MITHI","source":"OpenStreetMap","year":"2026"},"geometry":{"type":"LineString","coordinates":[[72.87268,19.10315],[72.87272,19.10309]]}},{"type":"Feature","properties":{"waterway":"drain","length_km":0.01,"osm_id":833520648,"shedId":"MITHI","source":"OpenStreetMap","year":"2026"},"geometry":{"type":"LineString","coordinates":[[72.87264,19.10322],[72.87268,19.10315]]}},{"type":"Feature","properties":{"waterway":"drain","length_km":0.01,"osm_id":833520649,"shedId":"MITHI","source":"OpenStreetMap","year":"2026"},"geometry":{"type":"LineString","coordinates":[[72.87282,19.10292],[72.87278,19.103]]}},{"type":"Feature","properties":{"waterway":"drain","length_km":0.01,"osm_id":833520650,"shedId":"MITHI","source":"OpenStreetMap","year":"2026"},"geometry":{"type":"LineString","coordinates":[[72.87272,19.10309],[72.87278,19.103]]}},{"type":"Feature","properties":{"waterway":"drain","length_km":0.32,"osm_id":1122603583,"shedId":"MITHI","source":"OpenStreetMap","year":"2026"},"geometry":{"type":"LineString","coordinates":[[72.8745,19.10583],[72.87441,19.10582],[72.87433,19.10564],[72.87427,19.1053],[72.87427,19.10474],[72.87423,19.10456],[72.87411,19.10439],[72.87391,19.10426],[72.8738,19.10422],[72.87306,19.1042],[72.87276,19.10408]]}},{"type":"Feature","properties":{"waterway":"drain","length_km":0.03,"osm_id":1122603584,"shedId":"MITHI","source":"OpenStreetMap","year":"2026"},"geometry":{"type":"LineString","coordinates":[[72.87479,19.1057],[72.8745,19.10583]]}},{"type":"Feature","properties":{"waterway":"drain","length_km":0.32,"osm_id":1156851567,"shedId":"MITHI","source":"OpenStreetMap","year":"2026"},"geometry":{"type":"LineString","coordinates":[[72.88982,19.10184],[72.88964,19.10163],[72.88948,19.10159],[72.8893,19.1015],[72.88912,19.10133],[72.88917,19.10105],[72.88912,19.10092],[72.88905,19.10071],[72.88907,19.10054],[72.88899,19.10046],[72.88888,19.10048],[72.88877,19.10051],[72.88868,19.10055],[72.88862,19.10043],[72.88859,19.10034],[72.88849,19.10022],[72.8883,19.10013],[72.88818,19.10015],[72.88805,19.10014]]}},{"type":"Feature","properties":{"waterway":"drain","length_km":0.01,"osm_id":1156851568,"shedId":"MITHI","source":"OpenStreetMap","year":"2026"},"geometry":{"type":"LineString","coordinates":[[72.88801,19.10013],[72.88796,19.10012]]}},{"type":"Feature","properties":{"waterway":"drain","length_km":0.0,"osm_id":1156851569,"shedId":"MITHI","source":"OpenStreetMap","year":"2026"},"geometry":{"type":"LineString","coordinates":[[72.88788,19.10011],[72.88784,19.1001]]}},{"type":"Feature","properties":{"waterway":"drain","length_km":0.01,"osm_id":1156851570,"shedId":"MITHI","source":"OpenStreetMap","year":"2026"},"geometry":{"type":"LineString","coordinates":[[72.88796,19.10012],[72.88788,19.10011]]}},{"type":"Feature","properties":{"waterway":"drain","length_km":0.01,"osm_id":1156851571,"shedId":"MITHI","source":"OpenStreetMap","year":"2026"},"geometry":{"type":"LineString","coordinates":[[72.88805,19.10014],[72.88801,19.10013]]}},{"type":"Feature","properties":{"waterway":"drain","length_km":0.05,"osm_id":1170043414,"shedId":"MITHI","source":"OpenStreetMap","year":"2026"},"geometry":{"type":"LineString","coordinates":[[72.84224,19.05465],[72.84232,19.05422]]}},{"type":"Feature","properties":{"waterway":"drain","length_km":0.22,"osm_id":1170043415,"shedId":"MITHI","source":"OpenStreetMap","year":"2026"},"geometry":{"type":"LineString","coordinates":[[72.84157,19.05642],[72.84164,19.05587],[72.8418,19.05579],[72.84196,19.05542],[72.84224,19.05465]]}},{"type":"Feature","properties":{"waterway":"drain","length_km":0.38,"osm_id":1187638404,"shedId":"MITHI","source":"OpenStreetMap","year":"2026"},"geometry":{"type":"LineString","coordinates":[[72.90042,19.12964],[72.89898,19.12982],[72.89843,19.1302],[72.89807,19.13029],[72.89788,19.13037],[72.89777,19.13062],[72.89762,19.13077],[72.89727,19.13084]]}},{"type":"Feature","properties":{"waterway":"drain","length_km":0.01,"osm_id":1187675516,"shedId":"MITHI","source":"OpenStreetMap","year":"2026"},"geometry":{"type":"LineString","coordinates":[[72.89696,19.13094],[72.89684,19.13098]]}},{"type":"Feature","properties":{"waterway":"drain","length_km":0.04,"osm_id":1187675517,"shedId":"MITHI","source":"OpenStreetMap","year":"2026"},"geometry":{"type":"LineString","coordinates":[[72.89727,19.13084],[72.89696,19.13094]]}},{"type":"Feature","properties":{"waterway":"drain","length_km":0.02,"osm_id":1456263512,"shedId":"MITHI","source":"OpenStreetMap","year":"2026"},"geometry":{"type":"LineString","coordinates":[[72.87921,19.0998],[72.879,19.09988]]}},{"type":"Feature","properties":{"waterway":"drain","length_km":0.01,"osm_id":1456263513,"shedId":"MITHI","source":"OpenStreetMap","year":"2026"},"geometry":{"type":"LineString","coordinates":[[72.879,19.09988],[72.8789,19.09991]]}},{"type":"Feature","properties":{"waterway":"drain","length_km":0.38,"osm_id":1497268707,"shedId":"MITHI","source":"OpenStreetMap","year":"2026"},"geometry":{"type":"LineString","coordinates":[[72.88954,19.10447],[72.88941,19.10451],[72.88931,19.10451],[72.88901,19.10433],[72.88894,19.10425],[72.88881,19.10377],[72.88875,19.10354],[72.88863,19.10336],[72.88929,19.10282],[72.88938,19.10269],[72.89005,19.10213],[72.89005,19.10213]]}},{"type":"Feature","properties":{"waterway":"drain","length_km":0.0,"osm_id":1497268708,"shedId":"MITHI","source":"OpenStreetMap","year":"2026"},"geometry":{"type":"LineString","coordinates":[[72.88958,19.10445],[72.88954,19.10447]]}},{"type":"Feature","properties":{"waterway":"drain","length_km":0.0,"osm_id":1497268709,"shedId":"MITHI","source":"OpenStreetMap","year":"2026"},"geometry":{"type":"LineString","coordinates":[[72.88962,19.10445],[72.88958,19.10445]]}},{"type":"Feature","properties":{"waterway":"drain","length_km":0.01,"osm_id":1497268710,"shedId":"MITHI","source":"OpenStreetMap","year":"2026"},"geometry":{"type":"LineString","coordinates":[[72.88976,19.10445],[72.88962,19.10445]]}},{"type":"Feature","properties":{"waterway":"drain","length_km":0.07,"osm_id":1508895773,"shedId":"MITHI","source":"OpenStreetMap","year":"2026"},"geometry":{"type":"LineString","coordinates":[[72.87929,19.07995],[72.87868,19.07973]]}},{"type":"Feature","properties":{"waterway":"drain","length_km":0.01,"osm_id":1508895774,"shedId":"MITHI","source":"OpenStreetMap","year":"2026"},"geometry":{"type":"LineString","coordinates":[[72.87935,19.07998],[72.87929,19.07995]]}},{"type":"Feature","properties":{"waterway":"drain","length_km":0.01,"osm_id":1521665880,"shedId":"MITHI","source":"OpenStreetMap","year":"2026"},"geometry":{"type":"LineString","coordinates":[[72.88985,19.10188],[72.88982,19.10184]]}},{"type":"Feature","properties":{"waterway":"drain","length_km":0.03,"osm_id":1521665881,"shedId":"MITHI","source":"OpenStreetMap","year":"2026"},"geometry":{"type":"LineString","coordinates":[[72.89005,19.10213],[72.88985,19.10188]]}},{"type":"Feature","properties":{"waterway":"drain","length_km":0.16,"osm_id":1522280662,"shedId":"MITHI","source":"OpenStreetMap","year":"2026"},"geometry":{"type":"LineString","coordinates":[[72.8923,19.10702],[72.89222,19.10658],[72.89202,19.10629],[72.89166,19.10607],[72.89144,19.10594]]}},{"type":"Feature","properties":{"waterway":"drain","length_km":0.01,"osm_id":1522280663,"shedId":"MITHI","source":"OpenStreetMap","year":"2026"},"geometry":{"type":"LineString","coordinates":[[72.89119,19.10579],[72.8911,19.10573]]}},{"type":"Feature","properties":{"waterway":"drain","length_km":0.02,"osm_id":1522639135,"shedId":"MITHI","source":"OpenStreetMap","year":"2026"},"geometry":{"type":"LineString","coordinates":[[72.89136,19.10589],[72.89119,19.10579]]}},{"type":"Feature","properties":{"waterway":"drain","length_km":0.01,"osm_id":1522639136,"shedId":"MITHI","source":"OpenStreetMap","year":"2026"},"geometry":{"type":"LineString","coordinates":[[72.89144,19.10594],[72.89136,19.10589]]}}]}