{"nvdm":"1.0","dataset":"basins/drainage","scope":{"kind":"basin","id":"mumbai-rivers"},"provenance":{"sources":[{"id":"osm-overpass","title":"OpenStreetMap (Overpass API extracts: rivers, water bodies, drains, industrial landuse, corporation boundaries)","publisher":"OpenStreetMap contributors","license":"ODbL 1.0","role":"input"},{"id":"fabdem-dem","title":"FABDEM v1-2 30 m bare-earth DEM","publisher":"University of Bristol (Hawker et al.), via GEE sat-io","license":"CC BY-NC-SA 4.0 (non-commercial AND share-alike); derived from Copernicus GLO-30, so the mandatory Copernicus WorldDEM-30 attribution to DLR and Airbus passes down (both notices reproduced in DATA-LICENSE.md)","role":"input"}],"method":"derived","produced_at":"2026-09-06","produced_by":"scripts/build_mumbai_rivers_basin.py","internal_inputs":["public/geojson/mumbai-drainage.geojson","public/data/basins/mumbai-rivers/sub-hydrosheds.geojson"],"note":"Mumbai's rivers and lakes basin atlas (scope mumbai-rivers; the city's own scope id 'mumbai' is the MMR region). Catchment joins (shedId) come from sub-hydrosheds.geojson, whose city half is the reviewed pipeline input pipeline-inputs/mumbai-river-catchments-fabdem.geojson (FABDEM + WhiteboxTools); CPCB stretch and station figures are read from the reviewed national table pipeline-inputs/atlas/prs/cpcb-2025.json. FABDEM lineage makes the catchment-joined families CC BY-NC-SA (non-commercial) encumbered."},"type":"FeatureCollection","features":[{"type":"Feature","properties":{"waterway":"drain","length_km":0.49,"osm_id":257443427,"shedId":"OSHIWARA","source":"OpenStreetMap","year":"2026"},"geometry":{"type":"LineString","coordinates":[[72.83492,19.15956],[72.83411,19.15945],[72.83384,19.15954],[72.83326,19.15975],[72.8328,19.15966],[72.83222,19.15963],[72.83199,19.15951],[72.83184,19.15958],[72.8313,19.15969],[72.83095,19.15964],[72.83065,19.15964],[72.83047,19.1598]]}},{"type":"Feature","properties":{"waterway":"drain","length_km":0.7,"osm_id":366914604,"shedId":"OSHIWARA","source":"OpenStreetMap","year":"2026"},"geometry":{"type":"LineString","coordinates":[[72.8408,19.14549],[72.84085,19.14589],[72.84079,19.14634],[72.84067,19.14676],[72.8404,19.14719],[72.84028,19.1473],[72.83998,19.14746],[72.83992,19.14754],[72.83988,19.14789],[72.83982,19.14805],[72.83955,19.1485],[72.83934,19.14891],[72.83922,19.14922],[72.83906,19.14968],[72.83896,19.15094],[72.83895,19.15128]]}},{"type":"Feature","properties":{"waterway":"drain","length_km":0.32,"osm_id":366914605,"shedId":"OSHIWARA","source":"OpenStreetMap","year":"2026"},"geometry":{"type":"LineString","coordinates":[[72.84686,19.13968],[72.84672,19.13996],[72.84635,19.14012],[72.84601,19.14058],[72.84551,19.14113],[72.84533,19.14112],[72.8451,19.14103],[72.84465,19.14074]]}},{"type":"Feature","properties":{"waterway":"drain","length_km":0.44,"osm_id":424015855,"shedId":"OSHIWARA","source":"OpenStreetMap","year":"2026"},"geometry":{"type":"LineString","coordinates":[[72.87417,19.13881],[72.87391,19.13888],[72.87368,19.13908],[72.87327,19.13951],[72.87298,19.13964],[72.87273,19.13972],[72.87256,19.13979],[72.87223,19.14008],[72.87185,19.14042],[72.87174,19.14048],[72.87153,19.14057],[72.8707,19.14074]]}},{"type":"Feature","properties":{"waterway":"drain","length_km":1.02,"osm_id":621501008,"shedId":"OSHIWARA","source":"OpenStreetMap","year":"2026"},"geometry":{"type":"LineString","coordinates":[[72.84013,19.15961],[72.84006,19.15684],[72.83998,19.15322],[72.8399,19.15292],[72.83985,19.15278],[72.83975,19.15261],[72.83968,19.15245],[72.83966,19.15212],[72.83969,19.1517],[72.83978,19.15078],[72.83989,19.15053]]}},{"type":"Feature","properties":{"waterway":"drain","length_km":0.14,"osm_id":625929091,"shedId":"OSHIWARA","source":"OpenStreetMap","year":"2026"},"geometry":{"type":"LineString","coordinates":[[72.86048,19.13556],[72.86026,19.13625],[72.86022,19.13678]]}},{"type":"Feature","properties":{"waterway":"drain","length_km":0.81,"osm_id":628995054,"shedId":"OSHIWARA","source":"OpenStreetMap","year":"2026"},"geometry":{"type":"LineString","coordinates":[[72.86019,19.15246],[72.86015,19.15282],[72.85987,19.15389],[72.85953,19.15464],[72.85941,19.15492],[72.85928,19.15632],[72.8592,19.15761],[72.85906,19.15921],[72.85904,19.15964]]}},{"type":"Feature","properties":{"waterway":"drain","length_km":0.34,"osm_id":629015657,"shedId":"OSHIWARA","source":"OpenStreetMap","year":"2026"},"geometry":{"type":"LineString","coordinates":[[72.87504,19.16954],[72.8747,19.16958],[72.87448,19.16977],[72.87382,19.16985],[72.87296,19.1697],[72.87227,19.16899]]}},{"type":"Feature","properties":{"waterway":"drain","length_km":0.19,"osm_id":629066273,"shedId":"OSHIWARA","source":"OpenStreetMap","year":"2026"},"geometry":{"type":"LineString","coordinates":[[72.85904,19.15964],[72.85897,19.1599],[72.85909,19.16033],[72.85917,19.16052],[72.85915,19.1607],[72.85907,19.16094],[72.85897,19.16109],[72.85882,19.16122]]}},{"type":"Feature","properties":{"waterway":"drain","length_km":0.04,"osm_id":787899244,"shedId":"OSHIWARA","source":"OpenStreetMap","year":"2026"},"geometry":{"type":"LineString","coordinates":[[72.83527,19.15966],[72.83492,19.15956]]}},{"type":"Feature","properties":{"waterway":"drain","length_km":0.73,"osm_id":787899245,"shedId":"OSHIWARA","source":"OpenStreetMap","year":"2026"},"geometry":{"type":"LineString","coordinates":[[72.84218,19.15957],[72.84064,19.1596],[72.84013,19.15961],[72.8396,19.15962],[72.83898,19.15962],[72.83527,19.15966]]}},{"type":"Feature","properties":{"waterway":"drain","length_km":0.06,"osm_id":1131759266,"shedId":"OSHIWARA","source":"OpenStreetMap","year":"2026"},"geometry":{"type":"LineString","coordinates":[[72.84709,19.1392],[72.84686,19.13968]]}},{"type":"Feature","properties":{"waterway":"drain","length_km":0.26,"osm_id":1131759267,"shedId":"OSHIWARA","source":"OpenStreetMap","year":"2026"},"geometry":{"type":"LineString","coordinates":[[72.84821,19.13737],[72.84805,19.13756],[72.84812,19.13797],[72.84783,19.1386],[72.84722,19.13888],[72.84718,19.13892],[72.84709,19.1392]]}}]}