{"type": "FeatureCollection", "features": [{"type": "Feature", "properties": {"name": "Tiruvallur", "level": "district", "note": null}, "geometry": {"type": "Polygon", "coordinates": [[[80.04693, 13.53585], [80.05825, 13.53605], [80.0638, 13.54457], [80.07843, 13.54885], [80.08226, 13.55168], [80.08559, 13.54802], [80.08987, 13.53811], [80.08319, 13.53311], [80.08033, 13.52671], [80.07911, 13.51014], [80.08079, 13.49217], [80.10432, 13.49129], [80.11062, 13.49297], [80.11349, 13.49826], [80.1136, 13.50916], [80.12657, 13.50832], [80.14724, 13.50467], [80.14805, 13.4955], [80.16941, 13.49267], [80.1764, 13.49025], [80.17752, 13.48843], [80.20157, 13.48854], [80.21028, 13.48617], [80.21165, 13.48844], [80.21593, 13.48854], [80.21571, 13.48755], [80.22576, 13.48453], [80.24211, 13.46904], [80.25373, 13.50687], [80.26518, 13.56148], [80.26847, 13.56335], [80.28744, 13.51467], [80.2992, 13.47749], [80.32335, 13.45591], [80.32793, 13.43827], [80.33277, 13.39039], [80.34102, 13.35246], [80.34658, 13.31355], [80.34629, 13.28823], [80.33908, 13.26393], [80.33945, 13.25857], [80.3427, 13.25631], [80.3226, 13.19826], [80.31852, 13.19113], [80.30801, 13.15298], [80.30379, 13.14234], [80.28852, 13.14382], [80.28092, 13.14288], [80.2762, 13.1403], [80.26331, 13.14148], [80.25955, 13.14269], [80.25936, 13.1489], [80.25363, 13.1486], [80.24695, 13.14318], [80.24281, 13.1424], [80.24366, 13.12839], [80.22501, 13.12739], [80.22493, 13.13048], [80.20328, 13.12691], [80.20316, 13.11939], [80.19373, 13.10539], [80.19639, 13.09882], [80.19455, 13.09115], [80.19706, 13.08946], [80.1868, 13.07575], [80.1881, 13.06683], [80.18339, 13.04866], [80.1867, 13.04031], [80.18668, 13.03371], [80.19014, 13.02641], [80.18586, 13.02598], [80.18478, 13.02733], [80.1676, 13.03197], [80.16666, 13.0279], [80.16316, 13.02869], [80.16197, 13.03198], [80.14867, 13.03136], [80.14701, 13.03806], [80.15108, 13.03842], [80.14886, 13.04231], [80.1426, 13.04847], [80.14231, 13.04702], [80.13703, 13.04767], [80.13575, 13.05264], [80.13107, 13.05614], [80.13069, 13.05268], [80.12445, 13.05008], [80.12371, 13.04727], [80.11918, 13.04869], [80.11913, 13.04586], [80.11176, 13.04647], [80.10523, 13.04289], [80.10335, 13.04544], [80.09999, 13.04644], [80.0995, 13.04041], [80.09811, 13.03865], [80.09171, 13.0358], [80.09008, 13.03644], [80.08935, 13.0339], [80.08922, 13.03347], [80.08801, 13.02497], [80.08382, 13.02198], [80.08102, 13.03001], [80.08044, 13.04153], [80.07898, 13.04289], [80.07135, 13.04278], [80.06598, 13.03475], [80.05648, 13.03249], [80.05056, 13.03842], [80.05146, 13.04145], [80.0568, 13.04628], [80.05211, 13.04633], [80.04711, 13.04439], [80.03492, 13.04489], [80.03395, 13.04691], [80.03629, 13.04881], [80.03394, 13.05188], [80.02853, 13.05112], [80.02643, 13.05321], [80.01718, 13.05318], [80.0152, 13.05626], [80.01009, 13.05838], [80.00839, 13.05223], [79.9983, 13.04475], [79.99211, 13.03252], [79.98491, 13.03379], [79.97946, 13.03759], [79.9792, 13.03972], [79.98334, 13.04891], [79.99341, 13.05289], [79.98971, 13.05797], [79.97733, 13.05407], [79.97179, 13.04845], [79.97309, 13.04067], [79.97161, 13.03931], [79.96311, 13.04076], [79.94667, 13.0345], [79.92635, 13.03621], [79.92192, 13.03838], [79.92228, 13.04916], [79.91535, 13.04907], [79.90445, 13.05187], [79.89846, 13.03556], [79.90409, 13.03077], [79.90558, 13.01601], [79.91177, 13.01755], [79.91648, 13.0171], [79.92276, 13.02027], [79.9247, 13.01556], [79.94419, 13.00806], [79.94465, 13.00416], [79.94124, 12.99583], [79.92979, 12.99184], [79.91621, 12.9998], [79.91325, 13.00424], [79.90255, 12.99572], [79.89793, 12.99581], [79.89489, 12.99164], [79.90163, 12.98929], [79.91725, 12.97816], [79.91318, 12.974], [79.91272, 12.96856], [79.91014, 12.96422], [79.90359, 12.96168], [79.8999, 12.95805], [79.89603, 12.94755], [79.85403, 12.95122], [79.85199, 12.95602], [79.83703, 12.95999], [79.83841, 12.96488], [79.82539, 12.96441], [79.82364, 12.96794], [79.82167, 12.98613], [79.8237, 12.98913], [79.81807, 12.98794], [79.81594, 12.99138], [79.82065, 12.99455], [79.82091, 13.00135], [79.81046, 13.0179], [79.80261, 13.0159], [79.79982, 13.02767], [79.7859, 13.02322], [79.78624, 13.04088], [79.79017, 13.04762], [79.78717, 13.05362], [79.77859, 13.05611], [79.77682, 13.05941], [79.77154, 13.06026], [79.76184, 13.05306], [79.74919, 13.05134], [79.73466, 13.06033], [79.72718, 13.0543], [79.72126, 13.05476], [79.71988, 13.05823], [79.72453, 13.06198], [79.72686, 13.06804], [79.73465, 13.06791], [79.73935, 13.07056], [79.74093, 13.07538], [79.73264, 13.09629], [79.72728, 13.09806], [79.71265, 13.09872], [79.70202, 13.10082], [79.70392, 13.1077], [79.70907, 13.10886], [79.717, 13.10591], [79.72253, 13.10799], [79.7266, 13.11593], [79.73492, 13.1174], [79.74001, 13.13757], [79.73971, 13.15233], [79.73617, 13.16551], [79.7041, 13.16128], [79.70065, 13.15712], [79.7, 13.157557581699344], [79.7, 13.186811166077758], [79.70065, 13.18852], [79.7, 13.188706421319795], [79.7, 13.249156043360436], [79.7049, 13.25227], [79.70901, 13.24765], [79.70873, 13.23755], [79.7023, 13.22424], [79.71266, 13.21649], [79.71871, 13.22304], [79.72446, 13.22431], [79.72873, 13.22823], [79.73157, 13.23641], [79.73584, 13.23568], [79.73955, 13.23123], [79.74555, 13.22882], [79.74673, 13.2241], [79.74998, 13.22337], [79.75135, 13.21216], [79.75747, 13.20883], [79.7649, 13.2187], [79.77077, 13.21951], [79.77639, 13.22275], [79.78024, 13.22728], [79.78667, 13.23147], [79.79635, 13.23189], [79.79799, 13.23744], [79.79634, 13.24211], [79.78844, 13.24805], [79.7658, 13.25762], [79.75858, 13.26205], [79.75238, 13.26825], [79.73473, 13.2795], [79.73422, 13.28599], [79.74257, 13.28884], [79.75443, 13.29045], [79.7591, 13.2938], [79.76268, 13.30467], [79.76346, 13.31259], [79.76697, 13.31657], [79.78131, 13.30346], [79.79278, 13.29594], [79.80024, 13.29851], [79.80525, 13.30552], [79.80796, 13.31245], [79.81325, 13.3182], [79.82146, 13.31898], [79.84359, 13.31601], [79.86417, 13.31757], [79.87186, 13.32773], [79.87821, 13.32474], [79.88196, 13.33031], [79.88108, 13.335], [79.88859, 13.33897], [79.88659, 13.34029], [79.8869, 13.3415], [79.88881, 13.34097], [79.89347, 13.34384], [79.8975, 13.33981], [79.90263, 13.33945], [79.90396, 13.33814], [79.91688, 13.34732], [79.91929, 13.3531], [79.92368, 13.35776], [79.93854, 13.35004], [79.94176, 13.35763], [79.953, 13.37221], [79.95272, 13.38318], [79.96103, 13.38132], [79.96657, 13.38821], [79.96326, 13.39605], [79.94857, 13.3989], [79.94539, 13.41838], [79.95012, 13.42377], [79.95719, 13.42481], [79.96379, 13.42216], [79.97118, 13.42661], [79.97616, 13.43197], [79.97393, 13.44169], [79.97596, 13.45459], [79.97473, 13.46528], [79.98113, 13.47044], [80.00034, 13.47595], [80.00344, 13.47611], [80.00365, 13.47327], [80.00819, 13.47431], [80.01726, 13.49231], [80.01874, 13.50181], [80.03769, 13.50078], [80.04893, 13.49859], [80.04985, 13.51344], [80.0456, 13.51592], [80.03848, 13.51803], [80.03194, 13.5157], [80.02645, 13.51794], [80.02124, 13.52231], [80.01905, 13.52906], [80.00298, 13.52406], [80.00246, 13.54071], [80.00691, 13.54355], [80.02049, 13.54634], [80.03036, 13.53914], [80.04233, 13.53762], [80.04693, 13.53585]]]}}, {"type": "Feature", "properties": {"name": "Chennai", "level": "district", "note": null}, "geometry": {"type": "Polygon", "coordinates": [[[80.18668, 13.03371], [80.1867, 13.04031], [80.18339, 13.04866], [80.1881, 13.06683], [80.1868, 13.07575], [80.19706, 13.08946], [80.19455, 13.09115], [80.19639, 13.09882], [80.19373, 13.10539], [80.20316, 13.11939], [80.20328, 13.12691], [80.22493, 13.13048], [80.22501, 13.12739], [80.24366, 13.12839], [80.24281, 13.1424], [80.24695, 13.14318], [80.25363, 13.1486], [80.25936, 13.1489], [80.25955, 13.14269], [80.26331, 13.14148], [80.2762, 13.1403], [80.28092, 13.14288], [80.28852, 13.14382], [80.30379, 13.14234], [80.298, 13.12658], [80.2982, 13.12209], [80.30064, 13.12074], [80.3017, 13.11434], [80.30487, 13.11108], [80.3034, 13.10542], [80.3041, 13.11113], [80.30089, 13.11346], [80.2977, 13.10119], [80.30355, 13.09867], [80.30434, 13.10183], [80.30463, 13.10079], [80.30671, 13.10186], [80.3101, 13.10749], [80.30641, 13.10061], [80.306, 13.09583], [80.30174, 13.08558], [80.29168, 13.07329], [80.28626, 13.05846], [80.28132, 13.03836], [80.27743, 13.01174], [80.26667, 12.97258], [80.25739, 12.97389], [80.25387, 12.97606], [80.24857, 12.98452], [80.23786, 12.97432], [80.23279, 12.97272], [80.22799, 12.96871], [80.22368, 12.96704], [80.21739, 12.96948], [80.21425, 12.97543], [80.2061, 12.9795], [80.20482, 12.98468], [80.21077, 13.00096], [80.21511, 13.00634], [80.20101, 13.01653], [80.20148, 13.02216], [80.21168, 13.02687], [80.20813, 13.0289], [80.2019, 13.02969], [80.19774, 13.02853], [80.19014, 13.02641], [80.18668, 13.03371]]]}}, {"type": "Feature", "properties": {"name": "Chengalpattu", "level": "district", "note": "Chennai-adjacent part of pre-2019 Kancheepuram (now Chengalpattu)"}, "geometry": {"type": "Polygon", "coordinates": [[[79.93893958400008, 12.720117172000073], [79.93076925700007, 12.727087390000065], [79.93182045900005, 12.728394340000023], [79.92193914500007, 12.740294633000076], [79.91545718200007, 12.745541304000028], [79.90609160400004, 12.74608822600004], [79.89502648000007, 12.749831267000047], [79.87720240300007, 12.760378076000052], [79.88543184500008, 12.767031658000064], [79.88150575300006, 12.770023843000047], [79.88216229700004, 12.77125151000007], [79.87243444700005, 12.771922074000031], [79.87208707800005, 12.774121907000051], [79.87348984900007, 12.775599157000045], [79.89565972600008, 12.778516250000052], [79.89813045600005, 12.781876143000034], [79.90235682500008, 12.783697676000031], [79.90258435600003, 12.786961532000078], [79.90636704100007, 12.793021262000025], [79.90489834500005, 12.796719195000037], [79.91570768900004, 12.79530740000007], [79.92100592500003, 12.79189483700003], [79.92471667600006, 12.793559857000048], [79.92765348300009, 12.789037392000068], [79.92913115100004, 12.782633917000055], [79.93251303100004, 12.780321550000053], [79.93622785700006, 12.780108591000044], [79.93768765900006, 12.781658148000076], [79.93779117300005, 12.78574539300007], [79.94015197200008, 12.787075935000075], [79.95310002300005, 12.785335731000032], [79.95477843400005, 12.789978541000039], [79.95859628800008, 12.794294362000073], [79.95881246300007, 12.798492301000067], [79.96183950300008, 12.804242439000063], [79.95620645300005, 12.806440078000037], [79.95676053500006, 12.810528250000061], [79.95517792200008, 12.813617867000062], [79.95628678800006, 12.820798255000057], [79.95978153800007, 12.819150365000041], [79.96520461300008, 12.809882772000037], [79.97094769600005, 12.808900228000027], [79.97950085100007, 12.809911416000034], [79.99133054700008, 12.80496379400006], [79.99627865300005, 12.807403442000066], [80.00483229100007, 12.808192887000075], [80.00641619600003, 12.80410880200003], [80.00865596700004, 12.810077887000034], [80.01220902200004, 12.812227438000036], [80.01545230100004, 12.81157065900004], [80.02071128400007, 12.816484761000027], [80.02989382200008, 12.818290794000063], [80.02988865800006, 12.821074409000062], [80.03561509700006, 12.829170347000058], [80.03987028300008, 12.829310380000038], [80.04114285300005, 12.835277516000076], [80.04587086200007, 12.835484558000076], [80.05181885500008, 12.833373906000077], [80.05831928200007, 12.854518043000041], [80.06033587100006, 12.857194234000076], [80.06288352100006, 12.857715807000034], [80.06358210100007, 12.860303556000076], [80.06243022200005, 12.865733465000062], [80.05484802300003, 12.879429584000036], [80.05932024700007, 12.885213840000063], [80.06316620600006, 12.897463427000048], [80.06935859900005, 12.905789626000058], [80.07155310600007, 12.912011822000068], [80.08660087000004, 12.923404044000051], [80.08715370500005, 12.93010281100004], [80.09502402400005, 12.94480134500003], [80.10135516300005, 12.942906194000045], [80.10477292300004, 12.953430898000022], [80.11034533500003, 12.962647063000077], [80.11717231700004, 12.966851612000028], [80.12231072900005, 12.983399675000044], [80.12509770100007, 12.983403708000026], [80.13018332900003, 12.988688326000045], [80.13662205900005, 12.988885882000034], [80.14064991600003, 12.994828487000063], [80.14418175000003, 12.996507550000047], [80.15028065000007, 12.991669306000063], [80.15740482100006, 12.993369444000052], [80.16521422600005, 12.998451574000057], [80.16842584400007, 13.003640354000026], [80.17083977000004, 13.003643425000064], [80.17325709000005, 13.001054146000058], [80.18004189200008, 12.998808389000033], [80.18457556000004, 13.004022039000063], [80.18370890600005, 13.007716983000023], [80.18612302000008, 13.015909131000058], [80.18772811200006, 13.018039160000058], [80.19134559400004, 13.018043490000025], [80.19158188400007, 13.021984684000074], [80.19774, 13.02853], [80.2019, 13.02969], [80.20813, 13.0289], [80.21168, 13.02687], [80.20148, 13.02216], [80.20101, 13.01653], [80.21511, 13.00634], [80.21077, 13.00096], [80.20482, 12.98468], [80.2061, 12.9795], [80.21425, 12.97543], [80.21739, 12.96948], [80.22368, 12.96704], [80.22799, 12.96871], [80.23279, 12.97272], [80.23786, 12.97432], [80.24857, 12.98452], [80.25387, 12.97606], [80.25739, 12.97389], [80.26667, 12.97258], [80.25932, 12.93429], [80.24899, 12.85025], [80.24852, 12.80815], [80.25066, 12.79369], [80.25487, 12.78988], [80.25527, 12.78193], [80.24367, 12.74635], [80.23392161889596, 12.72], [79.93894319072652, 12.72], [79.93893958400008, 12.720117172000073]]]}}]}