{"type": "FeatureCollection", "features": [{"type": "Feature", "properties": {"name": "Cooum at Poonamalle (CPCB 10043)", "river_id": "cooum", "shedId": "COOUM", "stretch": "Upper (outer city)", "kind": "cpcb-station", "year": 2024, "bod_mgl": 16, "do_mgl": 1.4, "status": "below Class E (over-polluted)"}, "geometry": {"type": "Point", "coordinates": [80.1141, 13.0651]}}, {"type": "Feature", "properties": {"name": "Cooum at Anna Nagar (CPCB 10040)", "river_id": "cooum", "shedId": "COOUM", "stretch": "Upper", "kind": "cpcb-station", "year": 2024, "bod_mgl": 21, "do_mgl": 2.1, "status": "below Class E (over-polluted)"}, "geometry": {"type": "Point", "coordinates": [80.2097, 13.0784]}}, {"type": "Feature", "properties": {"name": "Cooum at Arumbakkam (CPCB 10041)", "river_id": "cooum", "shedId": "COOUM", "stretch": "Upper-Middle", "kind": "cpcb-station", "year": 2024, "bod_mgl": 23, "do_mgl": 1.9, "status": "below Class E (over-polluted)"}, "geometry": {"type": "Point", "coordinates": [80.214, 13.0766]}}, {"type": "Feature", "properties": {"name": "Cooum at Amanjikarai (CPCB 10042)", "river_id": "cooum", "shedId": "COOUM", "stretch": "Middle", "kind": "cpcb-station", "year": 2024, "bod_mgl": 16, "do_mgl": 1.3, "status": "below Class E (over-polluted)"}, "geometry": {"type": "Point", "coordinates": [80.2273, 13.072]}}, {"type": "Feature", "properties": {"name": "Cooum at College Road (CPCB 10044)", "river_id": "cooum", "shedId": "COOUM", "stretch": "Middle", "kind": "cpcb-station", "year": 2024, "bod_mgl": 24, "do_mgl": 1.6, "status": "below Class E (over-polluted)"}, "geometry": {"type": "Point", "coordinates": [80.2536, 13.0681]}}, {"type": "Feature", "properties": {"name": "Cooum near Central Jail (CPCB 10045)", "river_id": "cooum", "shedId": "COOUM", "stretch": "Lower", "kind": "cpcb-station", "year": 2024, "bod_mgl": 35, "do_mgl": 0.3, "status": "below Class E (over-polluted)"}, "geometry": {"type": "Point", "coordinates": [80.2691, 13.0685]}}, {"type": "Feature", "properties": {"name": "Cooum at Napier Bridge (CPCB 10046)", "river_id": "cooum", "shedId": "COOUM", "stretch": "Estuary", "kind": "cpcb-station", "year": 2024, "bod_mgl": 25, "do_mgl": 1.1, "status": "below Class E (over-polluted)"}, "geometry": {"type": "Point", "coordinates": [80.286, 13.0681]}}, {"type": "Feature", "properties": {"name": "Adyar at Ekkattuthangal (CPCB 10034)", "river_id": "adyar", "shedId": "ADYAR", "stretch": "Upper", "kind": "cpcb-station", "year": 2024, "bod_mgl": 12, "do_mgl": 2.9, "status": "below Class E (over-polluted)"}, "geometry": {"type": "Point", "coordinates": [80.1999, 13.0288]}}, {"type": "Feature", "properties": {"name": "Adyar at Jaferkhanpet (CPCB 10035)", "river_id": "adyar", "shedId": "ADYAR", "stretch": "Upper-Middle", "kind": "cpcb-station", "year": 2024, "bod_mgl": 26, "do_mgl": 2.6, "status": "below Class E (over-polluted)"}, "geometry": {"type": "Point", "coordinates": [80.2086, 13.0267]}}, {"type": "Feature", "properties": {"name": "Adyar at Maraimalai Bridge (CPCB 10036)", "river_id": "adyar", "shedId": "ADYAR", "stretch": "Middle", "kind": "cpcb-station", "year": 2024, "bod_mgl": 29, "do_mgl": 3.1, "status": "below Class E (over-polluted)"}, "geometry": {"type": "Point", "coordinates": [80.227, 13.019]}}, {"type": "Feature", "properties": {"name": "Adyar at Kotturpuram Bridge (CPCB 10038)", "river_id": "adyar", "shedId": "ADYAR", "stretch": "Lower", "kind": "cpcb-station", "year": 2024, "bod_mgl": 27, "do_mgl": 2.5, "status": "below Class E (over-polluted)"}, "geometry": {"type": "Point", "coordinates": [80.2513, 13.015]}}, {"type": "Feature", "properties": {"name": "Adyar near Boat Club (CPCB 10039)", "river_id": "adyar", "shedId": "ADYAR", "stretch": "Estuary", "kind": "cpcb-station", "year": 2024, "bod_mgl": 25, "do_mgl": 2.0, "status": "below Class E (over-polluted)"}, "geometry": {"type": "Point", "coordinates": [80.2541, 13.0145]}}, {"type": "Feature", "properties": {"name": "Buckingham Canal at Ice House (CPCB 0054)", "river_id": "buckingham-canal", "shedId": "COOUM", "stretch": "Central Chennai", "kind": "cpcb-station", "year": 2024, "bod_mgl": 79, "do_mgl": 0.3, "status": "below Class E (over-polluted)"}, "geometry": {"type": "Point", "coordinates": [80.2803, 13.0577]}}]}