{"nvdm":"1.0","dataset":"basins/command-areas","scope":{"kind":"basin","id":"palakkad-rivers"},"provenance":{"sources":[{"id":"nwic-nwdp-cwc-canal-network","title":"CWC canal network and water resource project (command area) layers, National Water Data Portal","publisher":"Central Water Commission, via the National Water Informatics Centre (NWIC)","license":"Government of India open data portal: its copyright policy permits reproduction free of charge in any format without specific permission, reproduced accurately and with the source prominently acknowledged; cited with attribution","role":"input","url":"https://nwdp.nwic.gov.in","as_of":"2025"},{"id":"ksrec-open-geoserver","title":"KSREC GeoServer (WFS): local-body boundaries, watershed atlas, wetlands, paddy, notified wetland parcels, flood extents and quarries of Kerala","publisher":"Kerala State Remote Sensing and Environment Centre (KSREC)","license":"No licence or terms are stated on the GeoServer (WFS capabilities: AccessConstraints NONE). Served with attribution to KSREC by the maintainer's decision; layers KSREC derived from OpenStreetMap (quarries, waterbodies) carry ODbL 1.0.","role":"input","url":"http://ksrec.in:9090/geoserver/ows"}],"method":"derived","produced_at":"2026-09-29","produced_by":"scripts/build_palakkad_rivers_basin.py","note":"Palakkad district's rivers, reservoirs, wetlands and groundwater (scope palakkad-rivers; the district's own scope id is kl-palakkad). The district is the union of its local bodies in KSREC's layer and the catchments (shedId) are the river basins of KSREC's watershed atlas cut to it. KSREC publishes no licence and its layers are served with attribution; its quarry layer is OpenStreetMap's (ODbL)."},"type":"FeatureCollection","features":[{"type":"Feature","properties":{"name":"Mangalam command area","kind":"mangalam","project":"Mangalam","river":"Bharatpuzha","projectType":"Medium","status":"Completed","yearApproved":"1953(IC)","districtsBenefited":"Palakkad","culturableCommandAreaThousandHa":"3.44","potentialCreatedThousandHa":"3.04","mappedAreaHa":7040,"mappedAreaInDistrictHa":7040,"shedId":"RB20"},"geometry":{"type":"MultiPolygon","coordinates":[[[[76.50586,10.62231],[76.50621,10.62305],[76.50689,10.62293],[76.50713,10.62205],[76.51056,10.61983],[76.51172,10.61749],[76.51126,10.61502],[76.5115,10.61289],[76.51061,10.61077],[76.51161,10.60828],[76.51174,10.60564],[76.51349,10.60386],[76.51564,10.60377],[76.51637,10.60235],[76.51629,10.60087],[76.51746,10.60015],[76.52011,10.60033],[76.52123,10.60159],[76.52197,10.60164],[76.52592,10.60049],[76.52742,10.59947],[76.53225,10.59912],[76.53344,10.59785],[76.53586,10.59659],[76.53625,10.59539],[76.53571,10.59418],[76.5363,10.59275],[76.53611,10.59176],[76.53295,10.59261],[76.53211,10.59211],[76.53078,10.59031],[76.52958,10.591],[76.52881,10.59101],[76.52807,10.58815],[76.52643,10.58819],[76.52569,10.58774],[76.5269,10.58392],[76.52424,10.5814],[76.523,10.58117],[76.52268,10.58178],[76.52177,10.58233],[76.51944,10.58291],[76.51739,10.58282],[76.5157,10.58385],[76.51402,10.58388],[76.51129,10.58722],[76.51048,10.58729],[76.50879,10.58644],[76.50809,10.58662],[76.50525,10.59003],[76.50435,10.59014],[76.50214,10.58917],[76.50097,10.58914],[76.49578,10.59256],[76.49421,10.59609],[76.49162,10.59821],[76.49037,10.60002],[76.48886,10.60356],[76.48844,10.60624],[76.48995,10.60926],[76.48766,10.61186],[76.48459,10.61378],[76.48728,10.61631],[76.48863,10.62218],[76.49154,10.62563],[76.49117,10.62814],[76.48982,10.62883],[76.48588,10.62844],[76.48369,10.63267],[76.47947,10.63333],[76.47674,10.63259],[76.47582,10.63282],[76.47404,10.63778],[76.4712,10.64003],[76.47047,10.64136],[76.47018,10.64294],[76.47097,10.64586],[76.47072,10.64643],[76.46911,10.64825],[76.46536,10.64873],[76.46408,10.64964],[76.46223,10.65383],[76.46192,10.65556],[76.46221,10.65812],[76.46177,10.65901],[76.45828,10.66107],[76.45532,10.66174],[76.45435,10.66121],[76.45201,10.65711],[76.4508,10.65713],[76.44912,10.66234],[76.44968,10.66414],[76.45137,10.66611],[76.45063,10.67068],[76.45141,10.67333],[76.45245,10.67328],[76.45367,10.67091],[76.45435,10.67054],[76.45556,10.67068],[76.45735,10.67206],[76.46249,10.67082],[76.46459,10.6682],[76.46779,10.66627],[76.46918,10.66398],[76.47122,10.66397],[76.47333,10.66515],[76.47538,10.66389],[76.47687,10.6622],[76.48018,10.6607],[76.48504,10.66144],[76.48857,10.66309],[76.49356,10.66398],[76.49343,10.66246],[76.49387,10.66118],[76.49473,10.66042],[76.49812,10.66139],[76.49966,10.66127],[76.50036,10.65966],[76.49995,10.65392],[76.49891,10.65289],[76.49753,10.65276],[76.49407,10.65392],[76.48977,10.6531],[76.4888,10.65362],[76.48721,10.65329],[76.48601,10.64702],[76.48667,10.64604],[76.48629,10.6445],[76.48711,10.6439],[76.48786,10.64228],[76.48945,10.64214],[76.49111,10.63971],[76.49425,10.63898],[76.49498,10.63831],[76.4961,10.63856],[76.49655,10.63678],[76.49884,10.63475],[76.50072,10.63464],[76.50108,10.63368],[76.50273,10.63346],[76.50478,10.62882],[76.50698,10.62939],[76.50551,10.62739],[76.50469,10.62734],[76.50326,10.62615],[76.5029,10.62504],[76.50377,10.62221],[76.50586,10.62231]]],[[[76.52692,10.55595],[76.52656,10.55657],[76.52699,10.55788],[76.52684,10.55865],[76.52596,10.55874],[76.52382,10.5579],[76.52337,10.55895],[76.52441,10.56133],[76.52064,10.56225],[76.51987,10.56449],[76.51803,10.56624],[76.51881,10.56721],[76.51917,10.56955],[76.51869,10.57011],[76.51729,10.57086],[76.51633,10.57493],[76.51334,10.57906],[76.51531,10.58163],[76.5165,10.58237],[76.51665,10.58294],[76.51754,10.58263],[76.51953,10.58272],[76.52185,10.58217],[76.52297,10.58103],[76.52388,10.58109],[76.52501,10.58165],[76.52703,10.58405],[76.52592,10.58781],[76.52808,10.58798],[76.52897,10.59068],[76.53097,10.59025],[76.53243,10.59213],[76.53336,10.59242],[76.53608,10.59164],[76.5359,10.59061],[76.53201,10.58389],[76.5317,10.58101],[76.53216,10.57987],[76.53095,10.57562],[76.52972,10.57289],[76.52897,10.57228],[76.52755,10.56818],[76.52876,10.56533],[76.52903,10.5605],[76.52808,10.55718],[76.52692,10.55595]]],[[[76.50159,10.58874],[76.505,10.58982],[76.508,10.58632],[76.50874,10.58614],[76.51101,10.58703],[76.51332,10.58393],[76.5155,10.5837],[76.51646,10.58295],[76.51384,10.58032],[76.51307,10.57884],[76.51617,10.57488],[76.51709,10.57071],[76.51887,10.56973],[76.51779,10.56615],[76.51971,10.56433],[76.52036,10.5621],[76.52419,10.56109],[76.52319,10.5591],[76.52361,10.55776],[76.52621,10.55856],[76.5268,10.55807],[76.5263,10.55654],[76.52705,10.55568],[76.52666,10.55366],[76.52582,10.55244],[76.52628,10.55043],[76.52398,10.54979],[76.52349,10.54914],[76.52316,10.54624],[76.52204,10.54508],[76.52265,10.54411],[76.52221,10.54237],[76.52319,10.54099],[76.52712,10.53825],[76.52776,10.53518],[76.52999,10.53342],[76.5306,10.53072],[76.53358,10.53063],[76.53519,10.52813],[76.53592,10.5258],[76.53598,10.52245],[76.53553,10.51971],[76.53423,10.51737],[76.5337,10.51739],[76.5333,10.51943],[76.53269,10.51995],[76.53172,10.52011],[76.52939,10.52302],[76.52913,10.52411],[76.52962,10.5259],[76.52842,10.52778],[76.52521,10.52971],[76.52324,10.52987],[76.52191,10.53163],[76.52245,10.53319],[76.5238,10.53384],[76.52437,10.53473],[76.52347,10.53623],[76.5224,10.53695],[76.52173,10.53867],[76.52236,10.54101],[76.5223,10.54146],[76.52189,10.54207],[76.52046,10.54275],[76.5213,10.54344],[76.52123,10.54409],[76.51673,10.54757],[76.51542,10.55037],[76.5138,10.55088],[76.51208,10.55089],[76.51314,10.55334],[76.51298,10.55417],[76.51183,10.55541],[76.51008,10.55472],[76.50981,10.5559],[76.51034,10.55729],[76.51028,10.55807],[76.5098,10.5584],[76.50831,10.55838],[76.50731,10.55937],[76.50866,10.56167],[76.50803,10.56381],[76.50678,10.56418],[76.50548,10.56377],[76.5048,10.56446],[76.50525,10.56539],[76.50805,10.56629],[76.5085,10.567],[76.50834,10.56781],[76.50719,10.56923],[76.50645,10.57281],[76.50662,10.57563],[76.50599,10.57711],[76.50404,10.57632],[76.50316,10.57668],[76.50152,10.58019],[76.50045,10.58146],[76.49986,10.58363],[76.49775,10.58274],[76.49675,10.58284],[76.49728,10.58406],[76.49925,10.586],[76.49944,10.58726],[76.49878,10.58776],[76.49729,10.58687],[76.49582,10.58809],[76.49674,10.59088],[76.496,10.59219],[76.4999,10.58941],[76.50159,10.58874]]],[[[76.46122,10.65483],[76.46363,10.64894],[76.46544,10.6481],[76.46813,10.64794],[76.46953,10.64662],[76.46931,10.64176],[76.46991,10.64058],[76.47309,10.63791],[76.47516,10.63254],[76.47638,10.63206],[76.48005,10.63282],[76.48295,10.63212],[76.48395,10.63112],[76.48534,10.62807],[76.48949,10.62844],[76.49056,10.62807],[76.49093,10.62564],[76.48836,10.62272],[76.48682,10.61667],[76.4845,10.61493],[76.48413,10.61337],[76.4847,10.61269],[76.48727,10.61166],[76.48924,10.60924],[76.48916,10.60847],[76.48776,10.6067],[76.48807,10.60423],[76.49045,10.59901],[76.49371,10.59583],[76.49639,10.59128],[76.49547,10.58817],[76.49729,10.58658],[76.49922,10.58722],[76.49909,10.58615],[76.49655,10.58352],[76.49655,10.58265],[76.49782,10.58254],[76.49975,10.58331],[76.50033,10.58106],[76.50141,10.57992],[76.50321,10.57631],[76.50432,10.57614],[76.50596,10.57679],[76.50649,10.57517],[76.50612,10.5732],[76.50684,10.5693],[76.50825,10.56689],[76.50529,10.56577],[76.50444,10.56479],[76.50524,10.56362],[76.50736,10.56389],[76.5081,10.56312],[76.50852,10.56183],[76.50707,10.55976],[76.50717,10.5591],[76.5081,10.55822],[76.51007,10.55808],[76.50962,10.55564],[76.50991,10.55449],[76.51048,10.55432],[76.51175,10.55519],[76.51289,10.55391],[76.51195,10.55051],[76.51351,10.5507],[76.5155,10.55009],[76.51647,10.54752],[76.52111,10.54392],[76.52036,10.54259],[76.52217,10.54125],[76.52165,10.5401],[76.52168,10.53828],[76.52234,10.5368],[76.52418,10.53483],[76.52191,10.53289],[76.52174,10.53221],[76.52194,10.53111],[76.52292,10.52966],[76.52535,10.52941],[76.52807,10.52774],[76.52942,10.52596],[76.52901,10.52454],[76.52917,10.523],[76.53174,10.51973],[76.53314,10.5193],[76.53347,10.5174],[76.53249,10.51792],[76.52898,10.518],[76.52508,10.52013],[76.52379,10.52288],[76.52168,10.52463],[76.52154,10.52567],[76.5193,10.52959],[76.51577,10.53268],[76.51512,10.53435],[76.50832,10.53713],[76.50772,10.5391],[76.50578,10.53994],[76.50526,10.54252],[76.50398,10.54391],[76.50297,10.54797],[76.49933,10.54917],[76.49658,10.54936],[76.49504,10.55073],[76.49315,10.55072],[76.48919,10.55357],[76.4885,10.55609],[76.48673,10.55732],[76.48803,10.56038],[76.48692,10.56163],[76.48699,10.56327],[76.48805,10.56557],[76.4891,10.56652],[76.49053,10.56669],[76.49126,10.56803],[76.49007,10.57009],[76.48886,10.57094],[76.48743,10.57353],[76.48407,10.57362],[76.48332,10.57227],[76.48267,10.572],[76.47809,10.57337],[76.47559,10.5756],[76.47545,10.58108],[76.47857,10.58148],[76.48027,10.58346],[76.47882,10.5858],[76.47777,10.58914],[76.47427,10.58988],[76.47438,10.59348],[76.47605,10.59399],[76.47659,10.5957],[76.47642,10.5981],[76.4744,10.6004],[76.47414,10.60605],[76.4722,10.60679],[76.47206,10.60897],[76.47025,10.61142],[76.46998,10.61387],[76.466,10.61588],[76.46303,10.61658],[76.46281,10.61784],[76.45969,10.62],[76.45478,10.62058],[76.45068,10.61997],[76.44842,10.62163],[76.44713,10.63051],[76.44785,10.63152],[76.44876,10.63162],[76.44917,10.63215],[76.44913,10.63406],[76.44961,10.63519],[76.44903,10.63849],[76.44834,10.64101],[76.44692,10.64307],[76.44531,10.64426],[76.44401,10.64451],[76.44541,10.64498],[76.44668,10.64454],[76.44702,10.64494],[76.44744,10.64457],[76.44835,10.64478],[76.44864,10.64548],[76.4522,10.6475],[76.45228,10.64971],[76.4536,10.64956],[76.45484,10.65038],[76.45466,10.65134],[76.45353,10.65149],[76.45291,10.65486],[76.45201,10.65628],[76.45465,10.66004],[76.45588,10.66092],[76.45958,10.65975],[76.46132,10.65839],[76.46122,10.65483]]]]}},{"type":"Feature","properties":{"name":"Walayar command area","kind":"walayar","project":"Walayar","river":"Bharatpuzha","projectType":"Medium","status":"Completed","yearApproved":"1953(IC)","districtsBenefited":"Palakkad","culturableCommandAreaThousandHa":"4","potentialCreatedThousandHa":"3.4","mappedAreaHa":6652,"mappedAreaInDistrictHa":6652,"shedId":"RB20"},"geometry":{"type":"MultiPolygon","coordinates":[[[[76.81626,10.79682],[76.81615,10.79221],[76.81475,10.79182],[76.81375,10.79093],[76.8093,10.79005],[76.80801,10.78853],[76.80745,10.78548],[76.80554,10.78473],[76.80292,10.78513],[76.80186,10.78459],[76.80155,10.78012],[76.8037,10.77852],[76.8021,10.77599],[76.80293,10.77187],[76.79902,10.77218],[76.79492,10.76996],[76.79157,10.77107],[76.78838,10.77118],[76.78705,10.77314],[76.78215,10.77585],[76.78095,10.77633],[76.77925,10.77601],[76.77638,10.77684],[76.77482,10.78095],[76.7723,10.78187],[76.76886,10.78466],[76.76473,10.78305],[76.76145,10.78455],[76.76018,10.78579],[76.7563,10.78614],[76.75506,10.78565],[76.75197,10.7867],[76.75074,10.78774],[76.74793,10.78796],[76.747,10.7878],[76.74199,10.78466],[76.73962,10.78551],[76.73744,10.78423],[76.73676,10.78494],[76.73614,10.78717],[76.73644,10.78768],[76.73854,10.78796],[76.74115,10.78906],[76.74212,10.79083],[76.74428,10.79082],[76.74752,10.79205],[76.75087,10.79117],[76.75129,10.79478],[76.75295,10.79626],[76.75698,10.79603],[76.75982,10.79697],[76.76128,10.79592],[76.76202,10.79568],[76.76586,10.79611],[76.76677,10.79384],[76.76779,10.79283],[76.76847,10.79258],[76.7691,10.79279],[76.76987,10.79433],[76.77046,10.79455],[76.77317,10.79336],[76.77578,10.79307],[76.77596,10.79393],[76.77555,10.79572],[76.77762,10.79404],[76.77865,10.79384],[76.78028,10.79551],[76.78262,10.79577],[76.78452,10.79726],[76.78522,10.79662],[76.78506,10.79442],[76.78546,10.79363],[76.7869,10.79247],[76.78864,10.7916],[76.78932,10.79168],[76.7914,10.79386],[76.79199,10.79358],[76.79256,10.79139],[76.79402,10.79122],[76.7958,10.79194],[76.79691,10.79362],[76.80005,10.79329],[76.80266,10.79515],[76.80367,10.79504],[76.80475,10.79334],[76.80604,10.79323],[76.80827,10.79404],[76.80891,10.79572],[76.81015,10.79573],[76.8114,10.79488],[76.81269,10.7962],[76.81344,10.79829],[76.81618,10.79931],[76.81622,10.80057],[76.81527,10.80288],[76.81394,10.80918],[76.81517,10.8066],[76.81545,10.80427],[76.81674,10.80118],[76.81706,10.79808],[76.81626,10.79682]]],[[[76.80602,10.82003],[76.80884,10.82099],[76.80961,10.82029],[76.81138,10.81751],[76.8117,10.81504],[76.81343,10.81289],[76.8136,10.80782],[76.81599,10.80005],[76.81537,10.79933],[76.81312,10.79845],[76.81143,10.79531],[76.81005,10.79613],[76.80911,10.79608],[76.80849,10.7957],[76.80825,10.79424],[76.80522,10.79335],[76.80397,10.79524],[76.8025,10.79547],[76.80005,10.79365],[76.79639,10.79375],[76.79522,10.79202],[76.79321,10.79137],[76.79183,10.79409],[76.7905,10.79357],[76.789,10.79172],[76.78618,10.79321],[76.78538,10.79433],[76.78547,10.79654],[76.78496,10.79748],[76.78398,10.79719],[76.78267,10.79593],[76.78031,10.79569],[76.77867,10.794],[76.77797,10.79406],[76.77537,10.79601],[76.77506,10.79541],[76.77567,10.79416],[76.7756,10.79316],[76.77265,10.79374],[76.77043,10.79478],[76.76983,10.79456],[76.76905,10.79303],[76.76846,10.79276],[76.76658,10.79439],[76.76592,10.7963],[76.76228,10.79576],[76.75993,10.7971],[76.75705,10.7963],[76.75567,10.79642],[76.76252,10.8014],[76.76779,10.80695],[76.76857,10.80741],[76.77172,10.80637],[76.77374,10.80636],[76.77576,10.80835],[76.77768,10.80934],[76.77885,10.81197],[76.78257,10.81379],[76.78288,10.81565],[76.78549,10.81738],[76.78713,10.81776],[76.7901,10.81945],[76.79228,10.81906],[76.79377,10.8194],[76.79627,10.8214],[76.79772,10.82337],[76.80006,10.82444],[76.80123,10.82428],[76.80221,10.82336],[76.8029,10.82085],[76.80384,10.82019],[76.80602,10.82003]]],[[[76.69871,10.76112],[76.69676,10.76455],[76.69583,10.76481],[76.69458,10.7617],[76.69276,10.76096],[76.69041,10.75867],[76.69015,10.75666],[76.68116,10.75385],[76.67929,10.75421],[76.67912,10.75562],[76.67814,10.75717],[76.67837,10.7599],[76.67924,10.76214],[76.67914,10.76349],[76.67646,10.76636],[76.67588,10.76922],[76.67427,10.77125],[76.6737,10.77372],[76.67234,10.77534],[76.67177,10.77729],[76.67346,10.78042],[76.67423,10.78303],[76.67508,10.78383],[76.67667,10.78424],[76.68053,10.78441],[76.68025,10.78172],[76.68063,10.77944],[76.68188,10.77877],[76.68878,10.77852],[76.68907,10.77634],[76.68968,10.77607],[76.69206,10.77644],[76.68961,10.78009],[76.68921,10.78151],[76.69039,10.7835],[76.69002,10.78443],[76.691,10.78555],[76.69399,10.78424],[76.6985,10.78067],[76.69871,10.7822],[76.69793,10.78503],[76.69931,10.78685],[76.69901,10.78756],[76.69848,10.78773],[76.6964,10.78635],[76.69531,10.78665],[76.69445,10.78815],[76.6938,10.78845],[76.69221,10.78807],[76.69124,10.78857],[76.69142,10.79032],[76.69327,10.79215],[76.69549,10.79556],[76.69658,10.79489],[76.69969,10.79479],[76.70154,10.794],[76.70424,10.79376],[76.70452,10.79552],[76.70301,10.80196],[76.70524,10.8028],[76.70726,10.80295],[76.70847,10.80261],[76.70987,10.79995],[76.71279,10.79925],[76.71472,10.79758],[76.71778,10.79333],[76.71706,10.78978],[76.7172,10.78921],[76.71854,10.7883],[76.72901,10.78734],[76.73094,10.78467],[76.73247,10.78408],[76.73571,10.78641],[76.73628,10.78308],[76.73756,10.78249],[76.73856,10.78289],[76.73966,10.78452],[76.74138,10.78385],[76.74525,10.78538],[76.74733,10.78691],[76.74865,10.78717],[76.75515,10.78506],[76.7563,10.78586],[76.75847,10.78544],[76.76516,10.78251],[76.76632,10.78271],[76.76806,10.78402],[76.76896,10.78397],[76.77131,10.78171],[76.7747,10.7804],[76.77521,10.77758],[76.77607,10.77629],[76.77852,10.77552],[76.78146,10.77562],[76.78831,10.77043],[76.79143,10.77064],[76.79555,10.76961],[76.79709,10.77006],[76.7991,10.7716],[76.80299,10.77129],[76.8032,10.77016],[76.80799,10.76693],[76.80845,10.76494],[76.81013,10.76342],[76.80968,10.76255],[76.80815,10.76213],[76.80065,10.76288],[76.79878,10.76398],[76.79693,10.76344],[76.7961,10.76195],[76.7941,10.76069],[76.79172,10.758],[76.78932,10.75779],[76.78616,10.75897],[76.78484,10.7587],[76.7842,10.7569],[76.78529,10.75479],[76.78474,10.75352],[76.78097,10.75325],[76.77977,10.75048],[76.77652,10.74911],[76.77578,10.7497],[76.77519,10.75145],[76.77357,10.75167],[76.77306,10.7529],[76.77182,10.75377],[76.7685,10.755],[76.76683,10.75512],[76.76491,10.75625],[76.76033,10.75636],[76.75817,10.75857],[76.75579,10.7578],[76.7548,10.75657],[76.75424,10.75659],[76.75402,10.75737],[76.75255,10.75759],[76.75144,10.75693],[76.74619,10.75658],[76.74301,10.75685],[76.74028,10.75769],[76.73849,10.75747],[76.73817,10.75845],[76.73479,10.75966],[76.73297,10.75826],[76.73262,10.75708],[76.73035,10.75642],[76.72713,10.75428],[76.72584,10.75247],[76.72523,10.75233],[76.7236,10.75356],[76.72288,10.75712],[76.72031,10.75799],[76.71822,10.75788],[76.71722,10.75901],[76.71378,10.75931],[76.7111,10.75764],[76.70854,10.75909],[76.70536,10.75891],[76.7037,10.75804],[76.70303,10.75816],[76.70121,10.75931],[76.70113,10.76021],[76.69871,10.76112]]]]}},{"type":"Feature","properties":{"name":"Kanhirapuzha command area","kind":"kanhirapuzha","project":"Kanhirapuzha","river":"Bharatpuzha","projectType":"Medium","status":"Completed","yearApproved":"1964(IC)","districtsBenefited":"Palakkad","culturableCommandAreaThousandHa":"8.47","potentialCreatedThousandHa":"19.05","mappedAreaHa":51068,"mappedAreaInDistrictHa":51068,"shedId":"RB20"},"geometry":{"type":"MultiPolygon","coordinates":[[[[76.52133,10.98318],[76.52383,10.98451],[76.52586,10.98438],[76.52822,10.98457],[76.52964,10.98366],[76.53069,10.98352],[76.53269,10.98528],[76.53414,10.98552],[76.53621,10.9854],[76.53677,10.98463],[76.53572,10.98406],[76.53446,10.98146],[76.53107,10.98099],[76.53073,10.97688],[76.52667,10.97381],[76.52395,10.97257],[76.52255,10.97106],[76.5188,10.96927],[76.51829,10.96838],[76.51893,10.96597],[76.51666,10.96182],[76.51663,10.96059],[76.5178,10.95956],[76.51844,10.95411],[76.51938,10.95059],[76.52098,10.94872],[76.52094,10.94728],[76.52232,10.9438],[76.52223,10.94204],[76.52378,10.9389],[76.52404,10.93724],[76.52609,10.93447],[76.52828,10.93389],[76.52964,10.93289],[76.53057,10.93075],[76.52994,10.92617],[76.53169,10.92347],[76.53327,10.92274],[76.53559,10.9229],[76.53952,10.92191],[76.54229,10.91852],[76.54564,10.91683],[76.54579,10.91109],[76.54654,10.90714],[76.54636,10.90504],[76.54259,10.89903],[76.53748,10.89499],[76.53648,10.89109],[76.52934,10.8903],[76.52377,10.88627],[76.52091,10.88673],[76.51691,10.88954],[76.51572,10.88963],[76.51093,10.88713],[76.50791,10.88414],[76.50684,10.88238],[76.50178,10.88075],[76.50028,10.88091],[76.49812,10.88031],[76.49467,10.87798],[76.49295,10.87445],[76.48915,10.87372],[76.48723,10.87274],[76.48585,10.87119],[76.48348,10.8714],[76.48091,10.87345],[76.4779,10.87324],[76.47603,10.87272],[76.47236,10.86906],[76.46953,10.86954],[76.46667,10.86862],[76.46645,10.86604],[76.46462,10.86207],[76.4642,10.85935],[76.46715,10.85795],[76.46654,10.85434],[76.46702,10.84801],[76.46649,10.84697],[76.46571,10.8466],[76.46367,10.84643],[76.46283,10.84562],[76.46269,10.84467],[76.46365,10.84406],[76.46375,10.84168],[76.46601,10.83911],[76.46579,10.83788],[76.46688,10.83671],[76.46726,10.83482],[76.46661,10.8338],[76.46429,10.83322],[76.4637,10.83216],[76.46189,10.83076],[76.46082,10.8307],[76.46029,10.82785],[76.45895,10.82538],[76.45912,10.82394],[76.45833,10.82309],[76.45886,10.82103],[76.45766,10.81962],[76.45632,10.81932],[76.45478,10.82041],[76.45363,10.81934],[76.45185,10.819],[76.45169,10.81639],[76.4524,10.81303],[76.45051,10.81342],[76.44765,10.81297],[76.44739,10.81064],[76.44578,10.81024],[76.44505,10.81052],[76.44438,10.80984],[76.44429,10.8089],[76.44661,10.8061],[76.44448,10.80254],[76.44341,10.79904],[76.44179,10.79799],[76.44058,10.79614],[76.44164,10.79354],[76.4416,10.79253],[76.44266,10.79158],[76.44163,10.78881],[76.44163,10.78734],[76.44211,10.7866],[76.44145,10.78571],[76.44182,10.78477],[76.44144,10.78257],[76.43668,10.78191],[76.43366,10.7827],[76.43147,10.78271],[76.43015,10.7818],[76.42684,10.78199],[76.42549,10.78109],[76.42261,10.7814],[76.41771,10.78076],[76.41435,10.78155],[76.41324,10.7808],[76.41138,10.78081],[76.40874,10.78234],[76.40565,10.78048],[76.40188,10.78057],[76.40006,10.78205],[76.39912,10.78221],[76.39764,10.78109],[76.39238,10.78109],[76.38932,10.77995],[76.38627,10.78186],[76.38521,10.78102],[76.38425,10.781],[76.38383,10.77999],[76.38211,10.77909],[76.38233,10.77648],[76.38321,10.77522],[76.38335,10.77328],[76.3825,10.7722],[76.38204,10.76976],[76.37533,10.76888],[76.37242,10.7676],[76.3661,10.76592],[76.36359,10.76437],[76.36204,10.76276],[76.36049,10.76067],[76.35657,10.7472],[76.35562,10.74501],[76.35421,10.74422],[76.34981,10.74515],[76.34396,10.74982],[76.34226,10.75044],[76.33502,10.75056],[76.3285,10.74677],[76.32659,10.74631],[76.32116,10.74811],[76.31498,10.74924],[76.3102,10.75197],[76.30151,10.75374],[76.29025,10.75753],[76.28736,10.75794],[76.2847,10.75707],[76.28263,10.754],[76.2818,10.75364],[76.26994,10.75565],[76.26406,10.75522],[76.26261,10.75437],[76.26068,10.75214],[76.25567,10.7498],[76.25061,10.74839],[76.24935,10.74866],[76.24815,10.7498],[76.24652,10.75231],[76.24644,10.75327],[76.24719,10.75637],[76.24935,10.75845],[76.25002,10.7611],[76.2485,10.7645],[76.24729,10.77136],[76.24641,10.77256],[76.24325,10.77461],[76.2437,10.77753],[76.24637,10.77753],[76.24759,10.77701],[76.24829,10.77847],[76.24928,10.7779],[76.24943,10.77846],[76.25044,10.77861],[76.24981,10.77913],[76.25111,10.78087],[76.25076,10.78125],[76.25022,10.78089],[76.24985,10.78214],[76.25066,10.78219],[76.25037,10.78344],[76.25139,10.78438],[76.25145,10.78568],[76.25296,10.78869],[76.2535,10.79118],[76.25469,10.79241],[76.25518,10.79428],[76.25493,10.79594],[76.25564,10.79623],[76.25647,10.799],[76.25779,10.80066],[76.25751,10.80301],[76.25676,10.80333],[76.25783,10.8097],[76.2565,10.81281],[76.25477,10.82339],[76.25398,10.82582],[76.2523,10.83991],[76.25225,10.84901],[76.25126,10.85098],[76.24419,10.85766],[76.24048,10.86334],[76.23905,10.8669],[76.23618,10.87729],[76.23524,10.88469],[76.24251,10.88597],[76.24581,10.88573],[76.24925,10.88451],[76.25175,10.88416],[76.25317,10.88462],[76.25657,10.89055],[76.258,10.89422],[76.26191,10.89852],[76.2646,10.90361],[76.26839,10.91463],[76.2691,10.91477],[76.27322,10.91322],[76.27726,10.91438],[76.27918,10.91579],[76.28289,10.91325],[76.2847,10.91253],[76.28988,10.91514],[76.29201,10.91544],[76.2943,10.91895],[76.2962,10.91965],[76.29881,10.91799],[76.30084,10.91461],[76.30454,10.91121],[76.30588,10.91072],[76.30848,10.91096],[76.31291,10.91235],[76.31909,10.91149],[76.32004,10.91063],[76.3199,10.90693],[76.32225,10.90511],[76.32919,10.90404],[76.33476,10.90409],[76.33659,10.90594],[76.3392,10.90672],[76.33981,10.90853],[76.34063,10.91562],[76.34188,10.9189],[76.34343,10.91927],[76.34483,10.92031],[76.35045,10.91912],[76.35495,10.92076],[76.35582,10.92178],[76.35669,10.92652],[76.35783,10.92774],[76.35956,10.92751],[76.36139,10.92639],[76.36421,10.92737],[76.36502,10.92721],[76.3728,10.92211],[76.37663,10.92275],[76.38074,10.9213],[76.38264,10.92117],[76.38532,10.9226],[76.38832,10.92282],[76.38951,10.9235],[76.39124,10.92344],[76.39286,10.92441],[76.39335,10.92536],[76.39816,10.92795],[76.40445,10.92483],[76.40883,10.92134],[76.41394,10.9184],[76.42777,10.91389],[76.43004,10.91603],[76.43063,10.91916],[76.43021,10.92752],[76.42898,10.9305],[76.42984,10.93301],[76.43206,10.9351],[76.43225,10.9368],[76.43162,10.93768],[76.43174,10.93928],[76.43524,10.94457],[76.43533,10.94595],[76.43439,10.94822],[76.43671,10.94989],[76.43931,10.94998],[76.44238,10.95143],[76.44607,10.95039],[76.44803,10.95076],[76.45208,10.94793],[76.45531,10.94684],[76.45658,10.94561],[76.45859,10.94561],[76.46127,10.94352],[76.46339,10.94356],[76.46657,10.94159],[76.46709,10.94177],[76.46765,10.943],[76.46945,10.94313],[76.47082,10.94427],[76.47234,10.94744],[76.47604,10.95097],[76.47939,10.95094],[76.48119,10.95212],[76.48426,10.95262],[76.48853,10.9527],[76.49071,10.95399],[76.49165,10.9539],[76.49335,10.9522],[76.49536,10.95323],[76.49474,10.95471],[76.49515,10.95596],[76.495,10.95835],[76.49536,10.96016],[76.49639,10.96171],[76.4935,10.96666],[76.49427,10.96723],[76.49444,10.96857],[76.49596,10.97035],[76.4958,10.97256],[76.49643,10.97398],[76.4981,10.97403],[76.50121,10.97543],[76.50574,10.97272],[76.50628,10.97121],[76.50685,10.97095],[76.50872,10.97209],[76.50974,10.97342],[76.51373,10.97326],[76.51417,10.97513],[76.51293,10.97734],[76.51274,10.97871],[76.51388,10.98177],[76.51496,10.98208],[76.51551,10.98281],[76.51572,10.98481],[76.51646,10.98515],[76.51843,10.9849],[76.52133,10.98318]],[[76.41743,10.85556],[76.41678,10.85491],[76.41224,10.85445],[76.40733,10.85536],[76.40439,10.85396],[76.40036,10.85436],[76.3992,10.85311],[76.40054,10.85081],[76.40272,10.85005],[76.40878,10.85087],[76.41154,10.84946],[76.41459,10.84975],[76.4171,10.84863],[76.42283,10.84812],[76.42763,10.8488],[76.43003,10.85012],[76.43235,10.85001],[76.43344,10.85123],[76.437,10.85137],[76.43802,10.85219],[76.43777,10.8533],[76.43689,10.85417],[76.4337,10.85615],[76.42633,10.85824],[76.42405,10.85813],[76.42234,10.85706],[76.41743,10.85556]],[[76.38505,10.84925],[76.38112,10.85023],[76.37782,10.85167],[76.36559,10.85106],[76.35645,10.84458],[76.35146,10.84388],[76.34887,10.84276],[76.34478,10.8373],[76.34331,10.83601],[76.34351,10.8337],[76.34503,10.83061],[76.34892,10.82616],[76.3535,10.82431],[76.35644,10.8219],[76.35917,10.82064],[76.35943,10.8198],[76.36119,10.81917],[76.36371,10.81917],[76.36601,10.81798],[76.36672,10.81684],[76.36804,10.81618],[76.37053,10.81621],[76.37175,10.8173],[76.37449,10.81586],[76.37505,10.81543],[76.37468,10.81193],[76.37685,10.81188],[76.37775,10.81053],[76.37974,10.81009],[76.37994,10.81285],[76.38162,10.81482],[76.38259,10.81507],[76.38551,10.8147],[76.38581,10.81243],[76.38975,10.81026],[76.39387,10.81172],[76.40355,10.81114],[76.40536,10.81178],[76.41098,10.81178],[76.41114,10.81308],[76.40967,10.81547],[76.40869,10.81985],[76.40697,10.8214],[76.40389,10.8231],[76.39434,10.82681],[76.39118,10.82892],[76.38642,10.82937],[76.38376,10.83096],[76.38253,10.83331],[76.38319,10.83477],[76.38282,10.83595],[76.38167,10.83623],[76.38008,10.83911],[76.38652,10.84101],[76.38874,10.84121],[76.39058,10.84121],[76.39428,10.84027],[76.39489,10.84262],[76.39457,10.84473],[76.39219,10.84656],[76.38505,10.84925]]],[[[76.45298,11.04088],[76.45396,11.04098],[76.45621,11.03875],[76.45766,11.03311],[76.45927,11.03051],[76.4612,11.0289],[76.46187,11.02723],[76.46415,11.02653],[76.46695,11.0266],[76.46894,11.02799],[76.47071,11.02811],[76.47116,11.02925],[76.47378,11.02909],[76.47504,11.03063],[76.47659,11.03121],[76.48033,11.03181],[76.48351,11.03086],[76.48635,11.03165],[76.48721,11.03047],[76.48733,11.02945],[76.49633,11.02622],[76.49747,11.02507],[76.50038,11.02016],[76.50828,11.01761],[76.50969,11.01665],[76.50932,11.00891],[76.5097,11.00481],[76.51421,11.00068],[76.52095,10.99909],[76.52181,11.00028],[76.52292,10.99997],[76.52556,11.00063],[76.53002,10.99895],[76.53362,10.99909],[76.53479,10.99822],[76.53623,10.99579],[76.53793,10.99707],[76.53844,10.99697],[76.53769,10.99503],[76.53817,10.99365],[76.53771,10.98957],[76.5382,10.98602],[76.53377,10.98602],[76.53276,10.98563],[76.5307,10.98372],[76.52968,10.98384],[76.52859,10.98473],[76.5267,10.98485],[76.52354,10.98467],[76.52125,10.98357],[76.51854,10.98506],[76.51618,10.98575],[76.51512,10.98464],[76.51494,10.9828],[76.51326,10.98118],[76.51255,10.97881],[76.51251,10.97737],[76.51379,10.97508],[76.51338,10.97347],[76.50959,10.97378],[76.507,10.97139],[76.50597,10.97332],[76.50153,10.97556],[76.50048,10.97569],[76.49838,10.97446],[76.49635,10.97422],[76.49553,10.97288],[76.49574,10.97058],[76.49407,10.96886],[76.49389,10.96733],[76.49297,10.96689],[76.49603,10.96184],[76.4949,10.95981],[76.4944,10.95452],[76.49489,10.95387],[76.49476,10.95315],[76.49318,10.95257],[76.49178,10.95414],[76.49066,10.95447],[76.48716,10.95289],[76.48297,10.95308],[76.48052,10.95223],[76.47958,10.95123],[76.47694,10.95174],[76.47518,10.95131],[76.47406,10.94958],[76.47245,10.94895],[76.47052,10.94422],[76.46925,10.94347],[76.46763,10.94367],[76.46683,10.94183],[76.46538,10.9425],[76.46474,10.94375],[76.46286,10.94391],[76.45843,10.9459],[76.45735,10.94566],[76.45526,10.94725],[76.45188,10.94829],[76.44786,10.95104],[76.4451,10.95098],[76.44353,10.95174],[76.44216,10.95177],[76.43972,10.95049],[76.43646,10.95019],[76.43382,10.94814],[76.42993,10.94954],[76.42924,10.95051],[76.4293,10.95261],[76.42864,10.95469],[76.42585,10.95599],[76.42962,10.95907],[76.42946,10.9598],[76.42739,10.96097],[76.42726,10.96924],[76.42786,10.97163],[76.42909,10.97238],[76.43066,10.9709],[76.43193,10.9711],[76.43158,10.97631],[76.43548,10.9781],[76.43737,10.9832],[76.44062,10.98357],[76.44151,10.98433],[76.44397,10.99119],[76.44567,10.99228],[76.44748,10.99532],[76.45011,10.99645],[76.4535,10.99631],[76.45534,10.99789],[76.45468,10.99945],[76.45305,11.00096],[76.45194,11.00286],[76.45169,11.00568],[76.45256,11.00741],[76.45234,11.00892],[76.45054,11.00918],[76.44943,11.00989],[76.44977,11.01052],[76.4491,11.01204],[76.44923,11.01354],[76.44834,11.01532],[76.44926,11.01871],[76.449,11.01839],[76.44856,11.01874],[76.44818,11.02026],[76.44876,11.02223],[76.44847,11.02567],[76.44784,11.02799],[76.44766,11.02769],[76.44748,11.02803],[76.44727,11.03076],[76.44507,11.03311],[76.44381,11.03881],[76.44415,11.0405],[76.45256,11.04178],[76.45298,11.04088]]]]}},{"type":"Feature","properties":{"name":"Malampuzha command area","kind":"malampuzha","project":"Malampuzha","river":"Bharatpuzha","projectType":"Major","status":"Completed","yearApproved":"1949","districtsBenefited":"Palakkad, Trissur","culturableCommandAreaThousandHa":"22.55","potentialCreatedThousandHa":"45.11","mappedAreaHa":46251,"mappedAreaInDistrictHa":43162,"shedId":"RB20"},"geometry":{"type":"MultiPolygon","coordinates":[[[[76.69843,10.80557],[76.70076,10.8027],[76.70301,10.80196],[76.70452,10.79552],[76.70424,10.79376],[76.70154,10.794],[76.69969,10.79479],[76.69658,10.79489],[76.69549,10.79556],[76.69327,10.79215],[76.69142,10.79032],[76.69123,10.78932],[76.69124,10.78857],[76.69221,10.78807],[76.6938,10.78845],[76.69445,10.78815],[76.69531,10.78665],[76.6964,10.78635],[76.69848,10.78773],[76.69901,10.78756],[76.69931,10.78685],[76.69793,10.78503],[76.69871,10.7822],[76.6985,10.78067],[76.69399,10.78424],[76.691,10.78555],[76.69002,10.78443],[76.69039,10.7835],[76.68921,10.78151],[76.68961,10.78009],[76.69196,10.77682],[76.69167,10.77619],[76.68907,10.77634],[76.68878,10.77852],[76.68107,10.77908],[76.68042,10.77992],[76.68053,10.78441],[76.68003,10.78449],[76.67599,10.78413],[76.67455,10.78343],[76.67313,10.7797],[76.67207,10.77834],[76.67195,10.77612],[76.67364,10.77385],[76.67427,10.77125],[76.67588,10.76922],[76.67646,10.76636],[76.67914,10.76349],[76.67924,10.76214],[76.67837,10.7599],[76.67814,10.75717],[76.67912,10.75562],[76.67928,10.75377],[76.67853,10.75177],[76.67808,10.74809],[76.67147,10.75051],[76.66996,10.75067],[76.66765,10.74993],[76.66572,10.74745],[76.65247,10.74869],[76.63329,10.75355],[76.63062,10.75463],[76.62755,10.75489],[76.62317,10.75409],[76.62149,10.75439],[76.61892,10.75694],[76.61733,10.75739],[76.61531,10.75639],[76.61153,10.75071],[76.61019,10.75037],[76.60602,10.75885],[76.60151,10.76152],[76.59886,10.76557],[76.59705,10.76747],[76.59502,10.7682],[76.59137,10.76786],[76.5872,10.76481],[76.5864,10.76499],[76.58336,10.7706],[76.58359,10.77307],[76.58542,10.77861],[76.58433,10.7803],[76.58133,10.78071],[76.57565,10.77812],[76.57276,10.78137],[76.56882,10.782],[76.56703,10.78436],[76.55937,10.78889],[76.55738,10.7945],[76.55947,10.79638],[76.56157,10.79942],[76.56835,10.79822],[76.57352,10.79791],[76.57662,10.80082],[76.57958,10.80082],[76.58962,10.79946],[76.59902,10.79758],[76.60742,10.795],[76.61182,10.79301],[76.61622,10.78912],[76.62133,10.7883],[76.62421,10.78575],[76.62617,10.78481],[76.62926,10.78608],[76.63186,10.7857],[76.63775,10.78733],[76.63995,10.7896],[76.64219,10.79049],[76.64346,10.79395],[76.64675,10.79458],[76.64868,10.79546],[76.6535,10.80223],[76.6585,10.80279],[76.66061,10.80429],[76.66352,10.80457],[76.66725,10.80816],[76.66893,10.80776],[76.67116,10.80328],[76.67276,10.80299],[76.68195,10.80502],[76.68629,10.80759],[76.69118,10.80774],[76.6924,10.80872],[76.69376,10.81233],[76.69491,10.81258],[76.69767,10.81029],[76.69843,10.80557]]],[[[76.56118,10.78639],[76.56448,10.78461],[76.56827,10.7812],[76.57284,10.77972],[76.57491,10.77722],[76.57784,10.77765],[76.58126,10.77959],[76.5828,10.77963],[76.58407,10.77905],[76.58434,10.77806],[76.58247,10.77531],[76.58184,10.77065],[76.58382,10.76731],[76.5848,10.76433],[76.58766,10.76357],[76.59234,10.76696],[76.59471,10.76703],[76.59597,10.76656],[76.59724,10.76554],[76.60081,10.76057],[76.60513,10.75783],[76.60519,10.75504],[76.60982,10.74941],[76.61127,10.74938],[76.61264,10.75008],[76.61646,10.75594],[76.6176,10.75627],[76.61847,10.75599],[76.6202,10.75381],[76.62338,10.75266],[76.62998,10.75285],[76.64663,10.74863],[76.65369,10.74754],[76.66541,10.74663],[76.66827,10.74869],[76.67209,10.74879],[76.67788,10.74652],[76.67773,10.74538],[76.67845,10.7451],[76.68558,10.74369],[76.68725,10.74291],[76.69321,10.73415],[76.69426,10.73043],[76.69414,10.72927],[76.69668,10.72622],[76.69843,10.7251],[76.70048,10.72175],[76.70245,10.72004],[76.70305,10.7175],[76.70264,10.71635],[76.69741,10.71555],[76.69351,10.71803],[76.69113,10.71832],[76.68982,10.71918],[76.68796,10.72209],[76.68379,10.72376],[76.68304,10.7248],[76.68275,10.7267],[76.68204,10.7273],[76.67672,10.72853],[76.67542,10.72638],[76.67231,10.72511],[76.66569,10.72468],[76.66259,10.72542],[76.65971,10.72437],[76.65755,10.72435],[76.65328,10.72214],[76.65311,10.72071],[76.65478,10.71853],[76.65502,10.71594],[76.65361,10.71197],[76.6499,10.70869],[76.64922,10.70614],[76.65028,10.70107],[76.64894,10.69415],[76.64782,10.69284],[76.64682,10.69054],[76.64463,10.68996],[76.64383,10.68921],[76.64311,10.68686],[76.64386,10.6819],[76.64226,10.68034],[76.64157,10.67896],[76.64166,10.67849],[76.64823,10.67921],[76.64828,10.67752],[76.64712,10.67362],[76.64834,10.67178],[76.64937,10.67157],[76.65196,10.67238],[76.65343,10.67219],[76.65446,10.67196],[76.65563,10.67026],[76.65448,10.66857],[76.64956,10.66813],[76.64821,10.66705],[76.64596,10.66655],[76.64572,10.66509],[76.64446,10.66419],[76.64512,10.66086],[76.64481,10.6587],[76.64616,10.65287],[76.64599,10.64612],[76.647,10.64469],[76.6485,10.64368],[76.65033,10.6432],[76.65199,10.64004],[76.65113,10.63838],[76.6508,10.63524],[76.64789,10.63363],[76.64607,10.63032],[76.64635,10.62555],[76.64838,10.6236],[76.65189,10.62323],[76.65535,10.6198],[76.65652,10.61796],[76.65417,10.61508],[76.64891,10.61463],[76.64752,10.61367],[76.64729,10.61249],[76.64646,10.61391],[76.64502,10.61403],[76.64076,10.61229],[76.63578,10.61342],[76.63295,10.61219],[76.63138,10.61308],[76.6282,10.6134],[76.6228,10.6117],[76.62072,10.61248],[76.61868,10.61204],[76.61794,10.61406],[76.61684,10.61467],[76.61608,10.61271],[76.61449,10.61205],[76.612,10.60961],[76.61074,10.60931],[76.61027,10.61002],[76.61004,10.614],[76.60746,10.6145],[76.60517,10.6171],[76.60508,10.61834],[76.60127,10.6192],[76.60073,10.62463],[76.5973,10.62539],[76.59479,10.62515],[76.59161,10.62591],[76.58816,10.62477],[76.58615,10.62536],[76.58337,10.62545],[76.58166,10.62806],[76.58038,10.63365],[76.57874,10.63447],[76.57607,10.63435],[76.57539,10.63486],[76.57466,10.64346],[76.57394,10.64546],[76.57026,10.64656],[76.56735,10.64463],[76.56543,10.64487],[76.56446,10.64553],[76.56202,10.65017],[76.56012,10.65113],[76.55481,10.6516],[76.55379,10.65412],[76.55223,10.65576],[76.54805,10.6543],[76.54306,10.65467],[76.5413,10.65408],[76.53952,10.65255],[76.53749,10.6523],[76.53612,10.65304],[76.53593,10.65471],[76.5346,10.65551],[76.53418,10.65771],[76.53321,10.6584],[76.52855,10.65791],[76.52717,10.65865],[76.52626,10.66056],[76.52506,10.66138],[76.52104,10.66048],[76.51875,10.66174],[76.51293,10.66281],[76.51111,10.66391],[76.50139,10.6672],[76.4985,10.66727],[76.49608,10.66673],[76.49372,10.66468],[76.48851,10.66394],[76.4837,10.66197],[76.47936,10.66204],[76.4778,10.66267],[76.47344,10.66608],[76.46984,10.66457],[76.46794,10.66721],[76.46523,10.6686],[76.46297,10.67163],[76.46051,10.67167],[76.45789,10.67287],[76.45683,10.67269],[76.4552,10.67131],[76.45397,10.67155],[76.44965,10.68223],[76.4487,10.68611],[76.44595,10.69112],[76.44114,10.69613],[76.4408,10.697],[76.442,10.6968],[76.4421,10.6973],[76.4441,10.6981],[76.4441,10.6987],[76.4447,10.6988],[76.4444,10.6992],[76.448,10.7001],[76.4479,10.7005],[76.4489,10.7011],[76.4514,10.7016],[76.4516,10.7022],[76.4522,10.701],[76.4537,10.7004],[76.4545,10.7015],[76.4566,10.6996],[76.4617,10.7064],[76.4616,10.7076],[76.4635,10.7156],[76.4659,10.7185],[76.4641,10.7204],[76.4642,10.7213],[76.4658,10.7221],[76.4692,10.726],[76.4702,10.7267],[76.4726,10.7271],[76.475,10.7289],[76.4751,10.7299],[76.4763,10.7307],[76.477,10.7303],[76.4778,10.7309],[76.479,10.7348],[76.4787,10.7353],[76.4766,10.736],[76.4764,10.7373],[76.47333,10.73918],[76.47452,10.74025],[76.47366,10.74132],[76.47246,10.74162],[76.474,10.7446],[76.47351,10.74545],[76.47168,10.74623],[76.47241,10.74833],[76.47449,10.74755],[76.47931,10.7496],[76.48034,10.75297],[76.4838,10.75624],[76.48615,10.76065],[76.49147,10.76459],[76.4957,10.76562],[76.49897,10.7692],[76.50082,10.76954],[76.50307,10.769],[76.50538,10.76924],[76.50881,10.76995],[76.51,10.77063],[76.51148,10.77264],[76.51304,10.77719],[76.51512,10.7802],[76.51709,10.78133],[76.52092,10.78226],[76.52287,10.78478],[76.52581,10.78736],[76.53204,10.78803],[76.53643,10.7865],[76.5398,10.78641],[76.54377,10.7898],[76.5453,10.79249],[76.54737,10.79381],[76.54817,10.79522],[76.55258,10.79711],[76.55454,10.79611],[76.55668,10.79292],[76.55681,10.79078],[76.55762,10.78908],[76.56118,10.78639]],[[76.48666,10.72954],[76.48312,10.72851],[76.48069,10.72845],[76.48092,10.72748],[76.4833,10.72638],[76.48469,10.72462],[76.48483,10.72382],[76.48315,10.7196],[76.47825,10.71142],[76.47628,10.7103],[76.47589,10.70726],[76.47434,10.70672],[76.47451,10.70433],[76.47332,10.70388],[76.4724,10.70517],[76.47098,10.70441],[76.47085,10.70311],[76.47221,10.70198],[76.47144,10.70025],[76.46994,10.70016],[76.46814,10.69755],[76.46592,10.69682],[76.46588,10.69554],[76.46669,10.69509],[76.46692,10.69398],[76.46845,10.69375],[76.46858,10.69273],[76.47322,10.69282],[76.47376,10.69243],[76.47243,10.68959],[76.47106,10.6894],[76.47046,10.68874],[76.47023,10.68667],[76.46919,10.68651],[76.46856,10.68852],[76.46749,10.68886],[76.46534,10.68745],[76.46528,10.68595],[76.4661,10.68517],[76.46709,10.68455],[76.4687,10.68489],[76.46881,10.68433],[76.46767,10.68317],[76.46953,10.68091],[76.47141,10.6801],[76.47273,10.68109],[76.47233,10.68297],[76.47265,10.68348],[76.47503,10.68343],[76.4752,10.68215],[76.47659,10.68105],[76.47741,10.68104],[76.47795,10.68191],[76.47976,10.68223],[76.4809,10.67929],[76.48302,10.68057],[76.48459,10.68311],[76.48706,10.68196],[76.48842,10.68377],[76.49179,10.68474],[76.49268,10.68365],[76.49619,10.68438],[76.4974,10.68361],[76.49909,10.68422],[76.5006,10.68593],[76.50161,10.68433],[76.50173,10.68208],[76.50303,10.68292],[76.50391,10.68289],[76.50539,10.68127],[76.50776,10.68254],[76.50912,10.68062],[76.51884,10.67912],[76.52017,10.67969],[76.52103,10.67938],[76.52134,10.67833],[76.52276,10.67719],[76.5277,10.67656],[76.5293,10.67738],[76.52932,10.67843],[76.53037,10.67926],[76.53079,10.67911],[76.53188,10.67844],[76.53214,10.67759],[76.53219,10.67599],[76.53144,10.67516],[76.53192,10.67374],[76.53146,10.67361],[76.5302,10.67462],[76.52838,10.67429],[76.52726,10.67464],[76.52697,10.67394],[76.52897,10.67108],[76.53026,10.67104],[76.53079,10.6695],[76.53224,10.66883],[76.53379,10.66926],[76.53315,10.66838],[76.53333,10.66782],[76.53489,10.6675],[76.5354,10.66865],[76.53602,10.66883],[76.53731,10.66804],[76.53711,10.66687],[76.538,10.66626],[76.53888,10.66978],[76.54003,10.67004],[76.54063,10.66979],[76.54108,10.66865],[76.54074,10.66771],[76.54159,10.66676],[76.5439,10.66723],[76.54451,10.66825],[76.54657,10.66807],[76.54757,10.66745],[76.54857,10.67002],[76.54944,10.67012],[76.54955,10.67107],[76.54996,10.67112],[76.55069,10.67087],[76.55112,10.66957],[76.54962,10.66823],[76.54932,10.66687],[76.55108,10.66648],[76.55227,10.6674],[76.55221,10.66873],[76.55567,10.67048],[76.55689,10.67013],[76.55836,10.67152],[76.55831,10.67231],[76.55736,10.67276],[76.5572,10.67384],[76.55601,10.67515],[76.55355,10.67613],[76.5534,10.67684],[76.55449,10.67803],[76.55614,10.67893],[76.55849,10.67913],[76.55917,10.67971],[76.56247,10.67975],[76.5636,10.68213],[76.56289,10.68304],[76.56636,10.68322],[76.56788,10.68473],[76.56918,10.68475],[76.57014,10.68536],[76.57023,10.6876],[76.5689,10.68994],[76.57059,10.69099],[76.57064,10.69269],[76.5681,10.69323],[76.56829,10.69503],[76.56779,10.6963],[76.56586,10.69672],[76.56527,10.69889],[76.56426,10.69945],[76.56396,10.70107],[76.56161,10.70197],[76.56099,10.7028],[76.56192,10.704],[76.56136,10.70487],[76.55831,10.70547],[76.55485,10.70513],[76.54932,10.70703],[76.54903,10.70769],[76.55022,10.70851],[76.55023,10.70976],[76.54961,10.71032],[76.54776,10.71013],[76.54708,10.71088],[76.54613,10.71091],[76.54568,10.70958],[76.54482,10.70886],[76.54504,10.70749],[76.54437,10.70657],[76.54139,10.707],[76.53689,10.70279],[76.53709,10.70197],[76.53925,10.70226],[76.53889,10.70117],[76.54009,10.70107],[76.54028,10.70062],[76.53997,10.70011],[76.53838,10.69965],[76.53856,10.69825],[76.53677,10.69797],[76.5354,10.69858],[76.53494,10.69979],[76.53387,10.69999],[76.53335,10.70078],[76.53235,10.7005],[76.53111,10.70153],[76.5312,10.70336],[76.52869,10.70345],[76.52642,10.70456],[76.52663,10.70601],[76.52823,10.70655],[76.5281,10.70928],[76.52542,10.71081],[76.52445,10.70999],[76.52267,10.70998],[76.51994,10.71332],[76.52009,10.71457],[76.51843,10.71536],[76.51784,10.71636],[76.51464,10.71513],[76.51393,10.71315],[76.51451,10.711],[76.51398,10.71032],[76.51313,10.70957],[76.51237,10.70968],[76.51223,10.70908],[76.51062,10.70796],[76.50953,10.70811],[76.50876,10.70895],[76.50925,10.70957],[76.50922,10.71095],[76.50847,10.71157],[76.50823,10.71316],[76.50747,10.71326],[76.50734,10.71459],[76.50521,10.71532],[76.50487,10.71388],[76.50341,10.71432],[76.50254,10.71361],[76.50092,10.71418],[76.50167,10.71593],[76.50034,10.71756],[76.5009,10.71975],[76.49993,10.72165],[76.50025,10.72226],[76.50106,10.72212],[76.50152,10.72402],[76.5023,10.72415],[76.49978,10.72661],[76.49526,10.72885],[76.49121,10.72882],[76.48666,10.72954]]],[[[76.68383,10.81964],[76.68939,10.81866],[76.69058,10.81731],[76.69118,10.813],[76.69227,10.8119],[76.6914,10.80911],[76.69048,10.80839],[76.68809,10.8088],[76.68502,10.8086],[76.68129,10.80579],[76.67463,10.80468],[76.67257,10.80393],[76.67116,10.80481],[76.67073,10.80694],[76.66955,10.80858],[76.66709,10.80895],[76.66525,10.80837],[76.66832,10.81199],[76.67063,10.81301],[76.67208,10.81261],[76.67323,10.81161],[76.67476,10.81158],[76.67546,10.81205],[76.67699,10.81625],[76.67712,10.82],[76.67931,10.82402],[76.67934,10.82666],[76.68118,10.82899],[76.68391,10.8303],[76.68399,10.82963],[76.68189,10.82891],[76.68206,10.82836],[76.68341,10.82772],[76.68371,10.82657],[76.68324,10.82511],[76.6818,10.82385],[76.68162,10.82263],[76.68383,10.81964]]],[[[76.6375,10.83604],[76.64032,10.8353],[76.64065,10.83361],[76.63901,10.83279],[76.63768,10.83311],[76.6363,10.8326],[76.63624,10.83164],[76.63791,10.82987],[76.63971,10.82958],[76.64178,10.82811],[76.64646,10.82718],[76.6498,10.82392],[76.65252,10.82326],[76.65321,10.82088],[76.65391,10.8201],[76.65509,10.82005],[76.6564,10.82254],[76.65731,10.82298],[76.65838,10.82024],[76.6592,10.81964],[76.66062,10.81935],[76.66239,10.81993],[76.666,10.81751],[76.66782,10.81797],[76.66905,10.81706],[76.6711,10.81718],[76.67284,10.82058],[76.6738,10.82102],[76.67398,10.82277],[76.67335,10.82396],[76.67348,10.82486],[76.67411,10.82566],[76.67573,10.82579],[76.67688,10.82643],[76.67699,10.8284],[76.67774,10.8302],[76.68354,10.83184],[76.68379,10.83081],[76.68181,10.83025],[76.67859,10.8278],[76.67781,10.8256],[76.67839,10.8244],[76.67815,10.82322],[76.67604,10.81947],[76.67456,10.81211],[76.6738,10.81207],[76.67185,10.81399],[76.66878,10.81324],[76.66506,10.81018],[76.66424,10.80752],[76.66244,10.80602],[76.65887,10.80553],[76.65587,10.80369],[76.65372,10.80367],[76.6518,10.80291],[76.64923,10.7992],[76.64813,10.79669],[76.64718,10.796],[76.64409,10.79538],[76.64207,10.79435],[76.64139,10.79352],[76.64094,10.7906],[76.63943,10.79027],[76.63779,10.78851],[76.63578,10.78832],[76.63245,10.78705],[76.62876,10.78691],[76.62588,10.78593],[76.62245,10.78863],[76.61686,10.79029],[76.61043,10.79512],[76.60669,10.79665],[76.59449,10.7996],[76.57736,10.80176],[76.57537,10.80156],[76.57294,10.79942],[76.57155,10.79907],[76.56218,10.80048],[76.55972,10.79973],[76.5585,10.79739],[76.5571,10.7961],[76.55419,10.79841],[76.54909,10.7979],[76.54484,10.79415],[76.5415,10.78994],[76.53899,10.78833],[76.53686,10.78824],[76.53431,10.7895],[76.52951,10.79052],[76.52603,10.7905],[76.52451,10.78992],[76.52164,10.78708],[76.51941,10.78337],[76.51666,10.78285],[76.51356,10.78128],[76.51114,10.77673],[76.50955,10.77203],[76.5038,10.77076],[76.49913,10.77088],[76.49713,10.76977],[76.49521,10.76776],[76.48873,10.76496],[76.48419,10.76053],[76.47989,10.75549],[76.4769,10.75075],[76.47577,10.75002],[76.47294,10.74995],[76.46954,10.75319],[76.46696,10.75366],[76.46066,10.75258],[76.44706,10.7521],[76.44508,10.75117],[76.44277,10.75088],[76.44081,10.75095],[76.43664,10.75231],[76.44115,10.75774],[76.4413,10.75873],[76.43747,10.77348],[76.43998,10.77621],[76.44135,10.77671],[76.44209,10.77755],[76.44467,10.77711],[76.44611,10.77579],[76.44828,10.77634],[76.45185,10.7749],[76.45293,10.775],[76.45407,10.77607],[76.45604,10.77543],[76.45731,10.77603],[76.458,10.77697],[76.45892,10.7769],[76.46039,10.77451],[76.46143,10.77427],[76.46697,10.77587],[76.47026,10.77481],[76.47211,10.77454],[76.47302,10.77494],[76.47461,10.77453],[76.47571,10.77669],[76.47952,10.77711],[76.47984,10.77931],[76.47628,10.78314],[76.47501,10.78364],[76.47471,10.78607],[76.4751,10.78906],[76.47856,10.79244],[76.47816,10.79553],[76.47846,10.7978],[76.47793,10.79822],[76.47738,10.80146],[76.47937,10.80396],[76.48105,10.80457],[76.48201,10.80562],[76.48331,10.80923],[76.48396,10.80936],[76.48443,10.80855],[76.48532,10.80849],[76.48634,10.81202],[76.4882,10.81228],[76.48869,10.81058],[76.49142,10.81026],[76.49196,10.81064],[76.49212,10.81173],[76.49443,10.81225],[76.4947,10.81911],[76.49592,10.81892],[76.49732,10.82045],[76.49706,10.82102],[76.49581,10.82116],[76.49564,10.82291],[76.49855,10.82546],[76.50047,10.82518],[76.50101,10.82702],[76.50197,10.82826],[76.50338,10.82796],[76.50398,10.82709],[76.50497,10.82702],[76.50593,10.82917],[76.50664,10.82994],[76.50751,10.83003],[76.50882,10.82879],[76.50923,10.82726],[76.50997,10.82651],[76.5137,10.8262],[76.51463,10.82651],[76.51523,10.82738],[76.51471,10.8284],[76.51669,10.82984],[76.51723,10.82895],[76.51894,10.82858],[76.52002,10.82654],[76.51866,10.82433],[76.51758,10.82392],[76.51776,10.8222],[76.51844,10.82141],[76.52174,10.82112],[76.52229,10.82335],[76.52606,10.82334],[76.52794,10.82386],[76.53298,10.82271],[76.53524,10.82366],[76.53902,10.82126],[76.54364,10.82022],[76.54571,10.81924],[76.54597,10.81737],[76.54743,10.81681],[76.55282,10.82031],[76.55561,10.82027],[76.55731,10.81971],[76.5612,10.82007],[76.56327,10.82216],[76.56512,10.82109],[76.56749,10.82087],[76.56846,10.82311],[76.57114,10.8244],[76.57222,10.82681],[76.5732,10.82668],[76.57325,10.8258],[76.57434,10.82549],[76.57445,10.82355],[76.57552,10.82318],[76.57823,10.82319],[76.5797,10.82408],[76.58236,10.82341],[76.58484,10.82387],[76.58587,10.82313],[76.58763,10.82293],[76.58847,10.82405],[76.59057,10.82488],[76.59159,10.82711],[76.59413,10.82744],[76.5934,10.83282],[76.59629,10.83514],[76.59782,10.83504],[76.6005,10.83632],[76.60173,10.83599],[76.60235,10.83395],[76.60386,10.83247],[76.60571,10.83383],[76.60678,10.83372],[76.60657,10.83288],[76.60741,10.83153],[76.60956,10.83214],[76.61037,10.83191],[76.61182,10.83271],[76.6131,10.83234],[76.61634,10.83299],[76.61716,10.83295],[76.61834,10.83107],[76.62335,10.83227],[76.62359,10.8316],[76.62257,10.82967],[76.62247,10.82843],[76.62276,10.8276],[76.62435,10.82712],[76.62752,10.82863],[76.62956,10.83051],[76.63014,10.83206],[76.62814,10.8325],[76.62776,10.83386],[76.62884,10.83511],[76.63032,10.83399],[76.6311,10.83416],[76.63126,10.83548],[76.63187,10.83594],[76.63222,10.84018],[76.63277,10.84039],[76.63346,10.83976],[76.63485,10.84001],[76.6375,10.83604]],[[76.57566,10.82053],[76.57496,10.81855],[76.57556,10.8177],[76.57874,10.81686],[76.57918,10.81636],[76.58643,10.81572],[76.58743,10.81547],[76.58907,10.81413],[76.59274,10.81323],[76.59815,10.81479],[76.59664,10.8169],[76.58946,10.8218],[76.5859,10.82217],[76.58274,10.82173],[76.58007,10.8223],[76.57661,10.82143],[76.57566,10.82053]]],[[[76.50315,10.64695],[76.49875,10.64774],[76.49612,10.65165],[76.49647,10.65299],[76.49891,10.65289],[76.50002,10.65407],[76.50036,10.65966],[76.49966,10.66127],[76.49812,10.66139],[76.4949,10.66037],[76.49387,10.66118],[76.49337,10.66268],[76.49356,10.66398],[76.49606,10.66577],[76.49798,10.66645],[76.50227,10.66604],[76.509,10.66391],[76.51356,10.66173],[76.518,10.66103],[76.52101,10.65973],[76.52344,10.6597],[76.52451,10.66054],[76.5254,10.66058],[76.52649,10.65778],[76.52818,10.6566],[76.53308,10.65762],[76.5337,10.65704],[76.53394,10.65343],[76.53597,10.65168],[76.5371,10.65128],[76.53935,10.65162],[76.54385,10.65386],[76.54923,10.65326],[76.55098,10.65456],[76.55247,10.65463],[76.55416,10.65127],[76.55698,10.65041],[76.5588,10.65063],[76.5608,10.65016],[76.56463,10.64439],[76.56767,10.64405],[76.56928,10.6455],[76.57057,10.64584],[76.57349,10.64505],[76.57421,10.64297],[76.57487,10.63473],[76.57562,10.63398],[76.57954,10.63317],[76.5815,10.62566],[76.58819,10.62417],[76.59166,10.62529],[76.5966,10.62425],[76.60025,10.62401],[76.60074,10.61903],[76.60171,10.61846],[76.60423,10.61813],[76.60519,10.61621],[76.60691,10.61436],[76.60938,10.61332],[76.60917,10.61297],[76.60499,10.61255],[76.60484,10.61343],[76.60552,10.61524],[76.6052,10.61576],[76.60155,10.61683],[76.60157,10.61772],[76.59943,10.62063],[76.59825,10.62108],[76.59538,10.61979],[76.59511,10.62202],[76.59463,10.62239],[76.59274,10.62233],[76.58983,10.61672],[76.58816,10.61715],[76.58854,10.62223],[76.58624,10.62253],[76.58589,10.62223],[76.58598,10.61851],[76.58393,10.61827],[76.58314,10.61601],[76.58226,10.61497],[76.58052,10.61534],[76.58034,10.61688],[76.57726,10.61646],[76.5755,10.6178],[76.5744,10.61672],[76.56841,10.61872],[76.56542,10.61855],[76.55841,10.6229],[76.55673,10.62488],[76.55457,10.62483],[76.55185,10.62605],[76.55005,10.62564],[76.5477,10.62651],[76.54601,10.6261],[76.54382,10.62637],[76.53859,10.63028],[76.53524,10.63065],[76.52919,10.63279],[76.52787,10.63197],[76.52598,10.63219],[76.5224,10.63413],[76.52084,10.6339],[76.51559,10.63521],[76.51389,10.6367],[76.51317,10.63951],[76.51238,10.64046],[76.51229,10.64197],[76.51118,10.64336],[76.50933,10.64484],[76.50837,10.64481],[76.5079,10.64607],[76.50613,10.64607],[76.5053,10.64752],[76.50406,10.64756],[76.50315,10.64695]]]]}},{"type":"Feature","properties":{"name":"Chitturpuzha command area","kind":"chitturpuzha","project":"Chitturpuzha","river":"Bharat Puzha","projectType":"Major","status":"Completed","yearApproved":"1968(IC)","districtsBenefited":"Palakkad","culturableCommandAreaThousandHa":"20.44","potentialCreatedThousandHa":"38.84","mappedAreaHa":24414,"mappedAreaInDistrictHa":24400,"shedId":"RB20"},"geometry":{"type":"MultiPolygon","coordinates":[[[[76.82411,10.76673],[76.8253,10.76466],[76.82644,10.76461],[76.82811,10.76316],[76.8299,10.7639],[76.83059,10.7617],[76.83229,10.76226],[76.8331,10.76137],[76.83369,10.75958],[76.83487,10.75932],[76.83568,10.7601],[76.83657,10.75897],[76.83835,10.758],[76.84004,10.75915],[76.84146,10.75931],[76.84259,10.76046],[76.84454,10.76061],[76.84524,10.7615],[76.84654,10.7601],[76.84718,10.76002],[76.84867,10.7615],[76.8516,10.7604],[76.85357,10.76149],[76.85567,10.76164],[76.85765,10.75984],[76.85961,10.75979],[76.86015,10.75876],[76.86106,10.75828],[76.8624,10.75921],[76.86241,10.76077],[76.86424,10.76165],[76.8678,10.76059],[76.86826,10.75931],[76.86896,10.75906],[76.87106,10.76113],[76.87435,10.76139],[76.87692,10.76239],[76.87602,10.76042],[76.87948,10.75929],[76.88276,10.75924],[76.88289,10.75781],[76.88337,10.75728],[76.88213,10.75455],[76.8823,10.74953],[76.88283,10.74783],[76.88379,10.74718],[76.88536,10.74194],[76.88837,10.73749],[76.88927,10.73537],[76.8885,10.7336],[76.8887,10.7286],[76.89,10.7273],[76.89026,10.72631],[76.88924,10.72105],[76.88797,10.71917],[76.88215,10.71742],[76.87656,10.71925],[76.87579,10.72003],[76.87611,10.72646],[76.87543,10.72743],[76.87288,10.72666],[76.87183,10.72874],[76.86982,10.72951],[76.86679,10.72842],[76.86522,10.72862],[76.86276,10.7303],[76.86097,10.73323],[76.85952,10.7334],[76.85978,10.73224],[76.85878,10.73264],[76.85663,10.73579],[76.85365,10.73684],[76.84928,10.74096],[76.84546,10.74154],[76.84137,10.74041],[76.84063,10.74088],[76.84051,10.74205],[76.83852,10.74201],[76.83773,10.74246],[76.8362,10.74481],[76.83361,10.7475],[76.83113,10.74781],[76.82891,10.75096],[76.82439,10.75052],[76.82302,10.75197],[76.82212,10.75578],[76.82045,10.75814],[76.82096,10.76037],[76.82072,10.76184],[76.82175,10.76271],[76.82245,10.76592],[76.82339,10.76576],[76.82411,10.76673]]],[[[76.79474,10.76105],[76.8062,10.7612],[76.81131,10.75837],[76.81301,10.75368],[76.81639,10.75057],[76.81781,10.75156],[76.81969,10.75765],[76.82126,10.75555],[76.82249,10.75198],[76.82366,10.75024],[76.82501,10.74969],[76.82759,10.75057],[76.82904,10.75022],[76.82996,10.74799],[76.83119,10.74675],[76.83333,10.74606],[76.83793,10.74164],[76.83996,10.74127],[76.84077,10.74036],[76.842,10.73992],[76.84561,10.741],[76.84865,10.74053],[76.8508,10.73888],[76.85303,10.73606],[76.85617,10.73497],[76.85881,10.73162],[76.85974,10.73138],[76.86052,10.73263],[76.86104,10.73241],[76.86192,10.73064],[76.86397,10.72877],[76.8666,10.72797],[76.87,10.72917],[76.87139,10.72852],[76.87215,10.72606],[76.87366,10.72583],[76.87484,10.72669],[76.87538,10.71937],[76.88192,10.71687],[76.88112,10.71522],[76.87983,10.71456],[76.86819,10.71234],[76.86511,10.71023],[76.86333,10.70787],[76.86152,10.70655],[76.86124,10.70504],[76.85918,10.70467],[76.85751,10.70571],[76.85437,10.70901],[76.84951,10.70962],[76.8466,10.71274],[76.84605,10.71458],[76.84356,10.71497],[76.84335,10.71372],[76.8443,10.71288],[76.84392,10.71097],[76.84496,10.70982],[76.84452,10.70867],[76.84214,10.709],[76.84057,10.70566],[76.8405,10.70443],[76.83802,10.70103],[76.83469,10.69982],[76.83345,10.69888],[76.83286,10.69548],[76.83425,10.69352],[76.83521,10.69345],[76.83535,10.69406],[76.83696,10.69426],[76.83794,10.69387],[76.838,10.69257],[76.83928,10.69085],[76.84087,10.69051],[76.84168,10.69128],[76.84278,10.69084],[76.84244,10.68849],[76.84116,10.68845],[76.83944,10.68712],[76.83901,10.68472],[76.83909,10.68347],[76.8418,10.682],[76.84605,10.68009],[76.84948,10.6816],[76.85135,10.68155],[76.85482,10.68051],[76.8556,10.68136],[76.85853,10.68099],[76.85861,10.68184],[76.85942,10.68264],[76.86037,10.68163],[76.86068,10.67934],[76.86229,10.679],[76.86309,10.67947],[76.86436,10.67925],[76.8646,10.68068],[76.86525,10.68148],[76.86648,10.68152],[76.86746,10.67797],[76.86728,10.67545],[76.86844,10.67479],[76.86833,10.66921],[76.87012,10.66861],[76.87136,10.66677],[76.87247,10.66654],[76.87075,10.6621],[76.86986,10.6611],[76.86857,10.6608],[76.86738,10.66204],[76.86631,10.66577],[76.86581,10.67264],[76.86501,10.67419],[76.8626,10.67593],[76.86094,10.67583],[76.85851,10.67483],[76.85609,10.66981],[76.85463,10.66923],[76.84389,10.66854],[76.83257,10.66898],[76.83038,10.66765],[76.82826,10.66477],[76.827,10.66449],[76.82568,10.6656],[76.82542,10.66875],[76.82446,10.67061],[76.82251,10.67161],[76.81993,10.67072],[76.81807,10.66801],[76.81527,10.66742],[76.81364,10.66873],[76.81061,10.6759],[76.8067,10.67708],[76.80141,10.67717],[76.79812,10.67813],[76.79682,10.68057],[76.79718,10.68443],[76.79657,10.68644],[76.79405,10.68762],[76.78788,10.68927],[76.78229,10.69319],[76.77974,10.69419],[76.77652,10.69349],[76.77481,10.69254],[76.77271,10.69013],[76.76727,10.68822],[76.76526,10.68608],[76.76153,10.68477],[76.75772,10.68275],[76.7563,10.683],[76.75414,10.68651],[76.75143,10.68907],[76.74705,10.69094],[76.74437,10.69276],[76.74203,10.69168],[76.73962,10.68857],[76.73725,10.68702],[76.73414,10.68584],[76.73101,10.68515],[76.7272,10.68512],[76.72199,10.68609],[76.7198,10.68765],[76.7195,10.68842],[76.71988,10.69117],[76.71942,10.69303],[76.71566,10.69669],[76.71455,10.6984],[76.71587,10.7016],[76.71939,10.70434],[76.71953,10.70625],[76.71779,10.70745],[76.71181,10.70724],[76.71061,10.70802],[76.70997,10.70934],[76.70945,10.71399],[76.70795,10.71807],[76.70747,10.72653],[76.70823,10.72779],[76.71075,10.72887],[76.71211,10.73024],[76.71297,10.73286],[76.71227,10.73566],[76.70949,10.73964],[76.70699,10.73976],[76.70428,10.74096],[76.69762,10.74051],[76.69284,10.74094],[76.69168,10.74327],[76.68745,10.74547],[76.68928,10.74698],[76.69212,10.74669],[76.69365,10.74571],[76.69398,10.74499],[76.69485,10.74477],[76.69664,10.74603],[76.69693,10.74502],[76.69795,10.74487],[76.69988,10.74346],[76.70145,10.74465],[76.70254,10.74385],[76.70265,10.74201],[76.70356,10.74227],[76.70479,10.7414],[76.70604,10.74118],[76.70681,10.74229],[76.70524,10.74338],[76.70616,10.74421],[76.70845,10.74453],[76.70966,10.74395],[76.70987,10.74225],[76.71045,10.74167],[76.71122,10.74203],[76.7114,10.7429],[76.71228,10.74289],[76.71432,10.74119],[76.7158,10.73838],[76.71726,10.73798],[76.72361,10.738],[76.7263,10.73666],[76.73072,10.73838],[76.7309,10.73982],[76.73145,10.74011],[76.73542,10.74003],[76.73721,10.74125],[76.73798,10.74042],[76.73798,10.7397],[76.73943,10.73829],[76.73965,10.73724],[76.74147,10.7354],[76.74387,10.73521],[76.74723,10.73611],[76.74814,10.73571],[76.74975,10.73671],[76.75259,10.73595],[76.75766,10.73792],[76.76142,10.73823],[76.76233,10.73719],[76.76477,10.73776],[76.76521,10.73758],[76.76553,10.7357],[76.76775,10.73378],[76.76815,10.73252],[76.76873,10.73234],[76.76965,10.73318],[76.77043,10.73323],[76.77224,10.73183],[76.77656,10.73202],[76.77706,10.73182],[76.77741,10.73033],[76.77791,10.73028],[76.77831,10.73057],[76.77719,10.7423],[76.77596,10.74448],[76.77523,10.74423],[76.77133,10.74494],[76.76966,10.74742],[76.7643,10.7465],[76.76016,10.74666],[76.75855,10.74725],[76.75579,10.75029],[76.76006,10.75438],[76.76538,10.75595],[76.76683,10.75512],[76.7685,10.755],[76.77182,10.75377],[76.77306,10.7529],[76.77357,10.75167],[76.77523,10.75141],[76.77604,10.74928],[76.77718,10.74914],[76.77977,10.75048],[76.78097,10.75325],[76.78415,10.7533],[76.78511,10.75398],[76.78519,10.7552],[76.7842,10.75651],[76.78484,10.7587],[76.78616,10.75897],[76.78932,10.75779],[76.79172,10.758],[76.79474,10.76105]]],[[[76.83184,10.6531],[76.82948,10.65181],[76.8291,10.65253],[76.82906,10.6623],[76.8313,10.66728],[76.83348,10.66832],[76.84264,10.66768],[76.8459,10.6637],[76.84782,10.66015],[76.85257,10.66006],[76.85493,10.66305],[76.85453,10.66407],[76.85494,10.66475],[76.85678,10.6652],[76.86339,10.66847],[76.86443,10.6669],[76.86396,10.66593],[76.86448,10.66544],[76.86556,10.65972],[76.86792,10.65887],[76.8699,10.65899],[76.87022,10.65783],[76.86969,10.65601],[76.86791,10.65308],[76.86747,10.64987],[76.86673,10.6491],[76.86559,10.64864],[76.86013,10.64914],[76.85637,10.64842],[76.85095,10.64553],[76.84909,10.64569],[76.84533,10.64827],[76.84245,10.65282],[76.84149,10.6558],[76.8416,10.65786],[76.83905,10.6574],[76.83792,10.6563],[76.83582,10.65628],[76.83469,10.65366],[76.83343,10.65296],[76.83184,10.6531]]],[[[76.69398,10.73878],[76.70151,10.73991],[76.70737,10.73884],[76.71084,10.73529],[76.71063,10.73133],[76.70928,10.72966],[76.70712,10.72834],[76.70636,10.72671],[76.70653,10.71894],[76.70837,10.71063],[76.70979,10.70688],[76.71109,10.70598],[76.71279,10.70571],[76.71807,10.7058],[76.71722,10.70401],[76.71418,10.70172],[76.71327,10.69929],[76.7138,10.69716],[76.71745,10.69325],[76.71821,10.69184],[76.71843,10.68856],[76.7201,10.68521],[76.72109,10.68464],[76.73128,10.68384],[76.73869,10.68636],[76.74131,10.68863],[76.74324,10.6912],[76.74447,10.69146],[76.74849,10.68877],[76.75098,10.68796],[76.75314,10.68553],[76.75415,10.68337],[76.75597,10.6817],[76.75913,10.68139],[76.76086,10.68189],[76.76344,10.68376],[76.76754,10.68544],[76.76981,10.68786],[76.77463,10.68946],[76.77578,10.6914],[76.77672,10.692],[76.77917,10.69201],[76.78346,10.69059],[76.78792,10.68794],[76.79479,10.68551],[76.79524,10.68465],[76.79551,10.67976],[76.79746,10.67661],[76.7997,10.67588],[76.80551,10.67635],[76.80835,10.6758],[76.81232,10.66783],[76.81429,10.66641],[76.81616,10.66601],[76.81775,10.66637],[76.82144,10.67002],[76.82248,10.67028],[76.82356,10.66964],[76.82443,10.66706],[76.82451,10.66399],[76.82542,10.66306],[76.82427,10.66178],[76.82296,10.65879],[76.82331,10.65643],[76.82534,10.65584],[76.82541,10.65532],[76.82541,10.65453],[76.82375,10.65354],[76.82397,10.65155],[76.82533,10.64771],[76.82471,10.64331],[76.8241,10.64235],[76.82013,10.64309],[76.81808,10.64169],[76.81555,10.63768],[76.81404,10.6374],[76.8091,10.64052],[76.80525,10.64383],[76.80479,10.64092],[76.80413,10.63965],[76.8042,10.63786],[76.8038,10.63732],[76.80173,10.6378],[76.80082,10.63738],[76.79911,10.63365],[76.7973,10.63274],[76.79126,10.63092],[76.78711,10.63196],[76.78531,10.63186],[76.78295,10.63118],[76.77884,10.62898],[76.76602,10.62653],[76.7321,10.63204],[76.73137,10.63401],[76.72736,10.63377],[76.72541,10.6364],[76.72421,10.63671],[76.72238,10.63931],[76.72051,10.63985],[76.7199,10.64078],[76.71986,10.64284],[76.71238,10.64543],[76.70752,10.6432],[76.70592,10.64154],[76.70438,10.64153],[76.70237,10.6453],[76.70295,10.65176],[76.69891,10.65185],[76.6981,10.65297],[76.69858,10.6544],[76.69755,10.65491],[76.69556,10.65189],[76.69434,10.65276],[76.69261,10.65249],[76.69197,10.653],[76.69146,10.66036],[76.6931,10.66293],[76.69167,10.66444],[76.69109,10.66603],[76.69253,10.6698],[76.69366,10.6688],[76.6945,10.66901],[76.69455,10.67093],[76.69413,10.67445],[76.69156,10.67936],[76.69047,10.68008],[76.69094,10.68191],[76.69009,10.68742],[76.68886,10.69112],[76.68244,10.69083],[76.67674,10.68943],[76.66695,10.68879],[76.6535,10.69137],[76.649,10.69447],[76.65028,10.70107],[76.64926,10.70666],[76.6501,10.70905],[76.65244,10.7107],[76.65389,10.71239],[76.65502,10.71594],[76.65478,10.71853],[76.65327,10.72036],[76.6531,10.72168],[76.6535,10.7224],[76.65675,10.72406],[76.65971,10.72437],[76.6628,10.72545],[76.66569,10.72468],[76.67231,10.72511],[76.67542,10.72638],[76.67672,10.72853],[76.6807,10.7279],[76.68275,10.7267],[76.68304,10.7248],[76.68379,10.72376],[76.68796,10.72209],[76.68982,10.71918],[76.69113,10.71832],[76.69351,10.71803],[76.69741,10.71555],[76.70264,10.71635],[76.70305,10.7175],[76.70245,10.72004],[76.70048,10.72175],[76.69843,10.7251],[76.69668,10.72622],[76.69414,10.72927],[76.69426,10.73043],[76.69321,10.73415],[76.68741,10.74271],[76.68903,10.74346],[76.69011,10.74248],[76.69111,10.73936],[76.69398,10.73878]]]]}},{"type":"Feature","properties":{"name":"Pothundi command area","kind":"pothundi","project":"Pothundi","river":"Bharatpuzha","projectType":"Medium","status":"Completed","yearApproved":"1958(IC)","districtsBenefited":"Palakkad","culturableCommandAreaThousandHa":"5.47","potentialCreatedThousandHa":"4.78","mappedAreaHa":10265,"mappedAreaInDistrictHa":10265,"shedId":"RB20"},"geometry":{"type":"MultiPolygon","coordinates":[[[[76.5116,10.61641],[76.51219,10.61666],[76.51358,10.61621],[76.51775,10.6132],[76.53418,10.61073],[76.5375,10.60846],[76.53969,10.609],[76.54167,10.60772],[76.54281,10.60781],[76.54351,10.60884],[76.54377,10.61209],[76.54441,10.61385],[76.54561,10.61513],[76.54786,10.61543],[76.5471,10.61676],[76.54788,10.61766],[76.55117,10.61743],[76.5526,10.61621],[76.55326,10.6168],[76.55465,10.61691],[76.55613,10.61557],[76.55788,10.61574],[76.55916,10.61486],[76.56115,10.61449],[76.56088,10.6197],[76.5614,10.62084],[76.56542,10.61855],[76.56841,10.61872],[76.5744,10.61672],[76.5755,10.6178],[76.57726,10.61646],[76.58034,10.61688],[76.58052,10.61534],[76.58226,10.61497],[76.58314,10.61601],[76.58393,10.61827],[76.58598,10.61851],[76.58589,10.62223],[76.58624,10.62253],[76.58854,10.62223],[76.58816,10.61715],[76.58983,10.61672],[76.59274,10.62233],[76.59463,10.62239],[76.59511,10.62202],[76.59538,10.61979],[76.59825,10.62108],[76.59943,10.62063],[76.60157,10.61772],[76.60155,10.61683],[76.6052,10.61576],[76.60552,10.61524],[76.60484,10.61343],[76.60499,10.61255],[76.60947,10.61325],[76.60965,10.61017],[76.61055,10.60891],[76.61244,10.60922],[76.61432,10.61114],[76.61679,10.61266],[76.61741,10.6137],[76.61866,10.6115],[76.62079,10.61164],[76.62214,10.61111],[76.62357,10.60948],[76.62551,10.60947],[76.62788,10.6069],[76.62986,10.60675],[76.63089,10.60538],[76.63282,10.605],[76.6313,10.60228],[76.63074,10.59978],[76.63083,10.59755],[76.63229,10.59734],[76.63532,10.59874],[76.63646,10.59842],[76.63866,10.59944],[76.6395,10.59631],[76.64453,10.59197],[76.64736,10.59137],[76.64808,10.59056],[76.6505,10.59001],[76.6519,10.58895],[76.65486,10.58875],[76.65765,10.58747],[76.65607,10.5822],[76.65395,10.58197],[76.65326,10.57987],[76.65094,10.57937],[76.64983,10.57976],[76.65014,10.58181],[76.64961,10.58288],[76.64372,10.58442],[76.6434,10.5842],[76.6437,10.58285],[76.64246,10.58267],[76.63869,10.58474],[76.63867,10.58547],[76.63979,10.5865],[76.63833,10.59062],[76.63743,10.59186],[76.63626,10.59222],[76.63377,10.59164],[76.63218,10.59002],[76.63106,10.59006],[76.6272,10.58866],[76.62243,10.58968],[76.62094,10.58957],[76.62078,10.59051],[76.62309,10.59199],[76.62309,10.59272],[76.62196,10.59345],[76.61905,10.59279],[76.61864,10.59184],[76.61671,10.59121],[76.61233,10.5915],[76.61208,10.59239],[76.61162,10.59245],[76.6086,10.5905],[76.60691,10.59026],[76.60417,10.58891],[76.60241,10.58424],[76.60353,10.58329],[76.60513,10.58323],[76.61018,10.58494],[76.61244,10.58515],[76.61361,10.58482],[76.61533,10.58335],[76.61663,10.5836],[76.62118,10.58011],[76.62373,10.58073],[76.62386,10.57998],[76.62207,10.57664],[76.62507,10.57545],[76.62478,10.5728],[76.62625,10.57175],[76.62655,10.57079],[76.62823,10.57075],[76.62954,10.56833],[76.62866,10.5644],[76.62521,10.56359],[76.62432,10.56288],[76.62433,10.5617],[76.62502,10.56066],[76.62714,10.55884],[76.62672,10.55622],[76.62583,10.55449],[76.62715,10.55409],[76.62739,10.55295],[76.62346,10.5495],[76.62119,10.54973],[76.62091,10.55036],[76.61952,10.55099],[76.61746,10.55086],[76.61675,10.55251],[76.61684,10.55391],[76.61878,10.55435],[76.61953,10.55669],[76.61961,10.55857],[76.61845,10.55999],[76.61868,10.56251],[76.6186,10.56288],[76.61723,10.56334],[76.61557,10.5636],[76.61538,10.56399],[76.61441,10.56448],[76.61229,10.56346],[76.61104,10.56373],[76.60837,10.56621],[76.6084,10.56754],[76.60821,10.56805],[76.60761,10.56816],[76.60688,10.56731],[76.60511,10.5678],[76.60514,10.56989],[76.60427,10.572],[76.60289,10.57297],[76.60142,10.57353],[76.60094,10.57436],[76.60052,10.57467],[76.59924,10.57521],[76.59836,10.5752],[76.59716,10.57654],[76.59665,10.57642],[76.59471,10.57343],[76.5936,10.57349],[76.59293,10.57476],[76.59242,10.57486],[76.59044,10.57414],[76.58982,10.57352],[76.5895,10.5725],[76.58915,10.57229],[76.58779,10.57328],[76.58759,10.57431],[76.58706,10.57547],[76.58687,10.57553],[76.58575,10.5755],[76.58503,10.5753],[76.58332,10.57451],[76.58242,10.57455],[76.58104,10.57391],[76.58052,10.57274],[76.57973,10.57338],[76.58035,10.57486],[76.57997,10.57519],[76.57948,10.57528],[76.57867,10.57398],[76.57745,10.57394],[76.57717,10.5738],[76.57659,10.57266],[76.5759,10.57349],[76.57392,10.57496],[76.57183,10.57566],[76.57099,10.57569],[76.57097,10.57662],[76.57075,10.57712],[76.5695,10.57823],[76.57008,10.57961],[76.56995,10.57997],[76.56647,10.57948],[76.56595,10.58055],[76.56663,10.58133],[76.56769,10.58111],[76.56783,10.58132],[76.56763,10.58202],[76.56722,10.58234],[76.56448,10.58271],[76.56354,10.5817],[76.56105,10.58138],[76.55839,10.5822],[76.55696,10.58167],[76.55648,10.58211],[76.55574,10.58551],[76.55542,10.58601],[76.55443,10.5866],[76.55367,10.58684],[76.55185,10.58652],[76.54894,10.58786],[76.54811,10.58974],[76.54749,10.59013],[76.54577,10.58977],[76.54457,10.59155],[76.54311,10.59264],[76.54255,10.59285],[76.54185,10.59274],[76.54126,10.59122],[76.53981,10.59019],[76.53858,10.59043],[76.53735,10.59145],[76.53611,10.59176],[76.5363,10.59275],[76.53571,10.59418],[76.53625,10.59539],[76.53586,10.59659],[76.53344,10.59785],[76.53225,10.59912],[76.52742,10.59947],[76.52592,10.60049],[76.52167,10.60167],[76.52034,10.60038],[76.51737,10.60017],[76.51629,10.60087],[76.51637,10.60235],[76.51564,10.60377],[76.51349,10.60386],[76.51174,10.60564],[76.51161,10.60828],[76.51061,10.61077],[76.5115,10.61289],[76.51126,10.61502],[76.5116,10.61641]]],[[[76.52709,10.55587],[76.52808,10.55718],[76.52903,10.5605],[76.52876,10.56533],[76.52751,10.568],[76.52897,10.57228],[76.52972,10.57289],[76.53095,10.57562],[76.53216,10.57987],[76.5317,10.58101],[76.53201,10.58389],[76.53579,10.5902],[76.53608,10.59164],[76.53858,10.59031],[76.54019,10.59012],[76.54148,10.59123],[76.54188,10.59253],[76.54251,10.59274],[76.5444,10.59157],[76.54552,10.58972],[76.54733,10.58993],[76.54812,10.58959],[76.54884,10.58776],[76.55178,10.58643],[76.55342,10.58673],[76.55517,10.58608],[76.55561,10.58559],[76.55631,10.58203],[76.5567,10.58164],[76.55739,10.58157],[76.55842,10.58205],[76.56131,10.58125],[76.56383,10.58168],[76.56453,10.5826],[76.56731,10.58217],[76.56769,10.58124],[76.56661,10.58146],[76.5658,10.58044],[76.5664,10.57938],[76.56989,10.57989],[76.56941,10.57815],[76.57067,10.57704],[76.57088,10.57562],[76.57398,10.57481],[76.57654,10.57258],[76.57736,10.57378],[76.57864,10.57384],[76.57896,10.57405],[76.5795,10.57518],[76.58026,10.57485],[76.57964,10.57341],[76.58034,10.5726],[76.58078,10.57278],[76.58102,10.57373],[76.58248,10.57443],[76.58345,10.57445],[76.58566,10.57538],[76.58683,10.57541],[76.58793,10.57286],[76.58919,10.57216],[76.58956,10.57232],[76.59064,10.57411],[76.59246,10.57474],[76.59352,10.57344],[76.59483,10.57336],[76.59678,10.57633],[76.59728,10.5763],[76.59828,10.57506],[76.60071,10.57444],[76.6012,10.57351],[76.60433,10.57184],[76.60502,10.57002],[76.60508,10.5677],[76.6069,10.56722],[76.60762,10.56807],[76.60812,10.568],[76.60812,10.56656],[76.60844,10.56593],[76.61118,10.56352],[76.6124,10.56341],[76.61445,10.56438],[76.61603,10.56321],[76.61857,10.56276],[76.61834,10.55999],[76.61949,10.55863],[76.61954,10.55764],[76.61874,10.55446],[76.61671,10.55396],[76.61665,10.55246],[76.61732,10.55074],[76.61941,10.55083],[76.62084,10.55023],[76.62113,10.54966],[76.62337,10.5493],[76.62682,10.55205],[76.62661,10.55105],[76.62819,10.55026],[76.62221,10.53881],[76.62088,10.53995],[76.61916,10.53985],[76.61574,10.54099],[76.61147,10.53992],[76.60754,10.54046],[76.60681,10.54168],[76.60598,10.54203],[76.60628,10.54479],[76.60971,10.54654],[76.60961,10.54703],[76.60762,10.54834],[76.6058,10.54746],[76.60431,10.54751],[76.60345,10.54658],[76.59965,10.54501],[76.5978,10.54477],[76.59785,10.54224],[76.59306,10.5387],[76.59221,10.53529],[76.59271,10.5349],[76.59444,10.53562],[76.5956,10.5355],[76.59601,10.5338],[76.59713,10.53286],[76.598,10.53116],[76.59787,10.53053],[76.59665,10.52965],[76.59676,10.52901],[76.599,10.52836],[76.60138,10.52985],[76.60183,10.52961],[76.60203,10.52753],[76.60385,10.52665],[76.6028,10.52284],[76.60043,10.52294],[76.59516,10.51974],[76.58926,10.51771],[76.58587,10.51425],[76.582,10.51209],[76.57992,10.51159],[76.5778,10.50896],[76.57577,10.50837],[76.57481,10.50853],[76.57405,10.51118],[76.57031,10.51192],[76.56922,10.51473],[76.56737,10.51711],[76.55983,10.52095],[76.55839,10.52234],[76.55679,10.52308],[76.55598,10.52437],[76.55412,10.52555],[76.55255,10.52745],[76.5493,10.5295],[76.5491,10.53113],[76.54843,10.532],[76.54637,10.53446],[76.54546,10.53482],[76.54196,10.53832],[76.5423,10.53999],[76.53941,10.54015],[76.53792,10.54159],[76.53746,10.54238],[76.53782,10.54346],[76.53738,10.54577],[76.53625,10.54719],[76.53435,10.54761],[76.53297,10.55095],[76.52883,10.55521],[76.5291,10.55643],[76.52763,10.5558],[76.52709,10.55587]]]]}},{"type":"Feature","properties":{"name":"Gayathri Stage - I(Meenakara Dam ) & Stage- II(Chulliyra Dam) command area","kind":"gayathri-stage-i-meenakara-dam-stage-ii-chulliyra-dam","project":"Gayathri Stage - I(Meenakara Dam ) & Stage- II(Chulliyra Dam)","river":"Bharatpuzha","projectType":"Medium","status":"Completed","yearApproved":"1956(IC)","districtsBenefited":"Palakkad","culturableCommandAreaThousandHa":"5.47","potentialCreatedThousandHa":"11.2","mappedAreaHa":11583,"mappedAreaInDistrictHa":11583,"shedId":"RB20"},"geometry":{"type":"MultiPolygon","coordinates":[[[[76.71132,10.62613],[76.71239,10.62378],[76.71447,10.62306],[76.7149,10.62329],[76.71515,10.62758],[76.71595,10.6278],[76.71935,10.62413],[76.72243,10.62199],[76.72637,10.6211],[76.7272,10.61922],[76.72699,10.61707],[76.72782,10.6162],[76.73076,10.61594],[76.73253,10.61665],[76.73745,10.61718],[76.74003,10.61597],[76.74235,10.61686],[76.74449,10.61859],[76.7484,10.61868],[76.74958,10.616],[76.75192,10.6149],[76.75452,10.61088],[76.75602,10.61037],[76.75684,10.61217],[76.75763,10.61253],[76.75799,10.6102],[76.75891,10.60977],[76.75964,10.60988],[76.76143,10.61178],[76.76349,10.61076],[76.76483,10.61162],[76.76631,10.61521],[76.76775,10.61556],[76.7684,10.61637],[76.76791,10.61785],[76.76881,10.6192],[76.77071,10.6189],[76.773,10.62021],[76.77432,10.61925],[76.77624,10.62107],[76.77751,10.62113],[76.7787,10.62469],[76.77993,10.62592],[76.77999,10.62707],[76.78073,10.62703],[76.78257,10.6243],[76.78444,10.62512],[76.7873,10.62429],[76.78975,10.62455],[76.79173,10.62401],[76.79576,10.62393],[76.79625,10.62048],[76.79559,10.61861],[76.79368,10.61805],[76.79269,10.6172],[76.7924,10.61467],[76.79177,10.61349],[76.79057,10.61262],[76.78966,10.61267],[76.78892,10.61189],[76.78898,10.60702],[76.78791,10.60566],[76.78362,10.60384],[76.78053,10.60465],[76.77934,10.60446],[76.77973,10.60184],[76.7815,10.60094],[76.78142,10.59997],[76.78203,10.59924],[76.78162,10.5981],[76.77965,10.59779],[76.7777,10.59854],[76.77633,10.5974],[76.77461,10.59753],[76.76993,10.59582],[76.76852,10.59489],[76.76859,10.59425],[76.76765,10.5942],[76.76772,10.5933],[76.76537,10.59327],[76.76522,10.58923],[76.76111,10.5878],[76.76111,10.58713],[76.76332,10.58646],[76.76373,10.58262],[76.76218,10.5806],[76.75757,10.57926],[76.75537,10.57947],[76.74864,10.57669],[76.74722,10.57558],[76.7429,10.57544],[76.73906,10.57424],[76.73223,10.56963],[76.72907,10.57142],[76.72798,10.57309],[76.72587,10.57404],[76.7225,10.57387],[76.719,10.57495],[76.71701,10.57487],[76.71525,10.57411],[76.70953,10.57016],[76.70721,10.57121],[76.70668,10.57243],[76.70544,10.57296],[76.70427,10.57542],[76.7043,10.57704],[76.70364,10.57799],[76.7015,10.57771],[76.70051,10.576],[76.7003,10.5765],[76.69851,10.57732],[76.69641,10.57721],[76.69665,10.57962],[76.69615,10.58022],[76.69468,10.58064],[76.6937,10.57988],[76.69179,10.5804],[76.69094,10.57994],[76.69006,10.58096],[76.68716,10.58099],[76.68577,10.58174],[76.68352,10.58198],[76.68033,10.58375],[76.67851,10.58304],[76.67717,10.58323],[76.67629,10.58277],[76.67377,10.58264],[76.6724,10.58467],[76.67046,10.5832],[76.66706,10.58371],[76.66604,10.58347],[76.6647,10.58232],[76.66323,10.58445],[76.66052,10.58463],[76.65894,10.5856],[76.65859,10.5877],[76.6534,10.58932],[76.65197,10.58911],[76.65067,10.59015],[76.64827,10.5907],[76.6475,10.59153],[76.64475,10.59201],[76.6394,10.59688],[76.63875,10.59967],[76.63625,10.59871],[76.63511,10.59928],[76.63226,10.59754],[76.63099,10.59765],[76.63092,10.59989],[76.6315,10.60216],[76.63312,10.60497],[76.63094,10.60561],[76.62994,10.60697],[76.62777,10.60725],[76.62567,10.60961],[76.62364,10.60971],[76.6229,10.61065],[76.6245,10.61174],[76.62785,10.61287],[76.63142,10.61254],[76.63329,10.6117],[76.63577,10.61296],[76.63722,10.61216],[76.64016,10.61171],[76.6436,10.61238],[76.64516,10.61324],[76.64763,10.61135],[76.64805,10.61166],[76.648,10.6131],[76.64936,10.6142],[76.653,10.61386],[76.65524,10.6142],[76.65646,10.61681],[76.65756,10.61772],[76.65937,10.61777],[76.66263,10.61598],[76.66365,10.61759],[76.66422,10.62182],[76.66896,10.62561],[76.67676,10.62451],[76.67912,10.62332],[76.68346,10.62329],[76.68454,10.62219],[76.68501,10.62009],[76.68567,10.61939],[76.69056,10.61747],[76.6921,10.61806],[76.69603,10.62092],[76.69994,10.62188],[76.70021,10.62272],[76.69965,10.62497],[76.7007,10.62634],[76.70367,10.62623],[76.70539,10.6279],[76.70703,10.62802],[76.71132,10.62613]]],[[[76.6535,10.69137],[76.66695,10.68879],[76.67674,10.68943],[76.68244,10.69083],[76.68886,10.69112],[76.69009,10.68742],[76.69094,10.68191],[76.69047,10.68008],[76.69156,10.67936],[76.69413,10.67445],[76.69455,10.67093],[76.6945,10.66901],[76.69366,10.6688],[76.69253,10.6698],[76.69109,10.66603],[76.69167,10.66444],[76.6931,10.66293],[76.69146,10.66036],[76.69197,10.653],[76.69261,10.65249],[76.69434,10.65276],[76.69556,10.65189],[76.69755,10.65491],[76.69858,10.6544],[76.6981,10.65297],[76.69891,10.65185],[76.70295,10.65176],[76.70237,10.6453],[76.70438,10.64153],[76.70592,10.64154],[76.70752,10.6432],[76.71201,10.64542],[76.71986,10.64284],[76.7199,10.64078],[76.72051,10.63985],[76.72238,10.63931],[76.72431,10.6366],[76.72541,10.6364],[76.72721,10.6341],[76.72845,10.6298],[76.73064,10.62968],[76.73183,10.62866],[76.73324,10.6284],[76.7353,10.62714],[76.73581,10.62645],[76.73585,10.62468],[76.73833,10.62433],[76.7397,10.62182],[76.74202,10.62087],[76.74307,10.61923],[76.74783,10.61964],[76.74905,10.619],[76.75017,10.6168],[76.75266,10.6155],[76.75467,10.61379],[76.75446,10.61288],[76.75396,10.61258],[76.7534,10.61437],[76.75031,10.61625],[76.74882,10.61877],[76.74793,10.61943],[76.7449,10.61936],[76.74336,10.61885],[76.74199,10.61727],[76.74026,10.61644],[76.73754,10.61771],[76.73049,10.6164],[76.7278,10.61687],[76.72776,10.61896],[76.72696,10.62124],[76.72606,10.6219],[76.72282,10.62238],[76.71981,10.62454],[76.71556,10.62858],[76.71465,10.62797],[76.71393,10.62356],[76.71333,10.62382],[76.71135,10.62682],[76.70746,10.62859],[76.70513,10.62848],[76.70387,10.62693],[76.70069,10.62693],[76.69954,10.62597],[76.69921,10.62223],[76.69525,10.6212],[76.69054,10.61814],[76.6861,10.61982],[76.68484,10.62265],[76.6835,10.62375],[76.67918,10.62382],[76.67713,10.62479],[76.67499,10.62491],[76.66975,10.62629],[76.66581,10.62419],[76.66382,10.62235],[76.66303,10.62092],[76.66274,10.61709],[76.66231,10.6167],[76.65956,10.61851],[76.65809,10.61854],[76.65653,10.61794],[76.65251,10.62282],[76.6515,10.62329],[76.64923,10.62328],[76.64723,10.62435],[76.64635,10.62555],[76.64607,10.63032],[76.64789,10.63363],[76.6508,10.63524],[76.65113,10.63838],[76.65199,10.64004],[76.65033,10.6432],[76.6485,10.64368],[76.647,10.64469],[76.64599,10.64612],[76.64616,10.65287],[76.64481,10.6587],[76.64512,10.66086],[76.64446,10.66419],[76.64572,10.66509],[76.64596,10.66655],[76.64821,10.66705],[76.64956,10.66813],[76.65448,10.66857],[76.65563,10.67026],[76.65446,10.67196],[76.65343,10.67219],[76.65196,10.67238],[76.64937,10.67157],[76.64834,10.67178],[76.64712,10.67362],[76.64828,10.67752],[76.64823,10.67921],[76.64166,10.67849],[76.64171,10.67957],[76.6439,10.6821],[76.64313,10.68718],[76.64403,10.68954],[76.64682,10.69054],[76.649,10.69447],[76.6535,10.69137]]]]}}]}