{"nvdm":"1.0","dataset":"basins/sub-hydrosheds","scope":{"kind":"basin","id":"palakkad-rivers"},"provenance":{"sources":[{"id":"ksrec-open-geoserver","title":"KSREC GeoServer (WFS): local-body boundaries, watershed atlas, wetlands, paddy, notified wetland parcels, flood extents and quarries of Kerala","publisher":"Kerala State Remote Sensing and Environment Centre (KSREC)","license":"No licence or terms are stated on the GeoServer (WFS capabilities: AccessConstraints NONE). Served with attribution to KSREC by the maintainer's decision; layers KSREC derived from OpenStreetMap (quarries, waterbodies) carry ODbL 1.0.","role":"input","url":"http://ksrec.in:9090/geoserver/ows"}],"method":"derived","produced_at":"2026-09-29","produced_by":"scripts/build_palakkad_rivers_basin.py","note":"Palakkad district's rivers, reservoirs, wetlands and groundwater (scope palakkad-rivers; the district's own scope id is kl-palakkad). The district is the union of its local bodies in KSREC's layer and the catchments (shedId) are the river basins of KSREC's watershed atlas cut to it. KSREC publishes no licence and its layers are served with attribution; its quarry layer is OpenStreetMap's (ODbL)."},"type":"FeatureCollection","features":[{"type":"Feature","properties":{"shedId":"RB20","name":"Bharathapuzha","basinCode":"20","areaKm2":3179.2},"geometry":{"type":"Polygon","coordinates":[[[76.1811,10.7345],[76.1815,10.7297],[76.1788,10.7285],[76.1767,10.7239],[76.1755,10.7235],[76.1752,10.7257],[76.1734,10.7262],[76.1696,10.7221],[76.1646,10.7213],[76.1626,10.7255],[76.1597,10.7271],[76.16,10.7326],[76.1574,10.735],[76.1586,10.7379],[76.1582,10.741],[76.1548,10.7439],[76.1517,10.7508],[76.1474,10.7527],[76.1456,10.7553],[76.1415,10.7574],[76.1368,10.7566],[76.1312,10.7577],[76.124,10.7558],[76.1173,10.7576],[76.1116,10.7558],[76.1049,10.7579],[76.1017,10.7605],[76.1004,10.7648],[76.105,10.7676],[76.1067,10.7738],[76.1027,10.7739],[76.0995,10.7778],[76.1031,10.7801],[76.1041,10.7825],[76.1004,10.7841],[76.0965,10.7904],[76.0949,10.7905],[76.0927,10.7843],[76.0872,10.7804],[76.0887,10.7767],[76.0875,10.7739],[76.0739,10.7717],[76.07,10.7814],[76.0675,10.7843],[76.0681,10.7877],[76.0703,10.7896],[76.0693,10.7914],[76.0708,10.7969],[76.0701,10.8042],[76.065,10.806],[76.0511,10.8188],[76.0466,10.8196],[76.0406,10.8178],[76.0388,10.8156],[76.0389,10.8105],[76.0345,10.8088],[76.0354,10.8127],[76.0371,10.8128],[76.0368,10.8155],[76.0327,10.8168],[76.0303,10.8216],[76.0293,10.822],[76.0289,10.8204],[76.0262,10.8225],[76.0287,10.8249],[76.0279,10.8257],[76.03,10.833],[76.0358,10.8351],[76.0393,10.845],[76.0432,10.8488],[76.0495,10.8481],[76.0613,10.8399],[76.069,10.8385],[76.0918,10.8405],[76.0992,10.843],[76.1022,10.8482],[76.1024,10.8709],[76.1051,10.8711],[76.1111,10.8666],[76.1129,10.8672],[76.1135,10.877],[76.1151,10.8822],[76.1292,10.8786],[76.1314,10.8792],[76.1301,10.8854],[76.131,10.8974],[76.1378,10.8963],[76.1454,10.8903],[76.1505,10.8912],[76.1565,10.8997],[76.1589,10.9111],[76.1668,10.9152],[76.1714,10.9153],[76.1731,10.908],[76.1749,10.9066],[76.1834,10.911],[76.1892,10.9107],[76.1899,10.9084],[76.1878,10.9009],[76.1924,10.8982],[76.205,10.8992],[76.2068,10.9042],[76.2101,10.9074],[76.2117,10.9132],[76.2133,10.9144],[76.2154,10.914],[76.2169,10.9125],[76.2173,10.9069],[76.2202,10.9046],[76.2274,10.8936],[76.2292,10.8863],[76.2327,10.8852],[76.2434,10.8868],[76.2526,10.8851],[76.2642,10.9045],[76.2683,10.9153],[76.2721,10.9145],[76.2795,10.9161],[76.2845,10.9134],[76.2964,10.92],[76.3052,10.9115],[76.3125,10.9129],[76.3194,10.9119],[76.3208,10.9109],[76.3208,10.9069],[76.3223,10.9057],[76.3291,10.9046],[76.3356,10.9058],[76.3355,10.9126],[76.3323,10.9145],[76.3322,10.9204],[76.3334,10.923],[76.3239,10.9315],[76.3213,10.9366],[76.3208,10.9509],[76.32148,10.954],[76.3241,10.9557],[76.3246,10.96],[76.3287,10.965],[76.3261,10.9677],[76.3288,10.9737],[76.3275,10.9766],[76.3283,10.9788],[76.3302,10.9782],[76.3338,10.9805],[76.33633,10.9804],[76.3376,10.9775],[76.3452,10.9759],[76.3482,10.9737],[76.3583,10.9742],[76.3638,10.9724],[76.3657,10.9727],[76.3682,10.9767],[76.372,10.9773],[76.3745,10.976],[76.3808,10.9759],[76.3868,10.9776],[76.3899,10.9756],[76.3948,10.9756],[76.4016,10.9793],[76.4031,10.9843],[76.402,10.9886],[76.4033,10.9912],[76.4085,10.9926],[76.4117,10.9964],[76.4118,10.9988],[76.4157,11.0018],[76.4145,11.004],[76.4076,11.0045],[76.4051,11.0091],[76.4038,11.0134],[76.4074,11.0166],[76.4073,11.0185],[76.4025,11.0183],[76.3981,11.0197],[76.4009,11.0243],[76.3996,11.0316],[76.4066,11.0363],[76.4073,11.0419],[76.4117,11.0536],[76.4118,11.0581],[76.4094,11.0651],[76.4163,11.0724],[76.4236,11.074],[76.4251,11.0793],[76.4251,11.0863],[76.4227,11.0916],[76.426,11.097],[76.4208,11.1016],[76.4193,11.1049],[76.4186,11.1156],[76.4157,11.1196],[76.4146,11.1268],[76.4124,11.1316],[76.4162,11.1393],[76.4161,11.1413],[76.4087,11.154],[76.4128,11.1613],[76.4137,11.1723],[76.4037,11.1865],[76.408,11.1934],[76.4071,11.2011],[76.40561,11.20249],[76.4062,11.2048],[76.4097,11.2077],[76.4167,11.209],[76.4279,11.2068],[76.432,11.2018],[76.43947,11.2024],[76.4389,11.1992],[76.45153,11.19939],[76.4544,11.1977],[76.4546,11.1914],[76.4581,11.1876],[76.45944,11.18857],[76.4625,11.1866],[76.4636,11.1786],[76.463,11.1675],[76.4685,11.1647],[76.4711,11.165],[76.4727,11.163],[76.47,11.1576],[76.4699,11.1541],[76.4726,11.1505],[76.4715,11.1409],[76.4758,11.1377],[76.4854,11.1398],[76.4872,11.1371],[76.4818,11.1304],[76.4799,11.122],[76.4801,11.1143],[76.4828,11.1096],[76.482,11.1057],[76.4758,11.1031],[76.4655,11.1017],[76.4643,11.0994],[76.4605,11.0975],[76.4577,11.0902],[76.4518,11.0888],[76.4481,11.0862],[76.4479,11.0801],[76.4489,11.0783],[76.4536,11.0781],[76.4617,11.0715],[76.4634,11.0691],[76.4642,11.0641],[76.4711,11.0631],[76.4755,11.0652],[76.481,11.061],[76.4854,11.0594],[76.4916,11.0628],[76.4908,11.0661],[76.4944,11.0681],[76.5005,11.0674],[76.5053,11.0607],[76.5125,11.062],[76.5193,11.0609],[76.529,11.0632],[76.5371,11.0624],[76.5419,11.0604],[76.5576,11.0611],[76.5604,11.0622],[76.562,11.0648],[76.5726,11.0614],[76.5818,11.0644],[76.5834,11.0656],[76.5826,11.0664],[76.5886,11.0654],[76.5894,11.0624],[76.5823,11.0566],[76.5861,11.0518],[76.5883,11.0449],[76.5851,11.0358],[76.5882,11.0331],[76.592,11.0333],[76.5943,11.0316],[76.5936,11.0258],[76.5982,11.0247],[76.6001,11.018],[76.6059,11.0168],[76.6091,11.0112],[76.6088,11.0087],[76.6049,11.0078],[76.6049,10.9989],[76.6071,10.9919],[76.6038,10.9906],[76.603,10.9878],[76.6036,10.9853],[76.6089,10.9825],[76.6136,10.9735],[76.6128,10.9641],[76.6104,10.9586],[76.6124,10.9551],[76.6264,10.9501],[76.6287,10.9469],[76.6279,10.9431],[76.6376,10.9362],[76.6484,10.9347],[76.6565,10.9364],[76.6593,10.9311],[76.6619,10.9302],[76.6647,10.9267],[76.6779,10.9175],[76.687,10.9149],[76.6969,10.9101],[76.707,10.9102],[76.7101,10.9094],[76.7127,10.9065],[76.7161,10.9074],[76.7247,10.9005],[76.7381,10.8954],[76.7399,10.8941],[76.7411,10.8901],[76.7544,10.8948],[76.7591,10.8945],[76.7661,10.892],[76.7656,10.8901],[76.7679,10.8879],[76.7747,10.8907],[76.7766,10.89],[76.7818,10.8915],[76.7828,10.8895],[76.7865,10.8887],[76.7889,10.8859],[76.7909,10.8856],[76.7909,10.8826],[76.7919,10.882],[76.7962,10.8817],[76.7975,10.8805],[76.8008,10.8811],[76.8044,10.8787],[76.8065,10.8796],[76.8077,10.877],[76.8116,10.879],[76.812,10.8767],[76.8144,10.8771],[76.8167,10.8736],[76.8195,10.8746],[76.8259,10.872],[76.828,10.873],[76.8307,10.8708],[76.8315,10.8611],[76.8332,10.8606],[76.8334,10.8591],[76.839,10.8571],[76.841,10.8532],[76.8478,10.8501],[76.8528,10.8396],[76.8533,10.8341],[76.8504,10.83],[76.8483,10.8315],[76.8475,10.8273],[76.8461,10.828],[76.8449,10.8264],[76.8474,10.8229],[76.8479,10.8195],[76.8495,10.8178],[76.8515,10.8192],[76.8563,10.8189],[76.858,10.8176],[76.8606,10.8193],[76.86401,10.81836],[76.865,10.8136],[76.8706,10.8084],[76.8896,10.8102],[76.9007,10.8077],[76.9004,10.8009],[76.9025,10.7982],[76.9054,10.7887],[76.9072,10.7784],[76.9053,10.7722],[76.9032,10.7723],[76.9023,10.7702],[76.9047,10.7634],[76.9006,10.7559],[76.8962,10.7532],[76.896,10.7452],[76.8884,10.7332],[76.8886,10.7288],[76.8932,10.7215],[76.8904,10.7166],[76.8865,10.7185],[76.882,10.717],[76.8727,10.7007],[76.8686,10.696],[76.8682,10.6949],[76.8708,10.6932],[76.8661,10.6859],[76.8682,10.677],[76.8777,10.6773],[76.8781,10.6667],[76.8812,10.6612],[76.8812,10.6553],[76.8839,10.6496],[76.8839,10.6474],[76.8826,10.6465],[76.8823,10.6393],[76.8727,10.6374],[76.8681,10.6335],[76.8581,10.6327],[76.8523,10.6358],[76.83976,10.63481],[76.8299,10.6382],[76.8283,10.6365],[76.8215,10.635],[76.8144,10.6362],[76.8148,10.6294],[76.8109,10.6243],[76.8125,10.6194],[76.8168,10.6167],[76.8163,10.6146],[76.819,10.6116],[76.8154,10.6079],[76.8174,10.6029],[76.8263,10.5968],[76.8303,10.5976],[76.832,10.5994],[76.838,10.5976],[76.8387,10.5953],[76.8377,10.5945],[76.8383,10.589],[76.8365,10.5858],[76.8377,10.5811],[76.8359,10.5803],[76.8333,10.5753],[76.8349,10.5681],[76.8392,10.5629],[76.8389,10.5605],[76.8357,10.5572],[76.8364,10.5439],[76.8262,10.5407],[76.8166,10.5439],[76.7968,10.546],[76.7881,10.5501],[76.7843,10.5539],[76.7749,10.5562],[76.7606,10.5573],[76.7559,10.5562],[76.749,10.5473],[76.7439,10.5432],[76.7221,10.5322],[76.7093,10.5309],[76.7028,10.5332],[76.6879,10.5331],[76.6776,10.5306],[76.6758,10.5279],[76.6687,10.5231],[76.6657,10.519],[76.6609,10.5186],[76.6534,10.5114],[76.655,10.4943],[76.652,10.4933],[76.6487,10.488],[76.6461,10.4864],[76.6475,10.482],[76.6458,10.4788],[76.6404,10.4796],[76.6364,10.4765],[76.6323,10.4778],[76.6288,10.4755],[76.6248,10.4799],[76.6248,10.4855],[76.6211,10.4909],[76.6147,10.4935],[76.6088,10.4899],[76.6021,10.4817],[76.596,10.4768],[76.5958,10.4755],[76.5991,10.472],[76.5988,10.4669],[76.594,10.4621],[76.5934,10.4571],[76.5872,10.4514],[76.5842,10.4462],[76.5797,10.4432],[76.5694,10.4417],[76.5666,10.442],[76.5657,10.4442],[76.5644,10.4443],[76.559,10.4423],[76.5507,10.4498],[76.54397,10.44792],[76.5374,10.4483],[76.5333,10.4592],[76.5278,10.4627],[76.5257,10.4676],[76.516,10.4723],[76.50595,10.47424],[76.5031,10.4781],[76.4984,10.4792],[76.4945,10.4779],[76.4931,10.4797],[76.491,10.4793],[76.4892,10.4858],[76.4762,10.4863],[76.4717,10.4959],[76.4688,10.4982],[76.4693,10.5033],[76.4622,10.50652],[76.4608,10.5111],[76.4505,10.5219],[76.4426,10.5231],[76.4406,10.5287],[76.4337,10.5345],[76.4362,10.5458],[76.4405,10.5561],[76.4388,10.5566],[76.4363,10.5551],[76.4318,10.55803],[76.4321,10.5615],[76.4308,10.5648],[76.4278,10.5669],[76.4268,10.5709],[76.4249,10.5723],[76.4213,10.5723],[76.4217,10.5754],[76.4201,10.5786],[76.4168,10.5799],[76.4155,10.5787],[76.4094,10.5794],[76.4084,10.5833],[76.4065,10.5839],[76.4062,10.5871],[76.4028,10.5907],[76.402,10.5951],[76.4049,10.5963],[76.4055,10.5995],[76.4135,10.5945],[76.4158,10.599],[76.414,10.6016],[76.414,10.6046],[76.4188,10.604],[76.4216,10.6063],[76.4232,10.6049],[76.4245,10.609],[76.4293,10.6135],[76.4276,10.6185],[76.4247,10.6189],[76.4275,10.6193],[76.4262,10.6218],[76.4261,10.627],[76.4214,10.6288],[76.4193,10.6282],[76.4217,10.623],[76.4198,10.623],[76.4198,10.627],[76.4173,10.6276],[76.4191,10.6281],[76.4175,10.6313],[76.4185,10.6335],[76.4199,10.6334],[76.4205,10.6394],[76.4245,10.6443],[76.4227,10.6469],[76.4252,10.6489],[76.4251,10.6505],[76.4338,10.6497],[76.4356,10.6526],[76.4353,10.6562],[76.4397,10.6599],[76.4402,10.6633],[76.4445,10.6645],[76.4443,10.663],[76.4481,10.6617],[76.451,10.6659],[76.4503,10.6709],[76.4515,10.6763],[76.4482,10.6858],[76.4454,10.6909],[76.4404,10.6962],[76.4516,10.7022],[76.4521,10.701],[76.4537,10.7004],[76.4545,10.7015],[76.4566,10.6996],[76.4617,10.7064],[76.4635,10.7156],[76.4659,10.7185],[76.4642,10.7213],[76.4692,10.726],[76.4778,10.7309],[76.4789,10.7351],[76.4687,10.7414],[76.4727,10.7494],[76.4702,10.7515],[76.4673,10.7528],[76.4441,10.7497],[76.4297,10.7509],[76.4203,10.7492],[76.4091,10.7494],[76.4019,10.7467],[76.3965,10.747],[76.3938,10.7492],[76.3894,10.7653],[76.3853,10.768],[76.3814,10.7682],[76.3704,10.766],[76.3655,10.7637],[76.3617,10.758],[76.3587,10.7452],[76.3552,10.7432],[76.3493,10.7443],[76.3385,10.7495],[76.329,10.7458],[76.3239,10.7458],[76.3168,10.7474],[76.3083,10.7517],[76.2883,10.7564],[76.281,10.7525],[76.2698,10.7542],[76.2654,10.7537],[76.2517,10.7468],[76.2456,10.7496],[76.2451,10.7545],[76.2479,10.762],[76.2458,10.7702],[76.2427,10.7735],[76.2361,10.7742],[76.2325,10.7726],[76.2298,10.7732],[76.2253,10.7794],[76.2203,10.7823],[76.2096,10.7777],[76.2044,10.7786],[76.1956,10.7832],[76.1885,10.7828],[76.1888,10.7804],[76.1921,10.777],[76.1945,10.7781],[76.1947,10.776],[76.198,10.7749],[76.2054,10.7687],[76.2036,10.7521],[76.1929,10.7516],[76.1906,10.7483],[76.1907,10.7435],[76.1876,10.7414],[76.1826,10.7344],[76.1811,10.7345]],[[76.6937,10.8566],[76.6883,10.8566],[76.6879,10.8535],[76.6869,10.8533],[76.6875,10.8574],[76.6833,10.8613],[76.68,10.8605],[76.6791,10.8587],[76.6775,10.859],[76.6771,10.8631],[76.6751,10.8629],[76.6771,10.8659],[76.6728,10.8662],[76.6711,10.8682],[76.6666,10.8659],[76.6657,10.8706],[76.6643,10.8709],[76.6625,10.8688],[76.6616,10.8721],[76.6584,10.8716],[76.657,10.8728],[76.656,10.8702],[76.6612,10.8652],[76.6584,10.8661],[76.6567,10.8652],[76.6558,10.8693],[76.653,10.8711],[76.6539,10.8685],[76.6521,10.863],[76.6485,10.8611],[76.6567,10.8575],[76.6664,10.851],[76.6686,10.849],[76.6683,10.8468],[76.6741,10.8434],[76.6783,10.8351],[76.6828,10.8318],[76.6847,10.8272],[76.6878,10.8264],[76.6936,10.8213],[76.6959,10.8217],[76.6965,10.8234],[76.7037,10.8217],[76.7142,10.8218],[76.715,10.824],[76.7183,10.8221],[76.7245,10.8225],[76.7255,10.8252],[76.7202,10.8257],[76.7238,10.8271],[76.7238,10.8285],[76.7143,10.8294],[76.7135,10.8305],[76.7143,10.832],[76.7173,10.8302],[76.7188,10.8342],[76.7205,10.8349],[76.7272,10.8355],[76.727,10.8409],[76.7296,10.8435],[76.7252,10.844],[76.7247,10.8452],[76.7296,10.8568],[76.7261,10.8585],[76.7244,10.8581],[76.7226,10.851],[76.7204,10.8501],[76.7206,10.8477],[76.7188,10.8462],[76.7202,10.8427],[76.7168,10.8446],[76.7159,10.851],[76.7142,10.8503],[76.7132,10.8519],[76.7126,10.8486],[76.7102,10.8486],[76.7094,10.8528],[76.7044,10.8526],[76.7023,10.8562],[76.701,10.8524],[76.7008,10.855],[76.6977,10.8544],[76.6949,10.8514],[76.695,10.8487],[76.6931,10.8489],[76.6952,10.8542],[76.6937,10.8566]],[[76.533,10.5142],[76.5292,10.5141],[76.5284,10.5122],[76.5261,10.5116],[76.5283,10.5095],[76.5299,10.5033],[76.532,10.5004],[76.5284,10.4956],[76.531,10.4965],[76.5338,10.4951],[76.5368,10.4876],[76.5416,10.4882],[76.5421,10.491],[76.5382,10.4921],[76.5368,10.4943],[76.5376,10.4985],[76.5366,10.5008],[76.54,10.4992],[76.54,10.5038],[76.5409,10.5003],[76.5434,10.4995],[76.5447,10.4961],[76.5426,10.4954],[76.5428,10.4942],[76.5478,10.4896],[76.5484,10.4911],[76.5507,10.4909],[76.5492,10.4936],[76.5469,10.4931],[76.546,10.5047],[76.5476,10.509],[76.5417,10.5109],[76.547,10.5145],[76.5456,10.5161],[76.5433,10.5162],[76.542,10.5149],[76.5383,10.5168],[76.533,10.5142]]]}},{"type":"Feature","properties":{"shedId":"RB22","name":"Bhavani","basinCode":"22","areaKm2":605.2},"geometry":{"type":"Polygon","coordinates":[[[76.4919,11.0633],[76.4853,11.0594],[76.481,11.061],[76.4755,11.0652],[76.472,11.0632],[76.4651,11.0637],[76.4617,11.0715],[76.4543,11.0777],[76.4489,11.0783],[76.4479,11.0801],[76.4485,11.0868],[76.4577,11.0902],[76.4605,11.0975],[76.4643,11.0994],[76.4651,11.1014],[76.4799,11.1041],[76.4823,11.1062],[76.4828,11.1096],[76.4801,11.1143],[76.4799,11.122],[76.4818,11.1304],[76.4872,11.1371],[76.4854,11.1398],[76.4758,11.1377],[76.4715,11.1409],[76.4726,11.1505],[76.4699,11.1541],[76.47,11.1576],[76.4727,11.163],[76.4711,11.165],[76.4685,11.1647],[76.463,11.1675],[76.4628,11.1849],[76.4623,11.1869],[76.45944,11.18857],[76.465,11.1926],[76.4734,11.1948],[76.4725,11.2087],[76.478,11.2116],[76.4817,11.2107],[76.5106,11.2115],[76.5163,11.2041],[76.5344,11.1966],[76.6012,11.2064],[76.6295,11.1941],[76.6535,11.2099],[76.6574,11.2105],[76.6715,11.219],[76.677,11.2202],[76.6845,11.2281],[76.6831,11.2297],[76.6855,11.2318],[76.6847,11.2337],[76.6986,11.2397],[76.7066,11.2377],[76.7101,11.2322],[76.7135,11.232],[76.7209,11.2247],[76.7251,11.2255],[76.7254,11.2186],[76.7286,11.2178],[76.732,11.2139],[76.7262,11.2094],[76.722,11.2031],[76.728,11.1953],[76.7288,11.1935],[76.728,11.1909],[76.7233,11.1917],[76.7211,11.1904],[76.7199,11.1867],[76.7179,11.186],[76.7157,11.186],[76.7128,11.1881],[76.71,11.1874],[76.7095,11.1831],[76.7068,11.1789],[76.7023,11.1814],[76.6998,11.1812],[76.7014,11.1758],[76.6963,11.1751],[76.6932,11.1725],[76.6921,11.1637],[76.6897,11.1618],[76.6894,11.1594],[76.6926,11.1556],[76.6962,11.1551],[76.6961,11.1501],[76.7008,11.1496],[76.7019,11.1471],[76.7001,11.1464],[76.7063,11.1413],[76.7127,11.1421],[76.7117,11.1444],[76.7089,11.1455],[76.709,11.1471],[76.7155,11.1489],[76.718,11.1475],[76.717,11.1434],[76.7195,11.1406],[76.7248,11.1378],[76.7261,11.1334],[76.7285,11.1338],[76.7283,11.1299],[76.7331,11.1326],[76.7345,11.1363],[76.7402,11.1336],[76.7384,11.1324],[76.7394,11.1315],[76.7429,11.1336],[76.7457,11.1378],[76.7478,11.1362],[76.7482,11.1342],[76.7467,11.1332],[76.7474,11.1309],[76.7452,11.1303],[76.7479,11.1225],[76.7466,11.1195],[76.7479,11.1166],[76.7478,11.1116],[76.7457,11.1083],[76.7431,11.108],[76.7409,11.1093],[76.7409,11.1043],[76.7392,11.1049],[76.7388,11.1036],[76.7411,11.0998],[76.7437,11.0993],[76.7467,11.0924],[76.7516,11.0931],[76.7549,11.0788],[76.7524,11.0775],[76.7501,11.0791],[76.7487,11.0743],[76.7468,11.0756],[76.7452,11.0751],[76.7451,11.0721],[76.7416,11.073],[76.7416,11.0696],[76.7441,11.0679],[76.7424,11.0664],[76.7438,11.0646],[76.7437,11.0608],[76.7461,11.0601],[76.7441,11.0569],[76.7465,11.055],[76.7514,11.0559],[76.7576,11.0528],[76.7612,11.0528],[76.7619,11.0482],[76.765,11.0459],[76.7697,11.0437],[76.7768,11.0425],[76.7826,11.0427],[76.7878,11.0451],[76.7919,11.049],[76.7936,11.0537],[76.7963,11.0566],[76.79853,11.05708],[76.801,11.0549],[76.794,11.0446],[76.7917,11.0374],[76.7818,11.0347],[76.7733,11.0339],[76.7662,11.0298],[76.7482,11.0348],[76.7383,11.0395],[76.7321,11.0384],[76.7264,11.041],[76.7158,11.0411],[76.7107,11.0389],[76.7101,11.0344],[76.6957,11.0235],[76.6934,11.0174],[76.69,11.0132],[76.6858,10.9956],[76.6855,10.9889],[76.6755,10.9778],[76.6745,10.9747],[76.6672,10.9688],[76.668,10.96],[76.664,10.9512],[76.6661,10.9474],[76.6653,10.9439],[76.6562,10.9393],[76.6565,10.9364],[76.6458,10.9347],[76.6376,10.9362],[76.6279,10.9431],[76.6287,10.9469],[76.6264,10.9501],[76.6124,10.9551],[76.6106,10.9574],[76.6128,10.9641],[76.6136,10.9735],[76.6089,10.9825],[76.6036,10.9853],[76.603,10.9878],[76.6038,10.9906],[76.6071,10.9919],[76.6049,10.9989],[76.6049,11.0078],[76.6088,11.0087],[76.6091,11.0112],[76.6059,11.0168],[76.6001,11.018],[76.5982,11.0247],[76.5936,11.0258],[76.5943,11.0316],[76.592,11.0333],[76.5882,11.0331],[76.5851,11.0358],[76.5883,11.0449],[76.5861,11.0518],[76.5823,11.0566],[76.5894,11.0624],[76.5886,11.0654],[76.5826,11.0664],[76.5834,11.0656],[76.5818,11.0644],[76.5726,11.0614],[76.562,11.0648],[76.5604,11.0622],[76.5576,11.0611],[76.5419,11.0604],[76.5371,11.0624],[76.529,11.0632],[76.5193,11.0609],[76.5125,11.062],[76.5053,11.0607],[76.5005,11.0674],[76.4944,11.0681],[76.4908,11.0661],[76.4919,11.0633]]]}},{"type":"Feature","properties":{"shedId":"RB16","name":"Chalakudy","basinCode":"16","areaKm2":438.6},"geometry":{"type":"Polygon","coordinates":[[[76.6546,10.3777],[76.6515,10.3817],[76.6454,10.3839],[76.6426,10.3833],[76.6409,10.3805],[76.636,10.3809],[76.6329,10.3765],[76.629,10.3769],[76.6289,10.3795],[76.6312,10.3812],[76.6286,10.3833],[76.6271,10.3831],[76.6254,10.3794],[76.6236,10.3795],[76.6196,10.3842],[76.6188,10.3911],[76.6161,10.3904],[76.6105,10.399],[76.6067,10.4],[76.6073,10.405],[76.6036,10.4088],[76.6054,10.4108],[76.6017,10.4168],[76.6018,10.4188],[76.5952,10.4222],[76.5951,10.4263],[76.5916,10.4297],[76.591,10.4328],[76.5884,10.4358],[76.5846,10.4375],[76.57074,10.43701],[76.5671,10.4379],[76.564,10.4362],[76.5607,10.4363],[76.5591,10.4348],[76.5579,10.4368],[76.5587,10.442],[76.5644,10.4443],[76.5672,10.4418],[76.5787,10.4429],[76.5842,10.4462],[76.5872,10.4514],[76.5934,10.4571],[76.594,10.4621],[76.5988,10.4669],[76.5991,10.472],[76.5958,10.4755],[76.596,10.4768],[76.6021,10.4817],[76.6088,10.4899],[76.6147,10.4935],[76.6211,10.4909],[76.6248,10.4855],[76.6248,10.4799],[76.6288,10.4755],[76.6323,10.4778],[76.6364,10.4765],[76.6404,10.4796],[76.6458,10.4788],[76.6475,10.482],[76.6461,10.4864],[76.6487,10.488],[76.652,10.4933],[76.655,10.4943],[76.6534,10.5114],[76.6609,10.5186],[76.6657,10.519],[76.6687,10.5231],[76.6758,10.5279],[76.6776,10.5306],[76.6879,10.5331],[76.7028,10.5332],[76.7093,10.5309],[76.7221,10.5322],[76.7439,10.5432],[76.749,10.5473],[76.7559,10.5562],[76.7606,10.5573],[76.7749,10.5562],[76.7843,10.5539],[76.7881,10.5501],[76.7968,10.546],[76.8172,10.5434],[76.8146,10.5406],[76.8111,10.5331],[76.8067,10.5287],[76.8113,10.5277],[76.8153,10.521],[76.8193,10.5212],[76.8216,10.514],[76.8262,10.5099],[76.8317,10.5009],[76.8284,10.4503],[76.8167,10.4238],[76.8233,10.4177],[76.8229,10.4148],[76.825,10.4105],[76.8308,10.4117],[76.8338,10.4082],[76.8326,10.4062],[76.8341,10.4037],[76.8239,10.3954],[76.8309,10.3898],[76.834,10.3844],[76.8332,10.3831],[76.8315,10.3836],[76.8266,10.3875],[76.8281,10.391],[76.8269,10.392],[76.8243,10.389],[76.8216,10.3888],[76.8182,10.3921],[76.8162,10.3912],[76.8143,10.3933],[76.8114,10.3929],[76.8123,10.3961],[76.8086,10.3946],[76.8074,10.3967],[76.8024,10.3959],[76.7995,10.3978],[76.8002,10.3997],[76.797,10.401],[76.7968,10.4043],[76.7947,10.4021],[76.7908,10.4014],[76.789,10.4024],[76.7896,10.4035],[76.7839,10.4048],[76.7828,10.4029],[76.7798,10.4022],[76.7821,10.4009],[76.7829,10.3974],[76.7836,10.3989],[76.7857,10.3974],[76.7834,10.3967],[76.7832,10.3951],[76.7789,10.395],[76.7786,10.393],[76.7833,10.3925],[76.7852,10.389],[76.7796,10.3891],[76.7792,10.3881],[76.7812,10.387],[76.7808,10.3856],[76.778,10.3849],[76.7775,10.3863],[76.7755,10.3865],[76.7745,10.3844],[76.7705,10.387],[76.7692,10.3855],[76.7698,10.3817],[76.765,10.3806],[76.7673,10.3754],[76.7668,10.3739],[76.7684,10.3744],[76.7701,10.3732],[76.7706,10.3751],[76.7716,10.3741],[76.772,10.3727],[76.7695,10.3721],[76.7699,10.3697],[76.7733,10.3699],[76.7743,10.3685],[76.775,10.3705],[76.776,10.3695],[76.7772,10.3712],[76.7777,10.3692],[76.7797,10.3683],[76.7808,10.3696],[76.7868,10.3691],[76.7921,10.3716],[76.7874,10.3727],[76.7882,10.3741],[76.7848,10.3754],[76.7883,10.3805],[76.791,10.381],[76.7953,10.3843],[76.7977,10.3831],[76.8015,10.3836],[76.8008,10.3822],[76.803,10.3766],[76.8042,10.3787],[76.8053,10.3764],[76.8059,10.3779],[76.8074,10.377],[76.8074,10.3735],[76.8064,10.3732],[76.8084,10.3712],[76.8081,10.368],[76.8097,10.3679],[76.8114,10.3657],[76.8106,10.3712],[76.8126,10.3729],[76.8155,10.3703],[76.8175,10.3717],[76.8194,10.3706],[76.8207,10.3724],[76.8222,10.3711],[76.8234,10.3654],[76.8292,10.3627],[76.8299,10.3697],[76.831,10.3708],[76.8327,10.3683],[76.831,10.3644],[76.8319,10.3651],[76.8326,10.3629],[76.834,10.3634],[76.835,10.3619],[76.837,10.371],[76.837,10.3736],[76.8356,10.3752],[76.837,10.3774],[76.8381,10.3776],[76.8407,10.3743],[76.8417,10.3759],[76.8434,10.375],[76.8454,10.3718],[76.8451,10.3693],[76.8464,10.3699],[76.8483,10.366],[76.8459,10.3632],[76.8465,10.3575],[76.8424,10.354],[76.8418,10.3508],[76.8367,10.3466],[76.8363,10.3411],[76.8379,10.338],[76.8334,10.337],[76.8282,10.3377],[76.8182,10.3484],[76.816,10.3492],[76.8121,10.3466],[76.8087,10.3468],[76.8059,10.3444],[76.8058,10.3385],[76.8043,10.337],[76.7999,10.3383],[76.79253,10.336],[76.7881,10.3364],[76.7771,10.3422],[76.7721,10.3344],[76.7607,10.3371],[76.7542,10.3366],[76.7517,10.3389],[76.7519,10.3419],[76.754,10.3444],[76.7522,10.3473],[76.7577,10.3482],[76.7627,10.3534],[76.765,10.3582],[76.7634,10.3619],[76.7549,10.3613],[76.7519,10.3628],[76.7487,10.3666],[76.7311,10.3687],[76.7228,10.3725],[76.7145,10.3733],[76.7054,10.3697],[76.7037,10.3639],[76.6921,10.363],[76.6869,10.3641],[76.6835,10.369],[76.6814,10.3673],[76.6706,10.3741],[76.6689,10.376],[76.669,10.3785],[76.6617,10.3863],[76.658,10.3843],[76.6582,10.3803],[76.6569,10.3792],[76.6546,10.3777]]]}},{"type":"Feature","properties":{"shedId":"RB23","name":"Kadalundi","basinCode":"23","areaKm2":122.2},"geometry":{"type":"MultiPolygon","coordinates":[[[[76.3572,10.9983],[76.3529,10.9998],[76.3512,10.9961],[76.3471,10.9984],[76.3444,10.998],[76.3392,11.0001],[76.3351,10.9994],[76.3328,11.0015],[76.3252,11.0038],[76.3239,11.0054],[76.3251,11.0093],[76.3244,11.0121],[76.3271,11.0137],[76.3262,11.0161],[76.3275,11.019],[76.329,11.0195],[76.3288,11.0238],[76.3249,11.0236],[76.322,11.0271],[76.3196,11.0262],[76.318,11.0294],[76.315,11.0285],[76.3124,11.0294],[76.3071,11.0271],[76.2987,11.0285],[76.2962,11.0249],[76.2923,11.0257],[76.2916,11.0235],[76.2895,11.0239],[76.2886,11.0215],[76.2846,11.0245],[76.2873,11.0331],[76.2892,11.0324],[76.2894,11.0335],[76.2888,11.0346],[76.2858,11.0336],[76.2844,11.0354],[76.286,11.0354],[76.2888,11.0403],[76.2929,11.0409],[76.2937,11.0453],[76.296,11.0476],[76.295,11.0503],[76.3044,11.0488],[76.3095,11.0467],[76.3096,11.0494],[76.311,11.0506],[76.317,11.0516],[76.3192,11.0497],[76.321,11.0522],[76.3228,11.0499],[76.3315,11.055],[76.3304,11.0573],[76.3331,11.0582],[76.3348,11.063],[76.3338,11.063],[76.3336,11.0666],[76.3308,11.0694],[76.3314,11.0709],[76.3298,11.0741],[76.332,11.0731],[76.3385,11.0782],[76.3398,11.078],[76.3439,11.0878],[76.348,11.0886],[76.3512,11.0926],[76.3579,11.0935],[76.3606,11.0982],[76.367,11.0976],[76.3691,11.0988],[76.3757,11.0972],[76.3823,11.1006],[76.3875,11.0991],[76.3925,11.1086],[76.3994,11.1122],[76.4091,11.1132],[76.4149,11.1198],[76.4134,11.1277],[76.4106,11.133],[76.4149,11.142],[76.4089,11.1516],[76.4087,11.154],[76.4161,11.1413],[76.4162,11.1393],[76.4124,11.1316],[76.4146,11.1268],[76.4157,11.1196],[76.4186,11.1156],[76.4193,11.1049],[76.4208,11.1016],[76.426,11.097],[76.4227,11.0916],[76.4251,11.0863],[76.4251,11.0793],[76.4236,11.074],[76.4163,11.0724],[76.4094,11.0651],[76.4118,11.0581],[76.4117,11.0536],[76.4073,11.0419],[76.4066,11.0363],[76.3996,11.0316],[76.4009,11.0243],[76.3981,11.0197],[76.4025,11.0183],[76.4073,11.0185],[76.4074,11.0166],[76.4038,11.0134],[76.4051,11.0091],[76.4076,11.0045],[76.4145,11.004],[76.4157,11.0018],[76.4118,10.9988],[76.4117,10.9964],[76.4085,10.9926],[76.4033,10.9912],[76.402,10.9886],[76.4031,10.9843],[76.4016,10.9793],[76.3948,10.9756],[76.3899,10.9756],[76.3868,10.9776],[76.3808,10.9759],[76.3745,10.976],[76.372,10.9773],[76.3682,10.9767],[76.3657,10.9727],[76.3638,10.9724],[76.3583,10.9742],[76.3493,10.9735],[76.3432,10.9766],[76.3388,10.9769],[76.3421,10.9778],[76.3465,10.9758],[76.3509,10.9767],[76.3544,10.9755],[76.3588,10.9767],[76.3611,10.9746],[76.3634,10.9758],[76.3645,10.982],[76.3693,10.9897],[76.3685,10.9928],[76.3714,10.9974],[76.3652,10.9997],[76.3631,10.9984],[76.3572,10.9983]]],[[[76.3319,10.979],[76.3283,10.9788],[76.3319,10.9822],[76.3359,10.9814],[76.33633,10.9804],[76.3338,10.9805],[76.3319,10.979]]]]}},{"type":"Feature","properties":{"shedId":"RB19","name":"Kanjiramukku","basinCode":"19","areaKm2":70.1},"geometry":{"type":"Polygon","coordinates":[[[76.0736,10.7299],[76.0706,10.7295],[76.0684,10.7313],[76.0687,10.7329],[76.07,10.733],[76.069,10.7353],[76.0697,10.7374],[76.067,10.7387],[76.0642,10.7436],[76.0624,10.7439],[76.0617,10.7421],[76.0585,10.7423],[76.0542,10.7401],[76.0538,10.7414],[76.0511,10.7407],[76.0468,10.7426],[76.0452,10.7472],[76.0472,10.7481],[76.0474,10.7515],[76.045,10.7521],[76.0437,10.7544],[76.0391,10.7554],[76.0403,10.7566],[76.0394,10.757],[76.0412,10.7634],[76.0393,10.7683],[76.0421,10.7856],[76.0416,10.7914],[76.0432,10.7972],[76.0448,10.7953],[76.0468,10.7957],[76.0491,10.7981],[76.0488,10.8003],[76.05,10.8003],[76.0476,10.8017],[76.0456,10.801],[76.047,10.8025],[76.0458,10.8048],[76.0433,10.8055],[76.0402,10.8044],[76.0373,10.8079],[76.0351,10.8084],[76.0389,10.8105],[76.0388,10.8156],[76.0424,10.8188],[76.0511,10.8188],[76.065,10.806],[76.0701,10.8042],[76.0708,10.7969],[76.0693,10.7914],[76.0703,10.7896],[76.0681,10.7877],[76.0675,10.7843],[76.07,10.7814],[76.0739,10.7717],[76.0875,10.7739],[76.0887,10.7767],[76.0872,10.7804],[76.0927,10.7843],[76.0949,10.7905],[76.0965,10.7904],[76.1004,10.7841],[76.1041,10.7825],[76.1031,10.7801],[76.0995,10.7778],[76.1027,10.7739],[76.1067,10.7738],[76.105,10.7676],[76.1004,10.7648],[76.1017,10.7605],[76.1049,10.7579],[76.1107,10.7559],[76.119,10.7576],[76.1252,10.7558],[76.1323,10.7577],[76.1368,10.7566],[76.1415,10.7574],[76.1456,10.7553],[76.1474,10.7527],[76.1517,10.7508],[76.1548,10.7439],[76.1582,10.741],[76.1586,10.7379],[76.1574,10.735],[76.16,10.7326],[76.1597,10.7271],[76.1626,10.7255],[76.1646,10.7213],[76.1664,10.721],[76.1632,10.7159],[76.1567,10.7177],[76.1543,10.7157],[76.154,10.7122],[76.1459,10.7193],[76.1372,10.7193],[76.1335,10.722],[76.1287,10.7221],[76.1206,10.712],[76.0971,10.7263],[76.0966,10.7283],[76.0897,10.7271],[76.0849,10.7282],[76.0831,10.7269],[76.0757,10.7277],[76.0736,10.7299]]]}}]}