{"type":"FeatureCollection","features":[{"type":"Feature","geometry":{"type":"Point","coordinates":[80.2988860164322,13.1801492269906]},"properties":{"name":"Jothi Nagar","id":1,"slno":1,"latitude":13.1801,"longitude":80.2989}},{"type":"Feature","geometry":{"type":"Point","coordinates":[80.292376135353,13.1730089153228]},"properties":{"name":"Rajaji Nagar","id":2,"slno":2,"latitude":13.173,"longitude":80.2924}},{"type":"Feature","geometry":{"type":"Point","coordinates":[80.2136819518661,13.1713506087741]},"properties":{"name":"Thirumalai Nagar","id":3,"slno":3,"latitude":13.1714,"longitude":80.2137}},{"type":"Feature","geometry":{"type":"Point","coordinates":[80.214804049789,13.1388320396574]},"properties":{"name":"Siva Ganapathi Nagar","id":4,"slno":4,"latitude":13.1388,"longitude":80.2148}},{"type":"Feature","geometry":{"type":"Point","coordinates":[80.2082342092789,13.1404029767493]},"properties":{"name":"Parimalam Nagar","id":5,"slno":5,"latitude":13.1404,"longitude":80.2082}},{"type":"Feature","geometry":{"type":"Point","coordinates":[80.1706105228947,13.1171404306512]},"properties":{"name":"Karukku Main Road","id":6,"slno":6,"latitude":13.1171,"longitude":80.1706}},{"type":"Feature","geometry":{"type":"Point","coordinates":[80.1897427207609,13.1139197526435]},"properties":{"name":"TVS nagar east, Balaji nagar","id":7,"slno":7,"latitude":13.1139,"longitude":80.1897}},{"type":"Feature","geometry":{"type":"Point","coordinates":[80.199086113236,13.1284402137032]},"properties":{"name":"Ayyappa Nagar","id":8,"slno":8,"latitude":13.1284,"longitude":80.1991}},{"type":"Feature","geometry":{"type":"Point","coordinates":[80.1913359284987,13.1147694634371]},"properties":{"name":"Balaji nagar","id":9,"slno":9,"latitude":13.1148,"longitude":80.1913}},{"type":"Feature","geometry":{"type":"Point","coordinates":[80.1634325224416,13.0863075781085]},"properties":{"name":"Jaswant nagar","id":10,"slno":10,"latitude":13.0863,"longitude":80.1634}},{"type":"Feature","geometry":{"type":"Point","coordinates":[80.1761884631035,13.0865816783644]},"properties":{"name":"Vellalar nagar","id":11,"slno":11,"latitude":13.0866,"longitude":80.1762}},{"type":"Feature","geometry":{"type":"Point","coordinates":[80.18780346145,13.0815039711227]},"properties":{"name":"Parikuppam main road","id":12,"slno":12,"latitude":13.0815,"longitude":80.1878}},{"type":"Feature","geometry":{"type":"Point","coordinates":[80.2061101533344,13.1038512881096]},"properties":{"name":"MTH Road Near Villivakkam Police Station","id":13,"slno":13,"latitude":13.1039,"longitude":80.2061}},{"type":"Feature","geometry":{"type":"Point","coordinates":[80.2543618931246,13.081737247874]},"properties":{"name":"Dr Alagappa Road","id":14,"slno":14,"latitude":13.0817,"longitude":80.2544}},{"type":"Feature","geometry":{"type":"Point","coordinates":[80.2518325042467,13.0873922709933]},"properties":{"name":"Sundaram Lane","id":15,"slno":15,"latitude":13.0874,"longitude":80.2518}},{"type":"Feature","geometry":{"type":"Point","coordinates":[80.1712397504688,13.0608803702491]},"properties":{"name":"Nagendhran Street","id":16,"slno":16,"latitude":13.0609,"longitude":80.1712}},{"type":"Feature","geometry":{"type":"Point","coordinates":[80.1460112337267,13.0437151798641]},"properties":{"name":"Chettiyar Agaram Main road","id":17,"slno":17,"latitude":13.0437,"longitude":80.146}},{"type":"Feature","geometry":{"type":"Point","coordinates":[80.2111745860969,12.9662926525799]},"properties":{"name":"Ram nagar 1st street","id":18,"slno":18,"latitude":12.9663,"longitude":80.2112}},{"type":"Feature","geometry":{"type":"Point","coordinates":[80.2111745860969,12.9667826025977]},"properties":{"name":"Ram nagar 2nd street","id":19,"slno":19,"latitude":12.9668,"longitude":80.2112}},{"type":"Feature","geometry":{"type":"Point","coordinates":[80.2112788307816,12.9673142504895]},"properties":{"name":"Ram nagar 3rd street","id":20,"slno":20,"latitude":12.9673,"longitude":80.2113}},{"type":"Feature","geometry":{"type":"Point","coordinates":[80.2112371329077,12.9683462728674]},"properties":{"name":"Ram nagar 5th street","id":21,"slno":21,"latitude":12.9683,"longitude":80.2112}},{"type":"Feature","geometry":{"type":"Point","coordinates":[80.2112788307816,12.9694408420561]},"properties":{"name":"Ram nagar 7th street","id":22,"slno":22,"latitude":12.9694,"longitude":80.2113}},{"type":"Feature","geometry":{"type":"Point","coordinates":[80.2112475573761,12.9699724899478]},"properties":{"name":"Ram nagar 8th street","id":23,"slno":23,"latitude":12.97,"longitude":80.2113}},{"type":"Feature","geometry":{"type":"Point","coordinates":[80.206551334333,12.9727480046765]},"properties":{"name":"Sivaprakasam Nagar 1st street","id":24,"slno":24,"latitude":12.9727,"longitude":80.2066}},{"type":"Feature","geometry":{"type":"Point","coordinates":[80.2053681571623,12.9742048241443]},"properties":{"name":"Balaji nagar 24th street","id":25,"slno":25,"latitude":12.9742,"longitude":80.2054}},{"type":"Feature","geometry":{"type":"Point","coordinates":[80.2035438751811,12.9708598728259]},"properties":{"name":"Annai therasa Nagar 7th street","id":26,"slno":26,"latitude":12.9709,"longitude":80.2035}},{"type":"Feature","geometry":{"type":"Point","coordinates":[80.2050554231085,12.9687541301961]},"properties":{"name":"Annai Therasa NagAR 4TH STREET","id":27,"slno":27,"latitude":12.9688,"longitude":80.2051}},{"type":"Feature","geometry":{"type":"Point","coordinates":[80.2046149893158,12.9723349351136]},"properties":{"name":"Annai therasa nagar 14th street","id":28,"slno":28,"latitude":12.9723,"longitude":80.2046}},{"type":"Feature","geometry":{"type":"Point","coordinates":[80.2080003354496,12.9706227161683]},"properties":{"name":"Sivasubramanian street","id":29,"slno":29,"latitude":12.9706,"longitude":80.208}},{"type":"Feature","geometry":{"type":"Point","coordinates":[80.2068223705132,12.9709354502222]},"properties":{"name":"Sivaprakasam nagar 1st street","id":30,"slno":30,"latitude":12.9709,"longitude":80.2068}},{"type":"Feature","geometry":{"type":"Point","coordinates":[80.2103093552144,12.9658691585486]},"properties":{"name":"Ramalingam nagar main road","id":31,"slno":31,"latitude":12.9659,"longitude":80.2103}},{"type":"Feature","geometry":{"type":"Point","coordinates":[80.2020557823078,12.9744954062028]},"properties":{"name":"Jaya nagar","id":32,"slno":32,"latitude":12.9745,"longitude":80.2021}},{"type":"Feature","geometry":{"type":"Point","coordinates":[80.2590124718795,12.9741279436895]},"properties":{"name":"Division office Ward 183","id":33,"slno":33,"latitude":12.9741,"longitude":80.259}},{"type":"Feature","geometry":{"type":"Point","coordinates":[80.1954961855267,12.9655277572064]},"properties":{"name":"Saraswathi street","id":34,"slno":34,"latitude":12.9655,"longitude":80.1955}},{"type":"Feature","geometry":{"type":"Point","coordinates":[80.2543879170571,12.9479768614882]},"properties":{"name":"Infront of Maharasthra bank Neelankarai","id":35,"slno":35,"latitude":12.948,"longitude":80.2544}},{"type":"Feature","geometry":{"type":"Point","coordinates":[80.2503849211667,12.9482726557809]},"properties":{"name":"Ellaiamman koil 4th street","id":36,"slno":36,"latitude":12.9483,"longitude":80.2504}},{"type":"Feature","geometry":{"type":"Point","coordinates":[80.2465786871188,12.9376383948888]},"properties":{"name":"Mahatma Gandhi 2nd main road","id":37,"slno":37,"latitude":12.9376,"longitude":80.2466}},{"type":"Feature","geometry":{"type":"Point","coordinates":[80.2469090124632,12.9376950779361]},"properties":{"name":"Karpaga Vinayaga nagar 3rd street","id":38,"slno":38,"latitude":12.9377,"longitude":80.2469}},{"type":"Feature","geometry":{"type":"Point","coordinates":[80.2477846678143,12.9376742289992]},"properties":{"name":"Karpaga Vinayaga nagar 4th street","id":39,"slno":39,"latitude":12.9377,"longitude":80.2478}},{"type":"Feature","geometry":{"type":"Point","coordinates":[80.2481182508051,12.9376221066568]},"properties":{"name":"Karpaga Vinayaga nagar 5th street","id":40,"slno":40,"latitude":12.9376,"longitude":80.2481}},{"type":"Feature","geometry":{"type":"Point","coordinates":[80.2486498986968,12.937512649738]},"properties":{"name":"Karpaga Vinayaga nagar 7th street","id":41,"slno":41,"latitude":12.9375,"longitude":80.2486}},{"type":"Feature","geometry":{"type":"Point","coordinates":[80.247847214625,12.9364545661888]},"properties":{"name":"Karpaga Vinayaga nagar 10th street","id":42,"slno":42,"latitude":12.9365,"longitude":80.2478}},{"type":"Feature","geometry":{"type":"Point","coordinates":[80.240358537092,12.9358864326575]},"properties":{"name":"Balaji nagar","id":43,"slno":43,"latitude":12.9359,"longitude":80.2404}},{"type":"Feature","geometry":{"type":"Point","coordinates":[80.2396548854706,12.9372520380263]},"properties":{"name":"Bharathiyar nagar","id":44,"slno":44,"latitude":12.9373,"longitude":80.2397}},{"type":"Feature","geometry":{"type":"Point","coordinates":[80.2306846303571,12.9317531309114]},"properties":{"name":"Saraswathi nagar 4th cross street","id":45,"slno":45,"latitude":12.9318,"longitude":80.2307}},{"type":"Feature","geometry":{"type":"Point","coordinates":[80.2513669838001,12.9193573679071]},"properties":{"name":"ECR Road Philominal School","id":46,"slno":46,"latitude":12.9194,"longitude":80.2514}},{"type":"Feature","geometry":{"type":"Point","coordinates":[80.2491878976798,12.9323147145362]},"properties":{"name":"Ramalinga nagar","id":47,"slno":47,"latitude":12.9323,"longitude":80.2492}},{"type":"Feature","geometry":{"type":"Point","coordinates":[80.2290854186911,12.910769186797]},"properties":{"name":"Annai fathima school","id":48,"slno":48,"latitude":12.9108,"longitude":80.2291}},{"type":"Feature","geometry":{"type":"Point","coordinates":[80.2149997313392,12.896351714739]},"properties":{"name":"Classic farms avenue 1st street","id":49,"slno":49,"latitude":12.8964,"longitude":80.215}},{"type":"Feature","geometry":{"type":"Point","coordinates":[80.2286132096122,12.8831880489165]},"properties":{"name":"Ponniyamman koil","id":50,"slno":50,"latitude":12.8832,"longitude":80.2286}},{"type":"Feature","geometry":{"type":"Point","coordinates":[80.2306871333456,12.8757546137602]},"properties":{"name":"Thiruvalluvar nagar","id":51,"slno":51,"latitude":12.8758,"longitude":80.2307}},{"type":"Feature","geometry":{"type":"Point","coordinates":[80.2137146595338,12.8627556071345]},"properties":{"name":"Jawahar nagar 6th 7th street","id":52,"slno":52,"latitude":12.8628,"longitude":80.2137}},{"type":"Feature","geometry":{"type":"Point","coordinates":[80.2107187577684,12.8794898584241]},"properties":{"name":"Nookampalayam Main road","id":53,"slno":53,"latitude":12.8795,"longitude":80.2107}}]}