{
  "type": "FeatureCollection",
  "features": [
    {
      "type": "Feature",
      "geometry": { "type": "Point", "coordinates": [80.2638, 13.0782] },
      "properties": {
        "name": "Long Tank (Otteri Nullah)",
        "name_ta": "நீண்ட குளம் (ஒட்டேரி)",
        "type": "tank",
        "status": "fully_lost",
        "historical_area_ha": 200,
        "current_area_ha": 0,
        "replaced_by": "roads/development",
        "approx_radius_m": 800,
        "source": "Care Earth Trust / IIT Madras Water Bodies Study",
        "notes": "One of the largest tanks in central Chennai, the Long Tank once ran from Vepery to Otteri covering ~200 ha. Completely drained and built over during British colonial-era urban expansion. Now occupied by roads, housing and commercial buildings in Vepery-Otteri area."
      }
    },
    {
      "type": "Feature",
      "geometry": { "type": "Point", "coordinates": [80.2441, 13.0647] },
      "properties": {
        "name": "Nungambakkam Tank",
        "name_ta": "நுங்கம்பாக்கம் குளம்",
        "type": "tank",
        "status": "fully_lost",
        "historical_area_ha": 120,
        "current_area_ha": 0,
        "replaced_by": "residential/commercial",
        "approx_radius_m": 620,
        "source": "Survey of India historical maps / Chennai Metropolitan Development Authority",
        "notes": "A major water tank that once occupied the Nungambakkam area. Drained during colonial expansion to develop what is now one of Chennai's most upscale residential and commercial neighbourhoods. No trace remains today."
      }
    },
    {
      "type": "Feature",
      "geometry": { "type": "Point", "coordinates": [80.2228, 13.0575] },
      "properties": {
        "name": "Kodambakkam Lake",
        "name_ta": "கோடம்பாக்கம் ஏரி",
        "type": "lake",
        "status": "fully_lost",
        "historical_area_ha": 80,
        "current_area_ha": 0,
        "replaced_by": "residential",
        "approx_radius_m": 505,
        "source": "Care Earth Trust water body survey",
        "notes": "Kodambakkam Lake was completely filled and built over during the 1970s–1990s. The area, now known for film studios and residential blocks, shows no remaining water surface. Its loss contributed to recurrent flooding in Kodambakkam during northeast monsoon."
      }
    },
    {
      "type": "Feature",
      "geometry": { "type": "Point", "coordinates": [80.1970, 13.0530] },
      "properties": {
        "name": "Virugambakkam Lake",
        "name_ta": "விருகம்பாக்கம் ஏரி",
        "type": "lake",
        "status": "severely_reduced",
        "historical_area_ha": 150,
        "current_area_ha": 12,
        "replaced_by": "mixed",
        "approx_radius_m": 690,
        "source": "CMDA Master Plan / Care Earth Trust",
        "notes": "Virugambakkam Lake has been reduced from ~150 ha to barely 12 ha. Encroachments from residential layouts, a bus terminus, and commercial establishments have consumed most of the water body. The remaining portion is highly polluted and no longer functionally useful for groundwater recharge."
      }
    },
    {
      "type": "Feature",
      "geometry": { "type": "Point", "coordinates": [80.2177, 12.9500] },
      "properties": {
        "name": "Pallikaranai Marsh",
        "name_ta": "பள்ளிக்கரணை ஆடுபுல்",
        "type": "marsh",
        "status": "severely_reduced",
        "historical_area_ha": 2500,
        "current_area_ha": 320,
        "replaced_by": "IT corridor/landfill/roads",
        "approx_radius_m": 2821,
        "source": "Care Earth Trust / Ashoka Trust for Research in Ecology",
        "notes": "Pallikaranai Marsh is one of India's most critically threatened wetlands. By the early 1990s — before the OMR IT corridor boom — the marsh covered ~2,500 ha (down from 5,000+ ha in the 1960s). It has since shrunk to ~320 ha due to IT park development (SIPCOT IT Park, Perungudi), the Perungudi garbage dump, and road construction. What remains is a Ramsar-recognised wetland and critical habitat for 115+ bird species, but drainage continues from all sides."
      }
    },
    {
      "type": "Feature",
      "geometry": { "type": "Point", "coordinates": [80.2269, 12.9556] },
      "properties": {
        "name": "Perungudi Lake",
        "name_ta": "பெருங்குடி ஏரி",
        "type": "lake",
        "status": "fully_lost",
        "historical_area_ha": 200,
        "current_area_ha": 0,
        "replaced_by": "landfill/development",
        "approx_radius_m": 800,
        "source": "Care Earth Trust / Greater Chennai Corporation records",
        "notes": "Perungudi Lake was converted into one of Chennai's two major garbage dump sites in the 1980s. The 200-ha water body is now buried under decades of municipal waste. The site has been ordered to close by the National Green Tribunal but remediation is incomplete."
      }
    },
    {
      "type": "Feature",
      "geometry": { "type": "Point", "coordinates": [80.1909, 12.9613] },
      "properties": {
        "name": "Madipakkam Lake",
        "name_ta": "மடிப்பாக்கம் ஏரி",
        "type": "lake",
        "status": "partially_encroached",
        "historical_area_ha": 60,
        "current_area_ha": 18,
        "replaced_by": "residential",
        "approx_radius_m": 437,
        "source": "Madras High Court / NGT records on water body encroachments",
        "notes": "Madipakkam Lake has lost 70% of its area to residential encroachments. Buildings have been constructed directly on the former lake bed. The remaining water body suffers from sewage inflow and is now largely stagnant. A case to restore the lake was filed at the Madras High Court."
      }
    },
    {
      "type": "Feature",
      "geometry": { "type": "Point", "coordinates": [80.2280, 12.8820] },
      "properties": {
        "name": "Sholinganallur Marshland",
        "name_ta": "சோழிங்கநல்லூர் ஆடுபுல்",
        "type": "marsh",
        "status": "severely_reduced",
        "historical_area_ha": 600,
        "current_area_ha": 80,
        "replaced_by": "IT parks",
        "approx_radius_m": 1382,
        "source": "Salim Ali Centre for Ornithology / Care Earth Trust",
        "notes": "The Sholinganallur/Perumbakkam marshland along the OMR corridor covered ~600 ha of wetland habitat, distinct from (and south of) the main Pallikaranai marsh. IT park development from the late 1990s onward—including Tidel Park, DLF, and dozens of tech campuses—has reduced it to isolated patches. The area now experiences recurrent flooding during monsoon as the natural retention basin is gone."
      }
    },
    {
      "type": "Feature",
      "geometry": { "type": "Point", "coordinates": [80.2088, 13.1072] },
      "properties": {
        "name": "Villivakkam Lake",
        "name_ta": "விழுப்புரம் வாக்கம் ஏரி",
        "type": "lake",
        "status": "partially_encroached",
        "historical_area_ha": 90,
        "current_area_ha": 28,
        "replaced_by": "mixed",
        "approx_radius_m": 535,
        "source": "CMDA / Revenue records / Care Earth Trust",
        "notes": "Villivakkam Lake has been progressively encroached upon by residential layouts, a market complex, and bus stands. About 68% of the original area has been lost. The water quality of the remaining lake is severely degraded due to untreated sewage discharge from nearby localities."
      }
    },
    {
      "type": "Feature",
      "geometry": { "type": "Point", "coordinates": [80.2186, 13.1182] },
      "properties": {
        "name": "Kolathur Lake",
        "name_ta": "கொளத்தூர் ஏரி",
        "type": "lake",
        "status": "partially_encroached",
        "historical_area_ha": 50,
        "current_area_ha": 14,
        "replaced_by": "residential",
        "approx_radius_m": 399,
        "source": "Care Earth Trust water body inventory",
        "notes": "Kolathur Lake has been encroached upon from all sides by residential development. What remains is a heavily polluted water body that periodically floods the surrounding area during heavy rains—a direct result of the loss of its natural water-holding capacity."
      }
    },
    {
      "type": "Feature",
      "geometry": { "type": "Point", "coordinates": [80.1298, 12.9240] },
      "properties": {
        "name": "Tambaram Tank",
        "name_ta": "தாம்பரம் குளம்",
        "type": "tank",
        "status": "severely_reduced",
        "historical_area_ha": 80,
        "current_area_ha": 8,
        "replaced_by": "mixed",
        "approx_radius_m": 505,
        "source": "Survey of India maps / Tamil Nadu PWD records",
        "notes": "Tambaram Tank, which once served as a key water source and flood buffer for the Tambaram area, has shrunk by 90% due to encroachments from residential and commercial construction. The reduced water body is no longer capable of sustaining the aquifer recharge it historically provided."
      }
    },
    {
      "type": "Feature",
      "geometry": { "type": "Point", "coordinates": [80.2710, 13.1656] },
      "properties": {
        "name": "Manali Wetlands",
        "name_ta": "மணலி ஆடுபுல்",
        "type": "marsh",
        "status": "severely_reduced",
        "historical_area_ha": 800,
        "current_area_ha": 90,
        "replaced_by": "industrial",
        "approx_radius_m": 1596,
        "source": "TNPCB / Tamil Nadu Pollution Control Board reports",
        "notes": "Manali wetlands, located near Chennai's northern industrial corridor, have been drastically reduced by petrochemical plants, fertiliser factories, and other heavy industry. The area receives industrial effluent discharge and the surviving wetland patches are among the most polluted in Chennai. The wetlands once buffered the Ennore Creek floodplain."
      }
    },
    {
      "type": "Feature",
      "geometry": { "type": "Point", "coordinates": [80.3132, 13.2220] },
      "properties": {
        "name": "Ennore Creek Wetlands",
        "name_ta": "எண்ணூர் கழிமுகம்",
        "type": "marsh",
        "status": "severely_reduced",
        "historical_area_ha": 600,
        "current_area_ha": 100,
        "replaced_by": "port/industrial",
        "approx_radius_m": 1382,
        "source": "Coastal Management Society / National Green Tribunal (Chennai)",
        "notes": "Ennore Creek and its associated wetlands have been severely degraded by the expansion of the Ennore and Kamarajar ports, thermal power plants, and coal ash ponds. The NGT has repeatedly issued orders to halt further encroachment but enforcement has been partial. The estuary supports significant fisheries and migratory bird populations."
      }
    },
    {
      "type": "Feature",
      "geometry": { "type": "Point", "coordinates": [80.2363, 12.8006] },
      "properties": {
        "name": "Muttukadu Backwaters",
        "name_ta": "முட்டுக்காடு உப்பங்கழி",
        "type": "marsh",
        "status": "partially_encroached",
        "historical_area_ha": 400,
        "current_area_ha": 220,
        "replaced_by": "resort/development",
        "approx_radius_m": 1128,
        "source": "CMDA Coastal Regulation Zone / Care Earth Trust",
        "notes": "Muttukadu backwaters are a tidal estuary and lagoon system on the East Coast Road. About 45% of the original area has been lost to resort construction, boat clubs, and residential development. CRZ violations have been documented by the Tamil Nadu Coastal Zone Management Authority. The surviving area is a popular tourism and eco-tourism destination."
      }
    },
    {
      "type": "Feature",
      "geometry": { "type": "Point", "coordinates": [80.2415, 13.0715] },
      "properties": {
        "name": "Chetpet Lake (Reduced)",
        "name_ta": "செட்பேட் ஏரி",
        "type": "lake",
        "status": "severely_reduced",
        "historical_area_ha": 45,
        "current_area_ha": 6,
        "replaced_by": "roads/development",
        "approx_radius_m": 337,
        "source": "GCC / Care Earth Trust / Madras High Court order 2018",
        "notes": "Chetpet Lake once covered ~45 ha in central Chennai. It has been reduced to a small remnant of ~6 ha by road construction, encroachments, and the widening of Poonamallee High Road. A 2018 Madras High Court order mandated the GCC to restore and beautify the surviving portion; a partial restoration was completed but the lost area was not recovered."
      }
    }
  ]
}
