{"nvdm":"1.0","dataset":"geojson-layers/drainage","scope":{"kind":"city","id":"gurugram"},"provenance":{"sources":[{"id":"gmda-onemap-arcgis","title":"GMDA OneMap layer GMDA/water_logging_under_gmuc_area/MapServer/5","publisher":"Gurugram Metropolitan Development Authority (OneMap GGM)","license":"restrictive, permission required: no licence or access-constraint statement is served with the ArcGIS REST directory, and the parent gmda.gov.in asserts 'All rights reserved' - open in the ACCESS sense, unlicensed in the REUSE sense"}],"method":"api","produced_at":"2026-08-14","produced_by":"neer-vazhvu-api/scripts/harvest_arcgis_rest.py","note":"Geometry and a selected attribute subset, fetched as GeoJSON from an open unauthenticated ArcGIS REST service. Feature count is asserted against a pinned expectation so an upstream change fails the run instead of silently rewriting the layer."},"type":"FeatureCollection","_source":"GMDA OneMap (ArcGIS REST)","_source_url":"https://onemapdepts.gmda.gov.in/server/rest/services/GMDA/water_logging_under_gmuc_area/MapServer/5","_licence":"restrictive, permission required: no licence or access-constraint statement is served with the ArcGIS REST directory, and the parent gmda.gov.in asserts 'All rights reserved' - open in the ACCESS sense, unlicensed in the REUSE sense","_fetched":"2026-08-14","_note":"GMDA's drain legs under the GMUC area. Gurugram has no river, so this network plus the Najafgarh outfall IS the city's surface drainage.","features":[{"type":"Feature","geometry":{"type":"LineString","coordinates":[[76.94618321074012,28.50555926613191],[76.94903690769263,28.502426691474625],[76.95403377580499,28.495169335406672],[76.95879269781665,28.480297704120236],[76.96299923575594,28.473551851024244],[76.96287373797031,28.473301080001423],[76.96266945429909,28.47301821248357],[76.96254944013265,28.472611527676296],[76.96225118386229,28.4716008289422],[76.9619955609574,28.470617995621694],[76.9613949949379,28.468308905615913],[76.96129113187277,28.461499962174287],[76.96152907797324,28.454956444408253],[76.96194829269785,28.45314154724377],[76.96198308655153,28.452990906429818],[76.96203293818246,28.45282784467923],[76.96305516632492,28.449484196582375],[76.96392604905321,28.448813188578697],[76.96581058216975,28.447485449337478],[76.96662435783367,28.446885825164088],[76.96765228498828,28.446300477756544],[76.9694939878068,28.44538676473041],[76.97153556534971,28.444373114341886],[76.97258728711432,28.443930534594816],[76.974081588626,28.44319766060505],[76.97481446261577,28.442893089596282],[76.97522372990875,28.442740804091898],[76.97559492582576,28.442645625651664],[76.97652767453997,28.442493340147276],[76.97733669128206,28.44238864386295],[76.97789824407943,28.442331536798804],[76.97874533219743,28.442293465422722],[76.97901183183012,28.442426715239037],[76.97939254559111,28.442341054642895],[76.97966856306772,28.442341054642895],[76.98046806196572,28.442226840514593],[76.98125804301964,28.442036483634126],[76.98152871464396,28.441779780793293],[76.98220030957793,28.44133216317636],[76.9827999337515,28.440646878406827],[76.98406580700646,28.439599915564145],[76.98497000218862,28.438571988409592],[76.985122287693,28.438077060520463],[76.98533168026154,28.437658275383455],[76.98525553750937,28.437153829650242],[76.98533168026154,28.436925401393694],[76.9856172155823,28.436668419604928],[76.98577901893077,28.436316259376156],[76.98596937581124,28.435798488661305],[76.9859884114993,28.435217900175758],[76.98610262562761,28.43486573994693],[76.98668321411299,28.434342258525707],[76.98683549961737,28.434247080085463],[76.98689260668147,28.43363793806793],[76.98733994535053,28.433276259995008],[76.98750174869883,28.432295922060636],[76.98742560594667,28.43198183320795],[76.98899094368147,28.43115573325503],[76.98930894933295,28.43098840823791],[76.98954094678089,28.43087538384026],[76.98961233061112,28.430851589230027],[76.98970750905136,28.430720718874795],[76.98988596862682,28.43064338639215],[76.9900703768547,28.4304589781641],[76.99014176068493,28.430345953766444],[76.99042729600563,28.430078264403114],[76.99080800976662,28.42980462638758],[76.99152779672073,28.429406066669003],[76.99181333204149,28.429215709788707],[76.99215835388742,28.4290729421283],[76.99255096495318,28.428882585247777],[76.99305660041699,28.428721971629898],[76.9935384412708,28.428567306664483],[76.99363956836345,28.428507820139433],[76.99378233602374,28.428329360564135],[76.99493042595901,28.427651214177278],[76.99498991248424,28.427776135880098],[76.99522190993235,28.427954595455557],[76.99612610511451,28.427395422119158],[76.99685184072143,28.426967119138176],[76.99711358143196,28.42689573530794],[76.99728609235501,28.426889786655355],[76.99781552242865,28.4274608572968],[76.99829736328246,28.428156849641084],[76.99913017463444,28.428775509502543],[77.0000224725116,28.42914432595847],[77.00057569719547,28.429852215607813],[77.00111702457428,28.43063624800914],[77.00157804514413,28.430520249285056],[77.00194091294765,28.430404250561022],[77.00220562798455,28.430350712688384],[77.00233863985471,28.430343336359325],[77.00246356155753,28.430474206714617],[77.00267771304806,28.43070025551009],[77.00278478879329,28.430789485297908],[77.00283832666594,28.430813279907973],[77.00298704297876,28.430819228560377],[77.00319524581687,28.43082517721297],[77.00346888383257,28.430831125865552],[77.00372467589068,28.430866817780558],[77.00392098142356,28.430890612390552],[77.00414108156667,28.430902509695613],[77.00440282227737,28.43095009891578],[77.00465861433548,28.430884663737967],[77.00494414965601,28.43075379338273],[77.00527132554436,28.43055748784985],[77.00550332299247,28.43056343650227],[77.00572159018168,28.430631620403798],[77.00670970972237,28.430392115309818],[77.00739499449207,28.430149410287356],[77.0080088954316,28.429963812328815],[77.00853713577499,28.42990670526467],[77.00922242054469,28.429849598200512],[77.00970783058983,28.429920982030755],[77.01052160625375,28.429821044668532],[77.01150670311029,28.429721107306133],[77.0122062646459,28.42954978611391],[77.01282016558542,28.429292804325144],[77.01363394124951,28.428935885174383],[77.01419073512488,28.428536135725377],[77.01459048457372,28.427965065083928],[77.01473325223418,28.427636699465154],[77.0151187249171,28.427251226782232],[77.01547564406803,28.426937137929368],[77.01556844268947,28.426794370819554],[77.0156612420264,28.42665160260861],[77.01570169286356,28.42655285497705],[77.01606337093631,28.426476712224655],[77.01665347726578,28.426400569472662],[77.01733876203548,28.426343462408507],[77.01768140442039,28.426590926353132],[77.01977533010546,28.42655285497705],[77.02063193606745,28.426267319656347],[77.02230707661568,28.42571528470296],[77.02337307514637,28.425087106997353],[77.0246865376215,28.424420857915834],[77.02619137994873,28.424253991376077],[77.02619148472218,28.424253979757964],[77.03121212483916,28.422035385591812],[77.03201756683046,28.421221162385965],[77.03264019949484,28.419360393281124],[77.0326408005813,28.419358596904203],[77.03381605297858,28.415846295869866],[77.03332280061767,28.412644859042924],[77.03439474448606,28.409954840133594],[77.03504311044378,28.409291929193436],[77.03687502780559,28.408164373570003],[77.0368975026413,28.405952254330202],[77.0375337493233,28.40533535398498],[77.03756321096085,28.40416599144345],[77.03782631970648,28.403692193357525],[77.03915586343334,28.40273256823025],[77.04012566059254,28.40261490178972],[77.0403468474143,28.40124996532688],[77.04038118788145,28.40125245864192],[77.04079117016943,28.401243032159016],[77.04172689698208,28.40093355221495],[77.04211200581864,28.400775574367458],[77.04365881777414,28.40083270207782],[77.0448885327205,28.401313496032174],[77.04608329853158,28.40168176436356],[77.04851289979013,28.402441704516658],[77.04980283192594,28.402922711578753],[77.05166081178163,28.40377810191512],[77.05407604682381,28.404684747579434],[77.05622749502209,28.40549267061584],[77.05892171876411,28.406510073274823],[77.06287814367289,28.408003977895987],[77.0661776096203,28.40924318496167],[77.06970846355699,28.410574290447922],[77.07193078869636,28.411404752765687],[77.07420709106799,28.412231967512863],[77.07431236647932,28.412269630907755],[77.07449861772488,28.412336263995257],[77.07764434375565,28.41346162397275],[77.07968921122762,28.414187226902474],[77.08031654979698,28.41436863875782],[77.08081835523171,28.414482730055287],[77.08378877201164,28.415308716991888],[77.0861025512998,28.415972804608085],[77.08708306181006,28.416260982165458],[77.08798226357663,28.41651870730413],[77.08860115073134,28.416696089938057],[77.08994023032557,28.417090954589924],[77.09102325290883,28.41737275402954],[77.09110163667316,28.417376324821362],[77.09179328387864,28.417357838124246],[77.09261400142731,28.417335901569288],[77.09540562415441,28.41730250647919],[77.09742556792935,28.41730243383364],[77.09767766972692,28.417351072958922],[77.09899206477928,28.417724740182507],[77.0998174430639,28.417960873089665],[77.10021146207725,28.41807359819626],[77.10117296019837,28.41833516554783],[77.10218803366223,28.418611298684308],[77.10253304963072,28.418714768262983],[77.10357349844656,28.4190267967208],[77.10409108248422,28.419079907646392],[77.10448685123924,28.419120518722703],[77.10463334894496,28.419131565016524],[77.10562557413442,28.419165594523744],[77.10594924084972,28.4191660317955],[77.10686904161895,28.419008540251237],[77.10768248521674,28.418746537366072],[77.10807713326147,28.41859256570876]]},"properties":{"drain_id":0,"name":"Badshapur Drain (Leg 3)","length_m":24.7706771103,"discharge":""}},{"type":"Feature","geometry":{"type":"LineString","coordinates":[[77.08852553610282,28.462092516402436],[77.0876160214632,28.46188141198068],[77.0863013636832,28.46157627113009],[77.08274048543905,28.460768917545206],[77.08055854448776,28.46026514155344],[77.0786835820594,28.459847360927157],[77.07663489836439,28.45938684509298],[77.07490150085353,28.45899465901488],[77.07482984768605,28.458978447283556],[77.0742981096989,28.458931783075613],[77.07412466548489,28.458916561975826],[77.07372824538454,28.45878574561326],[77.07153137822795,28.458060792033997],[77.07139428866977,28.45826005245228],[77.07104626450527,28.458561397853238],[77.07009601147092,28.45928971638756],[77.06968248356499,28.459607609633178],[77.06913118203501,28.460031409479054],[77.06838187191988,28.460607414953525],[77.06820060177256,28.460747175898547],[77.06670769091757,28.461898223850206],[77.06508138814867,28.46315247434266],[77.06410221742462,28.463907059029662],[77.06410177957645,28.463907401569326],[77.06275955618607,28.464936857663034],[77.06013536317187,28.4669495565243],[77.05924621043609,28.467631517298013],[77.05862976360098,28.467925919158567],[77.05794518983265,28.46825285698904],[77.05750516227252,28.46874681969704],[77.05721110597298,28.46912263610831],[77.05685391271246,28.471213731888813],[77.05622068083662,28.472445693831155],[77.05546000847397,28.473430201041168],[77.05344496921015,28.475866907854222],[77.0502993338789,28.47967079611499],[77.05020759285131,28.4798076983085],[77.04894008781305,28.481574594030516],[77.04860334644349,28.48204623131398],[77.04793848651926,28.48175906105007],[77.0476086996307,28.481710646851624],[77.04718814086661,28.481671276823338],[77.04459467713339,28.481105033637782],[77.0422776975892,28.480599156550944],[77.03938759713027,28.47936667984694],[77.03852817057651,28.479168832808433],[77.03543777443134,28.47855492784837],[77.0348345293316,28.47852400941681],[77.03351437257434,28.478579894488988],[77.03259632709349,28.47872732397718],[77.03227485282191,28.478835869743516],[77.0314349549062,28.47911946121828],[77.03127449365613,28.479173640948666],[77.03024474917476,28.479521334103456],[77.0295760012482,28.47971980738126],[77.02913229365154,28.479840386626208],[77.02796821825332,28.479973002257022],[77.02759027589218,28.480104699668185],[77.02717336001272,28.48023315730635],[77.02584832662025,28.4805776100747],[77.02446103104816,28.481207119950955],[77.02378114552798,28.481515630469687],[77.02365351785473,28.481571747691728],[77.02297626189002,28.48186951971651],[77.02272357851393,28.481995519734916],[77.02215817924021,28.48250053070451],[77.02204607476678,28.48261796512706],[77.021967311957,28.48269032715936],[77.0209034410662,28.48381416795756],[77.02014225700859,28.484937100160586],[77.0196976108933,28.485527114320252],[77.01972849503984,28.48625982350653],[77.01976438575305,28.488015027747196],[77.0196486650327,28.48997941776591],[77.01801616351091,28.490495432112336],[77.01658857489589,28.491044136537084],[77.01554798183966,28.491444083527174],[77.01600570314773,28.492492566471533],[77.01459368084716,28.492991005748344],[77.01674617924932,28.49555835211253],[77.01827994350549,28.497344388916446],[77.01779335926184,28.49764784650778],[77.01623783733542,28.49770913710422],[77.01630080925086,28.49965639597702],[77.01044717207347,28.499727856461348],[77.00991171549967,28.499709516606213],[77.00856421692455,28.49966335421247],[77.00784733860903,28.49966698052474],[77.00415755872294,28.499714400738473],[77.00199154693942,28.499741060450066],[77.00154650490015,28.49974653384081],[77.00077871789513,28.499755973113135],[76.99753087979168,28.502722247559035],[76.9958871739033,28.503617366691127],[76.99585099390843,28.503839458808642],[76.99405595489701,28.504507579115874],[76.9922355949843,28.50428980432565],[76.9893458995601,28.506081716462635],[76.98806393092708,28.506358612795],[76.98463097767726,28.508344460355563],[76.98427131758302,28.508058302228378],[76.98343135871943,28.508467851081605],[76.98077344598715,28.50918615004826],[76.9790440648872,28.509280562872515],[76.97826089686042,28.509490611757172],[76.97733135723533,28.50741840796606],[76.96517787940505,28.51294282585023]]},"properties":{"drain_id":0,"name":"Leg 2","length_m":16.6905898933,"discharge":""}},{"type":"Feature","geometry":{"type":"MultiLineString","coordinates":[[[77.04204118552407,28.510055425698873],[77.04360346580837,28.509517146881063],[77.04463680343709,28.50916110096303],[77.04800472254585,28.50799306745607],[77.04800512385255,28.50799292786681],[77.0489208811348,28.507675562759424],[77.0491376914846,28.507600422981124],[77.05077830321603,28.50701413464401],[77.0515989707384,28.506516611164308],[77.05283009735098,28.50575505816289],[77.05498182800031,28.50443465597991],[77.05733484735687,28.502990733667513],[77.05824859547245,28.502594895627503],[77.05918523378338,28.502608199474057],[77.06006784014731,28.502620735860337],[77.06103021124535,28.502634405211023],[77.06189259187592,28.502646654314585],[77.06278513215247,28.502659331800103],[77.0647779511643,28.502687637452492],[77.06548593539573,28.50269769353667],[77.06626425293253,28.502702096334954],[77.0670259986144,28.50264798579812],[77.06755895384786,28.501962785919044],[77.06748571790172,28.50176104937532],[77.06757617707768,28.501506347903543],[77.06812464283956,28.501243417462366],[77.06873649981942,28.50098892419481],[77.06988970889786,28.500994873088633],[77.07138959884095,28.501066256677493],[77.07187738834716,28.500923489017183],[77.07443530892846,28.500608210433835],[77.07477536390097,28.50051242042284],[77.07485766325703,28.500489237383597],[77.07626154525045,28.50036431568073],[77.07709176217688,28.50008352099672],[77.07748220874643,28.499936012699724],[77.0777677440671,28.499853921294978],[77.0779381389989,28.49984710555897],[77.07803543343027,28.49984321372059],[77.07823530815467,28.499875336444063],[77.07837806836805,28.499854942200354],[77.07854389049014,28.49981846427431],[77.0786206315638,28.49977842546259],[77.07870315195174,28.499708946757536],[77.07878020472506,28.499598129236873],[77.07895209995561,28.49937162083673],[77.07908001681183,28.49917696463888],[77.07925133800427,28.499019920212575],[77.07955115009105,28.498927121233216],[77.07971533290043,28.49895567476535],[77.08001514498706,28.49889142931817],[77.08005797528511,28.49864872429549],[77.08002301934366,28.498520552772078],[77.079936622774,28.49810620718625],[77.0801626715695,28.497765944262426],[77.0806028718555,28.497468511636715],[77.08109066136171,28.496718981419814],[77.08143568320764,28.496231191913616],[77.08228039186463,28.495921861982893],[77.08298668555788,28.495540687800226],[77.08302992208156,28.495517353611913],[77.08347373849219,28.495376206767],[77.0845658344125,28.49504666187675],[77.08488984304637,28.49507971611289],[77.0854852312259,28.49501065486453],[77.08580422911348,28.494913723652036],[77.08647041029393,28.494704126227447],[77.08686324685823,28.494292628421487],[77.08695418695409,28.494107399239837],[77.0870091604648,28.493879748570063],[77.08706913681473,28.49376900537627],[77.08712665869707,28.493683994494944],[77.08747623467342,28.493170668227926],[77.087793213056,28.492662049702144],[77.08784757341773,28.492403371508622],[77.0879920013668,28.492327141913545],[77.0882258625644,28.492263862488127],[77.08838343059855,28.492151619046215],[77.0884608938641,28.49196838665847],[77.08874202278616,28.49080615996093],[77.08870728321297,28.490585856182072],[77.08876880048973,28.490450617432256],[77.08888743095345,28.49029957930271],[77.08921111072017,28.490097640205107],[77.0897898476571,28.489889880925432],[77.08997575474062,28.48972467644856],[77.0906232434889,28.488916478675456],[77.09100445081187,28.48870477516563],[77.09191431010484,28.48819948098081],[77.09213758912642,28.48814829525619],[77.0924272091541,28.48817248561131],[77.0927038368056,28.488076867139803],[77.09309121404112,28.487851257784992],[77.09345561804834,28.48760296078285],[77.09358113593723,28.487344738204364],[77.09366082922634,28.487138191384883],[77.09403205056894,28.486869662260432],[77.09467588545957,28.486403933597348],[77.09491970128666,28.486161432458875],[77.09507319188039,28.485860637554346],[77.09511077282299,28.48543748291875],[77.09540072042284,28.485057839734235],[77.09576499574482,28.484858740342283],[77.09622016104359,28.4845923538805],[77.09665212957921,28.484389159550528],[77.0973410819862,28.483976566346627],[77.09783448579385,28.483658909944054],[77.09832110976721,28.48330309453831],[77.0991267724676,28.482722736147235],[77.09984825872554,28.48235555424195],[77.09999567047619,28.48228053205153]],[[77.04188272552526,28.510110021313235],[77.04204118552407,28.510055425698873]],[[77.0004368381894,28.53169390994014],[77.00331678024652,28.52991194765833],[77.0043259893157,28.529302360667195],[77.0085693834485,28.52690658288762],[77.0101364477566,28.525828700721924],[77.01060023399329,28.525658908753844],[77.01096460903415,28.52555395257564],[77.01141698601239,28.52542364793519],[77.01240380453544,28.525121777182257],[77.01308412749,28.524896247010997],[77.01433543059507,28.524481434308225],[77.01526632243497,28.52367975266823],[77.01624497832654,28.52270990127363],[77.01853220062087,28.52257526410499],[77.01894786057753,28.522567902617652],[77.01957258370116,28.522564956049987],[77.02053374501776,28.52250290907677],[77.02057210166124,28.52220094276765],[77.02233369253905,28.52219916879934],[77.0232857372662,28.51913877600762],[77.02354615027714,28.51815859619169],[77.02486625406745,28.51375304032824],[77.02568114507422,28.51158642792689],[77.02599002468988,28.511455762348152],[77.02662491438471,28.51141191171409],[77.02724705218311,28.511379708340247],[77.02760846785417,28.511282634784198],[77.02812728034007,28.511274889495564],[77.0285410144535,28.511199952120567],[77.0288863873012,28.510942676289044],[77.02940278455593,28.510808903447757],[77.03085786577135,28.51091321544546],[77.03411295303667,28.51084159057761],[77.03872174737725,28.510775361820556],[77.04026066678419,28.510685406827207],[77.04090476124072,28.510446534056765],[77.04204118552407,28.510055425698873]]]},"properties":{"drain_id":0,"name":"Leg 1","length_m":13.9275832218,"discharge":""}}]}