{"nvdm":"1.0","dataset":"geojson-layers/rivers","scope":{"kind":"city","id":"surat"},"provenance":{"sources":[{"id":"osm-surat-waterways","title":"OpenStreetMap waterways in the Surat area","publisher":"OpenStreetMap contributors","license":"Open Database License (ODbL) 1.0","url":"https://www.openstreetmap.org/copyright"}],"method":"api","produced_at":"2026-08-18","note":"Overpass API query for named river and stream ways in the Surat bounding box, grouped into one feature per named watercourse. GAP: OpenStreetMap names none of the five khadis SMC monitors against published danger levels (Kakara, Bhedwad, Mithi, Bhatena, Simada), so the creeks central to the flood chain have no geometry in this layer. SMC's own GIS holds a creek layer but serves WMS only - WFS is disabled, so its geometry cannot be redistributed.","produced_by":"neer-vazhvu-api/scripts/build_surat_artifacts.py"},"type":"FeatureCollection","features":[{"type":"Feature","properties":{"river_id":"mindhola","name":"Mindhola","waterway":"river","segments":1,"length_km":91.1,"_length_note":"Length of the OSM geometry held here, not the river's full course."},"geometry":{"type":"MultiLineString","coordinates":[[[73.22012,21.135829],[73.218733,21.136344],[73.217846,21.136956],[73.217081,21.138232],[73.216257,21.13869],[73.21468,21.138625],[73.212472,21.138461],[73.211914,21.13835],[73.211567,21.137876],[73.211282,21.137229],[73.2107,21.136455],[73.21008,21.13575],[73.209671,21.135137],[73.20904,21.134647],[73.208549,21.134565],[73.208181,21.134622],[73.207901,21.134712],[73.207463,21.135211],[73.207463,21.135456],[73.207463,21.136388],[73.206998,21.136919],[73.206683,21.137475],[73.206254,21.139371],[73.205921,21.140008],[73.205509,21.140736],[73.205158,21.141063],[73.204641,21.141349],[73.204422,21.141332],[73.203817,21.141324],[73.203598,21.140687],[73.203598,21.140344],[73.203677,21.139943],[73.203852,21.139518],[73.204045,21.139093],[73.204133,21.138611],[73.204054,21.138227],[73.203809,21.137818],[73.203341,21.137546],[73.202815,21.137428],[73.202438,21.137481],[73.202018,21.137792],[73.201545,21.138392],[73.201422,21.138617],[73.201155,21.138822],[73.200861,21.138895],[73.200226,21.138879],[73.19956,21.138756],[73.19903,21.13863],[73.198653,21.138585],[73.197961,21.138662],[73.197614,21.138813],[73.197277,21.139063],[73.197106,21.139328],[73.196997,21.139574],[73.19687,21.139905],[73.196484,21.140428],[73.195871,21.140832],[73.1952,21.140861],[73.194675,21.140628],[73.193951,21.140068],[73.193798,21.139557],[73.193601,21.139144],[73.193259,21.138793],[73.192563,21.13858],[73.192142,21.138695],[73.191879,21.13883],[73.191748,21.13896],[73.191336,21.139716],[73.190306,21.1412],[73.189732,21.142083],[73.189097,21.142704],[73.188308,21.143068],[73.187616,21.143162],[73.187213,21.143088],[73.186959,21.142974],[73.186569,21.142798],[73.186236,21.142598],[73.185841,21.142283],[73.185671,21.142005],[73.185618,21.141625],[73.18553,21.141265],[73.185403,21.141041],[73.185197,21.140824],[73.184409,21.140231],[73.183887,21.139945],[73.183405,21.139802],[73.182687,21.1397],[73.182354,21.139676],[73.181815,21.139778],[73.181197,21.139798],[73.180619,21.139647],[73.179878,21.139341],[73.179607,21.139173],[73.179361,21.138911],[73.179195,21.13865],[73.178998,21.138168],[73.178787,21.137722],[73.17856,21.137207],[73.178511,21.136402],[73.17859,21.135683],[73.178481,21.134972],[73.178319,21.133885],[73.177968,21.133341],[73.17771,21.133117],[73.177499,21.132957],[73.177324,21.132642],[73.176448,21.131666],[73.175668,21.131085],[73.174419,21.130109],[73.174091,21.129851],[73.173508,21.129222],[73.173236,21.129144],[73.172824,21.129144],[73.172443,21.129259],[73.172255,21.129442],[73.171887,21.130023],[73.171856,21.130313],[73.171786,21.130795],[73.171874,21.131147],[73.172022,21.131564],[73.172276,21.131645],[73.172439,21.131629],[73.172833,21.131592],[73.173582,21.131723],[73.174529,21.132606],[73.174954,21.13328],[73.174984,21.133742],[73.174892,21.13433],[73.174686,21.135017],[73.174441,21.135495],[73.174217,21.135695],[73.173547,21.135851],[73.1731,21.13583],[73.17289,21.135691],[73.172579,21.135274],[73.172053,21.134857],[73.171479,21.134126],[73.171194,21.13386],[73.170909,21.133672],[73.170498,21.133439],[73.170156,21.133247],[73.169372,21.133059],[73.168557,21.132663],[73.167794,21.132299],[73.167474,21.132152],[73.166922,21.13207],[73.166703,21.132144],[73.166423,21.13225],[73.166252,21.132524],[73.166029,21.132986],[73.165963,21.133456],[73.166077,21.134224],[73.166094,21.134588],[73.165853,21.135193],[73.165455,21.135597],[73.164977,21.135797],[73.164736,21.135773],[73.16446,21.135646],[73.164215,21.135507],[73.163882,21.135405],[73.163303,21.135311],[73.161722,21.135352],[73.16106,21.135507],[73.160701,21.135822],[73.16007,21.136133],[73.159601,21.136124],[73.159307,21.136067],[73.158733,21.135941],[73.158383,21.135945],[73.158089,21.135969],[73.157844,21.135998],[73.157064,21.136635],[73.156863,21.136999],[73.156578,21.137449],[73.156315,21.13789],[73.156223,21.13807],[73.156013,21.138131],[73.155596,21.138131],[73.155128,21.138053],[73.154852,21.137927],[73.154633,21.137367],[73.154532,21.137015],[73.154269,21.136415],[73.154028,21.13603],[73.153616,21.135573],[73.153261,21.135466],[73.15288,21.135483],[73.152608,21.135573],[73.152424,21.135691],[73.1521,21.136271],[73.151714,21.136615],[73.151325,21.136807],[73.150899,21.13677],[73.150566,21.136537],[73.150106,21.136075],[73.149616,21.135299],[73.149392,21.135005],[73.148262,21.134024],[73.147802,21.133746],[73.147491,21.133644],[73.14718,21.133607],[73.146785,21.133652],[73.146365,21.133799],[73.145335,21.133946],[73.144928,21.13375],[73.144766,21.133542],[73.144573,21.132843],[73.14431,21.131972],[73.1442,21.131539],[73.144042,21.13131],[73.143175,21.130652],[73.142053,21.13008],[73.14144,21.1297],[73.14077,21.12934],[73.140586,21.129136],[73.140388,21.12885],[73.140353,21.128666],[73.140345,21.128384],[73.140401,21.127746],[73.140388,21.127342],[73.140305,21.127125],[73.14013,21.126811],[73.139999,21.126631],[73.139823,21.12643],[73.139543,21.126014],[73.139495,21.125727],[73.139551,21.12547],[73.139758,21.125127],[73.140415,21.124591],[73.141444,21.123586],[73.142106,21.122842],[73.142741,21.122184],[73.14284,21.121703],[73.142912,21.12135],[73.142951,21.120717],[73.14296,21.120271],[73.142579,21.119151],[73.142211,21.118416],[73.141747,21.117823],[73.140892,21.116642],[73.140401,21.116294],[73.140108,21.116119],[73.139692,21.116],[73.139341,21.116062],[73.139004,21.116245],[73.138605,21.116769],[73.138447,21.117382],[73.138386,21.118015],[73.138605,21.118747],[73.13903,21.120071],[73.139236,21.120893],[73.139324,21.121706],[73.139078,21.122143],[73.138618,21.122393],[73.138145,21.122511],[73.137698,21.122511],[73.137181,21.122425],[73.136945,21.122294],[73.136248,21.121726],[73.135446,21.121416],[73.134789,21.121195],[73.13425,21.120848],[73.134057,21.120656],[73.133899,21.120108],[73.133553,21.118751],[73.133409,21.118158],[73.133216,21.11768],[73.132865,21.1171],[73.132511,21.116715],[73.132252,21.116556],[73.132011,21.116503],[73.131884,21.116487],[73.131647,21.116621],[73.131441,21.116797],[73.131376,21.117018],[73.131398,21.11732],[73.13124,21.117762],[73.130684,21.118575],[73.129838,21.119687],[73.129408,21.120598],[73.129036,21.121007],[73.128309,21.121252],[73.127682,21.121322],[73.126824,21.121309],[73.125965,21.121252],[73.125553,21.121081],[73.125084,21.120774],[73.124944,21.120427],[73.124598,21.119813],[73.1244,21.118988],[73.12451,21.118489],[73.124672,21.117692],[73.124628,21.117218],[73.124024,21.11683],[73.123213,21.116805],[73.122613,21.117124],[73.121833,21.117766],[73.121049,21.118203],[73.120597,21.11824],[73.119511,21.117974],[73.118954,21.117696],[73.118564,21.117521],[73.118026,21.117161],[73.116584,21.116335],[73.115147,21.115428],[73.114726,21.114925],[73.114503,21.114578],[73.114411,21.114345],[73.114389,21.11412],[73.114428,21.113495],[73.114503,21.1132],[73.114678,21.112759],[73.114683,21.112526],[73.114639,21.112285],[73.114538,21.112081],[73.114161,21.111729],[73.113942,21.111721],[73.113622,21.111721],[73.113035,21.111753],[73.112387,21.111774],[73.112023,21.111733],[73.110783,21.11141],[73.109368,21.111173],[73.108233,21.110948],[73.106402,21.110744],[73.105683,21.110691],[73.104775,21.110512],[73.104233,21.110405],[73.103111,21.110147],[73.102327,21.109816],[73.102095,21.10953],[73.10181,21.108954],[73.101709,21.108185],[73.101481,21.107609],[73.101043,21.106701],[73.100526,21.10572],[73.100241,21.105197],[73.100101,21.104711],[73.100097,21.104355],[73.100438,21.103489],[73.100929,21.103023],[73.101398,21.102749],[73.102533,21.102405],[73.102896,21.102099],[73.102984,21.10176],[73.10294,21.101502],[73.10262,21.100995],[73.102055,21.10048],[73.101757,21.100358],[73.100614,21.100182],[73.099286,21.099409],[73.098979,21.098898],[73.098721,21.09797],[73.098668,21.0977],[73.098642,21.097128],[73.098226,21.095963],[73.097148,21.095084],[73.096355,21.094737],[73.096057,21.094765],[73.095316,21.095031],[73.095045,21.094937],[73.094129,21.094381],[73.093669,21.093674],[73.092626,21.092468],[73.09249,21.092141],[73.092201,21.091095],[73.092115,21.091018],[73.091947,21.09087],[73.091115,21.090269],[73.090821,21.089889],[73.090396,21.089075],[73.090409,21.088515],[73.090471,21.088078],[73.090817,21.086741],[73.090896,21.086242],[73.090931,21.085821],[73.090817,21.084999],[73.090637,21.084141],[73.090309,21.08289],[73.090116,21.082183],[73.089787,21.081729],[73.089511,21.081357],[73.089082,21.080535],[73.087973,21.079493],[73.087557,21.07901],[73.086974,21.078025],[73.08637,21.077117],[73.085914,21.076099],[73.085025,21.075085],[73.084538,21.074828],[73.083955,21.074599],[73.083018,21.074374],[73.082343,21.074423],[73.081844,21.074558],[73.081278,21.074766],[73.080958,21.075196],[73.080608,21.075437],[73.080148,21.075711],[73.079613,21.075858],[73.078952,21.075972],[73.078347,21.075952],[73.077892,21.075854],[73.077392,21.075662],[73.077037,21.075241],[73.076437,21.074656],[73.076196,21.074386],[73.075771,21.073998],[73.075328,21.073994],[73.074833,21.073969],[73.074211,21.073695],[73.073554,21.073311],[73.072533,21.072326],[73.071828,21.07197],[73.071306,21.071749],[73.070899,21.071688],[73.070706,21.071741],[73.070553,21.071856],[73.070329,21.072023],[73.070079,21.072289],[73.069711,21.072522],[73.069054,21.072886],[73.068265,21.072951],[73.067595,21.07309],[73.067082,21.073205],[73.066885,21.073103],[73.066596,21.072882],[73.06607,21.072645],[73.065729,21.072457],[73.065229,21.072342],[73.064953,21.072452],[73.064804,21.07262],[73.064677,21.072869],[73.064506,21.073172],[73.064309,21.073736],[73.064138,21.074075],[73.064195,21.074509],[73.064305,21.075134],[73.064405,21.075919],[73.064116,21.076435],[73.063674,21.076901],[73.062916,21.077579],[73.062224,21.078744],[73.061891,21.07939],[73.061277,21.080036],[73.060041,21.080707],[73.059524,21.080985],[73.059275,21.081573],[73.059056,21.082183],[73.058451,21.083078],[73.058276,21.083241],[73.057991,21.083348],[73.057654,21.083352],[73.057255,21.083254],[73.05676,21.08309],[73.056111,21.082955],[73.055498,21.082853],[73.055069,21.082878],[73.05453,21.082947],[73.05371,21.083311],[73.052694,21.083327],[73.052356,21.083205],[73.051734,21.082984],[73.050775,21.082518],[73.04975,21.081921],[73.04932,21.081512],[73.048444,21.080478],[73.047467,21.079202],[73.046831,21.078487],[73.046323,21.07836],[73.045434,21.078291],[73.044748,21.078476],[73.043757,21.078597],[73.043044,21.078511],[73.042493,21.078181],[73.04214,21.077719],[73.041855,21.077158],[73.041929,21.076533],[73.04209,21.075712],[73.042449,21.075134],[73.04248,21.074868],[73.042493,21.074614],[73.042282,21.073856],[73.041966,21.073602],[73.041576,21.073509],[73.041204,21.073504],[73.039822,21.073735],[73.039011,21.074018],[73.038186,21.074232],[73.037567,21.074828],[73.036569,21.075585],[73.035925,21.075863],[73.035379,21.075915],[73.034803,21.075903],[73.03427,21.075938],[73.032864,21.076452],[73.03116,21.077106],[73.03072,21.07751],[73.030757,21.078008],[73.030776,21.078268],[73.03093,21.078678],[73.031445,21.079459],[73.031686,21.080106],[73.031668,21.080361],[73.031494,21.080609],[73.031116,21.0808],[73.030695,21.080812],[73.030261,21.080702],[73.029877,21.080563],[73.029313,21.080257],[73.02813,21.079684],[73.027479,21.079615],[73.026147,21.079528],[73.025143,21.079563],[73.024468,21.079997],[73.023638,21.080956],[73.023148,21.081725],[73.022175,21.082604],[73.021209,21.083142],[73.020267,21.083656],[73.019827,21.083743],[73.019071,21.083697],[73.018829,21.083535],[73.018637,21.083333],[73.018631,21.082963],[73.018693,21.082523],[73.018873,21.081945],[73.018749,21.080742],[73.0186,21.080442],[73.017943,21.079505],[73.016995,21.078869],[73.016059,21.078227],[73.015124,21.077482],[73.014566,21.076724],[73.014033,21.075695],[73.013252,21.074891],[73.012509,21.074516],[73.011908,21.074388],[73.011034,21.074417],[73.009832,21.074365],[73.009336,21.074273],[73.008704,21.073926],[73.008048,21.073076],[73.007614,21.072353],[73.007372,21.071746],[73.007273,21.07122],[73.007007,21.070269],[73.006477,21.069398],[73.005907,21.068765],[73.00557,21.068605],[73.005189,21.068593],[73.004264,21.068564],[73.003357,21.068736],[73.00288,21.068851],[73.00217,21.06883],[73.001289,21.0689],[73.000934,21.069047],[73.000321,21.06948],[72.999914,21.069983],[72.999427,21.070699],[72.997939,21.072815],[72.996879,21.074012],[72.996191,21.07492],[72.99577,21.075695],[72.995274,21.076787],[72.994921,21.077747],[72.994531,21.078684],[72.994382,21.079141],[72.994221,21.079343],[72.993855,21.079459],[72.993447,21.079499],[72.993217,21.079378],[72.992734,21.079071],[72.992152,21.078713],[72.991403,21.078256],[72.991048,21.077998],[72.990702,21.077561],[72.990167,21.076514],[72.990119,21.075938],[72.989988,21.075251],[72.989953,21.074597],[72.990102,21.07436],[72.990461,21.074171],[72.990825,21.074028],[72.991136,21.073881],[72.991591,21.073775],[72.992244,21.07362],[72.99256,21.073677],[72.99284,21.073636],[72.993269,21.073517],[72.993629,21.073297],[72.994904,21.072757],[72.995425,21.072512],[72.995596,21.072377],[72.99578,21.072193],[72.995912,21.071968],[72.995973,21.071731],[72.99596,21.071367],[72.995986,21.070729],[72.995833,21.069854],[72.995841,21.069601],[72.996069,21.069065],[72.996363,21.068554],[72.996884,21.067732],[72.997384,21.066489],[72.997901,21.065111],[72.998093,21.064163],[72.998216,21.063386],[72.998194,21.062797],[72.998155,21.062094],[72.998124,21.061804],[72.997664,21.060741],[72.997095,21.060221],[72.996472,21.059727],[72.995561,21.059207],[72.995026,21.059089],[72.994663,21.059175],[72.994238,21.059371],[72.993554,21.059956],[72.993357,21.060172],[72.993042,21.061039],[72.992682,21.061677],[72.992157,21.061943],[72.99125,21.062155],[72.990045,21.062249],[72.989212,21.062213],[72.988332,21.061624],[72.98774,21.061215],[72.9871,21.061006],[72.986255,21.060691],[72.985089,21.060356],[72.984375,21.060323],[72.983587,21.060397],[72.983004,21.060577],[72.982566,21.060949],[72.982316,21.061436],[72.982189,21.061783],[72.982206,21.061955],[72.982399,21.062335],[72.982579,21.062568],[72.982579,21.062724],[72.982425,21.06312],[72.981961,21.063823],[72.981334,21.064134],[72.979363,21.064694],[72.978158,21.064944],[72.977435,21.065001],[72.976256,21.064453],[72.975643,21.064069],[72.974223,21.063186],[72.973185,21.062376],[72.97272,21.061975],[72.972563,21.061877],[72.970245,21.060532],[72.968107,21.058999],[72.966516,21.058017],[72.966004,21.057886],[72.965587,21.057788],[72.964834,21.057735],[72.964216,21.057817],[72.963555,21.058165],[72.963322,21.058463],[72.963327,21.05879],[72.963331,21.059048],[72.963717,21.059571],[72.965114,21.060884],[72.965846,21.061374],[72.966591,21.061832],[72.9678,21.062736],[72.968269,21.063431],[72.968891,21.064813],[72.969325,21.066714],[72.969851,21.068092],[72.969767,21.068681],[72.969667,21.06884],[72.968961,21.069036],[72.967686,21.070071],[72.967086,21.070782],[72.966013,21.072287],[72.964996,21.073505],[72.964172,21.074094],[72.963826,21.074171],[72.963524,21.074229],[72.963103,21.074265],[72.962437,21.073975],[72.961316,21.073382],[72.960886,21.072916],[72.960873,21.072536],[72.960851,21.072046],[72.96107,21.071608],[72.961337,21.070978],[72.961605,21.070152],[72.961644,21.069547],[72.961745,21.068828],[72.96192,21.067953],[72.962301,21.066927],[72.962608,21.066244],[72.962591,21.065716],[72.962455,21.065492],[72.962174,21.065385],[72.961903,21.065389],[72.961644,21.065463],[72.960847,21.065729],[72.959414,21.066183],[72.958025,21.066661],[72.955291,21.068043],[72.953376,21.068734],[72.952623,21.069012],[72.95204,21.069135],[72.951817,21.069077],[72.951475,21.068905],[72.951046,21.068407],[72.950353,21.067458],[72.948872,21.066338],[72.947808,21.065124],[72.947142,21.064118],[72.946327,21.06292],[72.946064,21.062249],[72.945819,21.061648],[72.945686,21.061028],[72.945267,21.060406],[72.944987,21.059784],[72.944794,21.059359],[72.94461,21.059114],[72.944181,21.058591],[72.943891,21.058558],[72.943366,21.058697],[72.943138,21.058828],[72.942743,21.059048],[72.942183,21.059302],[72.941613,21.059261],[72.940312,21.058656],[72.939707,21.058137],[72.938406,21.057249],[72.937043,21.056665],[72.935321,21.055642],[72.934143,21.054767],[72.933572,21.054098],[72.932172,21.052299],[72.931069,21.051235],[72.930313,21.050738],[72.929625,21.050507],[72.929117,21.050478],[72.928665,21.050651],[72.927543,21.051044],[72.926335,21.051623],[72.925523,21.051692],[72.924259,21.05138],[72.922865,21.050877],[72.921812,21.050385],[72.92131,21.049772],[72.92105,21.049136],[72.920957,21.048749],[72.920919,21.047887],[72.920988,21.047089],[72.921056,21.046754],[72.921384,21.046563],[72.921725,21.046505],[72.922642,21.04647],[72.923169,21.046546],[72.924241,21.046586],[72.925325,21.046366],[72.926217,21.046129],[72.927333,21.04536],[72.928597,21.044279],[72.929086,21.043845],[72.929123,21.043602],[72.929148,21.043347],[72.928448,21.042463],[72.927574,21.042122],[72.925108,21.041942],[72.923317,21.041948],[72.921248,21.041977],[72.919513,21.041902],[72.917425,21.04156],[72.915169,21.040658],[72.91393,21.039964],[72.913304,21.03993],[72.912864,21.040028],[72.912598,21.040126],[72.91116,21.040653],[72.909177,21.041208],[72.907616,21.041572],[72.906265,21.04222],[72.905169,21.042891],[72.90414,21.044036],[72.901296,21.047604],[72.899608,21.049214],[72.897917,21.050032],[72.896024,21.050752],[72.895183,21.051242],[72.894745,21.05179],[72.894272,21.053475],[72.893746,21.056084],[72.893588,21.058602],[72.893194,21.060802],[72.893054,21.061375],[72.892843,21.061792],[72.89244,21.06225],[72.891915,21.062356],[72.891328,21.062258],[72.890916,21.062021],[72.890118,21.061514],[72.889776,21.060581],[72.889917,21.05951],[72.889829,21.05758],[72.889373,21.053769],[72.8894,21.051283],[72.889365,21.050629],[72.889338,21.049819],[72.889286,21.049124],[72.889146,21.048691],[72.888821,21.048184],[72.888103,21.04735],[72.887297,21.047014],[72.886631,21.047063],[72.886017,21.047072],[72.885421,21.047211],[72.884826,21.047448],[72.883809,21.048069],[72.882985,21.049067],[72.882714,21.049958],[72.88281,21.05085],[72.88307,21.051557],[72.883104,21.052177],[72.882871,21.052854],[72.882582,21.053933],[72.881242,21.055012],[72.878744,21.055822],[72.876185,21.056296],[72.87339,21.056607],[72.872303,21.056664],[72.871322,21.056435],[72.869745,21.05601],[72.868115,21.05525],[72.866853,21.054285],[72.866196,21.053311],[72.865795,21.052743],[72.864956,21.051552],[72.864536,21.050465],[72.864667,21.048935],[72.864869,21.048355],[72.86606,21.047547],[72.866827,21.046965],[72.867177,21.04654],[72.867344,21.045698],[72.866905,21.045428],[72.865942,21.045395],[72.864697,21.045918],[72.863567,21.04618],[72.862138,21.046434],[72.859562,21.04618],[72.8583,21.045665],[72.856328,21.04496],[72.8556,21.044404],[72.855329,21.04384],[72.855101,21.043259],[72.855159,21.04276],[72.85576,21.041619],[72.856539,21.040128],[72.856933,21.039302],[72.856881,21.038607],[72.85639,21.038092],[72.855496,21.037928],[72.855154,21.03792],[72.854278,21.03819],[72.852341,21.040014],[72.850868,21.040888],[72.849612,21.041388],[72.847949,21.040998],[72.847516,21.040721],[72.846621,21.038591],[72.847203,21.036844],[72.847414,21.035479],[72.847302,21.033814],[72.846559,21.033062],[72.844688,21.032021],[72.842779,21.031269],[72.841106,21.031824],[72.839817,21.032565],[72.839433,21.033363],[72.839235,21.034022],[72.839247,21.035977],[72.840073,21.037541],[72.840445,21.038941],[72.840668,21.040422],[72.840214,21.041479],[72.838987,21.043505],[72.836986,21.04566],[72.836094,21.046215],[72.834706,21.046458],[72.833015,21.046445],[72.831834,21.046195],[72.830929,21.045734],[72.82977,21.044511],[72.8288,21.042049],[72.828379,21.039574],[72.828626,21.036847],[72.828759,21.035493],[72.828605,21.03483],[72.827955,21.033236],[72.826974,21.032606],[72.825808,21.032392],[72.824655,21.03235],[72.823197,21.032342],[72.820931,21.032611],[72.819134,21.03268],[72.817027,21.032831],[72.815268,21.033166],[72.814289,21.033629],[72.81326,21.03482],[72.812502,21.035993],[72.81213,21.040458],[72.811337,21.04217],[72.809776,21.043257],[72.807856,21.043722],[72.805141,21.043905],[72.799316,21.044737],[72.797856,21.044873],[72.795389,21.046665],[72.794691,21.048187],[72.794434,21.04986],[72.795028,21.054152],[72.795271,21.058961],[72.794563,21.061044],[72.79334,21.062405],[72.79025,21.063787],[72.785164,21.0653],[72.777686,21.067842],[72.767987,21.064678],[72.758273,21.059345],[72.75,21.05856],[72.733316,21.059868],[72.725365,21.061263]]]}},{"type":"Feature","properties":{"river_id":"tapi","name":"Tapi","waterway":"river","segments":7,"length_km":89.5,"_length_note":"Length of the OSM geometry held here, not the river's full course."},"geometry":{"type":"MultiLineString","coordinates":[[[73.124614,21.262966],[73.124222,21.263686],[73.123954,21.264026],[73.123498,21.264336],[73.12308,21.264311],[73.122452,21.26427],[73.12205,21.264411],[73.121717,21.26481],[73.121516,21.265873],[73.12118,21.2671],[73.120746,21.268],[73.120124,21.269315],[73.119228,21.271194],[73.118863,21.272009],[73.1183,21.273164],[73.118037,21.273609],[73.117678,21.273869],[73.117093,21.274124],[73.116476,21.274344],[73.11573,21.274724],[73.115113,21.275068],[73.112909,21.276838],[73.112018,21.277588],[73.110956,21.278928],[73.110495,21.279357],[73.10969,21.279687],[73.108402,21.280007],[73.107684,21.280117],[73.106997,21.280327],[73.103371,21.282237],[73.102555,21.282826],[73.101858,21.283086],[73.100796,21.283196],[73.097588,21.283546],[73.094037,21.283526],[73.090346,21.283316],[73.089252,21.283126],[73.087642,21.282866],[73.085518,21.282516],[73.083795,21.282312],[73.079724,21.282706],[73.077847,21.283026],[73.074961,21.283886],[73.072815,21.284796],[73.07053,21.285956],[73.069543,21.286705],[73.068566,21.287675],[73.067654,21.288465],[73.066195,21.289314],[73.065004,21.289954],[73.063642,21.290334],[73.06181,21.29054],[73.05935,21.290444],[73.054959,21.289828],[73.048771,21.288779],[73.047087,21.288595],[73.04564,21.288622],[73.04301,21.289005],[73.041444,21.289424],[73.039395,21.290314],[73.030536,21.294506],[73.026145,21.297032],[73.02373,21.298621],[73.021917,21.299681],[73.020201,21.30054],[73.017379,21.30163],[73.014557,21.302219],[73.008394,21.303492],[73.002487,21.304372],[72.999344,21.305028],[72.998056,21.305488],[72.996501,21.306308],[72.995159,21.307347],[72.991533,21.310616],[72.99046,21.311385],[72.989184,21.312215],[72.987967,21.312907],[72.986512,21.313734],[72.984302,21.314674],[72.982768,21.315393],[72.981159,21.315713],[72.979131,21.316073],[72.977908,21.316193],[72.976363,21.316203],[72.974421,21.315823],[72.972286,21.314684],[72.969271,21.312855],[72.968413,21.312025],[72.96698,21.310028],[72.965988,21.308927],[72.965151,21.307127],[72.964668,21.305328],[72.964507,21.303319],[72.964647,21.30174],[72.965591,21.299031],[72.967333,21.295831],[72.968513,21.29337],[72.969131,21.290434],[72.968923,21.28835],[72.967526,21.286188],[72.965722,21.284799],[72.963703,21.283896],[72.961827,21.283268],[72.95763,21.283096],[72.953183,21.283303],[72.950413,21.283525],[72.945874,21.283891],[72.938404,21.284196],[72.936172,21.283876],[72.933876,21.283136],[72.92568,21.279677],[72.919907,21.276998],[72.918406,21.276078],[72.917654,21.275318],[72.91469,21.270743],[72.909415,21.261381],[72.909071,21.259941]],[[72.909071,21.259941],[72.909222,21.258081],[72.909222,21.255902],[72.908363,21.252162],[72.907269,21.249342],[72.906282,21.247422],[72.905059,21.245722],[72.901969,21.242842],[72.897677,21.240243],[72.895231,21.238823],[72.892785,21.237062]],[[72.801807,21.217676],[72.802223,21.216961],[72.802384,21.21651],[72.802759,21.21553],[72.803349,21.21492],[72.803993,21.21444],[72.804766,21.2141],[72.805581,21.21407],[72.807147,21.21422],[72.807577,21.21409],[72.808918,21.21335],[72.809422,21.21272],[72.809894,21.21219],[72.810548,21.21194],[72.811611,21.21164],[72.813606,21.210599],[72.815065,21.209599],[72.816235,21.208359],[72.817984,21.206018],[72.818617,21.205178],[72.819089,21.203958],[72.819057,21.202517],[72.818767,21.201077],[72.817909,21.199087],[72.817125,21.197536],[72.815098,21.194455],[72.814078,21.193295],[72.813317,21.192635],[72.809658,21.190174],[72.806439,21.187813],[72.799283,21.182961],[72.797824,21.182091],[72.795957,21.18113],[72.794551,21.180735],[72.783501,21.179585],[72.778627,21.178259],[72.777386,21.177009],[72.775497,21.175788],[72.773373,21.173907],[72.771463,21.171346],[72.766571,21.163382],[72.764597,21.161141],[72.750971,21.150835],[72.739191,21.143331],[72.736187,21.141949],[72.733719,21.141119],[72.731037,21.140609],[72.728376,21.140649],[72.716242,21.14253]],[[72.892785,21.237062],[72.885447,21.231202],[72.881992,21.228982],[72.879138,21.227442],[72.874439,21.225582],[72.871016,21.224642],[72.867948,21.224111],[72.865829,21.223832],[72.86253,21.224011],[72.860888,21.224282],[72.859097,21.224702],[72.857047,21.225592],[72.853485,21.227222],[72.850932,21.228732],[72.849559,21.229722],[72.848582,21.230612],[72.843314,21.237232],[72.839699,21.241463],[72.833905,21.245402],[72.830214,21.247922],[72.825923,21.250422],[72.823369,21.252902],[72.822377,21.254362],[72.821116,21.255702],[72.820167,21.256307],[72.819057,21.256782],[72.817839,21.256902],[72.816653,21.256722],[72.815082,21.256367],[72.813435,21.255842],[72.811074,21.254587],[72.8088,21.253222],[72.806316,21.250942],[72.803922,21.248661],[72.797728,21.243582],[72.79556,21.242142],[72.793565,21.240122],[72.792578,21.237902],[72.791955,21.235422],[72.792428,21.232982],[72.793415,21.230262],[72.796633,21.226142],[72.801807,21.217676]],[[72.716242,21.14253],[72.711446,21.144131],[72.693078,21.152676],[72.689195,21.154557],[72.686341,21.155198],[72.678809,21.157039],[72.675676,21.157099],[72.673659,21.156779],[72.667866,21.154237],[72.666557,21.152936],[72.665784,21.151376],[72.662566,21.14297],[72.662051,21.140088],[72.661836,21.136206],[72.661772,21.130181],[72.659755,21.118772],[72.664132,21.111166],[72.659626,21.091547],[72.660585,21.072431]],[[72.660585,21.072431],[72.660828,21.067601],[72.65954,21.054546]],[[72.716242,21.14253],[72.710609,21.137266],[72.705288,21.130141],[72.703485,21.118372],[72.700825,21.106041],[72.691297,21.095471],[72.683315,21.079455],[72.679179,21.075513]]]}}]}