{"type": "FeatureCollection", "name": "tamil-nadu-boundary", "features": [{"type": "Feature", "properties": {"name": "Tamil Nadu", "source": "geoBoundaries gbOpen IND ADM1"}, "geometry": {"type": "MultiPolygon", "coordinates": [[[[79.807, 11.83358], [79.79822, 11.83874], [79.79378, 11.8336], [79.80064, 11.83069], [79.79747, 11.8246], [79.78016, 11.83189], [79.77297, 11.82271], [79.76775, 11.82275], [79.76437, 11.83378], [79.73667, 11.84425], [79.73814, 11.83696], [79.72938, 11.837], [79.73566, 11.80937], [79.72446, 11.81049], [79.72276, 11.79653], [79.71385, 11.79635], [79.71229, 11.79155], [79.72611, 11.78256], [79.75504, 11.77528], [79.76585, 11.79187], [79.77187, 11.78223], [79.78042, 11.78116], [79.78437, 11.78739], [79.79576, 11.7855], [79.76096, 11.6238], [79.75725, 11.55751], [79.76865, 11.51485], [79.77836, 11.50689], [79.80742, 11.44414], [79.82217, 11.38211], [79.83646, 11.35826], [79.83212, 11.35656], [79.84309, 11.35117], [79.83463, 11.3218], [79.85654, 11.17141], [79.85436, 10.98332], [79.85118, 10.99434], [79.83936, 10.9959], [79.8402, 11.00212], [79.8206, 10.99821], [79.81517, 11.00377], [79.8042, 10.99769], [79.80404, 10.98714], [79.79771, 10.98255], [79.78633, 10.98966], [79.78647, 10.99729], [79.74711, 11.00298], [79.74729, 10.98836], [79.75849, 10.98354], [79.75277, 10.97695], [79.76388, 10.95982], [79.74504, 10.95665], [79.74616, 10.96505], [79.73034, 10.97049], [79.71923, 10.96847], [79.7187, 10.95599], [79.72122, 10.95135], [79.72962, 10.95067], [79.73652, 10.9572], [79.73687, 10.94898], [79.72399, 10.94189], [79.72709, 10.93784], [79.72303, 10.93611], [79.72302, 10.93495], [79.72908, 10.93642], [79.72923, 10.93404], [79.72476, 10.92903], [79.74256, 10.92462], [79.74304, 10.91474], [79.76294, 10.91367], [79.75749, 10.90792], [79.75695, 10.89653], [79.76128, 10.90181], [79.76349, 10.8998], [79.75621, 10.89182], [79.77692, 10.89662], [79.77734, 10.90901], [79.78924, 10.9085], [79.79532, 10.9028], [79.79128, 10.9049], [79.79378, 10.89876], [79.78248, 10.89538], [79.78358, 10.88854], [79.78988, 10.8904], [79.79027, 10.89494], [79.79461, 10.8876], [79.80425, 10.89112], [79.8285, 10.88385], [79.81122, 10.8804], [79.81102, 10.87564], [79.82233, 10.8743], [79.82482, 10.86489], [79.81162, 10.85972], [79.80741, 10.86551], [79.80785, 10.85568], [79.821, 10.84562], [79.82801, 10.84974], [79.83098, 10.82744], [79.85272, 10.82694], [79.85339, 10.62671], [79.86865, 10.37556], [79.88217, 10.32317], [79.88042, 10.30261], [79.86028, 10.28249], [79.76846, 10.27186], [79.706, 10.27764], [79.63629, 10.29462], [79.53257, 10.30673], [79.51662, 10.31341], [79.38909, 10.31736], [79.37693, 10.31313], [79.36659, 10.29396], [79.33168, 10.28575], [79.29685, 10.2624], [79.26888, 10.23431], [79.2669, 10.22898], [79.27718, 10.22336], [79.2786, 10.21553], [79.26478, 10.19727], [79.24408, 10.18604], [79.23871, 10.15633], [79.23476, 10.15709], [79.2368, 10.15429], [79.22822, 10.14738], [79.22757, 10.13376], [79.23556, 10.12799], [79.22708, 10.11919], [79.2302, 10.1184], [79.2258, 10.10108], [79.22853, 10.09027], [79.23662, 10.07662], [79.24602, 10.07377], [79.25196, 10.06569], [79.25545, 10.0451], [79.26601, 10.03931], [79.24431, 10.02729], [79.21649, 9.99763], [79.21478, 10.00013], [79.19837, 9.97337], [79.1551, 9.9316], [79.15146, 9.91612], [79.12888, 9.89495], [79.11919, 9.87718], [79.11838, 9.86661], [79.12386, 9.8652], [79.11887, 9.85236], [79.08793, 9.8232], [79.07869, 9.80051], [79.06955, 9.79312], [79.05897, 9.77304], [79.03728, 9.76289], [78.98026, 9.68964], [78.97033, 9.66509], [78.9709, 9.65579], [78.96387, 9.64064], [78.95927, 9.64206], [78.96, 9.6312], [78.93736, 9.60805], [78.92681, 9.58511], [78.91441, 9.49301], [78.8984, 9.48958], [78.90272, 9.46348], [78.93606, 9.40917], [78.99643, 9.34751], [79.0665, 9.298], [79.13047, 9.2881], [79.14119, 9.29186], [79.15995, 9.28399], [79.20968, 9.28286], [79.2209, 9.29117], [79.26705, 9.29284], [79.28141, 9.31259], [79.31082, 9.32767], [79.32941, 9.32022], [79.3352, 9.30874], [79.32648, 9.29289], [79.3146, 9.28369], [79.31569, 9.27406], [79.32633, 9.25882], [79.37397, 9.21486], [79.42341, 9.17713], [79.43284, 9.16094], [79.41575, 9.17653], [79.29987, 9.24581], [79.2565, 9.2589], [79.21684, 9.25528], [79.21837, 9.27009], [79.21471, 9.26583], [79.20575, 9.27453], [79.20762, 9.27096], [79.203, 9.26768], [79.20429, 9.27726], [79.20862, 9.28169], [79.15288, 9.27627], [79.14486, 9.26854], [79.12705, 9.27004], [79.08967, 9.26016], [78.96462, 9.27404], [78.92589, 9.26712], [78.91803, 9.26156], [78.91191, 9.26366], [78.91619, 9.25986], [78.90802, 9.24968], [78.87578, 9.25728], [78.86097, 9.25554], [78.85226, 9.24699], [78.83256, 9.24571], [78.75526, 9.21561], [78.73257, 9.21159], [78.71741, 9.20088], [78.71655, 9.18909], [78.6854, 9.19532], [78.66413, 9.19353], [78.64721, 9.18428], [78.64278, 9.17586], [78.64304, 9.16925], [78.65741, 9.15773], [78.60614, 9.14778], [78.57847, 9.13044], [78.53218, 9.13742], [78.45543, 9.12504], [78.4117, 9.11254], [78.26639, 8.99771], [78.24623, 8.98851], [78.21997, 8.96564], [78.21825, 8.96839], [78.2192, 8.9645], [78.19027, 8.92843], [78.19332, 8.92919], [78.18177, 8.9027], [78.18234, 8.89112], [78.17174, 8.88286], [78.16697, 8.84119], [78.17079, 8.82998], [78.16028, 8.80302], [78.16056, 8.77473], [78.16429, 8.77407], [78.16562, 8.76382], [78.16991, 8.77578], [78.16905, 8.76325], [78.17297, 8.77426], [78.17497, 8.76799], [78.17831, 8.77217], [78.18738, 8.77065], [78.19138, 8.76258], [78.19701, 8.76267], [78.19797, 8.76979], [78.19129, 8.76723], [78.2015, 8.7771], [78.19778, 8.78678], [78.20046, 8.79286], [78.20304, 8.79011], [78.20197, 8.75603], [78.19682, 8.75717], [78.16361, 8.72391], [78.15179, 8.69716], [78.13853, 8.68018], [78.13498, 8.61616], [78.1447, 8.59802], [78.13062, 8.54791], [78.14327, 8.50167], [78.12583, 8.4747], [78.06367, 8.41244], [78.05671, 8.3846], [78.05843, 8.37786], [78.06643, 8.37379], [77.99146, 8.35011], [77.94913, 8.31158], [77.91472, 8.29185], [77.89088, 8.27049], [77.84108, 8.25166], [77.83256, 8.22907], [77.80455, 8.20295], [77.8057, 8.18055], [77.79369, 8.16232], [77.77388, 8.15623], [77.75796, 8.14531], [77.72956, 8.16414], [77.64217, 8.15426], [77.6169, 8.14464], [77.60451, 8.14719], [77.58276, 8.13733], [77.56658, 8.11843], [77.56593, 8.10151], [77.57116, 8.09332], [77.56135, 8.08809], [77.55593, 8.07664], [77.53087, 8.07666], [77.52901, 8.08049], [77.48373, 8.09034], [77.43904, 8.0963], [77.33138, 8.12739], [77.32739, 8.12748], [77.32368, 8.12656], [77.32314, 8.12583], [77.32296, 8.12294], [77.32217, 8.12246], [77.31534, 8.12221], [77.31095, 8.12673], [77.30372, 8.13161], [77.30407, 8.13727], [77.30005, 8.14508], [77.29865, 8.14653], [77.27443, 8.16317], [77.23283, 8.18033], [77.22367, 8.19575], [77.18617, 8.21709], [77.15218, 8.25189], [77.09773, 8.29358], [77.10297, 8.3064], [77.11338, 8.30414], [77.11616, 8.3094], [77.12237, 8.30893], [77.11902, 8.32087], [77.14822, 8.33171], [77.15332, 8.32693], [77.16848, 8.33255], [77.17283, 8.31876], [77.18029, 8.32343], [77.16654, 8.34254], [77.17508, 8.35002], [77.17388, 8.35852], [77.1676, 8.36337], [77.15238, 8.35507], [77.1608, 8.37364], [77.15937, 8.38119], [77.15067, 8.38446], [77.16057, 8.38936], [77.16767, 8.38372], [77.18171, 8.39614], [77.18257, 8.40491], [77.19686, 8.41962], [77.19603, 8.42889], [77.20598, 8.444], [77.227, 8.44673], [77.22517, 8.45963], [77.21299, 8.47038], [77.21042, 8.49187], [77.20128, 8.50097], [77.21352, 8.51203], [77.22936, 8.5082], [77.23873, 8.49603], [77.25121, 8.50554], [77.26161, 8.50628], [77.27456, 8.53775], [77.28376, 8.54685], [77.27421, 8.55976], [77.26634, 8.58526], [77.24635, 8.60359], [77.25198, 8.60835], [77.25144, 8.62034], [77.23456, 8.62697], [77.22933, 8.63991], [77.22474, 8.6392], [77.21418, 8.64926], [77.20824, 8.66378], [77.20085, 8.66897], [77.20674, 8.68453], [77.19494, 8.70788], [77.18133, 8.71724], [77.17871, 8.73202], [77.16999, 8.74185], [77.17247, 8.74963], [77.17698, 8.74379], [77.19105, 8.74164], [77.19824, 8.75355], [77.19686, 8.76831], [77.20937, 8.76488], [77.21753, 8.76769], [77.21304, 8.77862], [77.22972, 8.78466], [77.23195, 8.80715], [77.24231, 8.80937], [77.24708, 8.82372], [77.26399, 8.84207], [77.25727, 8.86165], [77.25834, 8.87497], [77.23757, 8.88579], [77.23846, 8.89786], [77.22115, 8.90407], [77.21817, 8.91666], [77.2238, 8.92427], [77.2213, 8.92752], [77.21037, 8.932], [77.20294, 8.92314], [77.19271, 8.92631], [77.19706, 8.93554], [77.19621, 8.9547], [77.18547, 8.9703], [77.17812, 8.96922], [77.17349, 8.99134], [77.16159, 8.99516], [77.15677, 9.00762], [77.14927, 9.00969], [77.14701, 9.02137], [77.16094, 9.02922], [77.16701, 9.04489], [77.18285, 9.04677], [77.18693, 9.04278], [77.19718, 9.04655], [77.19671, 9.05663], [77.20879, 9.07415], [77.20568, 9.08451], [77.21207, 9.09989], [77.22608, 9.10746], [77.22807, 9.11624], [77.24693, 9.12388], [77.2534, 9.13964], [77.2678, 9.15342], [77.26428, 9.18616], [77.25247, 9.18955], [77.2563, 9.19943], [77.27068, 9.20088], [77.28222, 9.21689], [77.27529, 9.23484], [77.28246, 9.25611], [77.28273, 9.27334], [77.28845, 9.27428], [77.28297, 9.30142], [77.29946, 9.31102], [77.30263, 9.3191], [77.29721, 9.32933], [77.30092, 9.33023], [77.29998, 9.3368], [77.32521, 9.33722], [77.32596, 9.34666], [77.33725, 9.36509], [77.33448, 9.38132], [77.34382, 9.4022], [77.33644, 9.41237], [77.34928, 9.4412], [77.36592, 9.46019], [77.37712, 9.45288], [77.39254, 9.45946], [77.39153, 9.46885], [77.402, 9.47773], [77.39916, 9.49647], [77.41232, 9.50908], [77.40034, 9.51796], [77.40043, 9.52747], [77.3851, 9.51934], [77.36549, 9.53519], [77.36501, 9.55283], [77.35283, 9.55969], [77.35019, 9.56719], [77.35982, 9.57748], [77.3549, 9.58679], [77.3574, 9.59454], [77.36607, 9.59606], [77.36105, 9.60237], [77.35451, 9.60417], [77.33942, 9.57342], [77.32531, 9.58013], [77.3245, 9.59341], [77.32986, 9.59907], [77.31775, 9.60261], [77.30374, 9.59885], [77.26964, 9.57287], [77.253, 9.58307], [77.2427, 9.58532], [77.23425, 9.58165], [77.22215, 9.59779], [77.2098, 9.60506], [77.20888, 9.61355], [77.19813, 9.61446], [77.18861, 9.60621], [77.16583, 9.61294], [77.16907, 9.62405], [77.17622, 9.62955], [77.17401, 9.63738], [77.18111, 9.65928], [77.19408, 9.67063], [77.20668, 9.69473], [77.20191, 9.70397], [77.20352, 9.72218], [77.22387, 9.73045], [77.2202, 9.74511], [77.23253, 9.76914], [77.22511, 9.77614], [77.22279, 9.78837], [77.23614, 9.79063], [77.24029, 9.79749], [77.2468, 9.79846], [77.24692, 9.80857], [77.24128, 9.81621], [77.22187, 9.82306], [77.22762, 9.8387], [77.22303, 9.84549], [77.23728, 9.85199], [77.23641, 9.86021], [77.22142, 9.86374], [77.21254, 9.8775], [77.22084, 9.88509], [77.21835, 9.90491], [77.23016, 9.91308], [77.23633, 9.93599], [77.248, 9.94746], [77.24664, 9.95202], [77.26095, 9.95259], [77.27279, 9.96429], [77.2726, 9.97644], [77.26434, 9.98727], [77.26676, 9.99039], [77.26103, 9.99183], [77.26493, 10.00428], [77.25473, 10.01245], [77.2639, 10.02931], [77.23163, 10.06688], [77.20405, 10.08849], [77.20118, 10.1072], [77.2075, 10.11914], [77.21635, 10.11643], [77.23854, 10.13084], [77.26772, 10.12221], [77.26812, 10.12781], [77.27485, 10.13131], [77.27123, 10.14236], [77.27459, 10.18494], [77.28349, 10.19769], [77.28294, 10.2086], [77.29528, 10.21855], [77.28094, 10.23674], [77.26946, 10.23701], [77.25912, 10.23046], [77.2573, 10.25948], [77.26356, 10.2639], [77.22734, 10.31657], [77.22876, 10.33113], [77.23568, 10.34001], [77.23525, 10.35287], [77.17599, 10.35857], [77.12015, 10.31803], [77.102, 10.31561], [77.09569, 10.30875], [77.09143, 10.31506], [77.06598, 10.29817], [77.06317, 10.29172], [77.04362, 10.28406], [77.05285, 10.27231], [77.04843, 10.25943], [77.0151, 10.24561], [76.98359, 10.21966], [76.97067, 10.22905], [76.95072, 10.2317], [76.93963, 10.23815], [76.92191, 10.23159], [76.91188, 10.23426], [76.90775, 10.24031], [76.90257, 10.23958], [76.90479, 10.24725], [76.89738, 10.26143], [76.87326, 10.27568], [76.87315, 10.29755], [76.85494, 10.29212], [76.84857, 10.28452], [76.8403, 10.29908], [76.82993, 10.30315], [76.83603, 10.34544], [76.84862, 10.36742], [76.82333, 10.39458], [76.8337, 10.40283], [76.83327, 10.40734], [76.82432, 10.40959], [76.81604, 10.423], [76.82803, 10.44975], [76.83033, 10.49725], [76.84309, 10.53668], [76.83526, 10.54461], [76.8397, 10.56363], [76.83393, 10.5734], [76.8386, 10.59633], [76.83241, 10.59924], [76.82632, 10.59607], [76.81748, 10.60274], [76.81671, 10.61593], [76.81012, 10.62384], [76.81427, 10.63505], [76.83086, 10.63692], [76.85956, 10.63168], [76.88212, 10.63897], [76.87823, 10.6744], [76.86705, 10.67917], [76.87061, 10.69224], [76.8675, 10.69428], [76.88219, 10.71679], [76.89218, 10.71847], [76.88817, 10.73179], [76.90366, 10.76183], [76.90729, 10.78341], [76.90076, 10.80803], [76.87013, 10.80905], [76.86404, 10.818], [76.84824, 10.81953], [76.84516, 10.82682], [76.85386, 10.83968], [76.84849, 10.85012], [76.83201, 10.86085], [76.82839, 10.87264], [76.79186, 10.88184], [76.78149, 10.89115], [76.76796, 10.88776], [76.75247, 10.8958], [76.74075, 10.89106], [76.71486, 10.9087], [76.69517, 10.91032], [76.65906, 10.93059], [76.65576, 10.9391], [76.66469, 10.94357], [76.66675, 10.96843], [76.686, 10.98929], [76.68909, 11.00857], [76.69971, 11.02666], [76.71815, 11.041], [76.76656, 11.02918], [76.7918, 11.03745], [76.80077, 11.05398], [76.79619, 11.05594], [76.78776, 11.04479], [76.77812, 11.04218], [76.74649, 11.05675], [76.74384, 11.07313], [76.75462, 11.0791], [76.75163, 11.09327], [76.74341, 11.1026], [76.74985, 11.11915], [76.74806, 11.13548], [76.73452, 11.1363], [76.73137, 11.13171], [76.7189, 11.14946], [76.71205, 11.15093], [76.70827, 11.14672], [76.7121, 11.14232], [76.70631, 11.14163], [76.70019, 11.15363], [76.69496, 11.16681], [76.69797, 11.1742], [76.71434, 11.18769], [76.72862, 11.19144], [76.72692, 11.20748], [76.73454, 11.21807], [76.7058, 11.24044], [76.68425, 11.23387], [76.68435, 11.22795], [76.67635, 11.22025], [76.62892, 11.19425], [76.61548, 11.19235], [76.60085, 11.1976], [76.53384, 11.18568], [76.5157, 11.19465], [76.50937, 11.20828], [76.49904, 11.21141], [76.47234, 11.20883], [76.47344, 11.19502], [76.45841, 11.18777], [76.45161, 11.19947], [76.43859, 11.19905], [76.44893, 11.20555], [76.45306, 11.23945], [76.48709, 11.25837], [76.52166, 11.27066], [76.52679, 11.28865], [76.54573, 11.3004], [76.53933, 11.30471], [76.53727, 11.31413], [76.54994, 11.33108], [76.54783, 11.35897], [76.50816, 11.35421], [76.51509, 11.35977], [76.51773, 11.37165], [76.46036, 11.38889], [76.4156, 11.42326], [76.41868, 11.44187], [76.3979, 11.43636], [76.36865, 11.4563], [76.3422, 11.46768], [76.32601, 11.45406], [76.30513, 11.46787], [76.29484, 11.46583], [76.29152, 11.46989], [76.29457, 11.47415], [76.28441, 11.483], [76.27346, 11.47712], [76.26467, 11.48133], [76.24723, 11.46799], [76.25142, 11.5024], [76.23975, 11.52673], [76.25024, 11.52703], [76.25148, 11.53693], [76.24479, 11.54164], [76.24421, 11.55331], [76.23414, 11.57116], [76.26491, 11.59397], [76.27428, 11.59376], [76.27899, 11.60089], [76.28608, 11.59028], [76.29599, 11.59023], [76.30236, 11.57131], [76.31591, 11.57668], [76.32119, 11.58627], [76.33586, 11.59582], [76.34038, 11.58728], [76.35456, 11.58939], [76.37796, 11.60199], [76.38808, 11.62975], [76.4066, 11.63434], [76.43246, 11.63137], [76.44404, 11.64727], [76.43134, 11.66648], [76.45816, 11.66445], [76.48257, 11.68623], [76.48163, 11.69264], [76.49355, 11.6931], [76.51106, 11.7051], [76.53718, 11.69092], [76.55051, 11.67431], [76.55385, 11.64583], [76.56137, 11.63279], [76.55991, 11.62259], [76.57516, 11.61931], [76.57669, 11.61461], [76.59224, 11.61877], [76.59756, 11.61076], [76.61394, 11.60767], [76.63041, 11.6139], [76.74702, 11.6139], [76.75687, 11.61855], [76.81752, 11.60484], [76.82279, 11.60819], [76.84688, 11.59458], [76.85642, 11.59939], [76.85807, 11.61414], [76.85048, 11.61607], [76.85206, 11.62178], [76.84271, 11.62716], [76.84508, 11.63426], [76.83458, 11.63962], [76.83788, 11.64205], [76.83495, 11.65553], [76.84179, 11.66224], [76.85271, 11.69248], [76.86366, 11.70549], [76.86258, 11.71112], [76.8883, 11.73376], [76.89656, 11.77658], [76.90796, 11.79536], [76.94234, 11.78814], [76.95388, 11.79217], [76.96988, 11.77697], [76.9836, 11.8018], [76.9821, 11.81162], [76.99349, 11.80927], [77.01289, 11.81473], [77.01396, 11.80632], [77.01684, 11.81083], [77.02983, 11.80479], [77.03263, 11.796], [77.0387, 11.79396], [77.02882, 11.77479], [77.03505, 11.76989], [77.04642, 11.78773], [77.0629, 11.79051], [77.06971, 11.78219], [77.05638, 11.76989], [77.08272, 11.73987], [77.08017, 11.73609], [77.10496, 11.73291], [77.11766, 11.72118], [77.1085, 11.75271], [77.11241, 11.75704], [77.1107, 11.77358], [77.13803, 11.77275], [77.14705, 11.78202], [77.18197, 11.78643], [77.18919, 11.79263], [77.23856, 11.79476], [77.24955, 11.80429], [77.24983, 11.81312], [77.28793, 11.80054], [77.29381, 11.80911], [77.3351, 11.77134], [77.36038, 11.77957], [77.3648, 11.79051], [77.37021, 11.78676], [77.39441, 11.78774], [77.42218, 11.77248], [77.42255, 11.76182], [77.42724, 11.76095], [77.43377, 11.77821], [77.44216, 11.78339], [77.44046, 11.78894], [77.44976, 11.79611], [77.454, 11.82034], [77.46657, 11.84718], [77.45989, 11.86355], [77.46581, 11.8743], [77.46043, 11.88131], [77.46159, 11.90009], [77.47348, 11.89928], [77.47717, 11.89056], [77.4806, 11.89351], [77.48616, 11.88751], [77.48303, 11.89968], [77.49055, 11.90859], [77.49476, 11.94395], [77.53794, 11.93249], [77.54248, 11.93827], [77.55814, 11.94165], [77.57527, 11.93658], [77.60341, 11.93776], [77.65201, 11.95492], [77.65734, 11.94993], [77.67565, 11.95208], [77.6747, 11.96604], [77.69634, 12.01583], [77.72661, 12.0612], [77.75566, 12.0798], [77.76773, 12.1067], [77.77587, 12.11136], [77.77554, 12.1185], [77.75144, 12.13626], [77.74519, 12.15935], [77.72767, 12.18159], [77.70226, 12.18419], [77.66521, 12.19827], [77.62094, 12.19995], [77.61073, 12.20621], [77.59671, 12.19933], [77.57384, 12.20095], [77.56577, 12.19639], [77.54624, 12.20472], [77.51866, 12.19454], [77.49269, 12.19739], [77.47202, 12.20795], [77.48261, 12.23027], [77.47847, 12.24012], [77.4711, 12.24357], [77.472, 12.24993], [77.47904, 12.27133], [77.48758, 12.28056], [77.49996, 12.28263], [77.51417, 12.27544], [77.5272, 12.27883], [77.53281, 12.29152], [77.55131, 12.29127], [77.55788, 12.30579], [77.56598, 12.3063], [77.57855, 12.33573], [77.59152, 12.3402], [77.60081, 12.35849], [77.613, 12.36118], [77.61679, 12.36826], [77.62331, 12.41232], [77.62959, 12.41838], [77.62715, 12.45851], [77.6346, 12.48766], [77.62607, 12.49637], [77.6074, 12.47518], [77.58366, 12.47885], [77.61631, 12.50924], [77.6124, 12.515], [77.58718, 12.51481], [77.58638, 12.54578], [77.58033, 12.55165], [77.57932, 12.57314], [77.5914, 12.59215], [77.591, 12.6153], [77.60621, 12.62897], [77.59611, 12.65034], [77.59886, 12.66721], [77.65989, 12.68389], [77.67637, 12.67953], [77.67864, 12.66044], [77.70421, 12.66146], [77.711, 12.66717], [77.71157, 12.68319], [77.72275, 12.6797], [77.7246, 12.67124], [77.73991, 12.67304], [77.74099, 12.68582], [77.73516, 12.69408], [77.73987, 12.69993], [77.7639, 12.69969], [77.76573, 12.7138], [77.76953, 12.71258], [77.77443, 12.72427], [77.76118, 12.72743], [77.7624, 12.73537], [77.79272, 12.74792], [77.79437, 12.75767], [77.77883, 12.76806], [77.79854, 12.79517], [77.80852, 12.79678], [77.79972, 12.80527], [77.80214, 12.81706], [77.80988, 12.81558], [77.80986, 12.83158], [77.79588, 12.83459], [77.79244, 12.84276], [77.79909, 12.85159], [77.8079, 12.84772], [77.81553, 12.85584], [77.82306, 12.85589], [77.836, 12.87038], [77.85093, 12.86616], [77.89033, 12.86971], [77.8949, 12.87862], [77.90839, 12.87886], [77.90874, 12.88489], [77.92186, 12.88479], [77.92931, 12.89097], [77.93609, 12.88366], [77.92712, 12.88157], [77.9277, 12.87497], [77.94161, 12.87279], [77.94131, 12.86879], [77.92279, 12.85562], [77.91855, 12.83063], [77.94066, 12.8234], [77.94659, 12.83876], [77.93997, 12.85319], [77.94363, 12.85787], [77.95232, 12.85717], [77.95276, 12.85018], [77.96533, 12.84823], [77.9643, 12.83289], [77.98037, 12.83511], [77.97925, 12.82709], [77.98976, 12.8216], [77.9885, 12.80824], [77.99518, 12.80591], [78.00973, 12.80579], [78.01509, 12.81342], [78.00369, 12.82483], [78.01828, 12.8311], [78.01913, 12.84399], [78.02897, 12.84524], [78.02384, 12.85655], [78.03063, 12.85807], [78.03071, 12.8525], [78.05045, 12.84879], [78.05354, 12.85384], [78.05902, 12.85122], [78.06019, 12.84388], [78.07697, 12.83917], [78.07384, 12.83057], [78.08618, 12.83199], [78.09014, 12.81741], [78.12497, 12.79824], [78.13421, 12.78202], [78.16764, 12.77013], [78.17738, 12.776], [78.19514, 12.7739], [78.23093, 12.76071], [78.24098, 12.72999], [78.23115, 12.7126], [78.2271, 12.71487], [78.20572, 12.70645], [78.20992, 12.70055], [78.19961, 12.69312], [78.20984, 12.69046], [78.21056, 12.68613], [78.23768, 12.68581], [78.23926, 12.70106], [78.24454, 12.70637], [78.27106, 12.70511], [78.30097, 12.66592], [78.31834, 12.66197], [78.33218, 12.64931], [78.34357, 12.64879], [78.3714, 12.62715], [78.41258, 12.6269], [78.42704, 12.63529], [78.4348, 12.6296], [78.45843, 12.62969], [78.46489, 12.62406], [78.47169, 12.63209], [78.47053, 12.64464], [78.47475, 12.64768], [78.47049, 12.65061], [78.46787, 12.67594], [78.48447, 12.67171], [78.49976, 12.67619], [78.50741, 12.69145], [78.50288, 12.69195], [78.50396, 12.69869], [78.49655, 12.7033], [78.50191, 12.70449], [78.50304, 12.71682], [78.51175, 12.70774], [78.51999, 12.71206], [78.52021, 12.71873], [78.50594, 12.72257], [78.48906, 12.74203], [78.49314, 12.74719], [78.50524, 12.74301], [78.5138, 12.73451], [78.51161, 12.72684], [78.51667, 12.72442], [78.5209, 12.73618], [78.52269, 12.71926], [78.527, 12.72153], [78.52504, 12.71546], [78.53749, 12.71703], [78.53695, 12.71336], [78.54425, 12.71098], [78.53502, 12.70736], [78.52958, 12.71026], [78.53488, 12.69117], [78.55585, 12.7002], [78.55485, 12.70756], [78.56156, 12.71006], [78.55439, 12.71932], [78.56383, 12.73767], [78.55529, 12.73932], [78.56317, 12.75137], [78.55831, 12.74999], [78.5556, 12.75583], [78.59249, 12.78272], [78.59304, 12.79828], [78.60114, 12.80372], [78.60036, 12.81847], [78.60773, 12.82195], [78.60153, 12.85085], [78.61307, 12.86798], [78.63341, 12.93179], [78.65699, 12.93215], [78.63803, 12.9648], [78.64714, 12.96628], [78.62087, 12.99128], [78.6555, 13.01529], [78.65619, 13.03121], [78.70525, 13.01528], [78.71449, 13.06872], [78.74027, 13.06403], [78.75175, 13.05498], [78.79428, 13.06662], [78.81312, 13.08918], [78.84201, 13.07865], [78.87095, 13.08192], [78.86978, 13.08955], [78.87507, 13.09685], [78.89156, 13.09712], [78.89566, 13.09516], [78.88893, 13.0734], [78.89162, 13.0331], [78.9291, 13.03653], [78.93708, 13.03046], [78.94078, 13.03645], [78.92914, 13.0458], [78.91749, 13.04366], [78.90365, 13.04774], [78.91257, 13.06597], [78.92171, 13.06613], [78.92392, 13.08085], [78.94145, 13.07856], [78.94917, 13.08403], [78.95542, 13.07588], [78.96211, 13.07877], [78.97025, 13.07475], [78.97228, 13.08384], [78.99497, 13.08664], [79.00389, 13.08464], [79.00947, 13.07726], [79.03692, 13.07063], [79.03866, 13.06117], [79.06337, 13.05314], [79.06284, 13.04067], [79.08088, 13.02576], [79.09828, 13.0261], [79.10744, 13.03831], [79.11445, 13.03931], [79.13731, 13.03485], [79.14828, 13.02469], [79.16309, 13.02031], [79.1848, 13.02989], [79.19297, 13.04673], [79.18041, 13.04888], [79.17963, 13.05453], [79.19207, 13.05618], [79.17827, 13.05922], [79.18004, 13.06435], [79.18729, 13.06069], [79.19209, 13.06747], [79.19077, 13.07339], [79.18398, 13.07276], [79.1853, 13.07971], [79.18063, 13.08428], [79.18763, 13.0835], [79.19066, 13.08877], [79.19826, 13.08138], [79.20083, 13.08887], [79.2344, 13.10526], [79.23838, 13.11858], [79.23035, 13.12641], [79.23284, 13.1394], [79.21, 13.14849], [79.21466, 13.15699], [79.22729, 13.15565], [79.2349, 13.17088], [79.24266, 13.17104], [79.24493, 13.14885], [79.24016, 13.1444], [79.24524, 13.13831], [79.25388, 13.1458], [79.25218, 13.15776], [79.25743, 13.16077], [79.26206, 13.14907], [79.27451, 13.15571], [79.28031, 13.1529], [79.28399, 13.1228], [79.31243, 13.12617], [79.29923, 13.11869], [79.30151, 13.1137], [79.29428, 13.10963], [79.30716, 13.10555], [79.30988, 13.11205], [79.31886, 13.1135], [79.31189, 13.1166], [79.32421, 13.11857], [79.31864, 13.1235], [79.32899, 13.13056], [79.33959, 13.13049], [79.34114, 13.13687], [79.34463, 13.13684], [79.34522, 13.12143], [79.36047, 13.12357], [79.36549, 13.13396], [79.35609, 13.16461], [79.38001, 13.16296], [79.37921, 13.17154], [79.36949, 13.17295], [79.37267, 13.17887], [79.3877, 13.17756], [79.374, 13.18929], [79.39213, 13.19247], [79.39903, 13.18784], [79.40915, 13.19407], [79.41014, 13.19054], [79.4384, 13.18821], [79.43235, 13.197], [79.44382, 13.20781], [79.43619, 13.21277], [79.43735, 13.21958], [79.45377, 13.21697], [79.45312, 13.23838], [79.44146, 13.23802], [79.43997, 13.23063], [79.43098, 13.22975], [79.43976, 13.23589], [79.43146, 13.2361], [79.43765, 13.24292], [79.41847, 13.24299], [79.42261, 13.25135], [79.41683, 13.25171], [79.41614, 13.26044], [79.40839, 13.2653], [79.4337, 13.27502], [79.43469, 13.28909], [79.44628, 13.29164], [79.44539, 13.30128], [79.43051, 13.30028], [79.42001, 13.28958], [79.41574, 13.29961], [79.38981, 13.29746], [79.38863, 13.30981], [79.38186, 13.30752], [79.38778, 13.31808], [79.402, 13.31738], [79.39833, 13.33023], [79.40533, 13.33507], [79.41469, 13.33006], [79.42096, 13.33632], [79.43164, 13.33674], [79.4354, 13.35174], [79.45623, 13.3386], [79.49523, 13.34523], [79.51032, 13.33463], [79.51106, 13.342], [79.52591, 13.34441], [79.53728, 13.33867], [79.54182, 13.32733], [79.53933, 13.32191], [79.54408, 13.31681], [79.53483, 13.3014], [79.5412, 13.29247], [79.53512, 13.28512], [79.53457, 13.27543], [79.55838, 13.27275], [79.57924, 13.25782], [79.59128, 13.26146], [79.59603, 13.28488], [79.60866, 13.28752], [79.60606, 13.27958], [79.61409, 13.28272], [79.63161, 13.26973], [79.63323, 13.28241], [79.63844, 13.28751], [79.64124, 13.27561], [79.64245, 13.29018], [79.65176, 13.29186], [79.6578, 13.28387], [79.66384, 13.28979], [79.66535, 13.27874], [79.67421, 13.28179], [79.67811, 13.29744], [79.68237, 13.29594], [79.68122, 13.28802], [79.6939, 13.27982], [79.68877, 13.27089], [79.69572, 13.2673], [79.69109, 13.26101], [79.68767, 13.26673], [79.67826, 13.26168], [79.68424, 13.24446], [79.6959, 13.23858], [79.69303, 13.24332], [79.70095, 13.25305], [79.70909, 13.25107], [79.71251, 13.24469], [79.71403, 13.23576], [79.70606, 13.23422], [79.70267, 13.22242], [79.71835, 13.21654], [79.72161, 13.22348], [79.73137, 13.22247], [79.73024, 13.23256], [79.73728, 13.23656], [79.75096, 13.21645], [79.75005, 13.20802], [79.75981, 13.20747], [79.76422, 13.21914], [79.77391, 13.21919], [79.77544, 13.21534], [79.78475, 13.22793], [79.79446, 13.22635], [79.7947, 13.24213], [79.78156, 13.25162], [79.76116, 13.25755], [79.74805, 13.27101], [79.735, 13.27596], [79.7306, 13.28296], [79.73368, 13.28884], [79.7442, 13.28862], [79.75671, 13.29531], [79.7608, 13.31851], [79.7917, 13.29355], [79.80161, 13.30053], [79.80887, 13.31728], [79.83605, 13.31425], [79.85323, 13.31599], [79.85351, 13.32073], [79.86276, 13.31695], [79.86803, 13.33109], [79.88287, 13.32334], [79.88347, 13.33288], [79.91482, 13.34816], [79.91594, 13.35989], [79.92526, 13.35838], [79.93127, 13.35154], [79.93797, 13.35555], [79.94944, 13.3755], [79.94501, 13.3818], [79.95801, 13.3792], [79.96272, 13.39138], [79.96142, 13.39562], [79.94432, 13.39689], [79.94125, 13.40063], [79.94567, 13.40775], [79.93454, 13.41648], [79.94181, 13.41674], [79.93958, 13.42505], [79.95662, 13.42221], [79.97331, 13.42969], [79.97239, 13.46911], [79.98236, 13.47048], [79.98405, 13.4796], [80.00781, 13.47833], [80.01587, 13.49797], [80.04659, 13.4937], [80.04839, 13.51227], [80.03549, 13.51833], [80.02715, 13.51372], [80.01949, 13.51927], [80.01762, 13.52958], [80.00049, 13.5257], [79.99969, 13.54233], [80.01686, 13.5472], [80.02387, 13.54606], [80.02841, 13.53884], [80.0569, 13.53666], [80.06272, 13.54538], [80.08123, 13.54977], [80.08861, 13.535], [80.07711, 13.52641], [80.07817, 13.48883], [80.10303, 13.48697], [80.10513, 13.49337], [80.10818, 13.48894], [80.11274, 13.50597], [80.13167, 13.50145], [80.13918, 13.50429], [80.1455, 13.49951], [80.14517, 13.49143], [80.20992, 13.4863], [80.21456, 13.49029], [80.21388, 13.48611], [80.22585, 13.48509], [80.24178, 13.47067], [80.26402, 13.56265], [80.2688, 13.56531], [80.30102, 13.47866], [80.3259, 13.44544], [80.34678, 13.31338], [80.34472, 13.27624], [80.33495, 13.23794], [80.31337, 13.16788], [80.2979, 13.13545], [80.30626, 13.13041], [80.30076, 13.12131], [80.30545, 13.11039], [80.30376, 13.10566], [80.30145, 13.11211], [80.29824, 13.10184], [80.30169, 13.0987], [80.29687, 13.09929], [80.29491, 13.09295], [80.30074, 13.09121], [80.30376, 13.10262], [80.31109, 13.10807], [80.28643, 13.06101], [80.26059, 12.94394], [80.24788, 12.83072], [80.25467, 12.78081], [80.20093, 12.63211], [80.20067, 12.61717], [80.16797, 12.53512], [80.15388, 12.44834], [80.13765, 12.41056], [80.04604, 12.3125], [79.87379, 12.04262], [79.84976, 12.05182], [79.84047, 12.01327], [79.85707, 12.00681], [79.84057, 11.95583], [79.82879, 11.95837], [79.81844, 11.97793], [79.81254, 11.97793], [79.80501, 11.9533], [79.78466, 11.95991], [79.77146, 11.94393], [79.75988, 11.94364], [79.76213, 11.92859], [79.75502, 11.92605], [79.75622, 11.92043], [79.75021, 11.91995], [79.74447, 11.965], [79.72446, 11.97127], [79.72344, 11.97709], [79.72642, 11.9858], [79.74189, 11.97771], [79.76036, 11.98924], [79.76231, 12.00273], [79.74756, 12.00783], [79.73339, 11.99326], [79.72055, 11.99269], [79.71584, 11.98485], [79.71237, 11.98647], [79.70927, 11.97573], [79.71499, 11.96762], [79.70339, 11.96706], [79.698, 11.96041], [79.69567, 11.96387], [79.6916, 11.95135], [79.69724, 11.94176], [79.71111, 11.93306], [79.70962, 11.94984], [79.72085, 11.9449], [79.71748, 11.92897], [79.74065, 11.90547], [79.73128, 11.90315], [79.72888, 11.89025], [79.71113, 11.89075], [79.70525, 11.89388], [79.70898, 11.90331], [79.70656, 11.9135], [79.71793, 11.91335], [79.7186, 11.91897], [79.69624, 11.91918], [79.69536, 11.8948], [79.68711, 11.89451], [79.68682, 11.88887], [79.67381, 11.89159], [79.67397, 11.88066], [79.70995, 11.88919], [79.70824, 11.8691], [79.71735, 11.85452], [79.72109, 11.8625], [79.73988, 11.8646], [79.74308, 11.84846], [79.75033, 11.84797], [79.75386, 11.85017], [79.7538, 11.86598], [79.75862, 11.86851], [79.75736, 11.87611], [79.76846, 11.87597], [79.77081, 11.86137], [79.76211, 11.84844], [79.76609, 11.84059], [79.77581, 11.83846], [79.78167, 11.85581], [79.80061, 11.85531], [79.80814, 11.8453], [79.807, 11.83358]], [[79.80597, 10.8797], [79.80995, 10.87843], [79.80968, 10.88048], [79.80597, 10.8797]], [[79.80092, 12.01697], [79.80531, 12.02454], [79.78929, 12.02769], [79.78832, 12.01924], [79.80092, 12.01697]], [[79.7391, 10.92131], [79.73971, 10.92015], [79.73945, 10.92138], [79.7391, 10.92131]], [[79.72223, 10.93827], [79.72018, 10.93612], [79.72162, 10.93504], [79.72223, 10.93827]], [[79.69276, 12.03529], [79.68418, 12.0217], [79.67648, 12.02157], [79.67223, 12.0097], [79.66136, 12.0123], [79.65694, 11.99156], [79.66253, 11.9895], [79.67385, 11.99505], [79.68083, 11.98334], [79.68541, 11.99162], [79.7196, 11.99217], [79.70281, 12.01107], [79.70477, 12.03198], [79.69276, 12.03529]], [[79.69196, 11.81417], [79.7026, 11.81347], [79.70035, 11.82166], [79.69256, 11.82248], [79.69196, 11.81417]], [[79.69909, 11.86127], [79.69715, 11.87404], [79.69598, 11.86039], [79.69909, 11.86127]], [[79.67839, 11.81447], [79.67457, 11.80356], [79.68131, 11.79632], [79.68389, 11.80216], [79.68963, 11.80214], [79.69054, 11.8085], [79.67839, 11.81447]], [[79.68198, 11.97283], [79.67666, 11.96809], [79.66216, 11.96909], [79.65998, 11.95836], [79.65379, 11.9606], [79.65466, 11.95345], [79.67327, 11.94786], [79.68461, 11.95336], [79.68782, 11.96955], [79.68198, 11.97283]], [[79.64718, 11.84225], [79.64099, 11.82415], [79.64629, 11.81626], [79.67123, 11.81485], [79.67126, 11.82358], [79.65944, 11.82947], [79.66172, 11.83931], [79.64718, 11.84225]], [[79.63637, 11.97782], [79.63645, 11.99804], [79.64233, 11.99929], [79.65136, 12.0223], [79.62529, 12.03159], [79.62924, 12.01869], [79.62097, 12.0143], [79.61884, 12.00194], [79.62614, 11.99961], [79.62359, 11.98928], [79.61711, 11.98957], [79.62435, 11.98178], [79.61852, 11.96994], [79.62747, 11.96808], [79.62849, 11.94518], [79.6189, 11.94322], [79.61787, 11.93605], [79.61842, 11.92609], [79.62832, 11.91958], [79.62527, 11.90305], [79.6321, 11.90127], [79.64062, 11.9022], [79.64106, 11.90767], [79.65589, 11.90794], [79.65604, 11.9129], [79.66885, 11.91841], [79.67054, 11.92982], [79.66929, 11.93748], [79.66069, 11.93708], [79.65736, 11.94806], [79.64269, 11.94212], [79.64222, 11.95389], [79.64728, 11.95343], [79.64832, 11.96733], [79.63637, 11.97782]], [[79.62117, 11.89056], [79.60817, 11.87687], [79.59933, 11.88295], [79.60197, 11.8578], [79.61942, 11.86267], [79.61915, 11.87015], [79.62849, 11.86979], [79.62861, 11.8539], [79.65278, 11.85055], [79.66336, 11.86129], [79.66267, 11.8673], [79.64854, 11.87053], [79.64842, 11.88031], [79.64047, 11.88058], [79.64112, 11.88661], [79.63478, 11.88877], [79.6345, 11.88098], [79.62967, 11.88131], [79.62975, 11.88862], [79.62117, 11.89056]]], [[[79.78786, 11.89679], [79.79638, 11.8999], [79.79231, 11.87689], [79.78506, 11.86296], [79.77838, 11.86322], [79.77961, 11.87796], [79.77262, 11.87585], [79.77282, 11.90049], [79.76919, 11.90179], [79.77875, 11.90469], [79.78786, 11.89679]]], [[[79.49181, 9.12413], [79.49688, 9.1237], [79.48883, 9.11905], [79.49181, 9.12413]]], [[[79.48714, 9.12708], [79.48875, 9.12816], [79.48846, 9.12658], [79.48714, 9.12708]]], [[[79.48256, 9.13213], [79.48196, 9.13378], [79.48341, 9.1342], [79.48256, 9.13213]]], [[[79.48124, 9.12873], [79.48056, 9.13066], [79.48196, 9.12997], [79.48124, 9.12873]]], [[[79.47387, 9.13537], [79.47222, 9.13987], [79.47355, 9.1385], [79.47387, 9.13537]]], [[[79.46735, 9.14348], [79.46772, 9.1405], [79.46505, 9.14343], [79.46735, 9.14348]]], [[[79.45502, 9.14693], [79.45637, 9.14714], [79.45612, 9.14666], [79.45502, 9.14693]]], [[[79.45464, 9.14543], [79.45372, 9.144], [79.45406, 9.14573], [79.45464, 9.14543]]], [[[79.4526, 9.14653], [79.45229, 9.14988], [79.45445, 9.14751], [79.4526, 9.14653]]], [[[79.44758, 9.15289], [79.44344, 9.15703], [79.44576, 9.15804], [79.44758, 9.15289]]], [[[79.44505, 9.15376], [79.44556, 9.15171], [79.44464, 9.15114], [79.44505, 9.15376]]], [[[79.24032, 9.24238], [79.235, 9.2355], [79.2289, 9.2446], [79.23426, 9.24862], [79.24032, 9.24238]]], [[[79.22546, 9.25041], [79.2091, 9.22876], [79.19573, 9.22385], [79.17469, 9.24089], [79.19141, 9.257], [79.22546, 9.25041]]], [[[79.16494, 9.21405], [79.16455, 9.20899], [79.15574, 9.20899], [79.16397, 9.21262], [79.15562, 9.21776], [79.13614, 9.21556], [79.12372, 9.22116], [79.14973, 9.2246], [79.16494, 9.21405]]], [[[79.15762, 9.23716], [79.1612, 9.23774], [79.15988, 9.23572], [79.15762, 9.23716]]], [[[79.14382, 9.24073], [79.14791, 9.24287], [79.15051, 9.23826], [79.14565, 9.23629], [79.14382, 9.24073]]], [[[79.14423, 9.2315], [79.14851, 9.23315], [79.14692, 9.23013], [79.14423, 9.2315]]], [[[79.13801, 9.23485], [79.14179, 9.23725], [79.14149, 9.23451], [79.13801, 9.23485]]], [[[79.13955, 9.21179], [79.1394, 9.21237], [79.14148, 9.21335], [79.13955, 9.21179]]], [[[79.13573, 9.25227], [79.13907, 9.25516], [79.1387, 9.25179], [79.13573, 9.25227]]], [[[79.1268, 9.21405], [79.12419, 9.21644], [79.134, 9.21514], [79.12849, 9.21294], [79.12243, 9.21456], [79.12214, 9.21656], [79.1268, 9.21405]]], [[[79.12384, 9.21345], [79.12273, 9.21403], [79.12394, 9.21364], [79.12384, 9.21345]]], [[[79.07156, 9.20363], [79.09117, 9.1956], [79.08624, 9.19056], [79.06637, 9.19944], [79.05665, 9.19691], [79.06951, 9.2096], [79.07156, 9.20363]]], [[[78.96836, 9.1859], [78.96741, 9.18775], [78.97094, 9.18524], [78.96836, 9.1859]]], [[[78.96991, 9.18273], [78.96908, 9.18368], [78.9695, 9.18394], [78.96991, 9.18273]]], [[[78.93075, 9.18144], [78.90318, 9.17838], [78.89719, 9.17956], [78.90613, 9.18511], [78.90847, 9.18149], [78.92511, 9.18477], [78.93278, 9.1823], [78.94335, 9.1873], [78.93701, 9.18226], [78.93075, 9.18144]]], [[[78.91036, 9.18612], [78.90993, 9.18649], [78.91022, 9.18666], [78.91036, 9.18612]]], [[[78.8241, 9.16632], [78.82683, 9.16968], [78.8285, 9.17374], [78.82795, 9.16849], [78.8241, 9.16632]]], [[[78.82486, 9.16007], [78.82655, 9.15905], [78.82453, 9.15942], [78.82486, 9.16007]]], [[[78.82361, 9.16623], [78.81666, 9.16012], [78.81945, 9.16569], [78.82361, 9.16623]]], [[[78.82181, 9.15979], [78.8189, 9.16047], [78.82233, 9.16028], [78.82181, 9.15979]]], [[[78.81492, 9.16074], [78.81544, 9.15985], [78.81468, 9.16041], [78.81492, 9.16074]]], [[[78.75364, 9.15319], [78.75381, 9.1542], [78.75493, 9.15418], [78.75364, 9.15319]]], [[[78.75251, 9.15614], [78.75085, 9.15662], [78.75179, 9.15726], [78.75251, 9.15614]]], [[[78.73113, 9.15237], [78.72822, 9.15389], [78.73145, 9.15588], [78.73113, 9.15237]]], [[[78.70398, 9.18412], [78.70311, 9.18542], [78.70417, 9.18414], [78.70398, 9.18412]]], [[[78.69816, 9.15801], [78.69831, 9.15879], [78.69884, 9.15854], [78.69816, 9.15801]]], [[[78.69368, 9.15268], [78.69691, 9.1528], [78.69452, 9.15061], [78.69368, 9.15268]]], [[[78.57929, 9.11289], [78.58837, 9.10708], [78.58113, 9.10056], [78.57063, 9.10146], [78.57929, 9.11289]]], [[[78.53595, 9.10383], [78.53935, 9.10585], [78.53493, 9.10237], [78.53595, 9.10383]]], [[[78.49223, 9.08556], [78.49021, 9.09432], [78.49661, 9.08969], [78.49223, 9.08556]]], [[[78.27254, 8.94109], [78.27227, 8.94159], [78.27256, 8.94161], [78.27254, 8.94109]]], [[[78.26685, 8.93733], [78.27099, 8.94168], [78.26914, 8.93676], [78.26685, 8.93733]]], [[[78.25496, 8.95574], [78.25185, 8.94892], [78.25089, 8.95603], [78.25496, 8.95574]]], [[[78.25057, 8.951], [78.25014, 8.9515], [78.25067, 8.95133], [78.25057, 8.951]]], [[[78.22605, 8.87269], [78.22514, 8.86666], [78.22077, 8.87294], [78.22605, 8.87269]]], [[[78.22348, 8.88409], [78.22138, 8.87991], [78.21852, 8.87991], [78.21775, 8.88513], [78.22348, 8.88409]]], [[[78.2081, 8.84013], [78.21172, 8.83882], [78.21394, 8.835], [78.21165, 8.83435], [78.2081, 8.84013]]], [[[78.2039, 8.83729], [78.20925, 8.83387], [78.20467, 8.83206], [78.2039, 8.83729]]], [[[78.16575, 8.79792], [78.16498, 8.79801], [78.16549, 8.79829], [78.16575, 8.79792]]], [[[77.32503, 8.12312], [77.32461, 8.12361], [77.3251, 8.12362], [77.32503, 8.12312]]], [[[77.32339, 8.12613], [77.32471, 8.12572], [77.32349, 8.1253], [77.32339, 8.12613]]], [[[77.32249, 8.12255], [77.32256, 8.12203], [77.32241, 8.12205], [77.32249, 8.12255]]], [[[77.31713, 8.12164], [77.31745, 8.12168], [77.31731, 8.12147], [77.31713, 8.12164]]], [[[77.31088, 8.12585], [77.31078, 8.12499], [77.31022, 8.1259], [77.31088, 8.12585]]], [[[77.30525, 8.1292], [77.30975, 8.12695], [77.30979, 8.12585], [77.30792, 8.12616], [77.30525, 8.1292]]], [[[77.30165, 8.14014], [77.30149, 8.14063], [77.30185, 8.14028], [77.30165, 8.14014]]], [[[77.30152, 8.14139], [77.30174, 8.14123], [77.3016, 8.14117], [77.30152, 8.14139]]], [[[77.30157, 8.14101], [77.30164, 8.14075], [77.30146, 8.14084], [77.30157, 8.14101]]], [[[77.30122, 8.14135], [77.30124, 8.14196], [77.30147, 8.14154], [77.30122, 8.14135]]], [[[77.30113, 8.14061], [77.3009, 8.14114], [77.30132, 8.14108], [77.30113, 8.14061]]], [[[77.25095, 8.16794], [77.25071, 8.16878], [77.25122, 8.16846], [77.25095, 8.16794]]], [[[77.24509, 8.16972], [77.24455, 8.17168], [77.2463, 8.17216], [77.24509, 8.16972]]], [[[77.24466, 8.17436], [77.24439, 8.17372], [77.24413, 8.17421], [77.24466, 8.17436]]], [[[77.23858, 8.17668], [77.2389, 8.1738], [77.23559, 8.17561], [77.23858, 8.17668]]], [[[77.22683, 8.18808], [77.22729, 8.18727], [77.2269, 8.18712], [77.22683, 8.18808]]]]}}]}