{"nvdm":"1.0","dataset":"atlas/water-bodies","scope":{"kind":"district","id":"mh-ahilyanagar"},"provenance":{"sources":[{"id":"water-bodies-census-mh","title":"First Census of Water Bodies, Maharashtra state return (data.gov.in resource e1874d07)","publisher":"Department of Water Resources, River Development and Ganga Rejuvenation, Ministry of Jal Shakti, via the Open Government Data Platform","license":"Government Open Data License - India","role":"asserts","url":"https://data.gov.in/resource/state-wise-data-first-census-water-bodies-maharashtra","as_of":"2026-02-10","retrieved":"2026-09-02"}],"method":"api","produced_at":"2026-09-02","produced_by":"scripts/atlas-water-bodies-census-district.ts","internal_inputs":["public/data/atlas/mh/ahilyanagar/directory.json"],"note":"First Census of Water Bodies rows for Kopargaon taluka: 185 water bodies assigned to 57 Gram Panchayats through the LGD coverage register (the census locates each in a Census 2011 village; a village under exactly one Panchayat is assigned), rolled up per Panchayat (count, named count, type and ownership classes, a digest of the sorted names) with the enumerators' coordinates served as MultiPoint geometry under the Government Open Data License. 34 rows of the taluka are counted and not assigned (ext.atlas.unassigned: a village listed under two Panchayats, under none, a Census village with no LGD row, a town). Waterspread is withheld: The Ahmadnagar return shows the template pattern in a 1,200-row sample: 20 distinct whole-number waterspread values with 0 on a majority of rows and depth NA on half, an enumerator's default rather than a measurement, so the waterspread is not published. Counts, types, ownership and recorded coordinates are served. A Panchayat absent here has no row in the return.","conventions":{"geometry":"MultiPoint of the recorded coordinates, five decimals, points outside the district's own bounding box dropped and counted in ext.atlas.pointsOutsideDistrict (a district total)","join":"unique_id part 5 is the Census 2011 village code; the directory's LGD coverage register names the Panchayat; shared, uncovered and unknown villages and urban rows are counted in ext.atlas.unassigned, never pooled","holder":"byDepartment carries the census ownership class (the register's holder axis); byType the census water-body class","vintage":"reference years 2017-18 to 2020-21, published 2023; the portal's resource stamp is the edition watched"}},"ext":{"atlas":{"schemaVersion":1,"planId":"mh-ahilyanagar-v1","blockCode":"4203","blockName":"Kopargaon","register":"water-bodies-census","districtLgdCode":"466","acquiredAt":"2026-09-02","layer":"First Census of Water Bodies, Maharashtra return (data.gov.in resource e1874d07-a1db-4678-80c1-b64a2924b517)","sourceUrl":"https://api.data.gov.in/resource/e1874d07-a1db-4678-80c1-b64a2924b517?format=json&limit=all&filters[district_name]=AHMADNAGAR","rights":{"status":"open","termsUrl":"https://data.gov.in/resource/state-wise-data-first-census-water-bodies-maharashtra","termsQuote":"Government Open Data License - India","approval":null},"contributingDepartments":["Co-operative","Group of Individuals","Individual","Muncipal authority","Other Govt.Agency","Other private body","Panchayat","State WRD/State Irrigation"],"snapshotSha256":"0b2c46516c81afa04140a770b91348e5b666f0d7ffdadd16d78277a15a1e250e","featureCount":185,"recordCount":57,"recordsSha256":"3bc7b866fb34259fb67d44998fccb8eb1b5c03f97910daca7f70bc188a1c690b","unassigned":{"sharedVillage":8,"uncoveredVillage":21,"censusVillageWithoutLgdRow":5,"unknownVillage":0,"urban":0},"unassignedDistrict":{"sharedVillage":33,"uncoveredVillage":666,"censusVillageWithoutLgdRow":10,"unknownVillage":9,"urban":66},"attributes":{"waterspread":"withheld","note":"The Ahmadnagar return shows the template pattern in a 1,200-row sample: 20 distinct whole-number waterspread values with 0 on a majority of rows and depth NA on half, an enumerator's default rather than a measurement, so the waterspread is not published. Counts, types, ownership and recorded coordinates are served."},"pointsOutsideDistrict":0}},"type":"FeatureCollection","features":[{"type":"Feature","geometry":{"type":"MultiPoint","coordinates":[[74.50472,19.98028],[74.50833,19.95639],[74.515,19.96083]]},"properties":{"lgdGramPanchayatCode":"167852","count":3,"namedCount":2,"areaHectares":0,"largestAreaHectares":0,"byDepartment":[{"department":"Panchayat","count":3}],"namesSha256":"76f0e8e6fb235da83ca072fc4f1bee82a94570bc74a03f30ed910f89ab949aff","register":"water-bodies-census","lgdBlockCode":"4203","byType":[{"type":"Water consv schemes/percolation tanks/check-dams","count":2},{"type":"Tank","count":1}],"areaBasis":"withheld","pointCount":3}},{"type":"Feature","geometry":{"type":"MultiPoint","coordinates":[[74.33167,19.76194],[74.33278,19.76528],[74.33389,19.76306],[74.33417,19.77222],[74.33639,19.76639]]},"properties":{"lgdGramPanchayatCode":"167853","count":5,"namedCount":5,"areaHectares":0,"largestAreaHectares":0,"byDepartment":[{"department":"Panchayat","count":5}],"namesSha256":"60c05096dc6aaec66e1ced128d4653cd898f5a488457ac6245dfec6b09c4b300","register":"water-bodies-census","lgdBlockCode":"4203","byType":[{"type":"Water consv schemes/percolation tanks/check-dams","count":5}],"areaBasis":"withheld","pointCount":5}},{"type":"Feature","geometry":{"type":"MultiPoint","coordinates":[[74.60306,19.92361],[74.60361,19.9225],[74.60556,19.93417],[74.62472,19.92972],[74.62778,19.93333]]},"properties":{"lgdGramPanchayatCode":"167854","count":5,"namedCount":4,"areaHectares":0,"largestAreaHectares":0,"byDepartment":[{"department":"Panchayat","count":5}],"namesSha256":"25ca90c0528789674365924b8210feeeb328eb7233acc79b44b35b8cb6a96325","register":"water-bodies-census","lgdBlockCode":"4203","byType":[{"type":"Water consv schemes/percolation tanks/check-dams","count":5}],"areaBasis":"withheld","pointCount":5}},{"type":"Feature","geometry":{"type":"MultiPoint","coordinates":[[74.36611,19.78889],[74.38361,19.76944],[74.38639,19.77333],[74.38778,19.77667],[74.39028,19.77889],[74.39417,19.78222],[74.39778,19.78667]]},"properties":{"lgdGramPanchayatCode":"167855","count":7,"namedCount":7,"areaHectares":0,"largestAreaHectares":0,"byDepartment":[{"department":"Panchayat","count":7}],"namesSha256":"78039997d153f8314ee07c4fc0484abf9c1fe9042c30f778ab2f4b7a033ab08b","register":"water-bodies-census","lgdBlockCode":"4203","byType":[{"type":"Water consv schemes/percolation tanks/check-dams","count":7}],"areaBasis":"withheld","pointCount":7}},{"type":"Feature","geometry":{"type":"MultiPoint","coordinates":[[74.33139,19.78833],[74.3325,19.78],[74.33417,19.77222],[74.3375,19.78639],[74.34083,19.7925],[74.34083,19.7925],[74.34167,19.77972],[74.34417,19.79111],[74.34444,19.79139],[74.34889,19.795]]},"properties":{"lgdGramPanchayatCode":"167856","count":10,"namedCount":10,"areaHectares":0,"largestAreaHectares":0,"byDepartment":[{"department":"Panchayat","count":9},{"department":"State WRD/State Irrigation","count":1}],"namesSha256":"9b38ef443fa260cf7be18e226f1168e19f109b632af91867a5dce796f8e13a87","register":"water-bodies-census","lgdBlockCode":"4203","byType":[{"type":"Water consv schemes/percolation tanks/check-dams","count":10}],"areaBasis":"withheld","pointCount":10}},{"type":"Feature","geometry":{"type":"MultiPoint","coordinates":[[74.22417,19.95083],[74.25944,19.93083],[74.27389,19.9475],[74.28833,19.94028]]},"properties":{"lgdGramPanchayatCode":"167857","count":4,"namedCount":4,"areaHectares":0,"largestAreaHectares":0,"byDepartment":[{"department":"Panchayat","count":4}],"namesSha256":"3ad7ef0a0c393540f487d2b2f140028cd5fb0c55531baf51ef243cf1668ac26e","register":"water-bodies-census","lgdBlockCode":"4203","byType":[{"type":"Water consv schemes/percolation tanks/check-dams","count":4}],"areaBasis":"withheld","pointCount":4}},{"type":"Feature","geometry":{"type":"MultiPoint","coordinates":[[74.59333,19.865],[74.59722,19.86806]]},"properties":{"lgdGramPanchayatCode":"167858","count":2,"namedCount":2,"areaHectares":0,"largestAreaHectares":0,"byDepartment":[{"department":"Panchayat","count":2}],"namesSha256":"07fb8eb2b46f99d07fb7f78e4cca52a4e65d02b2aadc183f785c933935d2d92f","register":"water-bodies-census","lgdBlockCode":"4203","byType":[{"type":"Water consv schemes/percolation tanks/check-dams","count":2}],"areaBasis":"withheld","pointCount":2}},{"type":"Feature","geometry":{"type":"MultiPoint","coordinates":[[74.50972,19.93889],[74.51111,19.92222],[74.51306,19.93]]},"properties":{"lgdGramPanchayatCode":"167859","count":3,"namedCount":3,"areaHectares":0,"largestAreaHectares":0,"byDepartment":[{"department":"Panchayat","count":3}],"namesSha256":"8b9b7c772f616704a65ea5582d5c21a377211ea0b02dee69237fe8e8faf8ce8c","register":"water-bodies-census","lgdBlockCode":"4203","byType":[{"type":"Water consv schemes/percolation tanks/check-dams","count":3}],"areaBasis":"withheld","pointCount":3}},{"type":"Feature","geometry":{"type":"MultiPoint","coordinates":[[74.47139,19.85861]]},"properties":{"lgdGramPanchayatCode":"167865","count":1,"namedCount":1,"areaHectares":0,"largestAreaHectares":0,"byDepartment":[{"department":"Panchayat","count":1}],"namesSha256":"0757bb2bb09997506710b529b7f5b81e45c027811c14fd8953e9e2f51abb4f4f","register":"water-bodies-census","lgdBlockCode":"4203","byType":[{"type":"Water consv schemes/percolation tanks/check-dams","count":1}],"areaBasis":"withheld","pointCount":1}},{"type":"Feature","geometry":{"type":"MultiPoint","coordinates":[[74.45028,19.83917],[74.45056,19.84361]]},"properties":{"lgdGramPanchayatCode":"167866","count":2,"namedCount":2,"areaHectares":0,"largestAreaHectares":0,"byDepartment":[{"department":"Panchayat","count":2}],"namesSha256":"3317f6d55f5500d2b5058957b04b9d61cb31069a5a92f60e0ab3a3683b785f92","register":"water-bodies-census","lgdBlockCode":"4203","byType":[{"type":"Water consv schemes/percolation tanks/check-dams","count":2}],"areaBasis":"withheld","pointCount":2}},{"type":"Feature","geometry":{"type":"MultiPoint","coordinates":[[74.39722,19.84278]]},"properties":{"lgdGramPanchayatCode":"167867","count":1,"namedCount":1,"areaHectares":0,"largestAreaHectares":0,"byDepartment":[{"department":"Panchayat","count":1}],"namesSha256":"c7e9e21cb73c15b31c3c86f08bdd76a5ffb3b806274bda3076c73f29fb1cbfed","register":"water-bodies-census","lgdBlockCode":"4203","byType":[{"type":"Water consv schemes/percolation tanks/check-dams","count":1}],"areaBasis":"withheld","pointCount":1}},{"type":"Feature","geometry":{"type":"MultiPoint","coordinates":[[74.38667,19.83556],[74.39111,19.84389],[74.39222,19.82],[74.39222,19.85028],[74.40139,19.84667]]},"properties":{"lgdGramPanchayatCode":"167868","count":5,"namedCount":5,"areaHectares":0,"largestAreaHectares":0,"byDepartment":[{"department":"Panchayat","count":5}],"namesSha256":"64ffb0a650cb2144e05e43008a49f992d0ece2c64f1cc963df26500287ecceb0","register":"water-bodies-census","lgdBlockCode":"4203","byType":[{"type":"Water consv schemes/percolation tanks/check-dams","count":5}],"areaBasis":"withheld","pointCount":5}},{"type":"Feature","geometry":{"type":"MultiPoint","coordinates":[[74.29444,19.95028],[74.31556,19.97028]]},"properties":{"lgdGramPanchayatCode":"167869","count":2,"namedCount":2,"areaHectares":0,"largestAreaHectares":0,"byDepartment":[{"department":"Panchayat","count":2}],"namesSha256":"84fc4d683626e3659525c77b11c7e3b171549fd4d3bf8cfeb4d3da2714842c40","register":"water-bodies-census","lgdBlockCode":"4203","byType":[{"type":"Water consv schemes/percolation tanks/check-dams","count":2}],"areaBasis":"withheld","pointCount":2}},{"type":"Feature","geometry":{"type":"MultiPoint","coordinates":[[74.39222,19.90944]]},"properties":{"lgdGramPanchayatCode":"167870","count":1,"namedCount":1,"areaHectares":0,"largestAreaHectares":0,"byDepartment":[{"department":"Panchayat","count":1}],"namesSha256":"a7ec31baecbe436180ab6b3546b619498c7c66a514f17e28624ebb823240e63c","register":"water-bodies-census","lgdBlockCode":"4203","byType":[{"type":"Water consv schemes/percolation tanks/check-dams","count":1}],"areaBasis":"withheld","pointCount":1}},{"type":"Feature","geometry":{"type":"MultiPoint","coordinates":[[74.35556,19.75778],[74.35778,19.77194],[74.36139,19.775]]},"properties":{"lgdGramPanchayatCode":"167871","count":3,"namedCount":3,"areaHectares":0,"largestAreaHectares":0,"byDepartment":[{"department":"Panchayat","count":3}],"namesSha256":"0512dd13c238707eb45849503d5a7b1ee2c704cf938c5b72ddff443a901e19e4","register":"water-bodies-census","lgdBlockCode":"4203","byType":[{"type":"Water consv schemes/percolation tanks/check-dams","count":3}],"areaBasis":"withheld","pointCount":3}},{"type":"Feature","geometry":{"type":"MultiPoint","coordinates":[[74.62778,19.87889]]},"properties":{"lgdGramPanchayatCode":"167872","count":1,"namedCount":1,"areaHectares":0,"largestAreaHectares":0,"byDepartment":[{"department":"Panchayat","count":1}],"namesSha256":"2fba96baeecd21e09b6fcfb50a44d386fd0105f645683c55d2c6d49456113ec1","register":"water-bodies-census","lgdBlockCode":"4203","byType":[{"type":"Water consv schemes/percolation tanks/check-dams","count":1}],"areaBasis":"withheld","pointCount":1}},{"type":"Feature","geometry":{"type":"MultiPoint","coordinates":[[74.42639,19.84306]]},"properties":{"lgdGramPanchayatCode":"167873","count":1,"namedCount":1,"areaHectares":0,"largestAreaHectares":0,"byDepartment":[{"department":"Panchayat","count":1}],"namesSha256":"1ad7f3a7810e49662225d3959cee0b647de578068b28b8b252935002ad6109c4","register":"water-bodies-census","lgdBlockCode":"4203","byType":[{"type":"Water consv schemes/percolation tanks/check-dams","count":1}],"areaBasis":"withheld","pointCount":1}},{"type":"Feature","geometry":{"type":"MultiPoint","coordinates":[[74.59167,19.89167]]},"properties":{"lgdGramPanchayatCode":"167874","count":1,"namedCount":1,"areaHectares":0,"largestAreaHectares":0,"byDepartment":[{"department":"Panchayat","count":1}],"namesSha256":"c37975103d76411bf39a03c98ccf8436a277c968e5ebb13dbb056a4ec60e919d","register":"water-bodies-census","lgdBlockCode":"4203","byType":[{"type":"Water consv schemes/percolation tanks/check-dams","count":1}],"areaBasis":"withheld","pointCount":1}},{"type":"Feature","geometry":{"type":"MultiPoint","coordinates":[[74.61,19.90667]]},"properties":{"lgdGramPanchayatCode":"167875","count":1,"namedCount":1,"areaHectares":0,"largestAreaHectares":0,"byDepartment":[{"department":"Panchayat","count":1}],"namesSha256":"741697ace3043a7c61d55f80a3593eddba8ec135feaeac2f74bcc34c9675fb57","register":"water-bodies-census","lgdBlockCode":"4203","byType":[{"type":"Water consv schemes/percolation tanks/check-dams","count":1}],"areaBasis":"withheld","pointCount":1}},{"type":"Feature","geometry":{"type":"MultiPoint","coordinates":[[74.43083,19.88417]]},"properties":{"lgdGramPanchayatCode":"167877","count":1,"namedCount":1,"areaHectares":0,"largestAreaHectares":0,"byDepartment":[{"department":"Panchayat","count":1}],"namesSha256":"0ca4a85ded4675ca00850ad11f06db1dd66c701b3fc0f2be99198ab7682cfc24","register":"water-bodies-census","lgdBlockCode":"4203","byType":[{"type":"Water consv schemes/percolation tanks/check-dams","count":1}],"areaBasis":"withheld","pointCount":1}},{"type":"Feature","geometry":{"type":"MultiPoint","coordinates":[[74.34778,19.80278],[74.35667,19.77611],[74.35917,19.76833],[74.36111,19.77722]]},"properties":{"lgdGramPanchayatCode":"167878","count":4,"namedCount":4,"areaHectares":0,"largestAreaHectares":0,"byDepartment":[{"department":"Panchayat","count":4}],"namesSha256":"ed4df9f3e0eae2d0b56805f327916035fbdd57673672938f8347e9280cf31650","register":"water-bodies-census","lgdBlockCode":"4203","byType":[{"type":"Water consv schemes/percolation tanks/check-dams","count":4}],"areaBasis":"withheld","pointCount":4}},{"type":"Feature","geometry":{"type":"MultiPoint","coordinates":[[74.555,19.84583],[74.55861,19.83806],[74.55944,19.855]]},"properties":{"lgdGramPanchayatCode":"167882","count":3,"namedCount":3,"areaHectares":0,"largestAreaHectares":0,"byDepartment":[{"department":"Panchayat","count":3}],"namesSha256":"0055d8026adfd5e6a09e439a3f7809c58f5718d01b33a907cab963bdb6ab937c","register":"water-bodies-census","lgdBlockCode":"4203","byType":[{"type":"Water consv schemes/percolation tanks/check-dams","count":3}],"areaBasis":"withheld","pointCount":3}},{"type":"Feature","geometry":{"type":"MultiPoint","coordinates":[[74.51722,19.9225],[74.52083,19.94389],[74.52167,19.93417],[74.52583,19.94444],[74.52611,19.94444],[74.52972,19.92611],[74.54611,19.96139]]},"properties":{"lgdGramPanchayatCode":"167883","count":7,"namedCount":7,"areaHectares":0,"largestAreaHectares":0,"byDepartment":[{"department":"Panchayat","count":7}],"namesSha256":"13493fe9c031034d7275ea030f5bbb73ffda1b9509f33594c8696c4f77e34648","register":"water-bodies-census","lgdBlockCode":"4203","byType":[{"type":"Water consv schemes/percolation tanks/check-dams","count":7}],"areaBasis":"withheld","pointCount":7}},{"type":"Feature","geometry":{"type":"MultiPoint","coordinates":[[74.29722,19.91944],[74.32028,19.87444]]},"properties":{"lgdGramPanchayatCode":"167884","count":2,"namedCount":2,"areaHectares":0,"largestAreaHectares":0,"byDepartment":[{"department":"Panchayat","count":2}],"namesSha256":"e24491f5801904e6015d95a2e80daef64523ec2b5523b1d35d0a5e7d1358a5f0","register":"water-bodies-census","lgdBlockCode":"4203","byType":[{"type":"Water consv schemes/percolation tanks/check-dams","count":2}],"areaBasis":"withheld","pointCount":2}},{"type":"Feature","geometry":{"type":"MultiPoint","coordinates":[[74.57167,19.945],[74.57889,19.92139]]},"properties":{"lgdGramPanchayatCode":"167885","count":2,"namedCount":2,"areaHectares":0,"largestAreaHectares":0,"byDepartment":[{"department":"Panchayat","count":2}],"namesSha256":"e55cea1a8d1cf79d89fd38fa2d8f1b9ca38ab8b8522c80fcaa6e145e5f4d560c","register":"water-bodies-census","lgdBlockCode":"4203","byType":[{"type":"Water consv schemes/percolation tanks/check-dams","count":2}],"areaBasis":"withheld","pointCount":2}},{"type":"Feature","geometry":{"type":"MultiPoint","coordinates":[[74.48972,19.9475],[74.49194,19.91778],[74.49278,19.94611],[74.49417,19.93389]]},"properties":{"lgdGramPanchayatCode":"167886","count":4,"namedCount":4,"areaHectares":0,"largestAreaHectares":0,"byDepartment":[{"department":"Panchayat","count":3},{"department":"Muncipal authority","count":1}],"namesSha256":"12410ea29cab78a13df83ad9236f8f6f47db54bef3fca1bf7398601f48d07c65","register":"water-bodies-census","lgdBlockCode":"4203","byType":[{"type":"Water consv schemes/percolation tanks/check-dams","count":4}],"areaBasis":"withheld","pointCount":4}},{"type":"Feature","geometry":{"type":"MultiPoint","coordinates":[[74.64694,19.85333]]},"properties":{"lgdGramPanchayatCode":"167887","count":1,"namedCount":1,"areaHectares":0,"largestAreaHectares":0,"byDepartment":[{"department":"Panchayat","count":1}],"namesSha256":"50fc56420b2c3c07c26deb7280d16de99dbab52d0158e01a6f94010fe31ee6a0","register":"water-bodies-census","lgdBlockCode":"4203","byType":[{"type":"Water consv schemes/percolation tanks/check-dams","count":1}],"areaBasis":"withheld","pointCount":1}},{"type":"Feature","geometry":{"type":"MultiPoint","coordinates":[[74.48806,19.81611],[74.50056,19.82722]]},"properties":{"lgdGramPanchayatCode":"167888","count":2,"namedCount":2,"areaHectares":0,"largestAreaHectares":0,"byDepartment":[{"department":"Panchayat","count":2}],"namesSha256":"13d8d2016437d464bad6c66f34d550e1089a172041888d8ad4a339d922556714","register":"water-bodies-census","lgdBlockCode":"4203","byType":[{"type":"Water consv schemes/percolation tanks/check-dams","count":2}],"areaBasis":"withheld","pointCount":2}},{"type":"Feature","geometry":{"type":"MultiPoint","coordinates":[[74.35944,19.88667]]},"properties":{"lgdGramPanchayatCode":"167890","count":1,"namedCount":1,"areaHectares":0,"largestAreaHectares":0,"byDepartment":[{"department":"Panchayat","count":1}],"namesSha256":"d102c623c8ae4d67f625e25ea5d6ed0bedc91cb7a9c6bc4acec76997302a605a","register":"water-bodies-census","lgdBlockCode":"4203","byType":[{"type":"Water consv schemes/percolation tanks/check-dams","count":1}],"areaBasis":"withheld","pointCount":1}},{"type":"Feature","geometry":{"type":"MultiPoint","coordinates":[[74.40083,19.8725]]},"properties":{"lgdGramPanchayatCode":"167891","count":1,"namedCount":0,"areaHectares":0,"largestAreaHectares":0,"byDepartment":[{"department":"Panchayat","count":1}],"namesSha256":"4f53cda18c2baa0c0354bb5f9a3ecbe5ed12ab4d8e11ba873c2f11161202b945","register":"water-bodies-census","lgdBlockCode":"4203","byType":[{"type":"Others","count":1}],"areaBasis":"withheld","pointCount":1}},{"type":"Feature","geometry":{"type":"MultiPoint","coordinates":[[74.36778,19.84944],[74.37472,19.8475],[74.38194,19.84806]]},"properties":{"lgdGramPanchayatCode":"167893","count":3,"namedCount":0,"areaHectares":0,"largestAreaHectares":0,"byDepartment":[{"department":"Panchayat","count":3}],"namesSha256":"4f53cda18c2baa0c0354bb5f9a3ecbe5ed12ab4d8e11ba873c2f11161202b945","register":"water-bodies-census","lgdBlockCode":"4203","byType":[{"type":"Others","count":2},{"type":"Water consv schemes/percolation tanks/check-dams","count":1}],"areaBasis":"withheld","pointCount":3}},{"type":"Feature","geometry":{"type":"MultiPoint","coordinates":[[74.38056,19.89028],[74.38194,19.89],[74.39028,19.88222]]},"properties":{"lgdGramPanchayatCode":"167895","count":3,"namedCount":0,"areaHectares":0,"largestAreaHectares":0,"byDepartment":[{"department":"Panchayat","count":3}],"namesSha256":"4f53cda18c2baa0c0354bb5f9a3ecbe5ed12ab4d8e11ba873c2f11161202b945","register":"water-bodies-census","lgdBlockCode":"4203","byType":[{"type":"Water consv schemes/percolation tanks/check-dams","count":2},{"type":"Others","count":1}],"areaBasis":"withheld","pointCount":3}},{"type":"Feature","geometry":{"type":"MultiPoint","coordinates":[[74.3925,19.93278]]},"properties":{"lgdGramPanchayatCode":"167896","count":1,"namedCount":0,"areaHectares":0,"largestAreaHectares":0,"byDepartment":[{"department":"Panchayat","count":1}],"namesSha256":"4f53cda18c2baa0c0354bb5f9a3ecbe5ed12ab4d8e11ba873c2f11161202b945","register":"water-bodies-census","lgdBlockCode":"4203","byType":[{"type":"Others","count":1}],"areaBasis":"withheld","pointCount":1}},{"type":"Feature","geometry":{"type":"MultiPoint","coordinates":[[74.35306,19.72167]]},"properties":{"lgdGramPanchayatCode":"167897","count":1,"namedCount":0,"areaHectares":0,"largestAreaHectares":0,"byDepartment":[{"department":"Panchayat","count":1}],"namesSha256":"4f53cda18c2baa0c0354bb5f9a3ecbe5ed12ab4d8e11ba873c2f11161202b945","register":"water-bodies-census","lgdBlockCode":"4203","byType":[{"type":"Water consv schemes/percolation tanks/check-dams","count":1}],"areaBasis":"withheld","pointCount":1}},{"type":"Feature","geometry":{"type":"MultiPoint","coordinates":[[74.3125,19.92056]]},"properties":{"lgdGramPanchayatCode":"167898","count":1,"namedCount":0,"areaHectares":0,"largestAreaHectares":0,"byDepartment":[{"department":"Panchayat","count":1}],"namesSha256":"4f53cda18c2baa0c0354bb5f9a3ecbe5ed12ab4d8e11ba873c2f11161202b945","register":"water-bodies-census","lgdBlockCode":"4203","byType":[{"type":"Others","count":1}],"areaBasis":"withheld","pointCount":1}},{"type":"Feature","geometry":{"type":"MultiPoint","coordinates":[[74.44083,19.88944]]},"properties":{"lgdGramPanchayatCode":"167901","count":1,"namedCount":0,"areaHectares":0,"largestAreaHectares":0,"byDepartment":[{"department":"Panchayat","count":1}],"namesSha256":"4f53cda18c2baa0c0354bb5f9a3ecbe5ed12ab4d8e11ba873c2f11161202b945","register":"water-bodies-census","lgdBlockCode":"4203","byType":[{"type":"Others","count":1}],"areaBasis":"withheld","pointCount":1}},{"type":"Feature","geometry":{"type":"MultiPoint","coordinates":[[74.4775,20.03194],[74.48,19.98556],[74.48222,19.9875]]},"properties":{"lgdGramPanchayatCode":"167902","count":3,"namedCount":0,"areaHectares":0,"largestAreaHectares":0,"byDepartment":[{"department":"Panchayat","count":3}],"namesSha256":"4f53cda18c2baa0c0354bb5f9a3ecbe5ed12ab4d8e11ba873c2f11161202b945","register":"water-bodies-census","lgdBlockCode":"4203","byType":[{"type":"Others","count":3}],"areaBasis":"withheld","pointCount":3}},{"type":"Feature","geometry":{"type":"MultiPoint","coordinates":[[74.5225,19.87556]]},"properties":{"lgdGramPanchayatCode":"167903","count":1,"namedCount":0,"areaHectares":0,"largestAreaHectares":0,"byDepartment":[{"department":"Panchayat","count":1}],"namesSha256":"4f53cda18c2baa0c0354bb5f9a3ecbe5ed12ab4d8e11ba873c2f11161202b945","register":"water-bodies-census","lgdBlockCode":"4203","byType":[{"type":"Tank","count":1}],"areaBasis":"withheld","pointCount":1}},{"type":"Feature","geometry":{"type":"MultiPoint","coordinates":[[74.49111,19.89528],[74.55194,19.9225],[74.55722,19.93917]]},"properties":{"lgdGramPanchayatCode":"167904","count":3,"namedCount":0,"areaHectares":0,"largestAreaHectares":0,"byDepartment":[{"department":"Panchayat","count":3}],"namesSha256":"4f53cda18c2baa0c0354bb5f9a3ecbe5ed12ab4d8e11ba873c2f11161202b945","register":"water-bodies-census","lgdBlockCode":"4203","byType":[{"type":"Water consv schemes/percolation tanks/check-dams","count":2},{"type":"Tank","count":1}],"areaBasis":"withheld","pointCount":3}},{"type":"Feature","geometry":{"type":"MultiPoint","coordinates":[[74.39111,19.80806],[74.39667,19.81639],[74.39667,19.81639],[74.39917,19.80889],[74.40083,19.79194],[74.40278,19.83361]]},"properties":{"lgdGramPanchayatCode":"167905","count":6,"namedCount":2,"areaHectares":0,"largestAreaHectares":0,"byDepartment":[{"department":"Panchayat","count":6}],"namesSha256":"f7445089329c91523cde55993a1a9dd73a58fe1ab329d57a347dfe814b2139b9","register":"water-bodies-census","lgdBlockCode":"4203","byType":[{"type":"Water consv schemes/percolation tanks/check-dams","count":5},{"type":"Others","count":1}],"areaBasis":"withheld","pointCount":6}},{"type":"Feature","geometry":{"type":"MultiPoint","coordinates":[[74.31778,19.73556],[74.33722,19.73778],[74.36028,19.73417],[74.39833,19.81056]]},"properties":{"lgdGramPanchayatCode":"167906","count":4,"namedCount":4,"areaHectares":0,"largestAreaHectares":0,"byDepartment":[{"department":"Panchayat","count":4}],"namesSha256":"3e7e12fba4d70fb6f87dd8be8b2e4bc1a5bd750200be8f62ba1ef5a49e8a62e4","register":"water-bodies-census","lgdBlockCode":"4203","byType":[{"type":"Water consv schemes/percolation tanks/check-dams","count":4}],"areaBasis":"withheld","pointCount":4}},{"type":"Feature","geometry":{"type":"MultiPoint","coordinates":[[74.37639,19.97111],[74.37778,19.97278],[74.37778,19.97444],[74.40889,19.95444],[74.40944,19.96389],[74.41111,19.96639]]},"properties":{"lgdGramPanchayatCode":"167907","count":6,"namedCount":6,"areaHectares":0,"largestAreaHectares":0,"byDepartment":[{"department":"Panchayat","count":6}],"namesSha256":"42d6f0218952d5da254814002e820b730c15fe5da22a3cb0b75e1ffe6c2b91de","register":"water-bodies-census","lgdBlockCode":"4203","byType":[{"type":"Water consv schemes/percolation tanks/check-dams","count":6}],"areaBasis":"withheld","pointCount":6}},{"type":"Feature","geometry":{"type":"MultiPoint","coordinates":[[74.5225,19.96194],[74.54278,19.83639]]},"properties":{"lgdGramPanchayatCode":"167908","count":2,"namedCount":2,"areaHectares":0,"largestAreaHectares":0,"byDepartment":[{"department":"Panchayat","count":2}],"namesSha256":"c49935e112317e1eb0f49bec4f25c4bd0f34ccde8936bb0887ed670afb0234a0","register":"water-bodies-census","lgdBlockCode":"4203","byType":[{"type":"Water consv schemes/percolation tanks/check-dams","count":2}],"areaBasis":"withheld","pointCount":2}},{"type":"Feature","geometry":{"type":"MultiPoint","coordinates":[[74.50167,19.89583],[74.52139,19.89861],[74.52194,19.9075],[74.52194,19.9075],[74.52278,19.87611],[74.52278,19.87611],[74.52528,19.89361],[74.53,19.87694],[74.53,19.87694],[74.53,19.87694],[74.53278,19.90667],[74.53639,19.87889]]},"properties":{"lgdGramPanchayatCode":"167910","count":12,"namedCount":12,"areaHectares":0,"largestAreaHectares":0,"byDepartment":[{"department":"Panchayat","count":12}],"namesSha256":"4dbc1cc0850834e90523821738148894dd62e9c3a83f598ddf97e26d984c88af","register":"water-bodies-census","lgdBlockCode":"4203","byType":[{"type":"Water consv schemes/percolation tanks/check-dams","count":12}],"areaBasis":"withheld","pointCount":12}},{"type":"Feature","geometry":{"type":"MultiPoint","coordinates":[[74.3475,19.80278],[74.3625,19.79583]]},"properties":{"lgdGramPanchayatCode":"167912","count":2,"namedCount":2,"areaHectares":0,"largestAreaHectares":0,"byDepartment":[{"department":"Panchayat","count":2}],"namesSha256":"46cb8acd0a36cec042f26e088e0bde8267189681c8103ecd117f219bf7ddee47","register":"water-bodies-census","lgdBlockCode":"4203","byType":[{"type":"Water consv schemes/percolation tanks/check-dams","count":2}],"areaBasis":"withheld","pointCount":2}},{"type":"Feature","geometry":{"type":"MultiPoint","coordinates":[[74.48778,19.91444],[74.4925,19.94639],[74.50861,19.90556],[74.51306,19.90722],[74.51389,19.90028],[74.5175,19.90139],[74.51861,19.91056],[74.51972,19.91361]]},"properties":{"lgdGramPanchayatCode":"167913","count":8,"namedCount":8,"areaHectares":0,"largestAreaHectares":0,"byDepartment":[{"department":"Panchayat","count":8}],"namesSha256":"c29e349bcfe2ced2fcfc7d4b9c8c0e2b585371297c86573c04c1e886526d65cb","register":"water-bodies-census","lgdBlockCode":"4203","byType":[{"type":"Water consv schemes/percolation tanks/check-dams","count":8}],"areaBasis":"withheld","pointCount":8}},{"type":"Feature","geometry":{"type":"MultiPoint","coordinates":[[74.58306,19.94],[74.60944,19.93]]},"properties":{"lgdGramPanchayatCode":"167914","count":2,"namedCount":2,"areaHectares":0,"largestAreaHectares":0,"byDepartment":[{"department":"Panchayat","count":2}],"namesSha256":"a8cd387984b18394fc9065938dc060843dd9975c6f60cab6b2bdfa0020b53424","register":"water-bodies-census","lgdBlockCode":"4203","byType":[{"type":"Water consv schemes/percolation tanks/check-dams","count":2}],"areaBasis":"withheld","pointCount":2}},{"type":"Feature","geometry":{"type":"MultiPoint","coordinates":[[74.40611,19.93972],[74.40778,19.96139]]},"properties":{"lgdGramPanchayatCode":"167915","count":2,"namedCount":2,"areaHectares":0,"largestAreaHectares":0,"byDepartment":[{"department":"Panchayat","count":2}],"namesSha256":"b9f1c76c3cdbeee7ef58d40b1d489b794981c9412edb35b0636d8fe3374d6239","register":"water-bodies-census","lgdBlockCode":"4203","byType":[{"type":"Water consv schemes/percolation tanks/check-dams","count":2}],"areaBasis":"withheld","pointCount":2}},{"type":"Feature","geometry":{"type":"MultiPoint","coordinates":[[74.33139,19.91028],[74.3425,19.90778],[74.34444,19.89306],[74.34722,19.90056],[74.34944,19.90361]]},"properties":{"lgdGramPanchayatCode":"167917","count":5,"namedCount":5,"areaHectares":0,"largestAreaHectares":0,"byDepartment":[{"department":"Panchayat","count":5}],"namesSha256":"a7de9255b9f1a35430df640f4227f414ae902576512fd423284172b1c8c9191a","register":"water-bodies-census","lgdBlockCode":"4203","byType":[{"type":"Water consv schemes/percolation tanks/check-dams","count":5}],"areaBasis":"withheld","pointCount":5}},{"type":"Feature","geometry":{"type":"MultiPoint","coordinates":[[74.63472,19.88806],[74.6375,19.87944],[74.64083,19.90139],[74.64167,19.89],[74.64194,19.88972]]},"properties":{"lgdGramPanchayatCode":"167919","count":5,"namedCount":5,"areaHectares":0,"largestAreaHectares":0,"byDepartment":[{"department":"Panchayat","count":5}],"namesSha256":"725028d1dfa728212cfa9ca80d72e6ccccd3a23ee65c847e0d6ad117ed5bb689","register":"water-bodies-census","lgdBlockCode":"4203","byType":[{"type":"Water consv schemes/percolation tanks/check-dams","count":5}],"areaBasis":"withheld","pointCount":5}},{"type":"Feature","geometry":{"type":"MultiPoint","coordinates":[[74.60083,19.935],[74.60528,19.93389],[74.60722,19.96194],[74.61472,19.93417],[74.61528,19.93083],[74.61528,19.93083]]},"properties":{"lgdGramPanchayatCode":"167920","count":6,"namedCount":6,"areaHectares":0,"largestAreaHectares":0,"byDepartment":[{"department":"Panchayat","count":6}],"namesSha256":"e360b88971293d7fbe1dc67133d5d07709c550a110f1a82ce0a79d22ef286165","register":"water-bodies-census","lgdBlockCode":"4203","byType":[{"type":"Water consv schemes/percolation tanks/check-dams","count":6}],"areaBasis":"withheld","pointCount":6}},{"type":"Feature","geometry":{"type":"MultiPoint","coordinates":[[74.62778,19.93222],[74.63528,19.93556],[74.64278,19.93833],[74.65222,19.94722],[74.65556,19.9625],[74.65556,19.96306],[74.66056,19.93528],[74.66139,19.96167]]},"properties":{"lgdGramPanchayatCode":"167921","count":8,"namedCount":8,"areaHectares":0,"largestAreaHectares":0,"byDepartment":[{"department":"Panchayat","count":8}],"namesSha256":"9e10f5932d0b835834812a0aea411238b7e57ce2d2ca7e1ce7fd226a446645a4","register":"water-bodies-census","lgdBlockCode":"4203","byType":[{"type":"Water consv schemes/percolation tanks/check-dams","count":8}],"areaBasis":"withheld","pointCount":8}},{"type":"Feature","geometry":{"type":"MultiPoint","coordinates":[[74.26944,19.95861]]},"properties":{"lgdGramPanchayatCode":"167922","count":1,"namedCount":1,"areaHectares":0,"largestAreaHectares":0,"byDepartment":[{"department":"Panchayat","count":1}],"namesSha256":"0775e46f4523397411f2ff62b6cbce30a7ea58d63b5b8e765db530ac736f8697","register":"water-bodies-census","lgdBlockCode":"4203","byType":[{"type":"Water consv schemes/percolation tanks/check-dams","count":1}],"areaBasis":"withheld","pointCount":1}},{"type":"Feature","geometry":{"type":"MultiPoint","coordinates":[[74.31861,19.90028],[74.32,19.905]]},"properties":{"lgdGramPanchayatCode":"167923","count":2,"namedCount":2,"areaHectares":0,"largestAreaHectares":0,"byDepartment":[{"department":"Panchayat","count":2}],"namesSha256":"52bbf09e4c3808929891a27fc52d7a6cbcd58f13313370f814dafc52a49c6d7b","register":"water-bodies-census","lgdBlockCode":"4203","byType":[{"type":"Water consv schemes/percolation tanks/check-dams","count":2}],"areaBasis":"withheld","pointCount":2}},{"type":"Feature","geometry":{"type":"MultiPoint","coordinates":[[74.56444,19.81667],[74.57278,19.8225],[74.57444,19.82278],[74.58139,19.84278],[74.58306,19.84583],[74.60167,19.84611],[74.62472,19.8125]]},"properties":{"lgdGramPanchayatCode":"167924","count":7,"namedCount":7,"areaHectares":0,"largestAreaHectares":0,"byDepartment":[{"department":"Panchayat","count":7}],"namesSha256":"8c60cf4f2f75d4f4b34206c6e08a218c3196ec7dce9291d2220045a856e9499a","register":"water-bodies-census","lgdBlockCode":"4203","byType":[{"type":"Water consv schemes/percolation tanks/check-dams","count":7}],"areaBasis":"withheld","pointCount":7}},{"type":"Feature","geometry":{"type":"MultiPoint","coordinates":[[74.37389,19.75083],[74.37639,19.75306]]},"properties":{"lgdGramPanchayatCode":"167925","count":2,"namedCount":2,"areaHectares":0,"largestAreaHectares":0,"byDepartment":[{"department":"Panchayat","count":2}],"namesSha256":"43dadc4d22d776a432077ae837328ec98a11ab83e7884e7bad39569e2c5ff148","register":"water-bodies-census","lgdBlockCode":"4203","byType":[{"type":"Water consv schemes/percolation tanks/check-dams","count":2}],"areaBasis":"withheld","pointCount":2}},{"type":"Feature","geometry":{"type":"MultiPoint","coordinates":[[74.48139,19.95389],[74.48222,19.95472]]},"properties":{"lgdGramPanchayatCode":"167926","count":2,"namedCount":2,"areaHectares":0,"largestAreaHectares":0,"byDepartment":[{"department":"Panchayat","count":2}],"namesSha256":"bd9bc3c8c9d0b5479de8770556eee286ca19d57a4bac877f39c5055a0609c333","register":"water-bodies-census","lgdBlockCode":"4203","byType":[{"type":"Water consv schemes/percolation tanks/check-dams","count":2}],"areaBasis":"withheld","pointCount":2}}]}
