{"nvdm":"1.0","dataset":"atlas/water-bodies","scope":{"kind":"district","id":"mh-ahilyanagar"},"provenance":{"sources":[{"id":"water-bodies-census-mh","title":"First Census of Water Bodies, Maharashtra state return (data.gov.in resource e1874d07)","publisher":"Department of Water Resources, River Development and Ganga Rejuvenation, Ministry of Jal Shakti, via the Open Government Data Platform","license":"Government Open Data License - India","role":"asserts","url":"https://data.gov.in/resource/state-wise-data-first-census-water-bodies-maharashtra","as_of":"2026-02-10","retrieved":"2026-09-02"}],"method":"api","produced_at":"2026-09-02","produced_by":"scripts/atlas-water-bodies-census-district.ts","internal_inputs":["public/data/atlas/mh/ahilyanagar/directory.json"],"note":"First Census of Water Bodies rows for Rahta taluka: 78 water bodies assigned to 33 Gram Panchayats through the LGD coverage register (the census locates each in a Census 2011 village; a village under exactly one Panchayat is assigned), rolled up per Panchayat (count, named count, type and ownership classes, a digest of the sorted names) with the enumerators' coordinates served as MultiPoint geometry under the Government Open Data License. 19 rows of the taluka are counted and not assigned (ext.atlas.unassigned: a village listed under two Panchayats, under none, a Census village with no LGD row, a town). Waterspread is withheld: The Ahmadnagar return shows the template pattern in a 1,200-row sample: 20 distinct whole-number waterspread values with 0 on a majority of rows and depth NA on half, an enumerator's default rather than a measurement, so the waterspread is not published. Counts, types, ownership and recorded coordinates are served. A Panchayat absent here has no row in the return.","conventions":{"geometry":"MultiPoint of the recorded coordinates, five decimals, points outside the district's own bounding box dropped and counted in ext.atlas.pointsOutsideDistrict (a district total)","join":"unique_id part 5 is the Census 2011 village code; the directory's LGD coverage register names the Panchayat; shared, uncovered and unknown villages and urban rows are counted in ext.atlas.unassigned, never pooled","holder":"byDepartment carries the census ownership class (the register's holder axis); byType the census water-body class","vintage":"reference years 2017-18 to 2020-21, published 2023; the portal's resource stamp is the edition watched"}},"ext":{"atlas":{"schemaVersion":1,"planId":"mh-ahilyanagar-v1","blockCode":"4204","blockName":"Rahta","register":"water-bodies-census","districtLgdCode":"466","acquiredAt":"2026-09-02","layer":"First Census of Water Bodies, Maharashtra return (data.gov.in resource e1874d07-a1db-4678-80c1-b64a2924b517)","sourceUrl":"https://api.data.gov.in/resource/e1874d07-a1db-4678-80c1-b64a2924b517?format=json&limit=all&filters[district_name]=AHMADNAGAR","rights":{"status":"open","termsUrl":"https://data.gov.in/resource/state-wise-data-first-census-water-bodies-maharashtra","termsQuote":"Government Open Data License - India","approval":null},"contributingDepartments":["Co-operative","Group of Individuals","Individual","Muncipal authority","Other Govt.Agency","Other private body","Panchayat","State WRD/State Irrigation"],"snapshotSha256":"0b2c46516c81afa04140a770b91348e5b666f0d7ffdadd16d78277a15a1e250e","featureCount":78,"recordCount":33,"recordsSha256":"4ca85d8e5d28e9b1b842c7076662ad3c93b4080fdf421ac4f18ed1d6c47b1162","unassigned":{"sharedVillage":0,"uncoveredVillage":19,"censusVillageWithoutLgdRow":0,"unknownVillage":0,"urban":0},"unassignedDistrict":{"sharedVillage":33,"uncoveredVillage":666,"censusVillageWithoutLgdRow":10,"unknownVillage":9,"urban":66},"attributes":{"waterspread":"withheld","note":"The Ahmadnagar return shows the template pattern in a 1,200-row sample: 20 distinct whole-number waterspread values with 0 on a majority of rows and depth NA on half, an enumerator's default rather than a measurement, so the waterspread is not published. Counts, types, ownership and recorded coordinates are served."},"pointsOutsideDistrict":0}},"type":"FeatureCollection","features":[{"type":"Feature","geometry":{"type":"MultiPoint","coordinates":[[74.38139,19.64222],[74.43639,19.68111]]},"properties":{"lgdGramPanchayatCode":"168361","count":2,"namedCount":2,"areaHectares":0,"largestAreaHectares":0,"byDepartment":[{"department":"Panchayat","count":2}],"namesSha256":"660255a13d1c244891dec1f27e8d4597dba6b9080f9394e0c49b69140987c262","register":"water-bodies-census","lgdBlockCode":"4204","byType":[{"type":"Water consv schemes/percolation tanks/check-dams","count":2}],"areaBasis":"withheld","pointCount":2}},{"type":"Feature","geometry":{"type":"MultiPoint","coordinates":[[74.3875,19.63889],[74.43056,19.65361],[74.44472,19.63639]]},"properties":{"lgdGramPanchayatCode":"168362","count":3,"namedCount":3,"areaHectares":0,"largestAreaHectares":0,"byDepartment":[{"department":"Panchayat","count":3}],"namesSha256":"5e84a5132a6fb6750cf5894927bac7f551994295a46f9fe0b20d2583eb95c157","register":"water-bodies-census","lgdBlockCode":"4204","byType":[{"type":"Water consv schemes/percolation tanks/check-dams","count":3}],"areaBasis":"withheld","pointCount":3}},{"type":"Feature","geometry":{"type":"MultiPoint","coordinates":[[74.52278,19.69389],[74.52806,19.70778]]},"properties":{"lgdGramPanchayatCode":"168363","count":2,"namedCount":2,"areaHectares":0,"largestAreaHectares":0,"byDepartment":[{"department":"Panchayat","count":2}],"namesSha256":"a8253451db1c9b53d5926cb959090ff53c3c8109a5b635f7f372c6fa499548b8","register":"water-bodies-census","lgdBlockCode":"4204","byType":[{"type":"Water consv schemes/percolation tanks/check-dams","count":2}],"areaBasis":"withheld","pointCount":2}},{"type":"Feature","geometry":{"type":"MultiPoint","coordinates":[[74.50556,19.59528],[74.50639,19.60667]]},"properties":{"lgdGramPanchayatCode":"168365","count":2,"namedCount":2,"areaHectares":0,"largestAreaHectares":0,"byDepartment":[{"department":"Panchayat","count":2}],"namesSha256":"faf0428bf6e2cadebdaa5f6d84414b4e57fcd6a205c0ed93f2defeed01d4bbf1","register":"water-bodies-census","lgdBlockCode":"4204","byType":[{"type":"Water consv schemes/percolation tanks/check-dams","count":2}],"areaBasis":"withheld","pointCount":2}},{"type":"Feature","geometry":{"type":"MultiPoint","coordinates":[[74.43917,19.57444]]},"properties":{"lgdGramPanchayatCode":"168367","count":1,"namedCount":1,"areaHectares":0,"largestAreaHectares":0,"byDepartment":[{"department":"Panchayat","count":1}],"namesSha256":"21ebb9117e66c84d210870865905a3992484c3be7f9639a87e0c1a21fe34dfa5","register":"water-bodies-census","lgdBlockCode":"4204","byType":[{"type":"Water consv schemes/percolation tanks/check-dams","count":1}],"areaBasis":"withheld","pointCount":1}},{"type":"Feature","geometry":{"type":"MultiPoint","coordinates":[[74.63167,19.67972],[74.63389,19.7]]},"properties":{"lgdGramPanchayatCode":"168368","count":2,"namedCount":2,"areaHectares":0,"largestAreaHectares":0,"byDepartment":[{"department":"Panchayat","count":2}],"namesSha256":"acf8893a8bf87665117f0eb1fda0fdd837e91ace54cb13f8341e2b344cbcdc32","register":"water-bodies-census","lgdBlockCode":"4204","byType":[{"type":"Water consv schemes/percolation tanks/check-dams","count":2}],"areaBasis":"withheld","pointCount":2}},{"type":"Feature","geometry":{"type":"MultiPoint","coordinates":[[74.46667,19.71083]]},"properties":{"lgdGramPanchayatCode":"168370","count":1,"namedCount":1,"areaHectares":0,"largestAreaHectares":0,"byDepartment":[{"department":"Panchayat","count":1}],"namesSha256":"a56a5d74e376ebe8b16916d0168bc8be89bfacf0f2acc57890f4423828824d6f","register":"water-bodies-census","lgdBlockCode":"4204","byType":[{"type":"Water consv schemes/percolation tanks/check-dams","count":1}],"areaBasis":"withheld","pointCount":1}},{"type":"Feature","geometry":{"type":"MultiPoint","coordinates":[[74.59833,19.66583]]},"properties":{"lgdGramPanchayatCode":"168371","count":1,"namedCount":1,"areaHectares":0,"largestAreaHectares":0,"byDepartment":[{"department":"Panchayat","count":1}],"namesSha256":"609422aac641b5101b4175319e39c725cb0589f6fc3905b3995372e1f1e57f9d","register":"water-bodies-census","lgdBlockCode":"4204","byType":[{"type":"Water consv schemes/percolation tanks/check-dams","count":1}],"areaBasis":"withheld","pointCount":1}},{"type":"Feature","geometry":{"type":"MultiPoint","coordinates":[[74.41694,19.76333],[74.43028,19.76056]]},"properties":{"lgdGramPanchayatCode":"168372","count":2,"namedCount":2,"areaHectares":0,"largestAreaHectares":0,"byDepartment":[{"department":"Panchayat","count":2}],"namesSha256":"34ce8fb6eb1df1b114967093af75185ffcb50d236eb7636e71048a7d8f86163d","register":"water-bodies-census","lgdBlockCode":"4204","byType":[{"type":"Water consv schemes/percolation tanks/check-dams","count":2}],"areaBasis":"withheld","pointCount":2}},{"type":"Feature","geometry":{"type":"MultiPoint","coordinates":[[74.41028,19.57306],[74.46361,19.57556]]},"properties":{"lgdGramPanchayatCode":"168373","count":2,"namedCount":2,"areaHectares":0,"largestAreaHectares":0,"byDepartment":[{"department":"Panchayat","count":2}],"namesSha256":"7c50119bd8b06e432cbb09db218480f4b91781f87fe8f737caa25f081a7e9916","register":"water-bodies-census","lgdBlockCode":"4204","byType":[{"type":"Water consv schemes/percolation tanks/check-dams","count":2}],"areaBasis":"withheld","pointCount":2}},{"type":"Feature","geometry":{"type":"MultiPoint","coordinates":[[74.43056,19.60889],[74.45194,19.59667]]},"properties":{"lgdGramPanchayatCode":"168374","count":2,"namedCount":2,"areaHectares":0,"largestAreaHectares":0,"byDepartment":[{"department":"Panchayat","count":2}],"namesSha256":"9326f04f3c07727ec4c9cb3fcbe6cf91323e8bde2dd5ab952dfd5f49108e6eca","register":"water-bodies-census","lgdBlockCode":"4204","byType":[{"type":"Water consv schemes/percolation tanks/check-dams","count":2}],"areaBasis":"withheld","pointCount":2}},{"type":"Feature","geometry":{"type":"MultiPoint","coordinates":[[74.455,19.54556]]},"properties":{"lgdGramPanchayatCode":"168375","count":1,"namedCount":1,"areaHectares":0,"largestAreaHectares":0,"byDepartment":[{"department":"Panchayat","count":1}],"namesSha256":"1fa9755693c4ace3298336e948acc57d5668da0857d95eb9a6a3bf8ba9a032da","register":"water-bodies-census","lgdBlockCode":"4204","byType":[{"type":"Water consv schemes/percolation tanks/check-dams","count":1}],"areaBasis":"withheld","pointCount":1}},{"type":"Feature","geometry":{"type":"MultiPoint","coordinates":[[74.60278,19.70083]]},"properties":{"lgdGramPanchayatCode":"168377","count":1,"namedCount":1,"areaHectares":0,"largestAreaHectares":0,"byDepartment":[{"department":"Panchayat","count":1}],"namesSha256":"ba97259662a1efe589d28425ac2b50a48fe4a8cd575a23ecf8c116411cfb210c","register":"water-bodies-census","lgdBlockCode":"4204","byType":[{"type":"Water consv schemes/percolation tanks/check-dams","count":1}],"areaBasis":"withheld","pointCount":1}},{"type":"Feature","geometry":{"type":"MultiPoint","coordinates":[[74.43639,19.68111],[74.44139,19.67361],[74.44639,19.66583],[74.4475,19.66694],[74.45417,19.67528]]},"properties":{"lgdGramPanchayatCode":"168378","count":5,"namedCount":5,"areaHectares":0,"largestAreaHectares":0,"byDepartment":[{"department":"Panchayat","count":5}],"namesSha256":"5ddf8904223c13eae51ebd577fc4c3bc42122a6fae861ee391ba3acace775c15","register":"water-bodies-census","lgdBlockCode":"4204","byType":[{"type":"Water consv schemes/percolation tanks/check-dams","count":5}],"areaBasis":"withheld","pointCount":5}},{"type":"Feature","geometry":{"type":"MultiPoint","coordinates":[[74.44833,19.74222]]},"properties":{"lgdGramPanchayatCode":"168379","count":1,"namedCount":1,"areaHectares":0,"largestAreaHectares":0,"byDepartment":[{"department":"Panchayat","count":1}],"namesSha256":"732554c74a8ef672dbe19cbef61999e6639d9fdc1ef707ffba5930949f20c033","register":"water-bodies-census","lgdBlockCode":"4204","byType":[{"type":"Water consv schemes/percolation tanks/check-dams","count":1}],"areaBasis":"withheld","pointCount":1}},{"type":"Feature","geometry":{"type":"MultiPoint","coordinates":[[74.41917,19.69528],[74.42083,19.69194]]},"properties":{"lgdGramPanchayatCode":"168380","count":2,"namedCount":2,"areaHectares":0,"largestAreaHectares":0,"byDepartment":[{"department":"Panchayat","count":2}],"namesSha256":"2cd5a4cf813e1dada7e275fdc489515b4ef55fe5878131401fd002e8fca2c016","register":"water-bodies-census","lgdBlockCode":"4204","byType":[{"type":"Water consv schemes/percolation tanks/check-dams","count":2}],"areaBasis":"withheld","pointCount":2}},{"type":"Feature","geometry":{"type":"MultiPoint","coordinates":[[74.39861,19.73917],[74.40306,19.71194],[74.40583,19.71639],[74.40833,19.70333],[74.41278,19.71944],[74.41472,19.70556],[74.4175,19.72444],[74.41944,19.72889]]},"properties":{"lgdGramPanchayatCode":"168381","count":8,"namedCount":8,"areaHectares":0,"largestAreaHectares":0,"byDepartment":[{"department":"Panchayat","count":8}],"namesSha256":"fc580dfdacee25b2ad92cf8e46bd03ed27b9a5b33371d04c6ef21311b71c59ac","register":"water-bodies-census","lgdBlockCode":"4204","byType":[{"type":"Water consv schemes/percolation tanks/check-dams","count":8}],"areaBasis":"withheld","pointCount":8}},{"type":"Feature","geometry":{"type":"MultiPoint","coordinates":[[74.56222,19.60639]]},"properties":{"lgdGramPanchayatCode":"168386","count":1,"namedCount":1,"areaHectares":0,"largestAreaHectares":0,"byDepartment":[{"department":"Panchayat","count":1}],"namesSha256":"f1c915e9ad87a74c92df237ee203e1f44aa1f3ecef6526f53e894347b6eeba70","register":"water-bodies-census","lgdBlockCode":"4204","byType":[{"type":"Water consv schemes/percolation tanks/check-dams","count":1}],"areaBasis":"withheld","pointCount":1}},{"type":"Feature","geometry":{"type":"MultiPoint","coordinates":[[74.44833,19.74222],[74.455,19.73472]]},"properties":{"lgdGramPanchayatCode":"168389","count":2,"namedCount":2,"areaHectares":0,"largestAreaHectares":0,"byDepartment":[{"department":"Panchayat","count":2}],"namesSha256":"080e68826fba0b02489cb89c2878fb86307b936cc787f5d2265d4ad6ac42f947","register":"water-bodies-census","lgdBlockCode":"4204","byType":[{"type":"Water consv schemes/percolation tanks/check-dams","count":2}],"areaBasis":"withheld","pointCount":2}},{"type":"Feature","geometry":{"type":"MultiPoint","coordinates":[[74.46194,19.77806]]},"properties":{"lgdGramPanchayatCode":"168392","count":1,"namedCount":1,"areaHectares":0,"largestAreaHectares":0,"byDepartment":[{"department":"Panchayat","count":1}],"namesSha256":"ec07202ecdd6bd32e9246f48b3eb004e84a29329a3ca4507ee697aedab764202","register":"water-bodies-census","lgdBlockCode":"4204","byType":[{"type":"Water consv schemes/percolation tanks/check-dams","count":1}],"areaBasis":"withheld","pointCount":1}},{"type":"Feature","geometry":{"type":"MultiPoint","coordinates":[[74.47194,19.71417],[74.47306,19.70306]]},"properties":{"lgdGramPanchayatCode":"168394","count":2,"namedCount":2,"areaHectares":0,"largestAreaHectares":0,"byDepartment":[{"department":"Panchayat","count":2}],"namesSha256":"1bea0d6c6454169461cccfa0d85400ed38b7c718204550d0195e785d1c0a3402","register":"water-bodies-census","lgdBlockCode":"4204","byType":[{"type":"Water consv schemes/percolation tanks/check-dams","count":2}],"areaBasis":"withheld","pointCount":2}},{"type":"Feature","geometry":{"type":"MultiPoint","coordinates":[[74.395,19.63333],[74.48722,19.645]]},"properties":{"lgdGramPanchayatCode":"168395","count":2,"namedCount":2,"areaHectares":0,"largestAreaHectares":0,"byDepartment":[{"department":"Panchayat","count":2}],"namesSha256":"6c90540752af43b5663e2027e81c411f3493885c0229553b4f6bff4d91d6ed51","register":"water-bodies-census","lgdBlockCode":"4204","byType":[{"type":"Water consv schemes/percolation tanks/check-dams","count":2}],"areaBasis":"withheld","pointCount":2}},{"type":"Feature","geometry":{"type":"MultiPoint","coordinates":[[74.44417,19.65361],[74.47,19.64556],[74.47194,19.62139],[74.47722,19.65417],[74.48833,19.6425]]},"properties":{"lgdGramPanchayatCode":"168396","count":5,"namedCount":5,"areaHectares":0,"largestAreaHectares":0,"byDepartment":[{"department":"Panchayat","count":5}],"namesSha256":"047d7052dd0541b2e5751d17ec4a7ba25c0b3e9e58edb4fd2efef1b51794791d","register":"water-bodies-census","lgdBlockCode":"4204","byType":[{"type":"Water consv schemes/percolation tanks/check-dams","count":5}],"areaBasis":"withheld","pointCount":5}},{"type":"Feature","geometry":{"type":"MultiPoint","coordinates":[[74.5225,19.76111]]},"properties":{"lgdGramPanchayatCode":"168397","count":1,"namedCount":1,"areaHectares":0,"largestAreaHectares":0,"byDepartment":[{"department":"Panchayat","count":1}],"namesSha256":"de700d985bf304602205b6c208177400a2879322131585676fd161b840ffe9af","register":"water-bodies-census","lgdBlockCode":"4204","byType":[{"type":"Water consv schemes/percolation tanks/check-dams","count":1}],"areaBasis":"withheld","pointCount":1}},{"type":"Feature","geometry":{"type":"MultiPoint","coordinates":[[74.56389,19.76972]]},"properties":{"lgdGramPanchayatCode":"168398","count":1,"namedCount":1,"areaHectares":0,"largestAreaHectares":0,"byDepartment":[{"department":"Panchayat","count":1}],"namesSha256":"10d107c0f9a676a847d213223ab6b6906807528490a09c3745b7b6e187c37a11","register":"water-bodies-census","lgdBlockCode":"4204","byType":[{"type":"Water consv schemes/percolation tanks/check-dams","count":1}],"areaBasis":"withheld","pointCount":1}},{"type":"Feature","geometry":{"type":"MultiPoint","coordinates":[[74.5725,19.7375],[74.5875,19.68722],[74.5875,19.68722],[74.59139,19.70583]]},"properties":{"lgdGramPanchayatCode":"168400","count":4,"namedCount":4,"areaHectares":0,"largestAreaHectares":0,"byDepartment":[{"department":"Panchayat","count":4}],"namesSha256":"ffbf57543dec4e11c6097335add02ccdce92071376595a74c3ad0830643dbd3e","register":"water-bodies-census","lgdBlockCode":"4204","byType":[{"type":"Water consv schemes/percolation tanks/check-dams","count":4}],"areaBasis":"withheld","pointCount":4}},{"type":"Feature","geometry":{"type":"MultiPoint","coordinates":[[74.53139,19.67722],[74.53417,19.69333]]},"properties":{"lgdGramPanchayatCode":"168401","count":2,"namedCount":2,"areaHectares":0,"largestAreaHectares":0,"byDepartment":[{"department":"Panchayat","count":2}],"namesSha256":"f842ee86a9ccaf115f5991bb40c34cb06a8c3b675bee5b8645b9d53fa6fd015c","register":"water-bodies-census","lgdBlockCode":"4204","byType":[{"type":"Water consv schemes/percolation tanks/check-dams","count":2}],"areaBasis":"withheld","pointCount":2}},{"type":"Feature","geometry":{"type":"MultiPoint","coordinates":[[74.60833,19.61833],[74.63528,19.62]]},"properties":{"lgdGramPanchayatCode":"168402","count":2,"namedCount":2,"areaHectares":0,"largestAreaHectares":0,"byDepartment":[{"department":"Panchayat","count":2}],"namesSha256":"85e15155c976db1b238510730ebf9f7ecc287b81b41016b3c12d344752d2b73d","register":"water-bodies-census","lgdBlockCode":"4204","byType":[{"type":"Water consv schemes/percolation tanks/check-dams","count":2}],"areaBasis":"withheld","pointCount":2}},{"type":"Feature","geometry":{"type":"MultiPoint","coordinates":[[74.49583,19.78806],[74.50167,19.7825]]},"properties":{"lgdGramPanchayatCode":"168403","count":2,"namedCount":2,"areaHectares":0,"largestAreaHectares":0,"byDepartment":[{"department":"Panchayat","count":2}],"namesSha256":"f711052f047aa1582b05e5a1337da09ee48d14abaef75431d6fdc989f4e45c3c","register":"water-bodies-census","lgdBlockCode":"4204","byType":[{"type":"Water consv schemes/percolation tanks/check-dams","count":2}],"areaBasis":"withheld","pointCount":2}},{"type":"Feature","geometry":{"type":"MultiPoint","coordinates":[[74.4775,19.73333],[74.4775,19.73333],[74.4775,19.73333]]},"properties":{"lgdGramPanchayatCode":"168404","count":3,"namedCount":3,"areaHectares":0,"largestAreaHectares":0,"byDepartment":[{"department":"Panchayat","count":3}],"namesSha256":"b81eccef32ddf1d9a220ea35da28ccf4f0fa5e95a2f6cd6be32cb6fe74920567","register":"water-bodies-census","lgdBlockCode":"4204","byType":[{"type":"Water consv schemes/percolation tanks/check-dams","count":3}],"areaBasis":"withheld","pointCount":3}},{"type":"Feature","geometry":{"type":"MultiPoint","coordinates":[[74.55667,19.77583],[74.56917,19.77944],[74.57167,19.76333]]},"properties":{"lgdGramPanchayatCode":"168407","count":3,"namedCount":3,"areaHectares":0,"largestAreaHectares":0,"byDepartment":[{"department":"Panchayat","count":3}],"namesSha256":"377dd56ed1a3a4b2372ac4ef706cdd2ee91a9a4edb19d08975d8b94a45b9b6e3","register":"water-bodies-census","lgdBlockCode":"4204","byType":[{"type":"Water consv schemes/percolation tanks/check-dams","count":3}],"areaBasis":"withheld","pointCount":3}},{"type":"Feature","geometry":{"type":"MultiPoint","coordinates":[[74.57278,19.67722],[74.57889,19.6775],[74.58,19.68056],[74.58194,19.68278],[74.58722,19.65667],[74.59333,19.66222],[74.59833,19.68889]]},"properties":{"lgdGramPanchayatCode":"168409","count":7,"namedCount":7,"areaHectares":0,"largestAreaHectares":0,"byDepartment":[{"department":"Panchayat","count":7}],"namesSha256":"5e4a0a33419d55e5d7ea4e71d60049d0390a295b324a56044760379dbb826339","register":"water-bodies-census","lgdBlockCode":"4204","byType":[{"type":"Water consv schemes/percolation tanks/check-dams","count":7}],"areaBasis":"withheld","pointCount":7}},{"type":"Feature","geometry":{"type":"MultiPoint","coordinates":[[74.39444,19.74583],[74.40472,19.74667]]},"properties":{"lgdGramPanchayatCode":"168410","count":2,"namedCount":2,"areaHectares":0,"largestAreaHectares":0,"byDepartment":[{"department":"Panchayat","count":2}],"namesSha256":"4d8766791b4a9b07f0af05c5afcb300846a0275f278410ea4677d7ff84ff361d","register":"water-bodies-census","lgdBlockCode":"4204","byType":[{"type":"Water consv schemes/percolation tanks/check-dams","count":2}],"areaBasis":"withheld","pointCount":2}}]}
