{"nvdm":"1.0","dataset":"atlas/water-bodies","scope":{"kind":"district","id":"mh-ahilyanagar"},"provenance":{"sources":[{"id":"water-bodies-census-mh","title":"First Census of Water Bodies, Maharashtra state return (data.gov.in resource e1874d07)","publisher":"Department of Water Resources, River Development and Ganga Rejuvenation, Ministry of Jal Shakti, via the Open Government Data Platform","license":"Government Open Data License - India","role":"asserts","url":"https://data.gov.in/resource/state-wise-data-first-census-water-bodies-maharashtra","as_of":"2026-02-10","retrieved":"2026-09-02"}],"method":"api","produced_at":"2026-09-02","produced_by":"scripts/atlas-water-bodies-census-district.ts","internal_inputs":["public/data/atlas/mh/ahilyanagar/directory.json"],"note":"First Census of Water Bodies rows for Nagar taluka: 636 water bodies assigned to 85 Gram Panchayats through the LGD coverage register (the census locates each in a Census 2011 village; a village under exactly one Panchayat is assigned), rolled up per Panchayat (count, named count, type and ownership classes, a digest of the sorted names) with the enumerators' coordinates served as MultiPoint geometry under the Government Open Data License. 43 rows of the taluka are counted and not assigned (ext.atlas.unassigned: a village listed under two Panchayats, under none, a Census village with no LGD row, a town). Waterspread is withheld: The Ahmadnagar return shows the template pattern in a 1,200-row sample: 20 distinct whole-number waterspread values with 0 on a majority of rows and depth NA on half, an enumerator's default rather than a measurement, so the waterspread is not published. Counts, types, ownership and recorded coordinates are served. A Panchayat absent here has no row in the return.","conventions":{"geometry":"MultiPoint of the recorded coordinates, five decimals, points outside the district's own bounding box dropped and counted in ext.atlas.pointsOutsideDistrict (a district total)","join":"unique_id part 5 is the Census 2011 village code; the directory's LGD coverage register names the Panchayat; shared, uncovered and unknown villages and urban rows are counted in ext.atlas.unassigned, never pooled","holder":"byDepartment carries the census ownership class (the register's holder axis); byType the census water-body class","vintage":"reference years 2017-18 to 2020-21, published 2023; the portal's resource stamp is the edition watched"}},"ext":{"atlas":{"schemaVersion":1,"planId":"mh-ahilyanagar-v1","blockCode":"4209","blockName":"Nagar","register":"water-bodies-census","districtLgdCode":"466","acquiredAt":"2026-09-02","layer":"First Census of Water Bodies, Maharashtra return (data.gov.in resource e1874d07-a1db-4678-80c1-b64a2924b517)","sourceUrl":"https://api.data.gov.in/resource/e1874d07-a1db-4678-80c1-b64a2924b517?format=json&limit=all&filters[district_name]=AHMADNAGAR","rights":{"status":"open","termsUrl":"https://data.gov.in/resource/state-wise-data-first-census-water-bodies-maharashtra","termsQuote":"Government Open Data License - India","approval":null},"contributingDepartments":["Co-operative","Group of Individuals","Individual","Muncipal authority","Other Govt.Agency","Other private body","Panchayat","State WRD/State Irrigation"],"snapshotSha256":"0b2c46516c81afa04140a770b91348e5b666f0d7ffdadd16d78277a15a1e250e","featureCount":636,"recordCount":85,"recordsSha256":"6bf0ae5d4099ab6eac65157db9683e280c8121835f85e28e1484e007fd482710","unassigned":{"sharedVillage":0,"uncoveredVillage":34,"censusVillageWithoutLgdRow":0,"unknownVillage":9,"urban":0},"unassignedDistrict":{"sharedVillage":33,"uncoveredVillage":666,"censusVillageWithoutLgdRow":10,"unknownVillage":9,"urban":66},"attributes":{"waterspread":"withheld","note":"The Ahmadnagar return shows the template pattern in a 1,200-row sample: 20 distinct whole-number waterspread values with 0 on a majority of rows and depth NA on half, an enumerator's default rather than a measurement, so the waterspread is not published. Counts, types, ownership and recorded coordinates are served."},"pointsOutsideDistrict":0}},"type":"FeatureCollection","features":[{"type":"Feature","geometry":{"type":"MultiPoint","coordinates":[[74.85639,19.14472],[74.85833,19.16611],[74.85944,19.16278],[74.86056,19.15361],[74.86056,19.16083],[74.86083,19.15139],[74.86083,19.15611],[74.86167,19.15917],[74.86417,19.16083],[74.86583,19.16167],[74.86611,19.15056],[74.86667,19.16417],[74.86667,19.16694],[74.86806,19.15056],[74.86861,19.16361],[74.86889,19.15083],[74.8725,19.16556],[74.87333,19.17028],[74.87361,19.16639],[74.87583,19.1675]]},"properties":{"lgdGramPanchayatCode":"167927","count":20,"namedCount":20,"areaHectares":0,"largestAreaHectares":0,"byDepartment":[{"department":"Panchayat","count":20}],"namesSha256":"66df29dc3f60856e5bcea5528a353be02f10736687c0a192e461b3fbce3a0585","register":"water-bodies-census","lgdBlockCode":"4209","byType":[{"type":"Water consv schemes/percolation tanks/check-dams","count":20}],"areaBasis":"withheld","pointCount":20}},{"type":"Feature","geometry":{"type":"MultiPoint","coordinates":[[74.59833,19.00611],[74.64,18.98722],[74.64,18.98722],[74.64667,18.98306],[74.64694,18.985],[74.65306,18.98389],[74.65444,19.00667],[74.65472,18.98028],[74.66194,18.97028],[74.66556,18.9925],[74.66667,18.98833]]},"properties":{"lgdGramPanchayatCode":"167929","count":11,"namedCount":11,"areaHectares":0,"largestAreaHectares":0,"byDepartment":[{"department":"Panchayat","count":11}],"namesSha256":"07c8c8abad1505e0c4bfa1e25217736f89a53de89e210ba36017eea19de39e50","register":"water-bodies-census","lgdBlockCode":"4209","byType":[{"type":"Water consv schemes/percolation tanks/check-dams","count":11}],"areaBasis":"withheld","pointCount":11}},{"type":"Feature","geometry":{"type":"MultiPoint","coordinates":[[74.8375,18.8675],[74.83778,18.86639],[74.83806,18.87139],[74.83833,18.87167],[74.84139,18.87472],[74.84333,18.87722],[74.85139,18.87278],[74.85194,18.885]]},"properties":{"lgdGramPanchayatCode":"167930","count":8,"namedCount":8,"areaHectares":0,"largestAreaHectares":0,"byDepartment":[{"department":"Panchayat","count":8}],"namesSha256":"49056ed88e9c252a77d88914657c05308fab82081fc07bf7d2b7eeeb95178b1f","register":"water-bodies-census","lgdBlockCode":"4209","byType":[{"type":"Water consv schemes/percolation tanks/check-dams","count":8}],"areaBasis":"withheld","pointCount":8}},{"type":"Feature","geometry":{"type":"MultiPoint","coordinates":[[74.69972,19.01361],[74.70472,19.01583],[74.7075,19.01917],[74.71,19.02556],[74.71111,19.01944],[74.72167,19.0175],[74.72167,19.01861],[74.73583,19.01583]]},"properties":{"lgdGramPanchayatCode":"167931","count":8,"namedCount":8,"areaHectares":0,"largestAreaHectares":0,"byDepartment":[{"department":"Panchayat","count":8}],"namesSha256":"49056ed88e9c252a77d88914657c05308fab82081fc07bf7d2b7eeeb95178b1f","register":"water-bodies-census","lgdBlockCode":"4209","byType":[{"type":"Water consv schemes/percolation tanks/check-dams","count":8}],"areaBasis":"withheld","pointCount":8}},{"type":"Feature","geometry":{"type":"MultiPoint","coordinates":[[74.93222,18.99139],[74.93333,18.99194],[74.93972,18.97194],[74.9425,18.98694],[74.94611,18.97694],[74.94833,18.98389],[74.955,18.99917]]},"properties":{"lgdGramPanchayatCode":"167932","count":7,"namedCount":7,"areaHectares":0,"largestAreaHectares":0,"byDepartment":[{"department":"Panchayat","count":7}],"namesSha256":"5bdb757494363d4d036418e5a9e82fae16245e8a8bf85a0fc292757fa117f5ce","register":"water-bodies-census","lgdBlockCode":"4209","byType":[{"type":"Water consv schemes/percolation tanks/check-dams","count":7}],"areaBasis":"withheld","pointCount":7}},{"type":"Feature","geometry":{"type":"MultiPoint","coordinates":[[74.71889,19.01778],[74.72417,19.0175],[74.74528,18.9975],[74.74833,19.0075],[74.75306,19.07861],[74.75778,18.99167],[74.77222,19.05472],[74.78194,19.0625],[74.78278,19.06472]]},"properties":{"lgdGramPanchayatCode":"167933","count":9,"namedCount":9,"areaHectares":0,"largestAreaHectares":0,"byDepartment":[{"department":"Panchayat","count":9}],"namesSha256":"f47dcd9dc9efae091f9dc450951a5f91f83a344654bb575dcfcd56b8640a49bd","register":"water-bodies-census","lgdBlockCode":"4209","byType":[{"type":"Water consv schemes/percolation tanks/check-dams","count":9}],"areaBasis":"withheld","pointCount":9}},{"type":"Feature","geometry":{"type":"MultiPoint","coordinates":[[74.70111,18.94056],[74.70111,18.94139],[74.71278,18.94278],[74.73583,19.01583],[74.75361,18.90056],[74.75361,18.90056]]},"properties":{"lgdGramPanchayatCode":"167934","count":6,"namedCount":6,"areaHectares":0,"largestAreaHectares":0,"byDepartment":[{"department":"Panchayat","count":6}],"namesSha256":"b41381e7411fd89c2963ee021aa12e21e8b360521c1da0d365f93d741a463c77","register":"water-bodies-census","lgdBlockCode":"4209","byType":[{"type":"Water consv schemes/percolation tanks/check-dams","count":6}],"areaBasis":"withheld","pointCount":6}},{"type":"Feature","geometry":{"type":"MultiPoint","coordinates":[[74.8325,19.22917],[74.83361,19.21722],[74.83444,19.21694],[74.83611,19.21833],[74.83667,19.21611],[74.83861,19.21694],[74.84056,19.21611]]},"properties":{"lgdGramPanchayatCode":"167935","count":7,"namedCount":7,"areaHectares":0,"largestAreaHectares":0,"byDepartment":[{"department":"Panchayat","count":7}],"namesSha256":"5bdb757494363d4d036418e5a9e82fae16245e8a8bf85a0fc292757fa117f5ce","register":"water-bodies-census","lgdBlockCode":"4209","byType":[{"type":"Water consv schemes/percolation tanks/check-dams","count":7}],"areaBasis":"withheld","pointCount":7}},{"type":"Feature","geometry":{"type":"MultiPoint","coordinates":[[74.84833,19.10167],[74.84833,19.11361],[74.85139,19.11056],[74.855,19.10917]]},"properties":{"lgdGramPanchayatCode":"167937","count":4,"namedCount":4,"areaHectares":0,"largestAreaHectares":0,"byDepartment":[{"department":"Panchayat","count":4}],"namesSha256":"920d3aad0901661b2ad069a0709b8d39b8c1f1020febc9f1899a66820beedb63","register":"water-bodies-census","lgdBlockCode":"4209","byType":[{"type":"Water consv schemes/percolation tanks/check-dams","count":4}],"areaBasis":"withheld","pointCount":4}},{"type":"Feature","geometry":{"type":"MultiPoint","coordinates":[[74.88417,19.05417],[74.89139,19.05306],[74.90111,19.05167],[74.9075,19.05028],[74.91167,19.04917],[74.91194,19.05361],[74.9225,19.05028]]},"properties":{"lgdGramPanchayatCode":"167938","count":7,"namedCount":7,"areaHectares":0,"largestAreaHectares":0,"byDepartment":[{"department":"Panchayat","count":7}],"namesSha256":"5bdb757494363d4d036418e5a9e82fae16245e8a8bf85a0fc292757fa117f5ce","register":"water-bodies-census","lgdBlockCode":"4209","byType":[{"type":"Water consv schemes/percolation tanks/check-dams","count":7}],"areaBasis":"withheld","pointCount":7}},{"type":"Feature","geometry":{"type":"MultiPoint","coordinates":[[74.59556,19.00306],[74.59556,19.00306],[74.60972,19.0125],[74.62111,18.99083],[74.62417,18.98972],[74.6275,18.98056],[74.62944,18.95889],[74.63583,18.9875],[74.63917,18.965],[74.64917,18.90556],[74.64917,18.90556],[74.64917,18.90556],[74.64917,18.90556]]},"properties":{"lgdGramPanchayatCode":"167939","count":13,"namedCount":13,"areaHectares":0,"largestAreaHectares":0,"byDepartment":[{"department":"Panchayat","count":13}],"namesSha256":"e8bb46601761619c3dd73378078899820a7192ed61699334350842a69ef5c16c","register":"water-bodies-census","lgdBlockCode":"4209","byType":[{"type":"Water consv schemes/percolation tanks/check-dams","count":13}],"areaBasis":"withheld","pointCount":13}},{"type":"Feature","geometry":{"type":"MultiPoint","coordinates":[[74.59778,19.03806],[74.6025,19.03528],[74.60694,19.03306],[74.61222,19.03944]]},"properties":{"lgdGramPanchayatCode":"167940","count":4,"namedCount":4,"areaHectares":0,"largestAreaHectares":0,"byDepartment":[{"department":"Panchayat","count":4}],"namesSha256":"920d3aad0901661b2ad069a0709b8d39b8c1f1020febc9f1899a66820beedb63","register":"water-bodies-census","lgdBlockCode":"4209","byType":[{"type":"Water consv schemes/percolation tanks/check-dams","count":4}],"areaBasis":"withheld","pointCount":4}},{"type":"Feature","geometry":{"type":"MultiPoint","coordinates":[[74.58833,19.03972],[74.59167,19.04306],[74.59361,19.03278],[74.59361,19.03278],[74.59639,19.03639]]},"properties":{"lgdGramPanchayatCode":"167941","count":5,"namedCount":5,"areaHectares":0,"largestAreaHectares":0,"byDepartment":[{"department":"Panchayat","count":5}],"namesSha256":"ec8a9bbd3dbbe7fb2084afb8e95714db4fef93e0b1db72bd00de6fd86e7cf68b","register":"water-bodies-census","lgdBlockCode":"4209","byType":[{"type":"Water consv schemes/percolation tanks/check-dams","count":5}],"areaBasis":"withheld","pointCount":5}},{"type":"Feature","geometry":{"type":"MultiPoint","coordinates":[[74.62222,19.03111],[74.62861,19.03139],[74.63139,19.03083],[74.635,19.02722],[74.63639,19.02917],[74.63667,19.03917],[74.63861,19.03028],[74.64278,19.03],[74.64639,19.03361],[74.64694,19.02667],[74.64861,19.03417],[74.65,19.03472],[74.65,19.03472],[74.65,19.03472],[74.65611,19.04194],[74.65889,19.03806],[74.66028,19.03417],[74.66861,19.04417]]},"properties":{"lgdGramPanchayatCode":"167943","count":18,"namedCount":18,"areaHectares":0,"largestAreaHectares":0,"byDepartment":[{"department":"Panchayat","count":18}],"namesSha256":"2585958dc7d785cf486913cfedb836b13e185aee95bd244a9ba6d7120ab45549","register":"water-bodies-census","lgdBlockCode":"4209","byType":[{"type":"Water consv schemes/percolation tanks/check-dams","count":17},{"type":"Others","count":1}],"areaBasis":"withheld","pointCount":18}},{"type":"Feature","geometry":{"type":"MultiPoint","coordinates":[[74.90389,19.01722],[74.90833,19.01083],[74.91028,19.00778],[74.91333,19.005],[74.91444,19.02944],[74.91528,18.97639],[74.91556,19.00444],[74.92139,19.00389],[74.92222,18.99889],[74.9225,18.99694],[74.92444,18.98861],[74.92861,18.98472],[74.93222,18.98111],[74.93889,19.0225],[74.9425,19.00417],[74.94278,18.99083],[74.94611,19.01417]]},"properties":{"lgdGramPanchayatCode":"167944","count":17,"namedCount":17,"areaHectares":0,"largestAreaHectares":0,"byDepartment":[{"department":"Panchayat","count":17}],"namesSha256":"4494f0d7305bf9e1eb32ef2e468c4133f724920348c203cfb1011da082414e5d","register":"water-bodies-census","lgdBlockCode":"4209","byType":[{"type":"Water consv schemes/percolation tanks/check-dams","count":17}],"areaBasis":"withheld","pointCount":17}},{"type":"Feature","geometry":{"type":"MultiPoint","coordinates":[[74.8,18.96722],[74.80611,18.95778],[74.8075,18.96028]]},"properties":{"lgdGramPanchayatCode":"167945","count":3,"namedCount":3,"areaHectares":0,"largestAreaHectares":0,"byDepartment":[{"department":"Panchayat","count":3}],"namesSha256":"bded311ff9561fb1886421f74d84f1c33b72ca8363ddd283b2a9b197bc30739c","register":"water-bodies-census","lgdBlockCode":"4209","byType":[{"type":"Water consv schemes/percolation tanks/check-dams","count":3}],"areaBasis":"withheld","pointCount":3}},{"type":"Feature","geometry":{"type":"MultiPoint","coordinates":[[74.76639,19.065],[74.77389,19.03361],[74.775,19.02778],[74.775,19.02778],[74.78167,19.07556]]},"properties":{"lgdGramPanchayatCode":"167946","count":5,"namedCount":5,"areaHectares":0,"largestAreaHectares":0,"byDepartment":[{"department":"Panchayat","count":5}],"namesSha256":"ec8a9bbd3dbbe7fb2084afb8e95714db4fef93e0b1db72bd00de6fd86e7cf68b","register":"water-bodies-census","lgdBlockCode":"4209","byType":[{"type":"Water consv schemes/percolation tanks/check-dams","count":5}],"areaBasis":"withheld","pointCount":5}},{"type":"Feature","geometry":{"type":"MultiPoint","coordinates":[[74.855,19.01778],[74.86361,19.02667],[74.87361,19.02528]]},"properties":{"lgdGramPanchayatCode":"167947","count":3,"namedCount":3,"areaHectares":0,"largestAreaHectares":0,"byDepartment":[{"department":"Panchayat","count":3}],"namesSha256":"bded311ff9561fb1886421f74d84f1c33b72ca8363ddd283b2a9b197bc30739c","register":"water-bodies-census","lgdBlockCode":"4209","byType":[{"type":"Water consv schemes/percolation tanks/check-dams","count":3}],"areaBasis":"withheld","pointCount":3}},{"type":"Feature","geometry":{"type":"MultiPoint","coordinates":[[74.65583,19.24917],[74.66111,19.23083],[74.66278,19.27056],[74.66472,19.26694],[74.66944,19.24222],[74.67028,19.24389],[74.67167,19.23917],[74.67278,19.22806],[74.67778,19.24528],[74.67972,19.24222],[74.68306,19.25389],[74.70444,19.23361]]},"properties":{"lgdGramPanchayatCode":"167948","count":12,"namedCount":12,"areaHectares":0,"largestAreaHectares":0,"byDepartment":[{"department":"Panchayat","count":12}],"namesSha256":"207d5e4bd54851f5e7206972a5e3693e2679d6b3555e6df9581be39370105632","register":"water-bodies-census","lgdBlockCode":"4209","byType":[{"type":"Water consv schemes/percolation tanks/check-dams","count":12}],"areaBasis":"withheld","pointCount":12}},{"type":"Feature","geometry":{"type":"MultiPoint","coordinates":[[74.80778,18.96056],[74.835,19.15333],[74.83833,19.145],[74.83861,19.15944],[74.83917,19.14389],[74.83944,19.16056],[74.84028,19.1425],[74.84306,19.13972],[74.84556,19.13972]]},"properties":{"lgdGramPanchayatCode":"167949","count":9,"namedCount":9,"areaHectares":0,"largestAreaHectares":0,"byDepartment":[{"department":"Panchayat","count":9}],"namesSha256":"f47dcd9dc9efae091f9dc450951a5f91f83a344654bb575dcfcd56b8640a49bd","register":"water-bodies-census","lgdBlockCode":"4209","byType":[{"type":"Water consv schemes/percolation tanks/check-dams","count":9}],"areaBasis":"withheld","pointCount":9}},{"type":"Feature","geometry":{"type":"MultiPoint","coordinates":[[74.70278,18.89306],[74.70278,18.89306],[74.70278,18.89306],[74.71944,18.93056],[74.73917,18.90667],[74.74111,18.89056],[74.74111,18.90444],[74.74111,18.90444],[74.74111,18.90444],[74.7425,18.9075],[74.74306,18.89333],[74.74611,18.90778],[74.74611,18.90778],[74.74611,18.90778],[74.74722,18.88583],[74.74861,18.91111],[74.74889,18.88278],[74.74972,18.905],[74.74972,18.905],[74.75,18.88472],[74.75,18.90833],[74.75389,18.88611],[74.75417,18.91361],[74.75472,18.91],[74.75694,18.88861],[74.75889,18.91167],[74.81667,18.95],[74.82417,18.92278]]},"properties":{"lgdGramPanchayatCode":"167950","count":28,"namedCount":28,"areaHectares":0,"largestAreaHectares":0,"byDepartment":[{"department":"Panchayat","count":27},{"department":"Group of Individuals","count":1}],"namesSha256":"682ba40233a914031cd65d650439ba0a34cdcb1ee711c419f29ae8dc8e1b0f00","register":"water-bodies-census","lgdBlockCode":"4209","byType":[{"type":"Water consv schemes/percolation tanks/check-dams","count":28}],"areaBasis":"withheld","pointCount":28}},{"type":"Feature","geometry":{"type":"MultiPoint","coordinates":[[74.77611,19.19611],[74.77806,19.19444],[74.78361,19.19139],[74.78639,19.19167]]},"properties":{"lgdGramPanchayatCode":"167951","count":4,"namedCount":4,"areaHectares":0,"largestAreaHectares":0,"byDepartment":[{"department":"Panchayat","count":4}],"namesSha256":"920d3aad0901661b2ad069a0709b8d39b8c1f1020febc9f1899a66820beedb63","register":"water-bodies-census","lgdBlockCode":"4209","byType":[{"type":"Water consv schemes/percolation tanks/check-dams","count":4}],"areaBasis":"withheld","pointCount":4}},{"type":"Feature","geometry":{"type":"MultiPoint","coordinates":[[74.74944,19.25722],[74.75361,19.26111],[74.75778,19.25222],[74.75806,19.25139],[74.76028,19.24778],[74.76056,19.24694],[74.76417,19.24556],[74.76889,19.24472],[74.77083,19.24417],[74.77139,19.23972],[74.77139,19.24167],[74.77361,19.24583],[74.77611,19.25056],[74.77861,19.24306],[74.78639,19.2525],[74.78833,19.25306],[74.79056,19.25028],[74.79167,19.24306]]},"properties":{"lgdGramPanchayatCode":"167952","count":18,"namedCount":18,"areaHectares":0,"largestAreaHectares":0,"byDepartment":[{"department":"Panchayat","count":18}],"namesSha256":"1d3e5634a11f132331f50064ae7266350975b6f2147b18afc817022e6592596a","register":"water-bodies-census","lgdBlockCode":"4209","byType":[{"type":"Water consv schemes/percolation tanks/check-dams","count":18}],"areaBasis":"withheld","pointCount":18}},{"type":"Feature","geometry":{"type":"MultiPoint","coordinates":[[74.64194,18.92583],[74.65361,18.92472],[74.65833,18.91278],[74.65889,18.90417],[74.65917,18.91389],[74.65972,18.91028],[74.66194,18.92472]]},"properties":{"lgdGramPanchayatCode":"167953","count":7,"namedCount":7,"areaHectares":0,"largestAreaHectares":0,"byDepartment":[{"department":"Panchayat","count":7}],"namesSha256":"5bdb757494363d4d036418e5a9e82fae16245e8a8bf85a0fc292757fa117f5ce","register":"water-bodies-census","lgdBlockCode":"4209","byType":[{"type":"Water consv schemes/percolation tanks/check-dams","count":7}],"areaBasis":"withheld","pointCount":7}},{"type":"Feature","geometry":{"type":"MultiPoint","coordinates":[[74.80694,18.8925],[74.80778,18.875],[74.81417,18.8825],[74.81667,18.88833],[74.81806,18.87194],[74.82028,18.89111]]},"properties":{"lgdGramPanchayatCode":"167954","count":6,"namedCount":6,"areaHectares":0,"largestAreaHectares":0,"byDepartment":[{"department":"Panchayat","count":6}],"namesSha256":"b41381e7411fd89c2963ee021aa12e21e8b360521c1da0d365f93d741a463c77","register":"water-bodies-census","lgdBlockCode":"4209","byType":[{"type":"Water consv schemes/percolation tanks/check-dams","count":6}],"areaBasis":"withheld","pointCount":6}},{"type":"Feature","geometry":{"type":"MultiPoint","coordinates":[[74.73306,18.82139],[74.74472,18.81917],[74.75111,18.85611],[74.75167,18.85389],[74.75194,18.83639],[74.75194,18.86139],[74.75194,18.86167],[74.75389,18.83222],[74.75389,18.8575],[74.75417,18.85278],[74.75472,18.85667],[74.75778,18.835],[74.75861,18.83556],[74.75917,18.83806],[74.76333,18.84833],[74.76333,18.84833],[74.76361,18.8225],[74.76556,18.84028],[74.76611,18.81944],[74.76639,18.82139],[74.76778,18.81667],[74.77,18.845],[74.77167,18.83833],[74.77917,18.85667],[74.77972,18.87778],[74.78361,18.85972]]},"properties":{"lgdGramPanchayatCode":"167955","count":26,"namedCount":26,"areaHectares":0,"largestAreaHectares":0,"byDepartment":[{"department":"Panchayat","count":26}],"namesSha256":"c85be29a0f9feacde229a8ee061eff140e795b10c3d2f8867fd0f27077913062","register":"water-bodies-census","lgdBlockCode":"4209","byType":[{"type":"Water consv schemes/percolation tanks/check-dams","count":26}],"areaBasis":"withheld","pointCount":26}},{"type":"Feature","geometry":{"type":"MultiPoint","coordinates":[[74.65333,19.1025],[74.65944,19.10361]]},"properties":{"lgdGramPanchayatCode":"167956","count":2,"namedCount":2,"areaHectares":0,"largestAreaHectares":0,"byDepartment":[{"department":"Panchayat","count":2}],"namesSha256":"63f10334f899ddfb2ac64108da94a26e25d3a705cfce187027737ec91ec3f1e5","register":"water-bodies-census","lgdBlockCode":"4209","byType":[{"type":"Water consv schemes/percolation tanks/check-dams","count":2}],"areaBasis":"withheld","pointCount":2}},{"type":"Feature","geometry":{"type":"MultiPoint","coordinates":[[74.84778,18.88667],[74.88278,18.87139],[74.885,18.85667],[74.88611,18.85944],[74.89139,18.86028]]},"properties":{"lgdGramPanchayatCode":"167957","count":5,"namedCount":5,"areaHectares":0,"largestAreaHectares":0,"byDepartment":[{"department":"Panchayat","count":5}],"namesSha256":"ec8a9bbd3dbbe7fb2084afb8e95714db4fef93e0b1db72bd00de6fd86e7cf68b","register":"water-bodies-census","lgdBlockCode":"4209","byType":[{"type":"Water consv schemes/percolation tanks/check-dams","count":5}],"areaBasis":"withheld","pointCount":5}},{"type":"Feature","geometry":{"type":"MultiPoint","coordinates":[[74.62861,19.11444],[74.63389,19.11444],[74.63722,19.11389],[74.64167,19.10333],[74.645,19.11056]]},"properties":{"lgdGramPanchayatCode":"167958","count":5,"namedCount":5,"areaHectares":0,"largestAreaHectares":0,"byDepartment":[{"department":"Panchayat","count":5}],"namesSha256":"ec8a9bbd3dbbe7fb2084afb8e95714db4fef93e0b1db72bd00de6fd86e7cf68b","register":"water-bodies-census","lgdBlockCode":"4209","byType":[{"type":"Water consv schemes/percolation tanks/check-dams","count":5}],"areaBasis":"withheld","pointCount":5}},{"type":"Feature","geometry":{"type":"MultiPoint","coordinates":[[74.56333,19.1075],[74.59639,19.08],[74.59917,19.07611],[74.59972,19.08444],[74.60556,19.09972],[74.60556,19.09972],[74.60833,19.08]]},"properties":{"lgdGramPanchayatCode":"167959","count":7,"namedCount":7,"areaHectares":0,"largestAreaHectares":0,"byDepartment":[{"department":"Panchayat","count":7}],"namesSha256":"5bdb757494363d4d036418e5a9e82fae16245e8a8bf85a0fc292757fa117f5ce","register":"water-bodies-census","lgdBlockCode":"4209","byType":[{"type":"Water consv schemes/percolation tanks/check-dams","count":7}],"areaBasis":"withheld","pointCount":7}},{"type":"Feature","geometry":{"type":"MultiPoint","coordinates":[[74.6875,18.91333],[74.68889,18.91167],[74.69278,18.91417],[74.69361,18.91389],[74.69444,18.91278],[74.7,18.91417],[74.70194,18.915],[74.70472,18.91639],[74.70972,18.92083],[74.71028,18.93889],[74.71167,18.92361],[74.71306,18.92611],[74.71528,18.93056],[74.71556,18.93889]]},"properties":{"lgdGramPanchayatCode":"167960","count":14,"namedCount":14,"areaHectares":0,"largestAreaHectares":0,"byDepartment":[{"department":"Panchayat","count":14}],"namesSha256":"b9c9173ae60ee3e4ec5c1f90158a55253f8db407cbe6d49c3afb0582a0db8916","register":"water-bodies-census","lgdBlockCode":"4209","byType":[{"type":"Water consv schemes/percolation tanks/check-dams","count":14}],"areaBasis":"withheld","pointCount":14}},{"type":"Feature","geometry":{"type":"MultiPoint","coordinates":[[74.80944,19.225],[74.80944,19.225],[74.81083,19.24361],[74.81111,19.23167],[74.81583,19.23278],[74.81667,19.23861],[74.81833,19.23389],[74.81944,19.23222],[74.82222,19.24111],[74.82278,19.23194],[74.82389,19.23778],[74.82472,19.23778],[74.825,19.2525],[74.82778,19.25139],[74.82778,19.25167],[74.82833,19.24222],[74.82889,19.25389],[74.83722,19.24778]]},"properties":{"lgdGramPanchayatCode":"167961","count":18,"namedCount":18,"areaHectares":0,"largestAreaHectares":0,"byDepartment":[{"department":"Panchayat","count":18}],"namesSha256":"4dab02a88e7b499d1d6e2274015f19d87655b6b845c19e8bd7d8fc1a995288cf","register":"water-bodies-census","lgdBlockCode":"4209","byType":[{"type":"Water consv schemes/percolation tanks/check-dams","count":18}],"areaBasis":"withheld","pointCount":18}},{"type":"Feature","geometry":{"type":"MultiPoint","coordinates":[[74.65389,19.16667],[74.66056,19.15861],[74.67556,19.17222]]},"properties":{"lgdGramPanchayatCode":"167962","count":3,"namedCount":3,"areaHectares":0,"largestAreaHectares":0,"byDepartment":[{"department":"Panchayat","count":3}],"namesSha256":"bded311ff9561fb1886421f74d84f1c33b72ca8363ddd283b2a9b197bc30739c","register":"water-bodies-census","lgdBlockCode":"4209","byType":[{"type":"Water consv schemes/percolation tanks/check-dams","count":3}],"areaBasis":"withheld","pointCount":3}},{"type":"Feature","geometry":{"type":"MultiPoint","coordinates":[[74.62167,19.10528],[74.62778,19.09444],[74.62944,19.09389],[74.63028,19.09861],[74.64528,19.10306],[74.66028,18.97639]]},"properties":{"lgdGramPanchayatCode":"167963","count":6,"namedCount":6,"areaHectares":0,"largestAreaHectares":0,"byDepartment":[{"department":"Panchayat","count":6}],"namesSha256":"b41381e7411fd89c2963ee021aa12e21e8b360521c1da0d365f93d741a463c77","register":"water-bodies-census","lgdBlockCode":"4209","byType":[{"type":"Water consv schemes/percolation tanks/check-dams","count":6}],"areaBasis":"withheld","pointCount":6}},{"type":"Feature","geometry":{"type":"MultiPoint","coordinates":[[74.79056,19.20778],[74.795,19.21278],[74.795,19.21278],[74.8025,19.22472],[74.80472,19.2225],[74.80583,19.21806],[74.80806,19.21083],[74.80944,19.20944],[74.81556,19.21944],[74.81556,19.21944],[74.8275,19.24722]]},"properties":{"lgdGramPanchayatCode":"167964","count":11,"namedCount":11,"areaHectares":0,"largestAreaHectares":0,"byDepartment":[{"department":"Panchayat","count":11}],"namesSha256":"0ff766c186bdb2a4873185bf329ab6606e8deebd2880ef2c0bcb4f4c8113afd2","register":"water-bodies-census","lgdBlockCode":"4209","byType":[{"type":"Water consv schemes/percolation tanks/check-dams","count":11}],"areaBasis":"withheld","pointCount":11}},{"type":"Feature","geometry":{"type":"MultiPoint","coordinates":[[74.58083,19.01194],[74.59917,19.00639],[74.60056,19.00778],[74.61,19.00778]]},"properties":{"lgdGramPanchayatCode":"167965","count":4,"namedCount":4,"areaHectares":0,"largestAreaHectares":0,"byDepartment":[{"department":"Panchayat","count":4}],"namesSha256":"920d3aad0901661b2ad069a0709b8d39b8c1f1020febc9f1899a66820beedb63","register":"water-bodies-census","lgdBlockCode":"4209","byType":[{"type":"Water consv schemes/percolation tanks/check-dams","count":4}],"areaBasis":"withheld","pointCount":4}},{"type":"Feature","geometry":{"type":"MultiPoint","coordinates":[[74.78472,19.12278],[74.78944,19.13528],[74.79472,19.12611],[74.7975,19.12944],[74.80222,19.14056],[74.80472,19.14722],[74.80806,19.12278],[74.81722,19.14111],[74.81861,19.13556]]},"properties":{"lgdGramPanchayatCode":"167966","count":9,"namedCount":9,"areaHectares":0,"largestAreaHectares":0,"byDepartment":[{"department":"Panchayat","count":9}],"namesSha256":"f47dcd9dc9efae091f9dc450951a5f91f83a344654bb575dcfcd56b8640a49bd","register":"water-bodies-census","lgdBlockCode":"4209","byType":[{"type":"Water consv schemes/percolation tanks/check-dams","count":9}],"areaBasis":"withheld","pointCount":9}},{"type":"Feature","geometry":{"type":"MultiPoint","coordinates":[[74.61556,19.15861],[74.63,19.15889],[74.63111,19.1625],[74.63167,19.16139]]},"properties":{"lgdGramPanchayatCode":"167967","count":4,"namedCount":4,"areaHectares":0,"largestAreaHectares":0,"byDepartment":[{"department":"Panchayat","count":4}],"namesSha256":"aed17edfdd8753d385ebecc50a819d62a2037ee8e6131366ca2e09716443f7d9","register":"water-bodies-census","lgdBlockCode":"4209","byType":[{"type":"Water consv schemes/percolation tanks/check-dams","count":4}],"areaBasis":"withheld","pointCount":4}},{"type":"Feature","geometry":{"type":"MultiPoint","coordinates":[[74.69722,18.965],[74.69917,18.95833],[74.70389,18.95556],[74.70833,18.96694],[74.70889,18.97],[74.70917,18.95722],[74.70972,18.97]]},"properties":{"lgdGramPanchayatCode":"167968","count":7,"namedCount":7,"areaHectares":0,"largestAreaHectares":0,"byDepartment":[{"department":"Panchayat","count":7}],"namesSha256":"5bdb757494363d4d036418e5a9e82fae16245e8a8bf85a0fc292757fa117f5ce","register":"water-bodies-census","lgdBlockCode":"4209","byType":[{"type":"Water consv schemes/percolation tanks/check-dams","count":7}],"areaBasis":"withheld","pointCount":7}},{"type":"Feature","geometry":{"type":"MultiPoint","coordinates":[[74.88417,19.13611],[74.88556,19.15306],[74.88722,19.14222],[74.89028,19.13389],[74.89194,19.13306],[74.89472,19.13056],[74.89583,19.12944],[74.8975,19.12889],[74.89861,19.12806],[74.89972,19.12611]]},"properties":{"lgdGramPanchayatCode":"167969","count":10,"namedCount":10,"areaHectares":0,"largestAreaHectares":0,"byDepartment":[{"department":"Panchayat","count":10}],"namesSha256":"dc34b682d6ad42e0015749292502c28d8713aafa8d75a0de346d84407aba9871","register":"water-bodies-census","lgdBlockCode":"4209","byType":[{"type":"Water consv schemes/percolation tanks/check-dams","count":10}],"areaBasis":"withheld","pointCount":10}},{"type":"Feature","geometry":{"type":"MultiPoint","coordinates":[[74.69444,18.99556],[74.70806,18.99389],[74.70806,18.99389]]},"properties":{"lgdGramPanchayatCode":"167970","count":3,"namedCount":3,"areaHectares":0,"largestAreaHectares":0,"byDepartment":[{"department":"Panchayat","count":3}],"namesSha256":"bded311ff9561fb1886421f74d84f1c33b72ca8363ddd283b2a9b197bc30739c","register":"water-bodies-census","lgdBlockCode":"4209","byType":[{"type":"Water consv schemes/percolation tanks/check-dams","count":3}],"areaBasis":"withheld","pointCount":3}},{"type":"Feature","geometry":{"type":"MultiPoint","coordinates":[[74.59167,19.11722],[74.60778,19.11556]]},"properties":{"lgdGramPanchayatCode":"167971","count":2,"namedCount":2,"areaHectares":0,"largestAreaHectares":0,"byDepartment":[{"department":"Panchayat","count":2}],"namesSha256":"63f10334f899ddfb2ac64108da94a26e25d3a705cfce187027737ec91ec3f1e5","register":"water-bodies-census","lgdBlockCode":"4209","byType":[{"type":"Water consv schemes/percolation tanks/check-dams","count":2}],"areaBasis":"withheld","pointCount":2}},{"type":"Feature","geometry":{"type":"MultiPoint","coordinates":[[74.83111,19.26667],[74.83111,19.26694],[74.84417,19.26944],[74.84611,19.26972],[74.85861,19.27528]]},"properties":{"lgdGramPanchayatCode":"167972","count":5,"namedCount":5,"areaHectares":0,"largestAreaHectares":0,"byDepartment":[{"department":"Panchayat","count":5}],"namesSha256":"ec8a9bbd3dbbe7fb2084afb8e95714db4fef93e0b1db72bd00de6fd86e7cf68b","register":"water-bodies-census","lgdBlockCode":"4209","byType":[{"type":"Water consv schemes/percolation tanks/check-dams","count":5}],"areaBasis":"withheld","pointCount":5}},{"type":"Feature","geometry":{"type":"MultiPoint","coordinates":[[74.83861,19.05833],[74.84,19.0625],[74.84056,19.06556],[74.84472,19.06139],[74.84639,19.06167],[74.84694,19.0625],[74.84778,19.06417],[74.84806,19.06778],[74.85167,19.06833],[74.85222,19.06806],[74.85417,19.0675],[74.86,19.04194]]},"properties":{"lgdGramPanchayatCode":"167973","count":12,"namedCount":12,"areaHectares":0,"largestAreaHectares":0,"byDepartment":[{"department":"Panchayat","count":12}],"namesSha256":"8996f8ac9924efd739595bd91e06fa66276540191100071c03e9e25789504985","register":"water-bodies-census","lgdBlockCode":"4209","byType":[{"type":"Water consv schemes/percolation tanks/check-dams","count":11},{"type":"Others","count":1}],"areaBasis":"withheld","pointCount":12}},{"type":"Feature","geometry":{"type":"MultiPoint","coordinates":[[74.895,19.09472],[74.90583,19.09833]]},"properties":{"lgdGramPanchayatCode":"167974","count":2,"namedCount":2,"areaHectares":0,"largestAreaHectares":0,"byDepartment":[{"department":"Panchayat","count":2}],"namesSha256":"63f10334f899ddfb2ac64108da94a26e25d3a705cfce187027737ec91ec3f1e5","register":"water-bodies-census","lgdBlockCode":"4209","byType":[{"type":"Water consv schemes/percolation tanks/check-dams","count":2}],"areaBasis":"withheld","pointCount":2}},{"type":"Feature","geometry":{"type":"MultiPoint","coordinates":[[74.85028,19.04167],[74.85556,19.05361],[74.85583,19.04667],[74.8575,19.04667],[74.86083,19.06],[74.8625,19.04222],[74.86306,19.04139],[74.86417,19.04889]]},"properties":{"lgdGramPanchayatCode":"167975","count":8,"namedCount":8,"areaHectares":0,"largestAreaHectares":0,"byDepartment":[{"department":"Panchayat","count":8}],"namesSha256":"19bc195c4593f0d36cb8213245d267baaca5a0263ea052e31302ecd854befee0","register":"water-bodies-census","lgdBlockCode":"4209","byType":[{"type":"Water consv schemes/percolation tanks/check-dams","count":8}],"areaBasis":"withheld","pointCount":8}},{"type":"Feature","geometry":{"type":"MultiPoint","coordinates":[[74.86972,19.26139],[74.87194,19.2575],[74.87889,19.25611],[74.88306,19.27472]]},"properties":{"lgdGramPanchayatCode":"167976","count":4,"namedCount":4,"areaHectares":0,"largestAreaHectares":0,"byDepartment":[{"department":"Panchayat","count":4}],"namesSha256":"920d3aad0901661b2ad069a0709b8d39b8c1f1020febc9f1899a66820beedb63","register":"water-bodies-census","lgdBlockCode":"4209","byType":[{"type":"Water consv schemes/percolation tanks/check-dams","count":4}],"areaBasis":"withheld","pointCount":4}},{"type":"Feature","geometry":{"type":"MultiPoint","coordinates":[[74.82694,18.9675],[74.84778,18.98417],[74.87417,19.02167],[74.90472,19.00639]]},"properties":{"lgdGramPanchayatCode":"167977","count":4,"namedCount":4,"areaHectares":0,"largestAreaHectares":0,"byDepartment":[{"department":"Panchayat","count":4}],"namesSha256":"920d3aad0901661b2ad069a0709b8d39b8c1f1020febc9f1899a66820beedb63","register":"water-bodies-census","lgdBlockCode":"4209","byType":[{"type":"Water consv schemes/percolation tanks/check-dams","count":4}],"areaBasis":"withheld","pointCount":4}},{"type":"Feature","geometry":{"type":"MultiPoint","coordinates":[[74.73556,19.24972],[74.73667,19.24972],[74.73778,19.25],[74.74083,19.25],[74.74167,19.24944],[74.75056,19.24361],[74.75306,19.24139]]},"properties":{"lgdGramPanchayatCode":"167978","count":7,"namedCount":7,"areaHectares":0,"largestAreaHectares":0,"byDepartment":[{"department":"Panchayat","count":7}],"namesSha256":"5bdb757494363d4d036418e5a9e82fae16245e8a8bf85a0fc292757fa117f5ce","register":"water-bodies-census","lgdBlockCode":"4209","byType":[{"type":"Water consv schemes/percolation tanks/check-dams","count":7}],"areaBasis":"withheld","pointCount":7}},{"type":"Feature","geometry":{"type":"MultiPoint","coordinates":[[74.88444,19.09028],[74.92167,19.12083]]},"properties":{"lgdGramPanchayatCode":"167979","count":2,"namedCount":2,"areaHectares":0,"largestAreaHectares":0,"byDepartment":[{"department":"Panchayat","count":2}],"namesSha256":"a847d6af77d90712f1dc8f31c9834244e091e17867d0ed438a1e5b6a4a4efc41","register":"water-bodies-census","lgdBlockCode":"4209","byType":[{"type":"Water consv schemes/percolation tanks/check-dams","count":2}],"areaBasis":"withheld","pointCount":2}},{"type":"Feature","geometry":{"type":"MultiPoint","coordinates":[[74.86861,18.895],[74.87278,18.89583],[74.87694,18.90556],[74.88056,18.885]]},"properties":{"lgdGramPanchayatCode":"167980","count":4,"namedCount":4,"areaHectares":0,"largestAreaHectares":0,"byDepartment":[{"department":"Panchayat","count":4}],"namesSha256":"920d3aad0901661b2ad069a0709b8d39b8c1f1020febc9f1899a66820beedb63","register":"water-bodies-census","lgdBlockCode":"4209","byType":[{"type":"Water consv schemes/percolation tanks/check-dams","count":4}],"areaBasis":"withheld","pointCount":4}},{"type":"Feature","geometry":{"type":"MultiPoint","coordinates":[[74.85583,19.09167],[74.86056,19.09],[74.86111,19.10694],[74.86306,19.08972],[74.87028,19.08722],[74.87167,19.09306],[74.87222,19.10111],[74.87333,19.12361],[74.87472,19.12139],[74.875,19.11083],[74.91389,19.10472],[74.91389,19.10472]]},"properties":{"lgdGramPanchayatCode":"167981","count":12,"namedCount":12,"areaHectares":0,"largestAreaHectares":0,"byDepartment":[{"department":"Panchayat","count":12}],"namesSha256":"207d5e4bd54851f5e7206972a5e3693e2679d6b3555e6df9581be39370105632","register":"water-bodies-census","lgdBlockCode":"4209","byType":[{"type":"Water consv schemes/percolation tanks/check-dams","count":12}],"areaBasis":"withheld","pointCount":12}},{"type":"Feature","geometry":{"type":"MultiPoint","coordinates":[[74.64556,19.27917],[74.64611,19.27889],[74.64639,19.27889],[74.6475,19.27778],[74.65944,19.28056],[74.65972,19.28556]]},"properties":{"lgdGramPanchayatCode":"167983","count":6,"namedCount":6,"areaHectares":0,"largestAreaHectares":0,"byDepartment":[{"department":"Panchayat","count":6}],"namesSha256":"b41381e7411fd89c2963ee021aa12e21e8b360521c1da0d365f93d741a463c77","register":"water-bodies-census","lgdBlockCode":"4209","byType":[{"type":"Water consv schemes/percolation tanks/check-dams","count":6}],"areaBasis":"withheld","pointCount":6}},{"type":"Feature","geometry":{"type":"MultiPoint","coordinates":[[74.78278,19.06472],[74.80139,19.00472],[74.80833,19.02639],[74.82,19.03889],[74.83167,19.04417]]},"properties":{"lgdGramPanchayatCode":"167984","count":5,"namedCount":5,"areaHectares":0,"largestAreaHectares":0,"byDepartment":[{"department":"Panchayat","count":5}],"namesSha256":"ec8a9bbd3dbbe7fb2084afb8e95714db4fef93e0b1db72bd00de6fd86e7cf68b","register":"water-bodies-census","lgdBlockCode":"4209","byType":[{"type":"Water consv schemes/percolation tanks/check-dams","count":5}],"areaBasis":"withheld","pointCount":5}},{"type":"Feature","geometry":{"type":"MultiPoint","coordinates":[[74.66389,19.07333],[74.66806,19.10417],[74.6725,19.08167],[74.67444,19.10972],[74.67806,19.08611],[74.67944,19.08528],[74.68222,19.11083],[74.69583,19.09972],[74.69667,19.09111]]},"properties":{"lgdGramPanchayatCode":"167985","count":9,"namedCount":9,"areaHectares":0,"largestAreaHectares":0,"byDepartment":[{"department":"Panchayat","count":9}],"namesSha256":"f47dcd9dc9efae091f9dc450951a5f91f83a344654bb575dcfcd56b8640a49bd","register":"water-bodies-census","lgdBlockCode":"4209","byType":[{"type":"Water consv schemes/percolation tanks/check-dams","count":9}],"areaBasis":"withheld","pointCount":9}},{"type":"Feature","geometry":{"type":"MultiPoint","coordinates":[[74.67694,19.18056],[74.68167,19.1575],[74.68167,19.15778]]},"properties":{"lgdGramPanchayatCode":"167986","count":3,"namedCount":3,"areaHectares":0,"largestAreaHectares":0,"byDepartment":[{"department":"Panchayat","count":3}],"namesSha256":"bded311ff9561fb1886421f74d84f1c33b72ca8363ddd283b2a9b197bc30739c","register":"water-bodies-census","lgdBlockCode":"4209","byType":[{"type":"Water consv schemes/percolation tanks/check-dams","count":3}],"areaBasis":"withheld","pointCount":3}},{"type":"Feature","geometry":{"type":"MultiPoint","coordinates":[[74.79639,19.06472],[74.79667,19.06917],[74.79944,19.06639],[74.79944,19.06639],[74.80944,19.07444]]},"properties":{"lgdGramPanchayatCode":"167987","count":5,"namedCount":5,"areaHectares":0,"largestAreaHectares":0,"byDepartment":[{"department":"Panchayat","count":5}],"namesSha256":"ec8a9bbd3dbbe7fb2084afb8e95714db4fef93e0b1db72bd00de6fd86e7cf68b","register":"water-bodies-census","lgdBlockCode":"4209","byType":[{"type":"Water consv schemes/percolation tanks/check-dams","count":5}],"areaBasis":"withheld","pointCount":5}},{"type":"Feature","geometry":{"type":"MultiPoint","coordinates":[[74.55472,19.11528],[74.56833,19.13556],[74.56861,19.13583],[74.57639,19.14278],[74.57639,19.14278],[74.57833,19.15611],[74.57833,19.15806],[74.57861,19.14944],[74.57889,19.14194],[74.57889,19.14444],[74.58,19.15583],[74.58,19.16],[74.58083,19.14806],[74.58083,19.16],[74.58139,19.16]]},"properties":{"lgdGramPanchayatCode":"167988","count":15,"namedCount":15,"areaHectares":0,"largestAreaHectares":0,"byDepartment":[{"department":"Panchayat","count":15}],"namesSha256":"81d272d16bc68b049a15f69f58c042ef8f47c6499b7d01bef5436af608abe1c8","register":"water-bodies-census","lgdBlockCode":"4209","byType":[{"type":"Water consv schemes/percolation tanks/check-dams","count":15}],"areaBasis":"withheld","pointCount":15}},{"type":"Feature","geometry":{"type":"MultiPoint","coordinates":[[74.63306,19.07139],[74.63806,19.06278],[74.64056,19.06389],[74.64194,19.06583],[74.64194,19.06583],[74.64306,19.07167],[74.64306,19.07583],[74.64861,19.06444],[74.64889,19.06833],[74.64944,19.09778],[74.65278,19.08111],[74.65528,19.06444],[74.65833,19.07278],[74.66306,19.07278],[74.69028,19.08611]]},"properties":{"lgdGramPanchayatCode":"167989","count":15,"namedCount":15,"areaHectares":0,"largestAreaHectares":0,"byDepartment":[{"department":"Panchayat","count":15}],"namesSha256":"3e005d65dc4ca9f5c8c882fe5530e07911aeae1d40ff803b7f5183cc902fcfc2","register":"water-bodies-census","lgdBlockCode":"4209","byType":[{"type":"Water consv schemes/percolation tanks/check-dams","count":15}],"areaBasis":"withheld","pointCount":15}},{"type":"Feature","geometry":{"type":"MultiPoint","coordinates":[[74.86639,19.26972],[74.87083,19.27083],[74.88333,19.2775],[74.885,19.28139]]},"properties":{"lgdGramPanchayatCode":"167990","count":4,"namedCount":4,"areaHectares":0,"largestAreaHectares":0,"byDepartment":[{"department":"Panchayat","count":4}],"namesSha256":"920d3aad0901661b2ad069a0709b8d39b8c1f1020febc9f1899a66820beedb63","register":"water-bodies-census","lgdBlockCode":"4209","byType":[{"type":"Water consv schemes/percolation tanks/check-dams","count":4}],"areaBasis":"withheld","pointCount":4}},{"type":"Feature","geometry":{"type":"MultiPoint","coordinates":[[74.8675,19.08833],[74.88389,19.06694],[74.9225,19.05028]]},"properties":{"lgdGramPanchayatCode":"167991","count":3,"namedCount":3,"areaHectares":0,"largestAreaHectares":0,"byDepartment":[{"department":"Panchayat","count":3}],"namesSha256":"bded311ff9561fb1886421f74d84f1c33b72ca8363ddd283b2a9b197bc30739c","register":"water-bodies-census","lgdBlockCode":"4209","byType":[{"type":"Water consv schemes/percolation tanks/check-dams","count":3}],"areaBasis":"withheld","pointCount":3}},{"type":"Feature","geometry":{"type":"MultiPoint","coordinates":[[74.89778,19.07556]]},"properties":{"lgdGramPanchayatCode":"167992","count":1,"namedCount":1,"areaHectares":0,"largestAreaHectares":0,"byDepartment":[{"department":"Panchayat","count":1}],"namesSha256":"b01d969c4b9ffe65535dbf2d4f791ef586693af16bc66188a7c6df319fc23862","register":"water-bodies-census","lgdBlockCode":"4209","byType":[{"type":"Water consv schemes/percolation tanks/check-dams","count":1}],"areaBasis":"withheld","pointCount":1}},{"type":"Feature","geometry":{"type":"MultiPoint","coordinates":[[74.78889,18.99417],[74.78944,18.98306]]},"properties":{"lgdGramPanchayatCode":"167993","count":2,"namedCount":2,"areaHectares":0,"largestAreaHectares":0,"byDepartment":[{"department":"Panchayat","count":2}],"namesSha256":"63f10334f899ddfb2ac64108da94a26e25d3a705cfce187027737ec91ec3f1e5","register":"water-bodies-census","lgdBlockCode":"4209","byType":[{"type":"Water consv schemes/percolation tanks/check-dams","count":2}],"areaBasis":"withheld","pointCount":2}},{"type":"Feature","geometry":{"type":"MultiPoint","coordinates":[[74.87,19.08806]]},"properties":{"lgdGramPanchayatCode":"167994","count":1,"namedCount":1,"areaHectares":0,"largestAreaHectares":0,"byDepartment":[{"department":"Panchayat","count":1}],"namesSha256":"b01d969c4b9ffe65535dbf2d4f791ef586693af16bc66188a7c6df319fc23862","register":"water-bodies-census","lgdBlockCode":"4209","byType":[{"type":"Water consv schemes/percolation tanks/check-dams","count":1}],"areaBasis":"withheld","pointCount":1}},{"type":"Feature","geometry":{"type":"MultiPoint","coordinates":[[74.56278,19.00194],[74.57028,19.0075],[74.57333,19.00917],[74.58056,19.00611],[74.5875,18.99611],[74.6075,19.01306]]},"properties":{"lgdGramPanchayatCode":"167995","count":6,"namedCount":6,"areaHectares":0,"largestAreaHectares":0,"byDepartment":[{"department":"Panchayat","count":6}],"namesSha256":"b41381e7411fd89c2963ee021aa12e21e8b360521c1da0d365f93d741a463c77","register":"water-bodies-census","lgdBlockCode":"4209","byType":[{"type":"Water consv schemes/percolation tanks/check-dams","count":6}],"areaBasis":"withheld","pointCount":6}},{"type":"Feature","geometry":{"type":"MultiPoint","coordinates":[[74.72667,19.19389],[74.73472,19.19889],[74.73694,19.19694],[74.73917,19.20056],[74.74667,19.20583],[74.76028,19.20139],[74.76056,19.20611],[74.76111,19.21389],[74.79056,19.20778]]},"properties":{"lgdGramPanchayatCode":"167996","count":9,"namedCount":9,"areaHectares":0,"largestAreaHectares":0,"byDepartment":[{"department":"Panchayat","count":9}],"namesSha256":"f47dcd9dc9efae091f9dc450951a5f91f83a344654bb575dcfcd56b8640a49bd","register":"water-bodies-census","lgdBlockCode":"4209","byType":[{"type":"Water consv schemes/percolation tanks/check-dams","count":9}],"areaBasis":"withheld","pointCount":9}},{"type":"Feature","geometry":{"type":"MultiPoint","coordinates":[[74.61722,19.06167],[74.68833,19.0975],[74.69083,19.1275]]},"properties":{"lgdGramPanchayatCode":"167998","count":3,"namedCount":2,"areaHectares":0,"largestAreaHectares":0,"byDepartment":[{"department":"Panchayat","count":3}],"namesSha256":"63f10334f899ddfb2ac64108da94a26e25d3a705cfce187027737ec91ec3f1e5","register":"water-bodies-census","lgdBlockCode":"4209","byType":[{"type":"Water consv schemes/percolation tanks/check-dams","count":3}],"areaBasis":"withheld","pointCount":3}},{"type":"Feature","geometry":{"type":"MultiPoint","coordinates":[[74.76278,19.16333],[74.76667,19.15167],[74.77389,19.15861],[74.77472,19.15917]]},"properties":{"lgdGramPanchayatCode":"167999","count":4,"namedCount":4,"areaHectares":0,"largestAreaHectares":0,"byDepartment":[{"department":"Panchayat","count":4}],"namesSha256":"920d3aad0901661b2ad069a0709b8d39b8c1f1020febc9f1899a66820beedb63","register":"water-bodies-census","lgdBlockCode":"4209","byType":[{"type":"Water consv schemes/percolation tanks/check-dams","count":4}],"areaBasis":"withheld","pointCount":4}},{"type":"Feature","geometry":{"type":"MultiPoint","coordinates":[[74.75944,18.8575],[74.76694,18.86694],[74.77528,18.85],[74.77722,18.85667],[74.77944,18.85583],[74.78194,18.85972],[74.78194,18.87361],[74.78417,18.86889]]},"properties":{"lgdGramPanchayatCode":"168000","count":8,"namedCount":8,"areaHectares":0,"largestAreaHectares":0,"byDepartment":[{"department":"Panchayat","count":8}],"namesSha256":"49056ed88e9c252a77d88914657c05308fab82081fc07bf7d2b7eeeb95178b1f","register":"water-bodies-census","lgdBlockCode":"4209","byType":[{"type":"Water consv schemes/percolation tanks/check-dams","count":8}],"areaBasis":"withheld","pointCount":8}},{"type":"Feature","geometry":{"type":"MultiPoint","coordinates":[[74.89194,19.15861],[74.89722,19.15917],[74.89972,19.15861],[74.90139,19.16361],[74.90194,19.15917],[74.90194,19.16694],[74.90222,19.16528],[74.90944,19.12278]]},"properties":{"lgdGramPanchayatCode":"168001","count":8,"namedCount":8,"areaHectares":0,"largestAreaHectares":0,"byDepartment":[{"department":"Panchayat","count":8}],"namesSha256":"49056ed88e9c252a77d88914657c05308fab82081fc07bf7d2b7eeeb95178b1f","register":"water-bodies-census","lgdBlockCode":"4209","byType":[{"type":"Water consv schemes/percolation tanks/check-dams","count":8}],"areaBasis":"withheld","pointCount":8}},{"type":"Feature","geometry":{"type":"MultiPoint","coordinates":[[74.66278,19.04167],[74.78389,18.85889],[74.83833,19.1225],[74.84917,19.13556],[74.85056,19.13167],[74.85167,19.12778],[74.85222,19.12528],[74.8525,19.13],[74.85361,19.13139],[74.855,19.13194],[74.85611,19.1325],[74.86194,19.12694],[74.86333,19.13528]]},"properties":{"lgdGramPanchayatCode":"168002","count":13,"namedCount":13,"areaHectares":0,"largestAreaHectares":0,"byDepartment":[{"department":"Panchayat","count":13}],"namesSha256":"b4cf362c70dbdea3681e450fa28e2dbc9402e2553da32b7447d4467ff133c68b","register":"water-bodies-census","lgdBlockCode":"4209","byType":[{"type":"Water consv schemes/percolation tanks/check-dams","count":13}],"areaBasis":"withheld","pointCount":13}},{"type":"Feature","geometry":{"type":"MultiPoint","coordinates":[[74.81583,18.89583],[74.8225,18.91667],[74.82361,18.89528],[74.82556,18.91806],[74.82667,18.89861],[74.82667,18.9175],[74.82972,18.91722],[74.82972,18.91722],[74.83528,18.91944],[74.84,18.90333],[74.84444,18.89472],[74.84806,18.90361],[74.84833,18.90778]]},"properties":{"lgdGramPanchayatCode":"168003","count":13,"namedCount":13,"areaHectares":0,"largestAreaHectares":0,"byDepartment":[{"department":"Panchayat","count":13}],"namesSha256":"b4cf362c70dbdea3681e450fa28e2dbc9402e2553da32b7447d4467ff133c68b","register":"water-bodies-census","lgdBlockCode":"4209","byType":[{"type":"Water consv schemes/percolation tanks/check-dams","count":13}],"areaBasis":"withheld","pointCount":13}},{"type":"Feature","geometry":{"type":"MultiPoint","coordinates":[[74.79361,18.94417],[74.80611,18.95778]]},"properties":{"lgdGramPanchayatCode":"168004","count":2,"namedCount":2,"areaHectares":0,"largestAreaHectares":0,"byDepartment":[{"department":"Panchayat","count":2}],"namesSha256":"63f10334f899ddfb2ac64108da94a26e25d3a705cfce187027737ec91ec3f1e5","register":"water-bodies-census","lgdBlockCode":"4209","byType":[{"type":"Water consv schemes/percolation tanks/check-dams","count":2}],"areaBasis":"withheld","pointCount":2}},{"type":"Feature","geometry":{"type":"MultiPoint","coordinates":[[74.86722,19.00444],[74.8725,19.01306],[74.87722,19.00278],[74.90444,19.00694]]},"properties":{"lgdGramPanchayatCode":"168005","count":4,"namedCount":4,"areaHectares":0,"largestAreaHectares":0,"byDepartment":[{"department":"Panchayat","count":4}],"namesSha256":"920d3aad0901661b2ad069a0709b8d39b8c1f1020febc9f1899a66820beedb63","register":"water-bodies-census","lgdBlockCode":"4209","byType":[{"type":"Water consv schemes/percolation tanks/check-dams","count":4}],"areaBasis":"withheld","pointCount":4}},{"type":"Feature","geometry":{"type":"MultiPoint","coordinates":[[74.80444,19.06361],[74.82278,19.05833],[74.82389,19.06167]]},"properties":{"lgdGramPanchayatCode":"168006","count":3,"namedCount":3,"areaHectares":0,"largestAreaHectares":0,"byDepartment":[{"department":"Panchayat","count":3}],"namesSha256":"bded311ff9561fb1886421f74d84f1c33b72ca8363ddd283b2a9b197bc30739c","register":"water-bodies-census","lgdBlockCode":"4209","byType":[{"type":"Water consv schemes/percolation tanks/check-dams","count":3}],"areaBasis":"withheld","pointCount":3}},{"type":"Feature","geometry":{"type":"MultiPoint","coordinates":[[74.64278,18.9425],[74.64722,18.94333],[74.65,18.9375],[74.65194,18.94111],[74.65417,18.94556],[74.66333,18.95056],[74.66611,18.96],[74.68278,18.95167],[74.68278,18.95333],[74.68889,18.97139]]},"properties":{"lgdGramPanchayatCode":"168007","count":10,"namedCount":10,"areaHectares":0,"largestAreaHectares":0,"byDepartment":[{"department":"Panchayat","count":10}],"namesSha256":"dc34b682d6ad42e0015749292502c28d8713aafa8d75a0de346d84407aba9871","register":"water-bodies-census","lgdBlockCode":"4209","byType":[{"type":"Water consv schemes/percolation tanks/check-dams","count":10}],"areaBasis":"withheld","pointCount":10}},{"type":"Feature","geometry":{"type":"MultiPoint","coordinates":[[74.83139,19.20028],[74.83167,19.20028],[74.83194,19.2],[74.83333,19.19972],[74.83361,19.19417],[74.83361,19.20722],[74.83444,19.21694],[74.83611,19.19917],[74.83611,19.19917]]},"properties":{"lgdGramPanchayatCode":"168008","count":9,"namedCount":9,"areaHectares":0,"largestAreaHectares":0,"byDepartment":[{"department":"Panchayat","count":8},{"department":"Group of Individuals","count":1}],"namesSha256":"f47dcd9dc9efae091f9dc450951a5f91f83a344654bb575dcfcd56b8640a49bd","register":"water-bodies-census","lgdBlockCode":"4209","byType":[{"type":"Water consv schemes/percolation tanks/check-dams","count":9}],"areaBasis":"withheld","pointCount":9}},{"type":"Feature","geometry":{"type":"MultiPoint","coordinates":[[74.74556,19.16111],[74.74583,19.16111],[74.76083,19.16528],[74.76278,19.16333],[74.76278,19.16333],[74.76417,19.16444],[74.76806,19.155],[74.76944,19.16278],[74.76972,19.16278],[74.77028,19.16556],[74.77056,19.16139],[74.77194,19.16222],[74.77278,19.16222]]},"properties":{"lgdGramPanchayatCode":"168010","count":13,"namedCount":13,"areaHectares":0,"largestAreaHectares":0,"byDepartment":[{"department":"Panchayat","count":11},{"department":"Group of Individuals","count":2}],"namesSha256":"b4cf362c70dbdea3681e450fa28e2dbc9402e2553da32b7447d4467ff133c68b","register":"water-bodies-census","lgdBlockCode":"4209","byType":[{"type":"Water consv schemes/percolation tanks/check-dams","count":13}],"areaBasis":"withheld","pointCount":13}},{"type":"Feature","geometry":{"type":"MultiPoint","coordinates":[[74.65833,19.26556],[74.66167,19.26944]]},"properties":{"lgdGramPanchayatCode":"168011","count":2,"namedCount":2,"areaHectares":0,"largestAreaHectares":0,"byDepartment":[{"department":"Panchayat","count":2}],"namesSha256":"63f10334f899ddfb2ac64108da94a26e25d3a705cfce187027737ec91ec3f1e5","register":"water-bodies-census","lgdBlockCode":"4209","byType":[{"type":"Water consv schemes/percolation tanks/check-dams","count":2}],"areaBasis":"withheld","pointCount":2}},{"type":"Feature","geometry":{"type":"MultiPoint","coordinates":[[74.66361,18.99861],[74.68083,19.02611],[74.68083,19.02611],[74.68444,19.02639],[74.68472,19.01694]]},"properties":{"lgdGramPanchayatCode":"168013","count":5,"namedCount":5,"areaHectares":0,"largestAreaHectares":0,"byDepartment":[{"department":"Panchayat","count":5}],"namesSha256":"ec8a9bbd3dbbe7fb2084afb8e95714db4fef93e0b1db72bd00de6fd86e7cf68b","register":"water-bodies-census","lgdBlockCode":"4209","byType":[{"type":"Water consv schemes/percolation tanks/check-dams","count":5}],"areaBasis":"withheld","pointCount":5}},{"type":"Feature","geometry":{"type":"MultiPoint","coordinates":[[74.83361,19.04222],[74.83778,19.04111],[74.84056,19.03667],[74.84611,19.04667]]},"properties":{"lgdGramPanchayatCode":"168015","count":4,"namedCount":4,"areaHectares":0,"largestAreaHectares":0,"byDepartment":[{"department":"Panchayat","count":4}],"namesSha256":"920d3aad0901661b2ad069a0709b8d39b8c1f1020febc9f1899a66820beedb63","register":"water-bodies-census","lgdBlockCode":"4209","byType":[{"type":"Water consv schemes/percolation tanks/check-dams","count":4}],"areaBasis":"withheld","pointCount":4}},{"type":"Feature","geometry":{"type":"MultiPoint","coordinates":[[74.59083,19.10722],[74.59472,19.11333],[74.59833,19.11417],[74.60222,19.0925],[74.60361,19.11639],[74.60417,19.11694],[74.60806,19.10056],[74.61528,19.11472]]},"properties":{"lgdGramPanchayatCode":"168016","count":8,"namedCount":8,"areaHectares":0,"largestAreaHectares":0,"byDepartment":[{"department":"Panchayat","count":8}],"namesSha256":"49056ed88e9c252a77d88914657c05308fab82081fc07bf7d2b7eeeb95178b1f","register":"water-bodies-census","lgdBlockCode":"4209","byType":[{"type":"Water consv schemes/percolation tanks/check-dams","count":8}],"areaBasis":"withheld","pointCount":8}},{"type":"Feature","geometry":{"type":"MultiPoint","coordinates":[[74.70778,18.98472],[74.82111,19.00528],[74.83389,18.99694],[74.83639,19.01944]]},"properties":{"lgdGramPanchayatCode":"168019","count":4,"namedCount":4,"areaHectares":0,"largestAreaHectares":0,"byDepartment":[{"department":"Panchayat","count":4}],"namesSha256":"920d3aad0901661b2ad069a0709b8d39b8c1f1020febc9f1899a66820beedb63","register":"water-bodies-census","lgdBlockCode":"4209","byType":[{"type":"Water consv schemes/percolation tanks/check-dams","count":4}],"areaBasis":"withheld","pointCount":4}},{"type":"Feature","geometry":{"type":"MultiPoint","coordinates":[[74.75417,19.05444],[74.75778,19.05139],[74.75889,19.05972]]},"properties":{"lgdGramPanchayatCode":"168024","count":3,"namedCount":3,"areaHectares":0,"largestAreaHectares":0,"byDepartment":[{"department":"Panchayat","count":3}],"namesSha256":"bded311ff9561fb1886421f74d84f1c33b72ca8363ddd283b2a9b197bc30739c","register":"water-bodies-census","lgdBlockCode":"4209","byType":[{"type":"Water consv schemes/percolation tanks/check-dams","count":3}],"areaBasis":"withheld","pointCount":3}},{"type":"Feature","geometry":{"type":"MultiPoint","coordinates":[[74.76306,18.99583]]},"properties":{"lgdGramPanchayatCode":"168026","count":1,"namedCount":0,"areaHectares":0,"largestAreaHectares":0,"byDepartment":[{"department":"Panchayat","count":1}],"namesSha256":"4f53cda18c2baa0c0354bb5f9a3ecbe5ed12ab4d8e11ba873c2f11161202b945","register":"water-bodies-census","lgdBlockCode":"4209","byType":[{"type":"Water consv schemes/percolation tanks/check-dams","count":1}],"areaBasis":"withheld","pointCount":1}}]}
