{"nvdm":"1.0","dataset":"atlas/water-bodies","scope":{"kind":"district","id":"mh-ahilyanagar"},"provenance":{"sources":[{"id":"water-bodies-census-mh","title":"First Census of Water Bodies, Maharashtra state return (data.gov.in resource e1874d07)","publisher":"Department of Water Resources, River Development and Ganga Rejuvenation, Ministry of Jal Shakti, via the Open Government Data Platform","license":"Government Open Data License - India","role":"asserts","url":"https://data.gov.in/resource/state-wise-data-first-census-water-bodies-maharashtra","as_of":"2026-02-10","retrieved":"2026-09-02"}],"method":"api","produced_at":"2026-09-02","produced_by":"scripts/atlas-water-bodies-census-district.ts","internal_inputs":["public/data/atlas/mh/ahilyanagar/directory.json"],"note":"First Census of Water Bodies rows for Shrigonda taluka: 315 water bodies assigned to 64 Gram Panchayats through the LGD coverage register (the census locates each in a Census 2011 village; a village under exactly one Panchayat is assigned), rolled up per Panchayat (count, named count, type and ownership classes, a digest of the sorted names) with the enumerators' coordinates served as MultiPoint geometry under the Government Open Data License. 72 rows of the taluka are counted and not assigned (ext.atlas.unassigned: a village listed under two Panchayats, under none, a Census village with no LGD row, a town). Waterspread is withheld: The Ahmadnagar return shows the template pattern in a 1,200-row sample: 20 distinct whole-number waterspread values with 0 on a majority of rows and depth NA on half, an enumerator's default rather than a measurement, so the waterspread is not published. Counts, types, ownership and recorded coordinates are served. A Panchayat absent here has no row in the return.","conventions":{"geometry":"MultiPoint of the recorded coordinates, five decimals, points outside the district's own bounding box dropped and counted in ext.atlas.pointsOutsideDistrict (a district total)","join":"unique_id part 5 is the Census 2011 village code; the directory's LGD coverage register names the Panchayat; shared, uncovered and unknown villages and urban rows are counted in ext.atlas.unassigned, never pooled","holder":"byDepartment carries the census ownership class (the register's holder axis); byType the census water-body class","vintage":"reference years 2017-18 to 2020-21, published 2023; the portal's resource stamp is the edition watched"}},"ext":{"atlas":{"schemaVersion":1,"planId":"mh-ahilyanagar-v1","blockCode":"4212","blockName":"Shrigonda","register":"water-bodies-census","districtLgdCode":"466","acquiredAt":"2026-09-02","layer":"First Census of Water Bodies, Maharashtra return (data.gov.in resource e1874d07-a1db-4678-80c1-b64a2924b517)","sourceUrl":"https://api.data.gov.in/resource/e1874d07-a1db-4678-80c1-b64a2924b517?format=json&limit=all&filters[district_name]=AHMADNAGAR","rights":{"status":"open","termsUrl":"https://data.gov.in/resource/state-wise-data-first-census-water-bodies-maharashtra","termsQuote":"Government Open Data License - India","approval":null},"contributingDepartments":["Co-operative","Group of Individuals","Individual","Muncipal authority","Other Govt.Agency","Other private body","Panchayat","State WRD/State Irrigation"],"snapshotSha256":"0b2c46516c81afa04140a770b91348e5b666f0d7ffdadd16d78277a15a1e250e","featureCount":315,"recordCount":64,"recordsSha256":"86244b66581898110c4d33b8aca0a296b932e67e6e19484a19cde198629f30d7","unassigned":{"sharedVillage":0,"uncoveredVillage":72,"censusVillageWithoutLgdRow":0,"unknownVillage":0,"urban":0},"unassignedDistrict":{"sharedVillage":33,"uncoveredVillage":666,"censusVillageWithoutLgdRow":10,"unknownVillage":9,"urban":66},"attributes":{"waterspread":"withheld","note":"The Ahmadnagar return shows the template pattern in a 1,200-row sample: 20 distinct whole-number waterspread values with 0 on a majority of rows and depth NA on half, an enumerator's default rather than a measurement, so the waterspread is not published. Counts, types, ownership and recorded coordinates are served."},"pointsOutsideDistrict":0}},"type":"FeatureCollection","features":[{"type":"Feature","geometry":{"type":"MultiPoint","coordinates":[[74.74694,18.68667],[74.76056,18.63028],[74.76222,18.64],[74.76472,18.6375],[74.76806,18.64028],[74.77306,18.64639],[74.78833,18.67778]]},"properties":{"lgdGramPanchayatCode":"168724","count":7,"namedCount":7,"areaHectares":0,"largestAreaHectares":0,"byDepartment":[{"department":"Panchayat","count":7}],"namesSha256":"0ebac622509015aaa592bea015cf944bce17d23c9495942777e9be209d5d832f","register":"water-bodies-census","lgdBlockCode":"4212","byType":[{"type":"Water consv schemes/percolation tanks/check-dams","count":7}],"areaBasis":"withheld","pointCount":7}},{"type":"Feature","geometry":{"type":"MultiPoint","coordinates":[[74.64778,18.52056]]},"properties":{"lgdGramPanchayatCode":"168727","count":1,"namedCount":1,"areaHectares":0,"largestAreaHectares":0,"byDepartment":[{"department":"State WRD/State Irrigation","count":1}],"namesSha256":"70eb0d0f9ffdf61981ed4bd8582f80cb7c2e9f3e7a17936431bb1f8feaf257fb","register":"water-bodies-census","lgdBlockCode":"4212","byType":[{"type":"Water consv schemes/percolation tanks/check-dams","count":1}],"areaBasis":"withheld","pointCount":1}},{"type":"Feature","geometry":{"type":"MultiPoint","coordinates":[[74.49139,18.79],[74.49139,18.79],[74.49444,18.78694],[74.50139,18.81722],[74.50333,18.80917],[74.50333,18.81667],[74.50361,18.76528],[74.50361,18.78917],[74.50472,18.82028],[74.51528,18.82389]]},"properties":{"lgdGramPanchayatCode":"168728","count":10,"namedCount":10,"areaHectares":0,"largestAreaHectares":0,"byDepartment":[{"department":"Panchayat","count":9},{"department":"Muncipal authority","count":1}],"namesSha256":"dc34b682d6ad42e0015749292502c28d8713aafa8d75a0de346d84407aba9871","register":"water-bodies-census","lgdBlockCode":"4212","byType":[{"type":"Water consv schemes/percolation tanks/check-dams","count":10}],"areaBasis":"withheld","pointCount":10}},{"type":"Feature","geometry":{"type":"MultiPoint","coordinates":[[74.57083,18.61278],[74.63194,18.64333],[74.63333,18.62639],[74.64472,18.63444]]},"properties":{"lgdGramPanchayatCode":"168730","count":4,"namedCount":4,"areaHectares":0,"largestAreaHectares":0,"byDepartment":[{"department":"Panchayat","count":3},{"department":"Group of Individuals","count":1}],"namesSha256":"920d3aad0901661b2ad069a0709b8d39b8c1f1020febc9f1899a66820beedb63","register":"water-bodies-census","lgdBlockCode":"4212","byType":[{"type":"Water consv schemes/percolation tanks/check-dams","count":3},{"type":"Reservoirs","count":1}],"areaBasis":"withheld","pointCount":4}},{"type":"Feature","geometry":{"type":"MultiPoint","coordinates":[[74.81167,18.78056],[74.8775,18.83556],[74.8775,18.83556],[74.8775,18.83556],[74.87861,18.83472],[74.88139,18.83361],[74.88361,18.83222],[74.93444,18.78778]]},"properties":{"lgdGramPanchayatCode":"168731","count":8,"namedCount":8,"areaHectares":0,"largestAreaHectares":0,"byDepartment":[{"department":"State WRD/State Irrigation","count":8}],"namesSha256":"92f0a9fc6cb5d4f2cab05450c6f0e53957e3c26b63c9c38aaeca90bf9cba28bd","register":"water-bodies-census","lgdBlockCode":"4212","byType":[{"type":"Water consv schemes/percolation tanks/check-dams","count":8}],"areaBasis":"withheld","pointCount":8}},{"type":"Feature","geometry":{"type":"MultiPoint","coordinates":[[74.81056,18.76833],[74.83972,18.75944],[74.84417,18.75222],[74.85778,18.86917],[74.85778,18.86917],[74.85778,18.86917],[74.88083,18.80083],[74.88222,18.80028],[74.88667,18.80167]]},"properties":{"lgdGramPanchayatCode":"168732","count":9,"namedCount":9,"areaHectares":0,"largestAreaHectares":0,"byDepartment":[{"department":"Panchayat","count":9}],"namesSha256":"2b35ca6e1a9c608227ead1bd7cbc8c435a80253e76128bc906afab1fc554d06c","register":"water-bodies-census","lgdBlockCode":"4212","byType":[{"type":"Water consv schemes/percolation tanks/check-dams","count":9}],"areaBasis":"withheld","pointCount":9}},{"type":"Feature","geometry":{"type":"MultiPoint","coordinates":[[74.55333,18.725],[74.57167,18.72833],[74.575,18.73361],[74.59444,18.72611],[74.59778,18.73306],[74.59944,18.73444],[74.60556,18.71639]]},"properties":{"lgdGramPanchayatCode":"168733","count":7,"namedCount":7,"areaHectares":0,"largestAreaHectares":0,"byDepartment":[{"department":"State WRD/State Irrigation","count":7}],"namesSha256":"b911120923e9a7cbc4fccc5d91ceaeac26cfd4b78af0b0ff9a206ed99a999d3c","register":"water-bodies-census","lgdBlockCode":"4212","byType":[{"type":"Water consv schemes/percolation tanks/check-dams","count":7}],"areaBasis":"withheld","pointCount":7}},{"type":"Feature","geometry":{"type":"MultiPoint","coordinates":[[74.7175,18.65611]]},"properties":{"lgdGramPanchayatCode":"168734","count":1,"namedCount":1,"areaHectares":0,"largestAreaHectares":0,"byDepartment":[{"department":"Panchayat","count":1}],"namesSha256":"b01d969c4b9ffe65535dbf2d4f791ef586693af16bc66188a7c6df319fc23862","register":"water-bodies-census","lgdBlockCode":"4212","byType":[{"type":"Water consv schemes/percolation tanks/check-dams","count":1}],"areaBasis":"withheld","pointCount":1}},{"type":"Feature","geometry":{"type":"MultiPoint","coordinates":[[74.73778,18.72222],[74.73944,18.71278],[74.73944,18.765],[74.74417,18.70917],[74.74472,18.72417],[74.745,18.72389],[74.74556,18.73556],[74.74667,18.75722],[74.74722,18.72722],[74.74944,18.71778],[74.75083,18.72944],[74.75417,18.73556],[74.79861,18.69972]]},"properties":{"lgdGramPanchayatCode":"168735","count":13,"namedCount":13,"areaHectares":0,"largestAreaHectares":0,"byDepartment":[{"department":"Panchayat","count":13}],"namesSha256":"b4cf362c70dbdea3681e450fa28e2dbc9402e2553da32b7447d4467ff133c68b","register":"water-bodies-census","lgdBlockCode":"4212","byType":[{"type":"Water consv schemes/percolation tanks/check-dams","count":13}],"areaBasis":"withheld","pointCount":13}},{"type":"Feature","geometry":{"type":"MultiPoint","coordinates":[[74.56472,18.84361],[74.565,18.86361],[74.56583,18.84972],[74.56611,18.84806],[74.56889,18.84306],[74.58833,18.84889]]},"properties":{"lgdGramPanchayatCode":"168737","count":6,"namedCount":6,"areaHectares":0,"largestAreaHectares":0,"byDepartment":[{"department":"Panchayat","count":6}],"namesSha256":"b41381e7411fd89c2963ee021aa12e21e8b360521c1da0d365f93d741a463c77","register":"water-bodies-census","lgdBlockCode":"4212","byType":[{"type":"Water consv schemes/percolation tanks/check-dams","count":6}],"areaBasis":"withheld","pointCount":6}},{"type":"Feature","geometry":{"type":"MultiPoint","coordinates":[[74.77722,18.58222],[74.78278,18.56639],[74.79667,18.55139],[74.84389,18.57361]]},"properties":{"lgdGramPanchayatCode":"168738","count":4,"namedCount":4,"areaHectares":0,"largestAreaHectares":0,"byDepartment":[{"department":"Panchayat","count":4}],"namesSha256":"920d3aad0901661b2ad069a0709b8d39b8c1f1020febc9f1899a66820beedb63","register":"water-bodies-census","lgdBlockCode":"4212","byType":[{"type":"Water consv schemes/percolation tanks/check-dams","count":4}],"areaBasis":"withheld","pointCount":4}},{"type":"Feature","geometry":{"type":"MultiPoint","coordinates":[[74.68583,18.87889],[74.68667,18.87278],[74.695,18.88222],[74.70194,18.90306],[74.70889,18.89556],[74.71111,18.88861]]},"properties":{"lgdGramPanchayatCode":"168741","count":6,"namedCount":6,"areaHectares":0,"largestAreaHectares":0,"byDepartment":[{"department":"Panchayat","count":6}],"namesSha256":"dffc7d7815ae2137ae9d2af12be39ae1558daf6ca728d8415daea5f55ab6daac","register":"water-bodies-census","lgdBlockCode":"4212","byType":[{"type":"Water consv schemes/percolation tanks/check-dams","count":6}],"areaBasis":"withheld","pointCount":6}},{"type":"Feature","geometry":{"type":"MultiPoint","coordinates":[[74.54167,18.64861],[74.54583,18.64417],[74.55333,18.67056],[74.56694,18.6525],[74.56694,18.6525],[74.56694,18.6525]]},"properties":{"lgdGramPanchayatCode":"168742","count":6,"namedCount":6,"areaHectares":0,"largestAreaHectares":0,"byDepartment":[{"department":"Panchayat","count":6}],"namesSha256":"b41381e7411fd89c2963ee021aa12e21e8b360521c1da0d365f93d741a463c77","register":"water-bodies-census","lgdBlockCode":"4212","byType":[{"type":"Water consv schemes/percolation tanks/check-dams","count":6}],"areaBasis":"withheld","pointCount":6}},{"type":"Feature","geometry":{"type":"MultiPoint","coordinates":[[74.45556,18.81944],[74.46083,18.8075]]},"properties":{"lgdGramPanchayatCode":"168744","count":2,"namedCount":2,"areaHectares":0,"largestAreaHectares":0,"byDepartment":[{"department":"Panchayat","count":2}],"namesSha256":"63f10334f899ddfb2ac64108da94a26e25d3a705cfce187027737ec91ec3f1e5","register":"water-bodies-census","lgdBlockCode":"4212","byType":[{"type":"Water consv schemes/percolation tanks/check-dams","count":2}],"areaBasis":"withheld","pointCount":2}},{"type":"Feature","geometry":{"type":"MultiPoint","coordinates":[[74.73417,18.68917],[74.74528,18.70139],[74.74583,18.69667]]},"properties":{"lgdGramPanchayatCode":"168745","count":3,"namedCount":3,"areaHectares":0,"largestAreaHectares":0,"byDepartment":[{"department":"Panchayat","count":3}],"namesSha256":"bded311ff9561fb1886421f74d84f1c33b72ca8363ddd283b2a9b197bc30739c","register":"water-bodies-census","lgdBlockCode":"4212","byType":[{"type":"Water consv schemes/percolation tanks/check-dams","count":3}],"areaBasis":"withheld","pointCount":3}},{"type":"Feature","geometry":{"type":"MultiPoint","coordinates":[[74.48083,18.78639],[74.48083,18.80306]]},"properties":{"lgdGramPanchayatCode":"168746","count":2,"namedCount":2,"areaHectares":0,"largestAreaHectares":0,"byDepartment":[{"department":"Panchayat","count":2}],"namesSha256":"63f10334f899ddfb2ac64108da94a26e25d3a705cfce187027737ec91ec3f1e5","register":"water-bodies-census","lgdBlockCode":"4212","byType":[{"type":"Water consv schemes/percolation tanks/check-dams","count":2}],"areaBasis":"withheld","pointCount":2}},{"type":"Feature","geometry":{"type":"MultiPoint","coordinates":[[74.59556,18.77111],[74.69611,18.745],[74.71694,18.74528],[74.71778,18.74111],[74.71778,18.74111],[74.72139,18.72639],[74.725,18.72417],[74.7275,18.74806],[74.72972,18.73444],[74.72972,18.75083],[74.73083,18.73694],[74.7325,18.74694]]},"properties":{"lgdGramPanchayatCode":"168747","count":12,"namedCount":12,"areaHectares":0,"largestAreaHectares":0,"byDepartment":[{"department":"Panchayat","count":12}],"namesSha256":"e9cdc74a382e0866667785c46ae40d98a59d116a7a59447c8f0a87195f6a6d8b","register":"water-bodies-census","lgdBlockCode":"4212","byType":[{"type":"Water consv schemes/percolation tanks/check-dams","count":12}],"areaBasis":"withheld","pointCount":12}},{"type":"Feature","geometry":{"type":"MultiPoint","coordinates":[[74.55639,18.77139],[74.56472,18.76861]]},"properties":{"lgdGramPanchayatCode":"168748","count":2,"namedCount":2,"areaHectares":0,"largestAreaHectares":0,"byDepartment":[{"department":"Panchayat","count":2}],"namesSha256":"35a0a4908a6beaba86bc986096f38ad6b9f8d516a96c70c3bfa7c1881cebcc9b","register":"water-bodies-census","lgdBlockCode":"4212","byType":[{"type":"Water consv schemes/percolation tanks/check-dams","count":2}],"areaBasis":"withheld","pointCount":2}},{"type":"Feature","geometry":{"type":"MultiPoint","coordinates":[[74.59361,18.72528],[74.61944,18.75333],[74.63056,18.7525],[74.64194,18.75611]]},"properties":{"lgdGramPanchayatCode":"168751","count":4,"namedCount":4,"areaHectares":0,"largestAreaHectares":0,"byDepartment":[{"department":"Panchayat","count":4}],"namesSha256":"a1ef562692a809ad176f9ed0649e1a5deebbfab3238db50253052e8e18c9e83e","register":"water-bodies-census","lgdBlockCode":"4212","byType":[{"type":"Water consv schemes/percolation tanks/check-dams","count":4}],"areaBasis":"withheld","pointCount":4}},{"type":"Feature","geometry":{"type":"MultiPoint","coordinates":[[74.75972,18.59944],[74.76,18.59944]]},"properties":{"lgdGramPanchayatCode":"168752","count":2,"namedCount":2,"areaHectares":0,"largestAreaHectares":0,"byDepartment":[{"department":"Panchayat","count":2}],"namesSha256":"4b86dfc22ae57fb7e8aa0f4311372789b5985d6e03f23c1e4ba7b5c38d36e2f2","register":"water-bodies-census","lgdBlockCode":"4212","byType":[{"type":"Water consv schemes/percolation tanks/check-dams","count":2}],"areaBasis":"withheld","pointCount":2}},{"type":"Feature","geometry":{"type":"MultiPoint","coordinates":[[74.88667,18.80167],[74.88667,18.80167],[74.89417,18.81778],[74.89417,18.81778],[74.90111,18.80833],[74.90528,18.80667],[74.90917,18.8025]]},"properties":{"lgdGramPanchayatCode":"168753","count":7,"namedCount":7,"areaHectares":0,"largestAreaHectares":0,"byDepartment":[{"department":"Panchayat","count":7}],"namesSha256":"666c6f8b99f610a35f972cf8fb3ce8fecb12f97de99256d7ee1ddde5ae9c4a9a","register":"water-bodies-census","lgdBlockCode":"4212","byType":[{"type":"Water consv schemes/percolation tanks/check-dams","count":7}],"areaBasis":"withheld","pointCount":7}},{"type":"Feature","geometry":{"type":"MultiPoint","coordinates":[[74.66361,18.70917]]},"properties":{"lgdGramPanchayatCode":"168754","count":1,"namedCount":1,"areaHectares":0,"largestAreaHectares":0,"byDepartment":[{"department":"Panchayat","count":1}],"namesSha256":"b01d969c4b9ffe65535dbf2d4f791ef586693af16bc66188a7c6df319fc23862","register":"water-bodies-census","lgdBlockCode":"4212","byType":[{"type":"Water consv schemes/percolation tanks/check-dams","count":1}],"areaBasis":"withheld","pointCount":1}},{"type":"Feature","geometry":{"type":"MultiPoint","coordinates":[[74.7425,18.66889],[74.74472,18.67333]]},"properties":{"lgdGramPanchayatCode":"168755","count":2,"namedCount":2,"areaHectares":0,"largestAreaHectares":0,"byDepartment":[{"department":"State WRD/State Irrigation","count":2}],"namesSha256":"694f2f4025e76c2d21dbca558eb5b8cabb210efd8bf231faee4ca9f64180a864","register":"water-bodies-census","lgdBlockCode":"4212","byType":[{"type":"Water consv schemes/percolation tanks/check-dams","count":2}],"areaBasis":"withheld","pointCount":2}},{"type":"Feature","geometry":{"type":"MultiPoint","coordinates":[[74.59972,18.84139],[74.60083,18.84278],[74.64361,18.86694],[74.64639,18.87056],[74.65472,18.87806],[74.65972,18.86167],[74.66056,18.85444],[74.66222,18.8725]]},"properties":{"lgdGramPanchayatCode":"168756","count":8,"namedCount":8,"areaHectares":0,"largestAreaHectares":0,"byDepartment":[{"department":"State WRD/State Irrigation","count":8}],"namesSha256":"946ee611e13494620fd1815b1a83e1cb435e84a0ab9dde76fabd01ea0efdc514","register":"water-bodies-census","lgdBlockCode":"4212","byType":[{"type":"Water consv schemes/percolation tanks/check-dams","count":8}],"areaBasis":"withheld","pointCount":8}},{"type":"Feature","geometry":{"type":"MultiPoint","coordinates":[[74.50889,18.62667],[74.51556,18.63611],[74.79694,18.58528]]},"properties":{"lgdGramPanchayatCode":"168757","count":3,"namedCount":3,"areaHectares":0,"largestAreaHectares":0,"byDepartment":[{"department":"Panchayat","count":3}],"namesSha256":"bd88f397981fffc56a31620e2afff601053627bd35c1fdcf427b445c67846681","register":"water-bodies-census","lgdBlockCode":"4212","byType":[{"type":"Water consv schemes/percolation tanks/check-dams","count":3}],"areaBasis":"withheld","pointCount":3}},{"type":"Feature","geometry":{"type":"MultiPoint","coordinates":[[74.42722,18.82333]]},"properties":{"lgdGramPanchayatCode":"168758","count":1,"namedCount":1,"areaHectares":0,"largestAreaHectares":0,"byDepartment":[{"department":"Panchayat","count":1}],"namesSha256":"643157005843e6fde0fdbbf4a74f1fc6f25331415462f8d9ba7123fa9a875a24","register":"water-bodies-census","lgdBlockCode":"4212","byType":[{"type":"Water consv schemes/percolation tanks/check-dams","count":1}],"areaBasis":"withheld","pointCount":1}},{"type":"Feature","geometry":{"type":"MultiPoint","coordinates":[[74.76583,18.59583],[74.77056,18.58639],[74.77722,18.58222],[74.77722,18.59167],[74.77806,18.57944],[74.79278,18.59278],[74.79694,18.58528],[74.80389,18.58639],[74.81667,18.56889],[74.81972,18.57083],[74.82111,18.56889],[74.82111,18.56889]]},"properties":{"lgdGramPanchayatCode":"168759","count":12,"namedCount":12,"areaHectares":0,"largestAreaHectares":0,"byDepartment":[{"department":"Panchayat","count":12}],"namesSha256":"9a7c5f762a83900b35a8c47236108eec2f98ebbf266a09bec495763965ee81f6","register":"water-bodies-census","lgdBlockCode":"4212","byType":[{"type":"Water consv schemes/percolation tanks/check-dams","count":12}],"areaBasis":"withheld","pointCount":12}},{"type":"Feature","geometry":{"type":"MultiPoint","coordinates":[[74.77278,18.80778],[74.78056,18.85861],[74.80944,18.82444],[74.85778,18.86889],[74.85778,18.86889],[74.85889,18.87111]]},"properties":{"lgdGramPanchayatCode":"168760","count":6,"namedCount":6,"areaHectares":0,"largestAreaHectares":0,"byDepartment":[{"department":"Panchayat","count":6}],"namesSha256":"203117e5d7023ff7f5b5bf6ae1ff3965eff7e695ae93f2b38969dc65453e9729","register":"water-bodies-census","lgdBlockCode":"4212","byType":[{"type":"Water consv schemes/percolation tanks/check-dams","count":6}],"areaBasis":"withheld","pointCount":6}},{"type":"Feature","geometry":{"type":"MultiPoint","coordinates":[[74.75833,18.78611],[74.78889,18.75028],[74.8575,18.86889],[74.87333,18.83944]]},"properties":{"lgdGramPanchayatCode":"168763","count":4,"namedCount":4,"areaHectares":0,"largestAreaHectares":0,"byDepartment":[{"department":"State WRD/State Irrigation","count":4}],"namesSha256":"2424c79f7288a16ef6efa8c70007aa5572c1c202f2d8cd069cd1b4ba0baf1345","register":"water-bodies-census","lgdBlockCode":"4212","byType":[{"type":"Water consv schemes/percolation tanks/check-dams","count":4}],"areaBasis":"withheld","pointCount":4}},{"type":"Feature","geometry":{"type":"MultiPoint","coordinates":[[74.78194,18.63389],[74.79333,18.62194],[74.79694,18.58528],[74.82333,18.61611]]},"properties":{"lgdGramPanchayatCode":"168764","count":4,"namedCount":4,"areaHectares":0,"largestAreaHectares":0,"byDepartment":[{"department":"Panchayat","count":4}],"namesSha256":"36ba5fdec6923590c4ef32e75d3fb16e13821c10a4ee5b400b867280f8b2e953","register":"water-bodies-census","lgdBlockCode":"4212","byType":[{"type":"Water consv schemes/percolation tanks/check-dams","count":4}],"areaBasis":"withheld","pointCount":4}},{"type":"Feature","geometry":{"type":"MultiPoint","coordinates":[[74.68139,18.83722]]},"properties":{"lgdGramPanchayatCode":"168765","count":1,"namedCount":1,"areaHectares":0,"largestAreaHectares":0,"byDepartment":[{"department":"Panchayat","count":1}],"namesSha256":"f4609829bd30bc8034df67df7302eac8b978322cf4798c89c80999bec2ec7341","register":"water-bodies-census","lgdBlockCode":"4212","byType":[{"type":"Water consv schemes/percolation tanks/check-dams","count":1}],"areaBasis":"withheld","pointCount":1}},{"type":"Feature","geometry":{"type":"MultiPoint","coordinates":[[74.53333,18.80222]]},"properties":{"lgdGramPanchayatCode":"168766","count":1,"namedCount":1,"areaHectares":0,"largestAreaHectares":0,"byDepartment":[{"department":"Panchayat","count":1}],"namesSha256":"45b31b0b0515435d765d982c751e9d9b7300c7527e2927a4840de555eb993698","register":"water-bodies-census","lgdBlockCode":"4212","byType":[{"type":"Water consv schemes/percolation tanks/check-dams","count":1}],"areaBasis":"withheld","pointCount":1}},{"type":"Feature","geometry":{"type":"MultiPoint","coordinates":[[74.70806,18.85694],[74.71278,18.85194],[74.72167,18.86694],[74.72222,18.87139],[74.72806,18.8775],[74.72861,18.88444],[74.73083,18.88722],[74.73667,18.88139]]},"properties":{"lgdGramPanchayatCode":"168767","count":8,"namedCount":8,"areaHectares":0,"largestAreaHectares":0,"byDepartment":[{"department":"Panchayat","count":8}],"namesSha256":"bdef3b10e850ae728038ee9dd09026cc1cb131c6d9b32be20c0583b805bf1be5","register":"water-bodies-census","lgdBlockCode":"4212","byType":[{"type":"Water consv schemes/percolation tanks/check-dams","count":8}],"areaBasis":"withheld","pointCount":8}},{"type":"Feature","geometry":{"type":"MultiPoint","coordinates":[[74.56139,18.83639]]},"properties":{"lgdGramPanchayatCode":"168768","count":1,"namedCount":1,"areaHectares":0,"largestAreaHectares":0,"byDepartment":[{"department":"Panchayat","count":1}],"namesSha256":"b01d969c4b9ffe65535dbf2d4f791ef586693af16bc66188a7c6df319fc23862","register":"water-bodies-census","lgdBlockCode":"4212","byType":[{"type":"Water consv schemes/percolation tanks/check-dams","count":1}],"areaBasis":"withheld","pointCount":1}},{"type":"Feature","geometry":{"type":"MultiPoint","coordinates":[[74.80833,18.70667],[74.82528,18.705],[74.83806,18.72806]]},"properties":{"lgdGramPanchayatCode":"168769","count":3,"namedCount":3,"areaHectares":0,"largestAreaHectares":0,"byDepartment":[{"department":"Panchayat","count":3}],"namesSha256":"80e251054206267c866b93307f771df330443dd7bcb6cdc8812e3079d32e358d","register":"water-bodies-census","lgdBlockCode":"4212","byType":[{"type":"Water consv schemes/percolation tanks/check-dams","count":3}],"areaBasis":"withheld","pointCount":3}},{"type":"Feature","geometry":{"type":"MultiPoint","coordinates":[[74.62278,18.71],[74.64694,18.76333],[74.68889,18.77139],[74.70778,18.76889],[74.70833,18.785],[74.71139,18.79139],[74.71417,18.78528],[74.71694,18.78472]]},"properties":{"lgdGramPanchayatCode":"168770","count":8,"namedCount":8,"areaHectares":0,"largestAreaHectares":0,"byDepartment":[{"department":"Panchayat","count":8}],"namesSha256":"49056ed88e9c252a77d88914657c05308fab82081fc07bf7d2b7eeeb95178b1f","register":"water-bodies-census","lgdBlockCode":"4212","byType":[{"type":"Water consv schemes/percolation tanks/check-dams","count":8}],"areaBasis":"withheld","pointCount":8}},{"type":"Feature","geometry":{"type":"MultiPoint","coordinates":[[74.80444,18.70278],[74.81528,18.72056]]},"properties":{"lgdGramPanchayatCode":"168772","count":2,"namedCount":2,"areaHectares":0,"largestAreaHectares":0,"byDepartment":[{"department":"Panchayat","count":2}],"namesSha256":"63f10334f899ddfb2ac64108da94a26e25d3a705cfce187027737ec91ec3f1e5","register":"water-bodies-census","lgdBlockCode":"4212","byType":[{"type":"Water consv schemes/percolation tanks/check-dams","count":2}],"areaBasis":"withheld","pointCount":2}},{"type":"Feature","geometry":{"type":"MultiPoint","coordinates":[[74.80361,18.83278],[74.80972,18.83667],[74.80972,18.83667],[74.80972,18.83667],[74.80972,18.83667],[74.81167,18.78056],[74.815,18.84083],[74.81556,18.78861],[74.81778,18.8325],[74.82139,18.83028],[74.82389,18.83056],[74.82444,18.83111],[74.82444,18.83111],[74.82472,18.83194],[74.82694,18.82361],[74.83,18.83278],[74.83028,18.8275],[74.83444,18.84472],[74.84,18.84139],[74.84472,18.82611],[74.85694,18.78333],[74.85861,18.82111],[74.87806,18.83528]]},"properties":{"lgdGramPanchayatCode":"168774","count":23,"namedCount":23,"areaHectares":0,"largestAreaHectares":0,"byDepartment":[{"department":"Panchayat","count":22},{"department":"Muncipal authority","count":1}],"namesSha256":"b28ca43a7b8d2e3b86b3db7da5afb313d3836a85780fb29c9b62085c477cfc79","register":"water-bodies-census","lgdBlockCode":"4212","byType":[{"type":"Water consv schemes/percolation tanks/check-dams","count":23}],"areaBasis":"withheld","pointCount":23}},{"type":"Feature","geometry":{"type":"MultiPoint","coordinates":[[74.64278,18.60583],[74.65111,18.62278],[74.65111,18.62278]]},"properties":{"lgdGramPanchayatCode":"168777","count":3,"namedCount":3,"areaHectares":0,"largestAreaHectares":0,"byDepartment":[{"department":"Panchayat","count":3}],"namesSha256":"bded311ff9561fb1886421f74d84f1c33b72ca8363ddd283b2a9b197bc30739c","register":"water-bodies-census","lgdBlockCode":"4212","byType":[{"type":"Water consv schemes/percolation tanks/check-dams","count":3}],"areaBasis":"withheld","pointCount":3}},{"type":"Feature","geometry":{"type":"MultiPoint","coordinates":[[74.6025,18.83222]]},"properties":{"lgdGramPanchayatCode":"168778","count":1,"namedCount":1,"areaHectares":0,"largestAreaHectares":0,"byDepartment":[{"department":"Panchayat","count":1}],"namesSha256":"b01d969c4b9ffe65535dbf2d4f791ef586693af16bc66188a7c6df319fc23862","register":"water-bodies-census","lgdBlockCode":"4212","byType":[{"type":"Water consv schemes/percolation tanks/check-dams","count":1}],"areaBasis":"withheld","pointCount":1}},{"type":"Feature","geometry":{"type":"MultiPoint","coordinates":[[74.54028,18.81556],[74.54389,18.81639]]},"properties":{"lgdGramPanchayatCode":"168779","count":2,"namedCount":2,"areaHectares":0,"largestAreaHectares":0,"byDepartment":[{"department":"Panchayat","count":2}],"namesSha256":"63f10334f899ddfb2ac64108da94a26e25d3a705cfce187027737ec91ec3f1e5","register":"water-bodies-census","lgdBlockCode":"4212","byType":[{"type":"Water consv schemes/percolation tanks/check-dams","count":2}],"areaBasis":"withheld","pointCount":2}},{"type":"Feature","geometry":{"type":"MultiPoint","coordinates":[[74.65361,18.66139],[74.66083,18.65417],[74.66528,18.72944]]},"properties":{"lgdGramPanchayatCode":"168781","count":3,"namedCount":3,"areaHectares":0,"largestAreaHectares":0,"byDepartment":[{"department":"Panchayat","count":3}],"namesSha256":"0772ae5ce6abce4aceab4666b21c597e9c457df7cea13d3da3cf098ab826c760","register":"water-bodies-census","lgdBlockCode":"4212","byType":[{"type":"Water consv schemes/percolation tanks/check-dams","count":3}],"areaBasis":"withheld","pointCount":3}},{"type":"Feature","geometry":{"type":"MultiPoint","coordinates":[[74.73528,18.51139],[74.73556,18.51139]]},"properties":{"lgdGramPanchayatCode":"168782","count":2,"namedCount":2,"areaHectares":0,"largestAreaHectares":0,"byDepartment":[{"department":"State WRD/State Irrigation","count":2}],"namesSha256":"694f2f4025e76c2d21dbca558eb5b8cabb210efd8bf231faee4ca9f64180a864","register":"water-bodies-census","lgdBlockCode":"4212","byType":[{"type":"Water consv schemes/percolation tanks/check-dams","count":2}],"areaBasis":"withheld","pointCount":2}},{"type":"Feature","geometry":{"type":"MultiPoint","coordinates":[[74.51139,18.76861]]},"properties":{"lgdGramPanchayatCode":"168784","count":1,"namedCount":1,"areaHectares":0,"largestAreaHectares":0,"byDepartment":[{"department":"Panchayat","count":1}],"namesSha256":"b01d969c4b9ffe65535dbf2d4f791ef586693af16bc66188a7c6df319fc23862","register":"water-bodies-census","lgdBlockCode":"4212","byType":[{"type":"Water consv schemes/percolation tanks/check-dams","count":1}],"areaBasis":"withheld","pointCount":1}},{"type":"Feature","geometry":{"type":"MultiPoint","coordinates":[[74.77722,18.73806],[74.77806,18.72944],[74.78556,18.73611],[74.78639,18.73028],[74.79333,18.72444],[74.79528,18.76944],[74.79861,18.69972]]},"properties":{"lgdGramPanchayatCode":"168785","count":7,"namedCount":7,"areaHectares":0,"largestAreaHectares":0,"byDepartment":[{"department":"Panchayat","count":7}],"namesSha256":"d07fe4776594a349ebf4427a8ae9ddf726ae6e0b3e108ccc7d6304cf577330a5","register":"water-bodies-census","lgdBlockCode":"4212","byType":[{"type":"Water consv schemes/percolation tanks/check-dams","count":7}],"areaBasis":"withheld","pointCount":7}},{"type":"Feature","geometry":{"type":"MultiPoint","coordinates":[[74.47528,18.76194],[74.47861,18.76306],[74.48528,18.77]]},"properties":{"lgdGramPanchayatCode":"168786","count":3,"namedCount":3,"areaHectares":0,"largestAreaHectares":0,"byDepartment":[{"department":"Panchayat","count":3}],"namesSha256":"a62dd40b9e52fa50e89ee6862fefbe152492cf2725f41003b60a1a5b6dcece57","register":"water-bodies-census","lgdBlockCode":"4212","byType":[{"type":"Water consv schemes/percolation tanks/check-dams","count":3}],"areaBasis":"withheld","pointCount":3}},{"type":"Feature","geometry":{"type":"MultiPoint","coordinates":[[74.44806,18.76028]]},"properties":{"lgdGramPanchayatCode":"168787","count":1,"namedCount":1,"areaHectares":0,"largestAreaHectares":0,"byDepartment":[{"department":"Panchayat","count":1}],"namesSha256":"4c4bd5b51dc976189ef5428677e3ec5cf5d117871cba43795d5cd43f6571827f","register":"water-bodies-census","lgdBlockCode":"4212","byType":[{"type":"Water consv schemes/percolation tanks/check-dams","count":1}],"areaBasis":"withheld","pointCount":1}},{"type":"Feature","geometry":{"type":"MultiPoint","coordinates":[[74.84944,18.785],[74.85306,18.78333],[74.85611,18.79556],[74.88083,18.8],[74.88222,18.80028],[74.88222,18.80028],[74.88222,18.80028],[74.88417,18.78222],[74.88667,18.80167]]},"properties":{"lgdGramPanchayatCode":"168788","count":9,"namedCount":9,"areaHectares":0,"largestAreaHectares":0,"byDepartment":[{"department":"Panchayat","count":9}],"namesSha256":"a0f62bf3db083d40dfd69537f178b6d1ab1214c91be44c0e248991db1774c074","register":"water-bodies-census","lgdBlockCode":"4212","byType":[{"type":"Water consv schemes/percolation tanks/check-dams","count":9}],"areaBasis":"withheld","pointCount":9}},{"type":"Feature","geometry":{"type":"MultiPoint","coordinates":[[74.50389,18.8625],[74.51444,18.85972],[74.51444,18.85972],[74.52639,18.84222],[74.52806,18.85472],[74.52861,18.86],[74.53694,18.85083],[74.53972,18.85222],[74.54333,18.86083]]},"properties":{"lgdGramPanchayatCode":"168790","count":9,"namedCount":8,"areaHectares":0,"largestAreaHectares":0,"byDepartment":[{"department":"Panchayat","count":9}],"namesSha256":"49056ed88e9c252a77d88914657c05308fab82081fc07bf7d2b7eeeb95178b1f","register":"water-bodies-census","lgdBlockCode":"4212","byType":[{"type":"Water consv schemes/percolation tanks/check-dams","count":9}],"areaBasis":"withheld","pointCount":9}},{"type":"Feature","geometry":{"type":"MultiPoint","coordinates":[[74.74861,18.5225],[74.74917,18.53694],[74.77,18.51472],[74.85583,18.55194],[74.88361,18.51611]]},"properties":{"lgdGramPanchayatCode":"168791","count":5,"namedCount":5,"areaHectares":0,"largestAreaHectares":0,"byDepartment":[{"department":"Panchayat","count":5}],"namesSha256":"6d9ec080e40f834266463c644ed21de66dc0600128b43e0bf1192295095e4e39","register":"water-bodies-census","lgdBlockCode":"4212","byType":[{"type":"Water consv schemes/percolation tanks/check-dams","count":5}],"areaBasis":"withheld","pointCount":5}},{"type":"Feature","geometry":{"type":"MultiPoint","coordinates":[[74.59833,18.65556],[74.61056,18.64139],[74.61194,18.64694]]},"properties":{"lgdGramPanchayatCode":"168792","count":3,"namedCount":3,"areaHectares":0,"largestAreaHectares":0,"byDepartment":[{"department":"Panchayat","count":2},{"department":"Group of Individuals","count":1}],"namesSha256":"bded311ff9561fb1886421f74d84f1c33b72ca8363ddd283b2a9b197bc30739c","register":"water-bodies-census","lgdBlockCode":"4212","byType":[{"type":"Water consv schemes/percolation tanks/check-dams","count":3}],"areaBasis":"withheld","pointCount":3}},{"type":"Feature","geometry":{"type":"MultiPoint","coordinates":[[74.59972,18.84139],[74.60083,18.80583],[74.62444,18.84556],[74.62472,18.84444],[74.62583,18.84611],[74.62611,18.84361],[74.62944,18.84806],[74.63028,18.84306],[74.63167,18.85167],[74.64472,18.84583],[74.65361,18.84667]]},"properties":{"lgdGramPanchayatCode":"168793","count":11,"namedCount":11,"areaHectares":0,"largestAreaHectares":0,"byDepartment":[{"department":"State WRD/State Irrigation","count":11}],"namesSha256":"5b5e75b5a26aa62f4c77795585c322a77425761dd8f84e88645a9a0c1c996c08","register":"water-bodies-census","lgdBlockCode":"4212","byType":[{"type":"Water consv schemes/percolation tanks/check-dams","count":11}],"areaBasis":"withheld","pointCount":11}},{"type":"Feature","geometry":{"type":"MultiPoint","coordinates":[[74.68444,18.71333],[74.68444,18.71333],[74.69472,18.71167],[74.695,18.715],[74.69528,18.71],[74.69722,18.71528]]},"properties":{"lgdGramPanchayatCode":"168794","count":6,"namedCount":6,"areaHectares":0,"largestAreaHectares":0,"byDepartment":[{"department":"Panchayat","count":6}],"namesSha256":"b41381e7411fd89c2963ee021aa12e21e8b360521c1da0d365f93d741a463c77","register":"water-bodies-census","lgdBlockCode":"4212","byType":[{"type":"Water consv schemes/percolation tanks/check-dams","count":6}],"areaBasis":"withheld","pointCount":6}},{"type":"Feature","geometry":{"type":"MultiPoint","coordinates":[[74.75111,18.55056],[74.76556,18.56611],[74.77111,18.53583],[74.77861,18.53722],[74.77889,18.55417],[74.79,18.52833]]},"properties":{"lgdGramPanchayatCode":"168795","count":6,"namedCount":6,"areaHectares":0,"largestAreaHectares":0,"byDepartment":[{"department":"Panchayat","count":6}],"namesSha256":"c3c52c53abda9873498914fc8f2c8414dc2bdccb3ba3f07a53f5a4da661e23a6","register":"water-bodies-census","lgdBlockCode":"4212","byType":[{"type":"Water consv schemes/percolation tanks/check-dams","count":6}],"areaBasis":"withheld","pointCount":6}},{"type":"Feature","geometry":{"type":"MultiPoint","coordinates":[[74.76806,18.64028],[74.78861,18.66139],[74.78861,18.66139],[74.79333,18.66333],[74.80694,18.68139],[74.81528,18.63972],[74.81528,18.68444]]},"properties":{"lgdGramPanchayatCode":"168797","count":7,"namedCount":7,"areaHectares":0,"largestAreaHectares":0,"byDepartment":[{"department":"Panchayat","count":7}],"namesSha256":"546a5f70b50526ada248975303bf4ece38b4d3b3250e87040813f8675fcea1ea","register":"water-bodies-census","lgdBlockCode":"4212","byType":[{"type":"Water consv schemes/percolation tanks/check-dams","count":7}],"areaBasis":"withheld","pointCount":7}},{"type":"Feature","geometry":{"type":"MultiPoint","coordinates":[[74.8775,18.83556]]},"properties":{"lgdGramPanchayatCode":"168798","count":1,"namedCount":1,"areaHectares":0,"largestAreaHectares":0,"byDepartment":[{"department":"State WRD/State Irrigation","count":1}],"namesSha256":"70eb0d0f9ffdf61981ed4bd8582f80cb7c2e9f3e7a17936431bb1f8feaf257fb","register":"water-bodies-census","lgdBlockCode":"4212","byType":[{"type":"Water consv schemes/percolation tanks/check-dams","count":1}],"areaBasis":"withheld","pointCount":1}},{"type":"Feature","geometry":{"type":"MultiPoint","coordinates":[[74.53167,18.74667],[74.53472,18.76639]]},"properties":{"lgdGramPanchayatCode":"168800","count":2,"namedCount":2,"areaHectares":0,"largestAreaHectares":0,"byDepartment":[{"department":"Muncipal authority","count":1},{"department":"Panchayat","count":1}],"namesSha256":"63f10334f899ddfb2ac64108da94a26e25d3a705cfce187027737ec91ec3f1e5","register":"water-bodies-census","lgdBlockCode":"4212","byType":[{"type":"Water consv schemes/percolation tanks/check-dams","count":2}],"areaBasis":"withheld","pointCount":2}},{"type":"Feature","geometry":{"type":"MultiPoint","coordinates":[[74.60556,18.83222],[74.60778,18.85944],[74.61639,18.88833],[74.62667,18.88056],[74.62833,18.87222],[74.62861,18.86833]]},"properties":{"lgdGramPanchayatCode":"168801","count":6,"namedCount":6,"areaHectares":0,"largestAreaHectares":0,"byDepartment":[{"department":"Panchayat","count":6}],"namesSha256":"b41381e7411fd89c2963ee021aa12e21e8b360521c1da0d365f93d741a463c77","register":"water-bodies-census","lgdBlockCode":"4212","byType":[{"type":"Water consv schemes/percolation tanks/check-dams","count":6}],"areaBasis":"withheld","pointCount":6}},{"type":"Feature","geometry":{"type":"MultiPoint","coordinates":[[74.68333,18.68333],[74.68444,18.71333],[74.68722,18.68806],[74.69278,18.67667]]},"properties":{"lgdGramPanchayatCode":"168802","count":4,"namedCount":4,"areaHectares":0,"largestAreaHectares":0,"byDepartment":[{"department":"Panchayat","count":3},{"department":"Muncipal authority","count":1}],"namesSha256":"5b43346a65b8b6e3c51f9dafc834219b41a670c2702ca43ea6ccca754d2a2c9c","register":"water-bodies-census","lgdBlockCode":"4212","byType":[{"type":"Water consv schemes/percolation tanks/check-dams","count":4}],"areaBasis":"withheld","pointCount":4}},{"type":"Feature","geometry":{"type":"MultiPoint","coordinates":[[74.65833,18.575],[74.66278,18.56556],[74.66583,18.59194]]},"properties":{"lgdGramPanchayatCode":"168804","count":3,"namedCount":3,"areaHectares":0,"largestAreaHectares":0,"byDepartment":[{"department":"Panchayat","count":3}],"namesSha256":"b04534f4bfe4bc3d98beaf86ad6b9f24b6d76ba313621a02067577f54eca1650","register":"water-bodies-census","lgdBlockCode":"4212","byType":[{"type":"Water consv schemes/percolation tanks/check-dams","count":3}],"areaBasis":"withheld","pointCount":3}},{"type":"Feature","geometry":{"type":"MultiPoint","coordinates":[[74.60028,18.84361],[74.60028,18.84361]]},"properties":{"lgdGramPanchayatCode":"168805","count":2,"namedCount":2,"areaHectares":0,"largestAreaHectares":0,"byDepartment":[{"department":"Panchayat","count":2}],"namesSha256":"63f10334f899ddfb2ac64108da94a26e25d3a705cfce187027737ec91ec3f1e5","register":"water-bodies-census","lgdBlockCode":"4212","byType":[{"type":"Water consv schemes/percolation tanks/check-dams","count":2}],"areaBasis":"withheld","pointCount":2}},{"type":"Feature","geometry":{"type":"MultiPoint","coordinates":[[74.47667,18.86139],[74.48861,18.83361],[74.49972,18.83917],[74.50389,18.83]]},"properties":{"lgdGramPanchayatCode":"168807","count":4,"namedCount":4,"areaHectares":0,"largestAreaHectares":0,"byDepartment":[{"department":"Panchayat","count":4}],"namesSha256":"920d3aad0901661b2ad069a0709b8d39b8c1f1020febc9f1899a66820beedb63","register":"water-bodies-census","lgdBlockCode":"4212","byType":[{"type":"Water consv schemes/percolation tanks/check-dams","count":4}],"areaBasis":"withheld","pointCount":4}},{"type":"Feature","geometry":{"type":"MultiPoint","coordinates":[[74.81556,18.78861],[74.81556,18.78861],[74.81556,18.78861],[74.81556,18.78861]]},"properties":{"lgdGramPanchayatCode":"293886","count":4,"namedCount":4,"areaHectares":0,"largestAreaHectares":0,"byDepartment":[{"department":"Panchayat","count":3},{"department":"Co-operative","count":1}],"namesSha256":"920d3aad0901661b2ad069a0709b8d39b8c1f1020febc9f1899a66820beedb63","register":"water-bodies-census","lgdBlockCode":"4212","byType":[{"type":"Water consv schemes/percolation tanks/check-dams","count":4}],"areaBasis":"withheld","pointCount":4}},{"type":"Feature","geometry":{"type":"MultiPoint","coordinates":[[74.81028,18.63778],[74.81333,18.64139],[74.81333,18.64139],[74.81333,18.64139],[74.83139,18.65583],[74.86833,18.64333]]},"properties":{"lgdGramPanchayatCode":"293969","count":6,"namedCount":6,"areaHectares":0,"largestAreaHectares":0,"byDepartment":[{"department":"Panchayat","count":6}],"namesSha256":"4ed1a1b080343f0775e373f30dc4d4d9344c13f2f7000d96941ead76555dc282","register":"water-bodies-census","lgdBlockCode":"4212","byType":[{"type":"Water consv schemes/percolation tanks/check-dams","count":6}],"areaBasis":"withheld","pointCount":6}}]}
