{"nvdm":"1.0","dataset":"atlas/water-bodies","scope":{"kind":"district","id":"mh-ahilyanagar"},"provenance":{"sources":[{"id":"water-bodies-census-mh","title":"First Census of Water Bodies, Maharashtra state return (data.gov.in resource e1874d07)","publisher":"Department of Water Resources, River Development and Ganga Rejuvenation, Ministry of Jal Shakti, via the Open Government Data Platform","license":"Government Open Data License - India","role":"asserts","url":"https://data.gov.in/resource/state-wise-data-first-census-water-bodies-maharashtra","as_of":"2026-02-10","retrieved":"2026-09-02"}],"method":"api","produced_at":"2026-09-02","produced_by":"scripts/atlas-water-bodies-census-district.ts","internal_inputs":["public/data/atlas/mh/ahilyanagar/directory.json"],"note":"First Census of Water Bodies rows for Karjat taluka: 316 water bodies assigned to 57 Gram Panchayats through the LGD coverage register (the census locates each in a Census 2011 village; a village under exactly one Panchayat is assigned), rolled up per Panchayat (count, named count, type and ownership classes, a digest of the sorted names) with the enumerators' coordinates served as MultiPoint geometry under the Government Open Data License. 53 rows of the taluka are counted and not assigned (ext.atlas.unassigned: a village listed under two Panchayats, under none, a Census village with no LGD row, a town). Waterspread is withheld: The Ahmadnagar return shows the template pattern in a 1,200-row sample: 20 distinct whole-number waterspread values with 0 on a majority of rows and depth NA on half, an enumerator's default rather than a measurement, so the waterspread is not published. Counts, types, ownership and recorded coordinates are served. A Panchayat absent here has no row in the return.","conventions":{"geometry":"MultiPoint of the recorded coordinates, five decimals, points outside the district's own bounding box dropped and counted in ext.atlas.pointsOutsideDistrict (a district total)","join":"unique_id part 5 is the Census 2011 village code; the directory's LGD coverage register names the Panchayat; shared, uncovered and unknown villages and urban rows are counted in ext.atlas.unassigned, never pooled","holder":"byDepartment carries the census ownership class (the register's holder axis); byType the census water-body class","vintage":"reference years 2017-18 to 2020-21, published 2023; the portal's resource stamp is the edition watched"}},"ext":{"atlas":{"schemaVersion":1,"planId":"mh-ahilyanagar-v1","blockCode":"4213","blockName":"Karjat","register":"water-bodies-census","districtLgdCode":"466","acquiredAt":"2026-09-02","layer":"First Census of Water Bodies, Maharashtra return (data.gov.in resource e1874d07-a1db-4678-80c1-b64a2924b517)","sourceUrl":"https://api.data.gov.in/resource/e1874d07-a1db-4678-80c1-b64a2924b517?format=json&limit=all&filters[district_name]=AHMADNAGAR","rights":{"status":"open","termsUrl":"https://data.gov.in/resource/state-wise-data-first-census-water-bodies-maharashtra","termsQuote":"Government Open Data License - India","approval":null},"contributingDepartments":["Co-operative","Group of Individuals","Individual","Muncipal authority","Other Govt.Agency","Other private body","Panchayat","State WRD/State Irrigation"],"snapshotSha256":"0b2c46516c81afa04140a770b91348e5b666f0d7ffdadd16d78277a15a1e250e","featureCount":316,"recordCount":57,"recordsSha256":"dd55ad3e25d73d667719bb21cb7053f1b73aaf8441e063ddfa73eafb6fca4f2f","unassigned":{"sharedVillage":0,"uncoveredVillage":53,"censusVillageWithoutLgdRow":0,"unknownVillage":0,"urban":0},"unassignedDistrict":{"sharedVillage":33,"uncoveredVillage":666,"censusVillageWithoutLgdRow":10,"unknownVillage":9,"urban":66},"attributes":{"waterspread":"withheld","note":"The Ahmadnagar return shows the template pattern in a 1,200-row sample: 20 distinct whole-number waterspread values with 0 on a majority of rows and depth NA on half, an enumerator's default rather than a measurement, so the waterspread is not published. Counts, types, ownership and recorded coordinates are served."},"pointsOutsideDistrict":0}},"type":"FeatureCollection","features":[{"type":"Feature","geometry":{"type":"MultiPoint","coordinates":[[74.00333,19.53861],[74.84972,18.3975],[74.8575,18.39639]]},"properties":{"lgdGramPanchayatCode":"167761","count":3,"namedCount":3,"areaHectares":0,"largestAreaHectares":0,"byDepartment":[{"department":"Panchayat","count":3}],"namesSha256":"16ddf1533afd0c1144160c520fea799f2b358385af00a762c095f2f5be68a415","register":"water-bodies-census","lgdBlockCode":"4213","byType":[{"type":"Water consv schemes/percolation tanks/check-dams","count":3}],"areaBasis":"withheld","pointCount":3}},{"type":"Feature","geometry":{"type":"MultiPoint","coordinates":[[75.00944,18.47556],[75.0125,18.46667],[75.01361,18.48167],[75.01806,18.48389],[75.01889,18.46194],[75.02,18.4725],[75.02222,18.47194],[75.02417,18.46861],[75.02417,18.46861],[75.02722,18.46278],[75.0275,18.46306],[75.03056,18.47917],[75.03389,18.47417],[75.03778,18.45778]]},"properties":{"lgdGramPanchayatCode":"167762","count":14,"namedCount":14,"areaHectares":0,"largestAreaHectares":0,"byDepartment":[{"department":"Panchayat","count":14}],"namesSha256":"beaff7ef95487204ebd4facdd117b4300307d444f164fc21ca6bca008331ddc6","register":"water-bodies-census","lgdBlockCode":"4213","byType":[{"type":"Water consv schemes/percolation tanks/check-dams","count":14}],"areaBasis":"withheld","pointCount":14}},{"type":"Feature","geometry":{"type":"MultiPoint","coordinates":[[75.03444,18.48472],[75.05139,18.49361],[75.05194,18.48333],[75.05361,18.49778],[75.05778,18.49111],[75.07889,18.50167]]},"properties":{"lgdGramPanchayatCode":"167763","count":6,"namedCount":6,"areaHectares":0,"largestAreaHectares":0,"byDepartment":[{"department":"Panchayat","count":6}],"namesSha256":"fe0466bb494f5a22e306fca06560be7bf6b406d7d88997daee17c5c2e0e134a2","register":"water-bodies-census","lgdBlockCode":"4213","byType":[{"type":"Water consv schemes/percolation tanks/check-dams","count":6}],"areaBasis":"withheld","pointCount":6}},{"type":"Feature","geometry":{"type":"MultiPoint","coordinates":[[75.03917,18.70306],[75.03972,18.68972],[75.04639,18.69389],[75.05333,18.6975],[75.05667,18.69972],[75.06167,18.70417]]},"properties":{"lgdGramPanchayatCode":"167765","count":6,"namedCount":6,"areaHectares":0,"largestAreaHectares":0,"byDepartment":[{"department":"Panchayat","count":6}],"namesSha256":"7d8e2eca3193440f1bb1629013fa54f7387e1d563ed88908f263e9981c69e7dc","register":"water-bodies-census","lgdBlockCode":"4213","byType":[{"type":"Water consv schemes/percolation tanks/check-dams","count":6}],"areaBasis":"withheld","pointCount":6}},{"type":"Feature","geometry":{"type":"MultiPoint","coordinates":[[75.00194,18.59694],[75.00222,18.59639],[75.00639,18.5875]]},"properties":{"lgdGramPanchayatCode":"167766","count":3,"namedCount":3,"areaHectares":0,"largestAreaHectares":0,"byDepartment":[{"department":"Panchayat","count":3}],"namesSha256":"48658aeada9ec191cdb135b4e193a5b77e49c94a8447a7fa0cb6edce4c758b56","register":"water-bodies-census","lgdBlockCode":"4213","byType":[{"type":"Water consv schemes/percolation tanks/check-dams","count":3}],"areaBasis":"withheld","pointCount":3}},{"type":"Feature","geometry":{"type":"MultiPoint","coordinates":[[74.78194,18.43667],[74.78722,18.4425],[74.80056,18.45083],[74.80222,18.44722],[74.81389,18.45139],[74.81667,18.45083],[74.81667,18.45083],[74.81667,18.45083],[74.81833,18.45278]]},"properties":{"lgdGramPanchayatCode":"167768","count":9,"namedCount":9,"areaHectares":0,"largestAreaHectares":0,"byDepartment":[{"department":"Panchayat","count":9}],"namesSha256":"7733e91b879e45cff8bf2c16e15335f1669a7b5dda3460343e6e8d6e07a7bc32","register":"water-bodies-census","lgdBlockCode":"4213","byType":[{"type":"Water consv schemes/percolation tanks/check-dams","count":9}],"areaBasis":"withheld","pointCount":9}},{"type":"Feature","geometry":{"type":"MultiPoint","coordinates":[[74.9975,18.75028],[75.02139,18.7375]]},"properties":{"lgdGramPanchayatCode":"167769","count":2,"namedCount":2,"areaHectares":0,"largestAreaHectares":0,"byDepartment":[{"department":"Panchayat","count":2}],"namesSha256":"6756d2f7223b7b08c26398c489d71d0fc7a232a7ad26711f4c09714ab74b3d3a","register":"water-bodies-census","lgdBlockCode":"4213","byType":[{"type":"Water consv schemes/percolation tanks/check-dams","count":2}],"areaBasis":"withheld","pointCount":2}},{"type":"Feature","geometry":{"type":"MultiPoint","coordinates":[[74.97944,18.49361],[74.98306,18.49],[74.98722,18.49306],[74.98861,18.49472],[74.99056,18.49806],[74.99694,18.48722],[74.99861,18.53806],[75,18.49694]]},"properties":{"lgdGramPanchayatCode":"167770","count":8,"namedCount":8,"areaHectares":0,"largestAreaHectares":0,"byDepartment":[{"department":"Panchayat","count":8}],"namesSha256":"e82ed52c53a079912c71422f46d2872463ce1a7d4c5baede4a2846f84a9cbfa5","register":"water-bodies-census","lgdBlockCode":"4213","byType":[{"type":"Water consv schemes/percolation tanks/check-dams","count":8}],"areaBasis":"withheld","pointCount":8}},{"type":"Feature","geometry":{"type":"MultiPoint","coordinates":[[74.92556,18.66806],[74.93139,18.67194],[74.93583,18.66944],[74.93639,18.67194],[74.93778,18.67083]]},"properties":{"lgdGramPanchayatCode":"167774","count":5,"namedCount":5,"areaHectares":0,"largestAreaHectares":0,"byDepartment":[{"department":"Panchayat","count":5}],"namesSha256":"da570debe2e484ed96e631baff5d1c2774427f7197ffc1b53d56ad08489918b3","register":"water-bodies-census","lgdBlockCode":"4213","byType":[{"type":"Water consv schemes/percolation tanks/check-dams","count":5}],"areaBasis":"withheld","pointCount":5}},{"type":"Feature","geometry":{"type":"MultiPoint","coordinates":[[74.93778,18.67083]]},"properties":{"lgdGramPanchayatCode":"167775","count":1,"namedCount":1,"areaHectares":0,"largestAreaHectares":0,"byDepartment":[{"department":"Panchayat","count":1}],"namesSha256":"d0507ec2fd8172417a0e7b0e3c2ca1b6bb759d2efa7ca7e4c7815d039149e89a","register":"water-bodies-census","lgdBlockCode":"4213","byType":[{"type":"Water consv schemes/percolation tanks/check-dams","count":1}],"areaBasis":"withheld","pointCount":1}},{"type":"Feature","geometry":{"type":"MultiPoint","coordinates":[[75.1425,18.53306],[75.14389,18.54028],[75.15833,18.54583],[75.1625,18.52417],[75.16444,18.54833],[75.16472,18.54861]]},"properties":{"lgdGramPanchayatCode":"167776","count":6,"namedCount":6,"areaHectares":0,"largestAreaHectares":0,"byDepartment":[{"department":"Panchayat","count":6}],"namesSha256":"0ac809020e4e35bf700e569c3715fc24fef81f7573e47e3039f74c1ff3d5c823","register":"water-bodies-census","lgdBlockCode":"4213","byType":[{"type":"Water consv schemes/percolation tanks/check-dams","count":6}],"areaBasis":"withheld","pointCount":6}},{"type":"Feature","geometry":{"type":"MultiPoint","coordinates":[[74.94694,18.40056],[74.96194,18.41889],[74.96194,18.41889],[74.96222,18.4275],[74.97278,18.42472],[74.97667,18.41444],[74.97694,18.43],[74.97694,18.43],[74.97806,18.41556],[74.98861,18.41611],[74.99083,18.44528],[74.9925,18.4125],[74.99528,18.44667]]},"properties":{"lgdGramPanchayatCode":"167777","count":13,"namedCount":13,"areaHectares":0,"largestAreaHectares":0,"byDepartment":[{"department":"Panchayat","count":13}],"namesSha256":"e6c580b7976fee48998583eb5ddf14889cd17934875abd6638dc0c9f7a15f95c","register":"water-bodies-census","lgdBlockCode":"4213","byType":[{"type":"Water consv schemes/percolation tanks/check-dams","count":13}],"areaBasis":"withheld","pointCount":13}},{"type":"Feature","geometry":{"type":"MultiPoint","coordinates":[[75.00778,18.6425],[75.00889,18.64806],[75.01139,18.62861],[75.01389,18.62389],[75.02833,18.63806],[75.02944,18.64528]]},"properties":{"lgdGramPanchayatCode":"167778","count":6,"namedCount":6,"areaHectares":0,"largestAreaHectares":0,"byDepartment":[{"department":"Panchayat","count":6}],"namesSha256":"829a03c7ea4195bb32e26f3a5fd2dca05ab247cd27d5dbd517730816285f8727","register":"water-bodies-census","lgdBlockCode":"4213","byType":[{"type":"Water consv schemes/percolation tanks/check-dams","count":6}],"areaBasis":"withheld","pointCount":6}},{"type":"Feature","geometry":{"type":"MultiPoint","coordinates":[[74.89111,18.76333],[74.90833,18.77222],[74.91667,18.77389]]},"properties":{"lgdGramPanchayatCode":"167779","count":3,"namedCount":3,"areaHectares":0,"largestAreaHectares":0,"byDepartment":[{"department":"Panchayat","count":3}],"namesSha256":"4552da184c56e40e4a018f5a9120436bdbd08525fdeac6f78cae844e1451be92","register":"water-bodies-census","lgdBlockCode":"4213","byType":[{"type":"Water consv schemes/percolation tanks/check-dams","count":3}],"areaBasis":"withheld","pointCount":3}},{"type":"Feature","geometry":{"type":"MultiPoint","coordinates":[[74.96583,18.45389],[74.9725,18.46222],[74.98111,18.4625],[74.98167,18.48194],[74.98194,18.46278],[74.98194,18.46278]]},"properties":{"lgdGramPanchayatCode":"167780","count":6,"namedCount":6,"areaHectares":0,"largestAreaHectares":0,"byDepartment":[{"department":"Panchayat","count":6}],"namesSha256":"3eb19ee87eb2ccb01440d73ad6a10a206c17c798150dc0a193f358e3b9300716","register":"water-bodies-census","lgdBlockCode":"4213","byType":[{"type":"Water consv schemes/percolation tanks/check-dams","count":6}],"areaBasis":"withheld","pointCount":6}},{"type":"Feature","geometry":{"type":"MultiPoint","coordinates":[[75.01611,18.67583],[75.03167,18.67944]]},"properties":{"lgdGramPanchayatCode":"167783","count":2,"namedCount":2,"areaHectares":0,"largestAreaHectares":0,"byDepartment":[{"department":"Panchayat","count":2}],"namesSha256":"c74ffcecbacdc26c87acac9db2d4c4d0ed262d301bec9bc8b951f5463d1ac1f6","register":"water-bodies-census","lgdBlockCode":"4213","byType":[{"type":"Water consv schemes/percolation tanks/check-dams","count":2}],"areaBasis":"withheld","pointCount":2}},{"type":"Feature","geometry":{"type":"MultiPoint","coordinates":[[74.96139,18.83389],[74.97361,18.79583],[74.98,18.78944],[74.98056,18.79667],[74.9875,18.77917],[74.99583,18.80111],[74.99722,18.80722]]},"properties":{"lgdGramPanchayatCode":"167787","count":7,"namedCount":7,"areaHectares":0,"largestAreaHectares":0,"byDepartment":[{"department":"Panchayat","count":7}],"namesSha256":"b4d1a4e92b9ff4c26d9c5da3dfbf212806655fb24193a56bbc9fdb0360745256","register":"water-bodies-census","lgdBlockCode":"4213","byType":[{"type":"Water consv schemes/percolation tanks/check-dams","count":7}],"areaBasis":"withheld","pointCount":7}},{"type":"Feature","geometry":{"type":"MultiPoint","coordinates":[[74.92944,18.43917],[74.93139,18.44639],[74.93139,18.44639],[74.93639,18.445],[74.945,18.45111],[74.94639,18.45417],[74.94722,18.45694],[74.94944,18.46556]]},"properties":{"lgdGramPanchayatCode":"167793","count":8,"namedCount":8,"areaHectares":0,"largestAreaHectares":0,"byDepartment":[{"department":"Panchayat","count":8}],"namesSha256":"211b5730d01683300030d7312dbd0e78a9c5f2cac87152ef1ab3e61a582b8d50","register":"water-bodies-census","lgdBlockCode":"4213","byType":[{"type":"Water consv schemes/percolation tanks/check-dams","count":8}],"areaBasis":"withheld","pointCount":8}},{"type":"Feature","geometry":{"type":"MultiPoint","coordinates":[[74.89472,18.71333],[74.90556,18.72222],[74.90917,18.7125],[74.91972,18.7325],[74.92056,18.73472],[74.92639,18.73806]]},"properties":{"lgdGramPanchayatCode":"167794","count":6,"namedCount":6,"areaHectares":0,"largestAreaHectares":0,"byDepartment":[{"department":"Panchayat","count":6}],"namesSha256":"05ea9f1f8c1a80f1ec7b976bd8fe017f70a8fd5d1c068d74fdb5190c88678e98","register":"water-bodies-census","lgdBlockCode":"4213","byType":[{"type":"Water consv schemes/percolation tanks/check-dams","count":6}],"areaBasis":"withheld","pointCount":6}},{"type":"Feature","geometry":{"type":"MultiPoint","coordinates":[[74.8775,18.38639],[74.88556,18.38417],[74.88861,18.39306],[74.89083,18.39361],[74.89139,18.3875],[74.89139,18.3875]]},"properties":{"lgdGramPanchayatCode":"167798","count":6,"namedCount":6,"areaHectares":0,"largestAreaHectares":0,"byDepartment":[{"department":"Panchayat","count":6}],"namesSha256":"417121f85651b3f952ad8e32705313a10ad67185bc9db9e3d733f1af51b7c245","register":"water-bodies-census","lgdBlockCode":"4213","byType":[{"type":"Water consv schemes/percolation tanks/check-dams","count":6}],"areaBasis":"withheld","pointCount":6}},{"type":"Feature","geometry":{"type":"MultiPoint","coordinates":[[74.90083,18.69583],[74.90111,18.69194],[74.90389,18.6875],[74.90472,18.67361],[74.90972,18.69056],[74.91028,18.68472],[74.92722,18.69028]]},"properties":{"lgdGramPanchayatCode":"167799","count":7,"namedCount":7,"areaHectares":0,"largestAreaHectares":0,"byDepartment":[{"department":"Panchayat","count":7}],"namesSha256":"5bdb757494363d4d036418e5a9e82fae16245e8a8bf85a0fc292757fa117f5ce","register":"water-bodies-census","lgdBlockCode":"4213","byType":[{"type":"Water consv schemes/percolation tanks/check-dams","count":6},{"type":"Others","count":1}],"areaBasis":"withheld","pointCount":7}},{"type":"Feature","geometry":{"type":"MultiPoint","coordinates":[[74.88028,18.72],[74.88583,18.72306],[74.88583,18.72444],[74.88583,18.72444],[74.89,18.73167],[74.89,18.73611],[74.89,18.73611],[74.89056,18.73306],[74.89833,18.72167],[74.91417,18.75361]]},"properties":{"lgdGramPanchayatCode":"167801","count":10,"namedCount":10,"areaHectares":0,"largestAreaHectares":0,"byDepartment":[{"department":"Panchayat","count":10}],"namesSha256":"98ca281cfd65a720e686e4c61b30975fec68f250ef62b1cb14279db2e4c833a7","register":"water-bodies-census","lgdBlockCode":"4213","byType":[{"type":"Water consv schemes/percolation tanks/check-dams","count":10}],"areaBasis":"withheld","pointCount":10}},{"type":"Feature","geometry":{"type":"MultiPoint","coordinates":[[75.08861,18.4875],[75.09778,18.4875]]},"properties":{"lgdGramPanchayatCode":"167802","count":2,"namedCount":2,"areaHectares":0,"largestAreaHectares":0,"byDepartment":[{"department":"Panchayat","count":2}],"namesSha256":"4a7069f4a89e6ad103c9577d58a32afe0925a5935171db3e15b8fb680bb33633","register":"water-bodies-census","lgdBlockCode":"4213","byType":[{"type":"Water consv schemes/percolation tanks/check-dams","count":2}],"areaBasis":"withheld","pointCount":2}},{"type":"Feature","geometry":{"type":"MultiPoint","coordinates":[[74.99111,18.75306],[74.99694,18.74806],[74.9975,18.75056],[75.00417,18.75444]]},"properties":{"lgdGramPanchayatCode":"167804","count":4,"namedCount":4,"areaHectares":0,"largestAreaHectares":0,"byDepartment":[{"department":"Panchayat","count":4}],"namesSha256":"36ba5fdec6923590c4ef32e75d3fb16e13821c10a4ee5b400b867280f8b2e953","register":"water-bodies-census","lgdBlockCode":"4213","byType":[{"type":"Water consv schemes/percolation tanks/check-dams","count":4}],"areaBasis":"withheld","pointCount":4}},{"type":"Feature","geometry":{"type":"MultiPoint","coordinates":[[74.8175,18.57306],[74.85389,18.60417],[74.87611,18.63167],[74.87611,18.63167]]},"properties":{"lgdGramPanchayatCode":"167805","count":4,"namedCount":4,"areaHectares":0,"largestAreaHectares":0,"byDepartment":[{"department":"Panchayat","count":4}],"namesSha256":"b0c7fcb945fdf89e248b15ec6922c838d8adb129ae132de9bf98896df77c919c","register":"water-bodies-census","lgdBlockCode":"4213","byType":[{"type":"Water consv schemes/percolation tanks/check-dams","count":4}],"areaBasis":"withheld","pointCount":4}},{"type":"Feature","geometry":{"type":"MultiPoint","coordinates":[[75.01139,18.5575],[75.03167,18.51667],[75.03861,18.51417],[75.03861,18.51472],[75.05361,18.52556],[75.05944,18.52833],[75.06056,18.52861],[75.19111,18.42167]]},"properties":{"lgdGramPanchayatCode":"167806","count":8,"namedCount":8,"areaHectares":0,"largestAreaHectares":0,"byDepartment":[{"department":"Panchayat","count":8}],"namesSha256":"e35695b47731fc00f97fa64ccaca82905c53c1de7742a6bfead338213fc348a6","register":"water-bodies-census","lgdBlockCode":"4213","byType":[{"type":"Water consv schemes/percolation tanks/check-dams","count":8}],"areaBasis":"withheld","pointCount":8}},{"type":"Feature","geometry":{"type":"MultiPoint","coordinates":[[74.98583,18.51639]]},"properties":{"lgdGramPanchayatCode":"167808","count":1,"namedCount":1,"areaHectares":0,"largestAreaHectares":0,"byDepartment":[{"department":"Panchayat","count":1}],"namesSha256":"708f082a0f5e6629bcb19149c3b0c2d9d0620351c4545c67ca4accb310d8f73f","register":"water-bodies-census","lgdBlockCode":"4213","byType":[{"type":"Water consv schemes/percolation tanks/check-dams","count":1}],"areaBasis":"withheld","pointCount":1}},{"type":"Feature","geometry":{"type":"MultiPoint","coordinates":[[75.10889,18.50611],[75.10889,18.50611]]},"properties":{"lgdGramPanchayatCode":"167809","count":2,"namedCount":2,"areaHectares":0,"largestAreaHectares":0,"byDepartment":[{"department":"Panchayat","count":2}],"namesSha256":"d62ca3f31964d42458500cc0bc691b9c32873ebac621c5e50089d239232c92ac","register":"water-bodies-census","lgdBlockCode":"4213","byType":[{"type":"Water consv schemes/percolation tanks/check-dams","count":2}],"areaBasis":"withheld","pointCount":2}},{"type":"Feature","geometry":{"type":"MultiPoint","coordinates":[[75.06472,18.43778],[75.06556,18.43944],[75.07333,18.44528]]},"properties":{"lgdGramPanchayatCode":"167810","count":3,"namedCount":3,"areaHectares":0,"largestAreaHectares":0,"byDepartment":[{"department":"Panchayat","count":3}],"namesSha256":"69aef00ee4b6f37937aebb166c2a227789d7592ea56bc4e98f947ef762b31486","register":"water-bodies-census","lgdBlockCode":"4213","byType":[{"type":"Water consv schemes/percolation tanks/check-dams","count":3}],"areaBasis":"withheld","pointCount":3}},{"type":"Feature","geometry":{"type":"MultiPoint","coordinates":[[75.0925,18.64972],[75.09611,18.65056],[75.09833,18.64972],[75.10639,18.65667],[75.10972,18.67611]]},"properties":{"lgdGramPanchayatCode":"167811","count":5,"namedCount":5,"areaHectares":0,"largestAreaHectares":0,"byDepartment":[{"department":"Panchayat","count":5}],"namesSha256":"988478a49dbdd5d8a33cff61ccaf2b076589114068b92faa997086d0105923c0","register":"water-bodies-census","lgdBlockCode":"4213","byType":[{"type":"Water consv schemes/percolation tanks/check-dams","count":5}],"areaBasis":"withheld","pointCount":5}},{"type":"Feature","geometry":{"type":"MultiPoint","coordinates":[[75.12778,18.60639],[75.12861,18.60083],[75.14583,18.60639],[75.1475,18.605]]},"properties":{"lgdGramPanchayatCode":"167812","count":4,"namedCount":4,"areaHectares":0,"largestAreaHectares":0,"byDepartment":[{"department":"Panchayat","count":4}],"namesSha256":"bdeaf07196ab674fd86bd6196085a1b3d803e9f10001cc1d4add51e6a9791a5d","register":"water-bodies-census","lgdBlockCode":"4213","byType":[{"type":"Water consv schemes/percolation tanks/check-dams","count":4}],"areaBasis":"withheld","pointCount":4}},{"type":"Feature","geometry":{"type":"MultiPoint","coordinates":[[74.90306,18.80722],[74.92556,18.79028],[74.92806,18.79167],[74.93222,18.79444]]},"properties":{"lgdGramPanchayatCode":"167813","count":4,"namedCount":4,"areaHectares":0,"largestAreaHectares":0,"byDepartment":[{"department":"Panchayat","count":4}],"namesSha256":"593c970e759ccd9517967eca5a817689b61fab3f914285f40e8a14dcff2905b6","register":"water-bodies-census","lgdBlockCode":"4213","byType":[{"type":"Water consv schemes/percolation tanks/check-dams","count":4}],"areaBasis":"withheld","pointCount":4}},{"type":"Feature","geometry":{"type":"MultiPoint","coordinates":[[74.925,18.70333],[74.92972,18.70056],[74.93194,18.69083],[74.93444,18.69361],[74.93972,18.68694]]},"properties":{"lgdGramPanchayatCode":"167815","count":5,"namedCount":5,"areaHectares":0,"largestAreaHectares":0,"byDepartment":[{"department":"Panchayat","count":5}],"namesSha256":"fad3dd3551b410dc06c6703991f6b2657ca6e56e0cdb4895e07a0cda4e626574","register":"water-bodies-census","lgdBlockCode":"4213","byType":[{"type":"Water consv schemes/percolation tanks/check-dams","count":5}],"areaBasis":"withheld","pointCount":5}},{"type":"Feature","geometry":{"type":"MultiPoint","coordinates":[[74.92056,18.54917]]},"properties":{"lgdGramPanchayatCode":"167819","count":1,"namedCount":1,"areaHectares":0,"largestAreaHectares":0,"byDepartment":[{"department":"Panchayat","count":1}],"namesSha256":"0d3255f6382c01fbe36078bd75a1a34b11f04ce00cecc5e15e0ce06601d68666","register":"water-bodies-census","lgdBlockCode":"4213","byType":[{"type":"Water consv schemes/percolation tanks/check-dams","count":1}],"areaBasis":"withheld","pointCount":1}},{"type":"Feature","geometry":{"type":"MultiPoint","coordinates":[[75.03306,18.46361],[75.04167,18.47583],[75.04556,18.49194],[75.04556,18.49194],[75.04556,18.49194],[75.04778,18.46722],[75.0525,18.46556],[75.06139,18.46944]]},"properties":{"lgdGramPanchayatCode":"167821","count":8,"namedCount":8,"areaHectares":0,"largestAreaHectares":0,"byDepartment":[{"department":"Panchayat","count":8}],"namesSha256":"03b316f48b471166fb88b362424804aafd48f4e268d2f5fb1280682aad0edb97","register":"water-bodies-census","lgdBlockCode":"4213","byType":[{"type":"Water consv schemes/percolation tanks/check-dams","count":8}],"areaBasis":"withheld","pointCount":8}},{"type":"Feature","geometry":{"type":"MultiPoint","coordinates":[[75.08472,18.65889],[75.11722,18.6575],[75.13139,18.64528],[75.13306,18.64833],[75.13444,18.64972],[75.13611,18.65472]]},"properties":{"lgdGramPanchayatCode":"167822","count":6,"namedCount":6,"areaHectares":0,"largestAreaHectares":0,"byDepartment":[{"department":"Panchayat","count":6}],"namesSha256":"cbf6deed01462842c6fc30f0803aa2b360b1a9b2a632fef7bb3d0407d3df753e","register":"water-bodies-census","lgdBlockCode":"4213","byType":[{"type":"Water consv schemes/percolation tanks/check-dams","count":6}],"areaBasis":"withheld","pointCount":6}},{"type":"Feature","geometry":{"type":"MultiPoint","coordinates":[[75.12861,18.55861],[75.13056,18.56972],[75.13083,18.56972],[75.13111,18.5675],[75.13389,18.57],[75.13444,18.57028],[75.14222,18.57444],[75.14583,18.57556]]},"properties":{"lgdGramPanchayatCode":"167823","count":8,"namedCount":8,"areaHectares":0,"largestAreaHectares":0,"byDepartment":[{"department":"Panchayat","count":8}],"namesSha256":"f3eccf9aed00c57c2515ffbc37c6584abf91b4f8f0938c4be56ed684f0b60697","register":"water-bodies-census","lgdBlockCode":"4213","byType":[{"type":"Water consv schemes/percolation tanks/check-dams","count":8}],"areaBasis":"withheld","pointCount":8}},{"type":"Feature","geometry":{"type":"MultiPoint","coordinates":[[74.93,18.78722],[74.97944,18.80194]]},"properties":{"lgdGramPanchayatCode":"167824","count":2,"namedCount":2,"areaHectares":0,"largestAreaHectares":0,"byDepartment":[{"department":"Panchayat","count":2}],"namesSha256":"194164ed5d95bc4d4b819b4a0f5518a94bc173054475387c2837fa2e84e79de5","register":"water-bodies-census","lgdBlockCode":"4213","byType":[{"type":"Water consv schemes/percolation tanks/check-dams","count":2}],"areaBasis":"withheld","pointCount":2}},{"type":"Feature","geometry":{"type":"MultiPoint","coordinates":[[75.08083,18.61139],[75.08361,18.61556],[75.09167,18.63389],[75.09722,18.63361],[75.0975,18.615],[75.1075,18.63972],[75.10944,18.64306]]},"properties":{"lgdGramPanchayatCode":"167826","count":7,"namedCount":7,"areaHectares":0,"largestAreaHectares":0,"byDepartment":[{"department":"Panchayat","count":7}],"namesSha256":"6e3cc745abce31232c90636290c88c3dd452eba098cc453e503bb6614ea78fb3","register":"water-bodies-census","lgdBlockCode":"4213","byType":[{"type":"Water consv schemes/percolation tanks/check-dams","count":7}],"areaBasis":"withheld","pointCount":7}},{"type":"Feature","geometry":{"type":"MultiPoint","coordinates":[[74.87806,18.51417],[74.87944,18.50833],[74.88167,18.49444],[74.88528,18.49361],[74.8925,18.48556],[74.90194,18.4775],[74.96333,18.49528]]},"properties":{"lgdGramPanchayatCode":"167828","count":7,"namedCount":7,"areaHectares":0,"largestAreaHectares":0,"byDepartment":[{"department":"Panchayat","count":7}],"namesSha256":"9d9f7e3b86aa62eaf6d5255ab7302ec854e6f6cd6aeda335c836dd335d8eb459","register":"water-bodies-census","lgdBlockCode":"4213","byType":[{"type":"Water consv schemes/percolation tanks/check-dams","count":7}],"areaBasis":"withheld","pointCount":7}},{"type":"Feature","geometry":{"type":"MultiPoint","coordinates":[[74.79111,18.51028],[74.79278,18.51583],[74.79278,18.52556],[74.79417,18.52722],[74.79833,18.52889],[74.82944,18.51139],[74.86944,18.54056]]},"properties":{"lgdGramPanchayatCode":"167829","count":7,"namedCount":7,"areaHectares":0,"largestAreaHectares":0,"byDepartment":[{"department":"Panchayat","count":7}],"namesSha256":"2f0d75035a2b20a110e21482cedbe7ecc8240e24bb3625772119524944f0d018","register":"water-bodies-census","lgdBlockCode":"4213","byType":[{"type":"Water consv schemes/percolation tanks/check-dams","count":7}],"areaBasis":"withheld","pointCount":7}},{"type":"Feature","geometry":{"type":"MultiPoint","coordinates":[[74.80194,18.54806],[74.80389,18.55389],[74.80778,18.55917],[74.81056,18.53778],[74.81972,18.57083],[74.84333,18.57361]]},"properties":{"lgdGramPanchayatCode":"167830","count":6,"namedCount":6,"areaHectares":0,"largestAreaHectares":0,"byDepartment":[{"department":"Panchayat","count":6}],"namesSha256":"54b6e1a7cc1d1f3f347ab79d2b0e89aea70aae36c53336ff09d183a95b0a4d0b","register":"water-bodies-census","lgdBlockCode":"4213","byType":[{"type":"Water consv schemes/percolation tanks/check-dams","count":6}],"areaBasis":"withheld","pointCount":6}},{"type":"Feature","geometry":{"type":"MultiPoint","coordinates":[[74.85972,18.41278],[74.89667,18.46556],[74.91667,18.44],[74.9225,18.43917],[74.93028,18.44333]]},"properties":{"lgdGramPanchayatCode":"167831","count":5,"namedCount":5,"areaHectares":0,"largestAreaHectares":0,"byDepartment":[{"department":"Panchayat","count":5}],"namesSha256":"a4a2a8d8a1c3557c92dc5fed0743d16f50e7c4c1210a0805b5df475663106108","register":"water-bodies-census","lgdBlockCode":"4213","byType":[{"type":"Water consv schemes/percolation tanks/check-dams","count":5}],"areaBasis":"withheld","pointCount":5}},{"type":"Feature","geometry":{"type":"MultiPoint","coordinates":[[74.92417,18.79306],[74.96111,18.73556],[74.96139,18.74583],[74.96583,18.73722],[74.96778,18.74472],[75.01833,18.70833]]},"properties":{"lgdGramPanchayatCode":"167833","count":6,"namedCount":6,"areaHectares":0,"largestAreaHectares":0,"byDepartment":[{"department":"Panchayat","count":6}],"namesSha256":"ec34edd85d0c32d92dd9da0e6d46754118cb103b5cd0677fd6432551c73eb02b","register":"water-bodies-census","lgdBlockCode":"4213","byType":[{"type":"Water consv schemes/percolation tanks/check-dams","count":6}],"areaBasis":"withheld","pointCount":6}},{"type":"Feature","geometry":{"type":"MultiPoint","coordinates":[[74.93417,18.60194],[74.93417,18.60194],[74.94278,18.58528],[74.94306,18.60528],[74.94694,18.60417],[74.94861,18.60861]]},"properties":{"lgdGramPanchayatCode":"167834","count":6,"namedCount":6,"areaHectares":0,"largestAreaHectares":0,"byDepartment":[{"department":"Panchayat","count":6}],"namesSha256":"092ec99528d6ddd21e084e56bb37b51949d453d833dd0baea7e1c99e271e536c","register":"water-bodies-census","lgdBlockCode":"4213","byType":[{"type":"Water consv schemes/percolation tanks/check-dams","count":6}],"areaBasis":"withheld","pointCount":6}},{"type":"Feature","geometry":{"type":"MultiPoint","coordinates":[[74.85444,18.64472],[74.85444,18.64472],[74.85444,18.64528],[74.85611,18.6425],[74.865,18.64111],[74.86611,18.64278],[74.86611,18.64278]]},"properties":{"lgdGramPanchayatCode":"167835","count":7,"namedCount":7,"areaHectares":0,"largestAreaHectares":0,"byDepartment":[{"department":"Panchayat","count":7}],"namesSha256":"9b50f69987d4dea448562b206d12271f40e39a557c660f07d34ecc097003975a","register":"water-bodies-census","lgdBlockCode":"4213","byType":[{"type":"Water consv schemes/percolation tanks/check-dams","count":7}],"areaBasis":"withheld","pointCount":7}},{"type":"Feature","geometry":{"type":"MultiPoint","coordinates":[[74.00333,19.53861]]},"properties":{"lgdGramPanchayatCode":"167836","count":1,"namedCount":1,"areaHectares":0,"largestAreaHectares":0,"byDepartment":[{"department":"Panchayat","count":1}],"namesSha256":"411d1d99788627c48cbbdad9feaae286d7874305e13780f4b445e4750d7f691f","register":"water-bodies-census","lgdBlockCode":"4213","byType":[{"type":"Water consv schemes/percolation tanks/check-dams","count":1}],"areaBasis":"withheld","pointCount":1}},{"type":"Feature","geometry":{"type":"MultiPoint","coordinates":[[74.85889,18.60389],[74.87056,18.61667],[74.87361,18.61778],[74.87778,18.61667],[74.87778,18.62417],[74.88028,18.62722],[74.88083,18.63444],[74.88611,18.63056],[74.88667,18.61944],[74.89111,18.6225],[74.89833,18.62861],[74.90667,18.62583]]},"properties":{"lgdGramPanchayatCode":"167837","count":12,"namedCount":12,"areaHectares":0,"largestAreaHectares":0,"byDepartment":[{"department":"Panchayat","count":12}],"namesSha256":"2f3a61efedf3af1d2eb5302fbe06e16ea4b163d4602f93a2c4059d95a870e7d3","register":"water-bodies-census","lgdBlockCode":"4213","byType":[{"type":"Water consv schemes/percolation tanks/check-dams","count":12}],"areaBasis":"withheld","pointCount":12}},{"type":"Feature","geometry":{"type":"MultiPoint","coordinates":[[74.97944,18.64167]]},"properties":{"lgdGramPanchayatCode":"167841","count":1,"namedCount":1,"areaHectares":0,"largestAreaHectares":0,"byDepartment":[{"department":"Panchayat","count":1}],"namesSha256":"431c27677c7e9ebe624e0e43f239ddf0eb75197672cdd45b900841ccb18dca24","register":"water-bodies-census","lgdBlockCode":"4213","byType":[{"type":"Water consv schemes/percolation tanks/check-dams","count":1}],"areaBasis":"withheld","pointCount":1}},{"type":"Feature","geometry":{"type":"MultiPoint","coordinates":[[75.05861,18.64778],[75.05889,18.6475],[75.07639,18.645],[75.08639,18.64944]]},"properties":{"lgdGramPanchayatCode":"167842","count":4,"namedCount":4,"areaHectares":0,"largestAreaHectares":0,"byDepartment":[{"department":"Panchayat","count":4}],"namesSha256":"a1a52123ed756afc3e4fe7b88a4befc477e3a9f7588526b782927ff162bc3b06","register":"water-bodies-census","lgdBlockCode":"4213","byType":[{"type":"Water consv schemes/percolation tanks/check-dams","count":4}],"areaBasis":"withheld","pointCount":4}},{"type":"Feature","geometry":{"type":"MultiPoint","coordinates":[[74.92639,18.75972],[74.92639,18.75972],[74.92639,18.75972],[74.9275,18.75833],[74.9275,18.75972],[74.94389,18.76917],[74.94583,18.7725]]},"properties":{"lgdGramPanchayatCode":"167845","count":7,"namedCount":7,"areaHectares":0,"largestAreaHectares":0,"byDepartment":[{"department":"Panchayat","count":7}],"namesSha256":"eb065e0292d9cfc5a7d138eeed507828308fa5b1a366b148e17d6d974eca13b4","register":"water-bodies-census","lgdBlockCode":"4213","byType":[{"type":"Water consv schemes/percolation tanks/check-dams","count":7}],"areaBasis":"withheld","pointCount":7}},{"type":"Feature","geometry":{"type":"MultiPoint","coordinates":[[74.93194,18.48944],[74.93583,18.495],[74.9425,18.49833],[74.94417,18.50528],[74.94611,18.50278],[74.94639,18.50861],[74.95222,18.51806],[74.95222,18.51833],[74.95361,18.50361],[74.95444,18.52139],[74.955,18.53056],[74.95639,18.52528],[74.95861,18.50472],[74.96333,18.48722]]},"properties":{"lgdGramPanchayatCode":"167846","count":14,"namedCount":14,"areaHectares":0,"largestAreaHectares":0,"byDepartment":[{"department":"Panchayat","count":14}],"namesSha256":"9735721ffee125b323c41fe209fb14a3f044cef71f1e796aeb223c8fe046055e","register":"water-bodies-census","lgdBlockCode":"4213","byType":[{"type":"Water consv schemes/percolation tanks/check-dams","count":14}],"areaBasis":"withheld","pointCount":14}},{"type":"Feature","geometry":{"type":"MultiPoint","coordinates":[[75.0275,18.74778],[75.03194,18.76028],[75.03472,18.76028],[75.04,18.76139],[75.04,18.76139]]},"properties":{"lgdGramPanchayatCode":"167847","count":5,"namedCount":5,"areaHectares":0,"largestAreaHectares":0,"byDepartment":[{"department":"Panchayat","count":5}],"namesSha256":"fc8ffb36a5b866c817e98bb600dfaa7368b37a3e929f82ee92ebf522c398d2cc","register":"water-bodies-census","lgdBlockCode":"4213","byType":[{"type":"Water consv schemes/percolation tanks/check-dams","count":5}],"areaBasis":"withheld","pointCount":5}},{"type":"Feature","geometry":{"type":"MultiPoint","coordinates":[[74.92333,18.48639]]},"properties":{"lgdGramPanchayatCode":"167848","count":1,"namedCount":1,"areaHectares":0,"largestAreaHectares":0,"byDepartment":[{"department":"Panchayat","count":1}],"namesSha256":"58af53e85bbb64e44d55a89d2070e4ddce3aa1d6059cdee844b56bdfb87ccc40","register":"water-bodies-census","lgdBlockCode":"4213","byType":[{"type":"Water consv schemes/percolation tanks/check-dams","count":1}],"areaBasis":"withheld","pointCount":1}},{"type":"Feature","geometry":{"type":"MultiPoint","coordinates":[[74.92222,18.56306],[74.92583,18.56472],[74.93694,18.55361],[74.94611,18.57389]]},"properties":{"lgdGramPanchayatCode":"167849","count":4,"namedCount":4,"areaHectares":0,"largestAreaHectares":0,"byDepartment":[{"department":"Panchayat","count":4}],"namesSha256":"29c23a3812e83ad1ce068733c2add5f983defda1b7f66b617259f73e625b30aa","register":"water-bodies-census","lgdBlockCode":"4213","byType":[{"type":"Water consv schemes/percolation tanks/check-dams","count":4}],"areaBasis":"withheld","pointCount":4}},{"type":"Feature","geometry":{"type":"MultiPoint","coordinates":[[74.93611,18.63361],[74.95611,18.62361],[74.9575,18.63417],[74.97444,18.64556],[74.97722,18.64111]]},"properties":{"lgdGramPanchayatCode":"167850","count":5,"namedCount":5,"areaHectares":0,"largestAreaHectares":0,"byDepartment":[{"department":"Panchayat","count":5}],"namesSha256":"2c0f01cab801f87a7264c2ac99be4c14ae6bb359d01da8608809ccc9be060e03","register":"water-bodies-census","lgdBlockCode":"4213","byType":[{"type":"Water consv schemes/percolation tanks/check-dams","count":5}],"areaBasis":"withheld","pointCount":5}},{"type":"Feature","geometry":{"type":"MultiPoint","coordinates":[[75.06222,18.52111],[75.06444,18.49944],[75.07306,18.50778],[75.07556,18.50889],[75.07583,18.50361],[75.07889,18.50722],[75.08611,18.51861]]},"properties":{"lgdGramPanchayatCode":"262948","count":7,"namedCount":7,"areaHectares":0,"largestAreaHectares":0,"byDepartment":[{"department":"Panchayat","count":7}],"namesSha256":"2dba16436b5983eda46916314fdcf2c7a5915c5b8dc10d3d65db5a035c3fdc60","register":"water-bodies-census","lgdBlockCode":"4213","byType":[{"type":"Water consv schemes/percolation tanks/check-dams","count":7}],"areaBasis":"withheld","pointCount":7}}]}
