{
  "nvdm": "1.0",
  "dataset": "atlas/water-bodies",
  "scope": {
    "kind": "district",
    "id": "tn-tiruppur"
  },
  "provenance": {
    "sources": [
      {
        "id": "tngis-generic-viewer-water-bodies",
        "title": "TNGIS generic viewer: all water bodies (WFS layer generic_viewer:all_water_bodies)",
        "publisher": "Tamil Nadu e-Governance Agency (TNGIS)",
        "license": "LICENCE UNVERIFIED - see notes. TNGIS/TNeGA terms restrict public display, redistribution and commercial use to prior approval; the reuse confirmation requested 2026-07-27 has no reply. Only derived counts, areas, centroids and digests are published; cited with attribution.",
        "role": "asserts",
        "url": "https://tngis.tn.gov.in/tngismaps/ows",
        "retrieved": "2026-09-06"
      }
    ],
    "method": "api",
    "produced_at": "2026-09-06",
    "produced_by": "scripts/atlas-water-bodies-tn-district.ts",
    "internal_inputs": [
      "public/data/atlas/tn/tiruppur/directory.json"
    ],
    "note": "TNGIS all-water-bodies register for KANGAYAM block: 13 Gram Panchayats with 101 water bodies between them, rolled up per Panchayat (count, named count, summed and largest waterspread computed from the geometry, contributing departments, a digest of the sorted names). Geometry is null and names are withheld: TNGIS terms require prior approval for public display or redistribution and the confirmation requested on 2026-07-27 has no reply. A Panchayat absent here has no water body in the register.",
    "conventions": {
      "geometry": "null by rule until TNGIS/TNeGA approval is recorded; areas are hectares computed from the withheld polygons",
      "join": "panchayat_lgdvcode is the LGD Gram Panchayat code; features with code 0 (towns, corporations) are dropped, never pooled",
      "vintage": "the layer merges five departments' registers and carries no survey date"
    }
  },
  "ext": {
    "atlas": {
      "schemaVersion": 1,
      "planId": "tn-tiruppur-v1",
      "blockCode": "6468",
      "blockName": "KANGAYAM",
      "districtLgdCode": "578",
      "acquiredAt": "2026-09-06",
      "layer": "generic_viewer:all_water_bodies",
      "sourceUrl": "https://tngis.tn.gov.in/tngismaps/ows?service=WFS&version=2.0.0&request=GetFeature&typeNames=generic_viewer%3Aall_water_bodies&CQL_FILTER=rd_lgddcod%3D578&outputFormat=application%2Fjson",
      "rights": {
        "status": "permission-required",
        "termsUrl": "https://tngis.tn.gov.in/user.html",
        "termsQuote": "GIS based data available in TNGIS should be used for informational purpose only and Not for legal use/not to be shared / published in the public media in any form or in the social media without any prior approval / permission from TNGIS/TNeGA.",
        "approval": null
      },
      "contributingDepartments": [
        "AED",
        "DOSS",
        "NRSC",
        "WRD"
      ],
      "snapshotSha256": "7cc62482dc6b58a78ae44d1127c000cc11885165f9b006f3ec41a09100b87d65",
      "featureCount": 101,
      "recordCount": 13,
      "recordsSha256": "1b2cdb88e700e85fff78c737be1f9c68455e324223314977c51fe87c4e7431b6"
    }
  },
  "type": "FeatureCollection",
  "features": [
    {
      "type": "Feature",
      "geometry": null,
      "properties": {
        "lgdGramPanchayatCode": "223684",
        "count": 5,
        "namedCount": 5,
        "areaHectares": 40.5897,
        "largestAreaHectares": 37.0591,
        "byDepartment": [
          {
            "department": "NRSC",
            "count": 4
          },
          {
            "department": "WRD",
            "count": 1
          }
        ],
        "namesSha256": "6d6a6eca85d9dec44bfbabb0240ea921e9e20536e91398d487f638aa9a971dc5",
        "lgdBlockCode": "6468"
      }
    },
    {
      "type": "Feature",
      "geometry": null,
      "properties": {
        "lgdGramPanchayatCode": "223685",
        "count": 1,
        "namedCount": 1,
        "areaHectares": 1.3408,
        "largestAreaHectares": 1.3408,
        "byDepartment": [
          {
            "department": "NRSC",
            "count": 1
          }
        ],
        "namesSha256": "06a9aeb76ef895ce4eaf5442da73c40af2f7a587e7307198f3ef76e17388d89c",
        "lgdBlockCode": "6468"
      }
    },
    {
      "type": "Feature",
      "geometry": null,
      "properties": {
        "lgdGramPanchayatCode": "223686",
        "count": 19,
        "namedCount": 15,
        "areaHectares": 26.5308,
        "largestAreaHectares": 10.5018,
        "byDepartment": [
          {
            "department": "NRSC",
            "count": 15
          },
          {
            "department": "AED",
            "count": 4
          }
        ],
        "namesSha256": "0abb81e7360792879cb73e2ef3897b60d82adcf7a14fd8f8aefc9c3eb96a9c7f",
        "lgdBlockCode": "6468"
      }
    },
    {
      "type": "Feature",
      "geometry": null,
      "properties": {
        "lgdGramPanchayatCode": "223687",
        "count": 8,
        "namedCount": 7,
        "areaHectares": 5.9937,
        "largestAreaHectares": 2.7784,
        "byDepartment": [
          {
            "department": "NRSC",
            "count": 7
          },
          {
            "department": "AED",
            "count": 1
          }
        ],
        "namesSha256": "b2b0de99c0ff2353f7b2f92e63edb137857576456c1e5a22e624ef8f18d745b5",
        "lgdBlockCode": "6468"
      }
    },
    {
      "type": "Feature",
      "geometry": null,
      "properties": {
        "lgdGramPanchayatCode": "223688",
        "count": 1,
        "namedCount": 1,
        "areaHectares": 0.2305,
        "largestAreaHectares": 0.2305,
        "byDepartment": [
          {
            "department": "NRSC",
            "count": 1
          }
        ],
        "namesSha256": "06a9aeb76ef895ce4eaf5442da73c40af2f7a587e7307198f3ef76e17388d89c",
        "lgdBlockCode": "6468"
      }
    },
    {
      "type": "Feature",
      "geometry": null,
      "properties": {
        "lgdGramPanchayatCode": "223689",
        "count": 6,
        "namedCount": 5,
        "areaHectares": 4.7444,
        "largestAreaHectares": 2.8332,
        "byDepartment": [
          {
            "department": "NRSC",
            "count": 5
          },
          {
            "department": "AED",
            "count": 1
          }
        ],
        "namesSha256": "7b2df4fe18d707b8dc0a0c1e86a2029f368f79e7eefa55ff964cdb7a6e3134a6",
        "lgdBlockCode": "6468"
      }
    },
    {
      "type": "Feature",
      "geometry": null,
      "properties": {
        "lgdGramPanchayatCode": "223691",
        "count": 12,
        "namedCount": 11,
        "areaHectares": 23.0235,
        "largestAreaHectares": 9.47,
        "byDepartment": [
          {
            "department": "NRSC",
            "count": 11
          },
          {
            "department": "AED",
            "count": 1
          }
        ],
        "namesSha256": "b0bbd1174d21d28d858ea3a92fc3168286b4e246961b2cbdbe7bbb9e56361d85",
        "lgdBlockCode": "6468"
      }
    },
    {
      "type": "Feature",
      "geometry": null,
      "properties": {
        "lgdGramPanchayatCode": "223692",
        "count": 2,
        "namedCount": 0,
        "areaHectares": 0.9527,
        "largestAreaHectares": 0.6129,
        "byDepartment": [
          {
            "department": "AED",
            "count": 2
          }
        ],
        "namesSha256": "4f53cda18c2baa0c0354bb5f9a3ecbe5ed12ab4d8e11ba873c2f11161202b945",
        "lgdBlockCode": "6468"
      }
    },
    {
      "type": "Feature",
      "geometry": null,
      "properties": {
        "lgdGramPanchayatCode": "223693",
        "count": 21,
        "namedCount": 17,
        "areaHectares": 25.4996,
        "largestAreaHectares": 7.5051,
        "byDepartment": [
          {
            "department": "NRSC",
            "count": 17
          },
          {
            "department": "AED",
            "count": 4
          }
        ],
        "namesSha256": "a8b537fe3db88abbbe8c88c2733c2d2d8ec33d627ebf6118a4acfa80f1e10993",
        "lgdBlockCode": "6468"
      }
    },
    {
      "type": "Feature",
      "geometry": null,
      "properties": {
        "lgdGramPanchayatCode": "223694",
        "count": 11,
        "namedCount": 4,
        "areaHectares": 12.9942,
        "largestAreaHectares": 3.5994,
        "byDepartment": [
          {
            "department": "AED",
            "count": 7
          },
          {
            "department": "NRSC",
            "count": 4
          }
        ],
        "namesSha256": "3c286f9b4d57446613534121f26f9e032e291835f3d12dc06ec242dd9916d2e4",
        "lgdBlockCode": "6468"
      }
    },
    {
      "type": "Feature",
      "geometry": null,
      "properties": {
        "lgdGramPanchayatCode": "223695",
        "count": 8,
        "namedCount": 6,
        "areaHectares": 7.9668,
        "largestAreaHectares": 2.0993,
        "byDepartment": [
          {
            "department": "NRSC",
            "count": 6
          },
          {
            "department": "AED",
            "count": 2
          }
        ],
        "namesSha256": "b93be6cec7e0cb6f0463b631bf330289a6a40e7298358834dbb2fe060656737d",
        "lgdBlockCode": "6468"
      }
    },
    {
      "type": "Feature",
      "geometry": null,
      "properties": {
        "lgdGramPanchayatCode": "223696",
        "count": 3,
        "namedCount": 3,
        "areaHectares": 27.0075,
        "largestAreaHectares": 25.7943,
        "byDepartment": [
          {
            "department": "NRSC",
            "count": 3
          }
        ],
        "namesSha256": "59b6ee0dfb3935b71bcb3376277ffc610803726e03f3000364bc89212086ab35",
        "lgdBlockCode": "6468"
      }
    },
    {
      "type": "Feature",
      "geometry": null,
      "properties": {
        "lgdGramPanchayatCode": "223697",
        "count": 4,
        "namedCount": 2,
        "areaHectares": 11.1978,
        "largestAreaHectares": 7.8477,
        "byDepartment": [
          {
            "department": "AED",
            "count": 2
          },
          {
            "department": "NRSC",
            "count": 2
          }
        ],
        "namesSha256": "54459dbe127d5cada5edca98dcd9cc943ceccfc1e627fbdb2f5152dc5d5c98e6",
        "lgdBlockCode": "6468"
      }
    }
  ]
}
