{
  "nvdm": "1.0",
  "dataset": "atlas/water-bodies",
  "scope": {
    "kind": "district",
    "id": "tn-tiruppur"
  },
  "provenance": {
    "sources": [
      {
        "id": "tngis-generic-viewer-water-bodies",
        "title": "TNGIS generic viewer: all water bodies (WFS layer generic_viewer:all_water_bodies)",
        "publisher": "Tamil Nadu e-Governance Agency (TNGIS)",
        "license": "LICENCE UNVERIFIED - see notes. TNGIS/TNeGA terms restrict public display, redistribution and commercial use to prior approval; the reuse confirmation requested 2026-07-27 has no reply. Only derived counts, areas, centroids and digests are published; cited with attribution.",
        "role": "asserts",
        "url": "https://tngis.tn.gov.in/tngismaps/ows",
        "retrieved": "2026-09-06"
      }
    ],
    "method": "api",
    "produced_at": "2026-09-06",
    "produced_by": "scripts/atlas-water-bodies-tn-district.ts",
    "internal_inputs": [
      "public/data/atlas/tn/tiruppur/directory.json"
    ],
    "note": "TNGIS all-water-bodies register for VELLAKOIL block: 9 Gram Panchayats with 71 water bodies between them, rolled up per Panchayat (count, named count, summed and largest waterspread computed from the geometry, contributing departments, a digest of the sorted names). Geometry is null and names are withheld: TNGIS terms require prior approval for public display or redistribution and the confirmation requested on 2026-07-27 has no reply. A Panchayat absent here has no water body in the register.",
    "conventions": {
      "geometry": "null by rule until TNGIS/TNeGA approval is recorded; areas are hectares computed from the withheld polygons",
      "join": "panchayat_lgdvcode is the LGD Gram Panchayat code; features with code 0 (towns, corporations) are dropped, never pooled",
      "vintage": "the layer merges five departments' registers and carries no survey date"
    }
  },
  "ext": {
    "atlas": {
      "schemaVersion": 1,
      "planId": "tn-tiruppur-v1",
      "blockCode": "6479",
      "blockName": "VELLAKOIL",
      "districtLgdCode": "578",
      "acquiredAt": "2026-09-06",
      "layer": "generic_viewer:all_water_bodies",
      "sourceUrl": "https://tngis.tn.gov.in/tngismaps/ows?service=WFS&version=2.0.0&request=GetFeature&typeNames=generic_viewer%3Aall_water_bodies&CQL_FILTER=rd_lgddcod%3D578&outputFormat=application%2Fjson",
      "rights": {
        "status": "permission-required",
        "termsUrl": "https://tngis.tn.gov.in/user.html",
        "termsQuote": "GIS based data available in TNGIS should be used for informational purpose only and Not for legal use/not to be shared / published in the public media in any form or in the social media without any prior approval / permission from TNGIS/TNeGA.",
        "approval": null
      },
      "contributingDepartments": [
        "AED",
        "DOSS",
        "NRSC",
        "WRD"
      ],
      "snapshotSha256": "7cc62482dc6b58a78ae44d1127c000cc11885165f9b006f3ec41a09100b87d65",
      "featureCount": 71,
      "recordCount": 9,
      "recordsSha256": "b6fd0c36f8b0c36d0d7eff7b1d6cc9f84aab43d13aded9af2656e53f63390887"
    }
  },
  "type": "FeatureCollection",
  "features": [
    {
      "type": "Feature",
      "geometry": null,
      "properties": {
        "lgdGramPanchayatCode": "223883",
        "count": 13,
        "namedCount": 12,
        "areaHectares": 59.7294,
        "largestAreaHectares": 21.2619,
        "byDepartment": [
          {
            "department": "NRSC",
            "count": 12
          },
          {
            "department": "AED",
            "count": 1
          }
        ],
        "namesSha256": "04895a5baa0664e58ca5fb2a77f07da63fe8cc66e21627c72997c6a1125d48ae",
        "lgdBlockCode": "6479"
      }
    },
    {
      "type": "Feature",
      "geometry": null,
      "properties": {
        "lgdGramPanchayatCode": "223884",
        "count": 7,
        "namedCount": 7,
        "areaHectares": 2.2756,
        "largestAreaHectares": 0.5765,
        "byDepartment": [
          {
            "department": "NRSC",
            "count": 7
          }
        ],
        "namesSha256": "b2b0de99c0ff2353f7b2f92e63edb137857576456c1e5a22e624ef8f18d745b5",
        "lgdBlockCode": "6479"
      }
    },
    {
      "type": "Feature",
      "geometry": null,
      "properties": {
        "lgdGramPanchayatCode": "223885",
        "count": 12,
        "namedCount": 12,
        "areaHectares": 165.9457,
        "largestAreaHectares": 162.4493,
        "byDepartment": [
          {
            "department": "NRSC",
            "count": 12
          }
        ],
        "namesSha256": "04895a5baa0664e58ca5fb2a77f07da63fe8cc66e21627c72997c6a1125d48ae",
        "lgdBlockCode": "6479"
      }
    },
    {
      "type": "Feature",
      "geometry": null,
      "properties": {
        "lgdGramPanchayatCode": "223886",
        "count": 10,
        "namedCount": 9,
        "areaHectares": 16.1867,
        "largestAreaHectares": 10.5177,
        "byDepartment": [
          {
            "department": "NRSC",
            "count": 9
          },
          {
            "department": "AED",
            "count": 1
          }
        ],
        "namesSha256": "974d1029911a33137035a057acd2064a92926f75d5fe15158701e3ed127323a4",
        "lgdBlockCode": "6479"
      }
    },
    {
      "type": "Feature",
      "geometry": null,
      "properties": {
        "lgdGramPanchayatCode": "223887",
        "count": 2,
        "namedCount": 2,
        "areaHectares": 71.4916,
        "largestAreaHectares": 64.0417,
        "byDepartment": [
          {
            "department": "NRSC",
            "count": 2
          }
        ],
        "namesSha256": "54459dbe127d5cada5edca98dcd9cc943ceccfc1e627fbdb2f5152dc5d5c98e6",
        "lgdBlockCode": "6479"
      }
    },
    {
      "type": "Feature",
      "geometry": null,
      "properties": {
        "lgdGramPanchayatCode": "223888",
        "count": 3,
        "namedCount": 2,
        "areaHectares": 2.4514,
        "largestAreaHectares": 1.0133,
        "byDepartment": [
          {
            "department": "NRSC",
            "count": 2
          },
          {
            "department": "AED",
            "count": 1
          }
        ],
        "namesSha256": "54459dbe127d5cada5edca98dcd9cc943ceccfc1e627fbdb2f5152dc5d5c98e6",
        "lgdBlockCode": "6479"
      }
    },
    {
      "type": "Feature",
      "geometry": null,
      "properties": {
        "lgdGramPanchayatCode": "223889",
        "count": 1,
        "namedCount": 0,
        "areaHectares": 0.3095,
        "largestAreaHectares": 0.3095,
        "byDepartment": [
          {
            "department": "AED",
            "count": 1
          }
        ],
        "namesSha256": "4f53cda18c2baa0c0354bb5f9a3ecbe5ed12ab4d8e11ba873c2f11161202b945",
        "lgdBlockCode": "6479"
      }
    },
    {
      "type": "Feature",
      "geometry": null,
      "properties": {
        "lgdGramPanchayatCode": "223890",
        "count": 5,
        "namedCount": 5,
        "areaHectares": 1.3714,
        "largestAreaHectares": 0.4733,
        "byDepartment": [
          {
            "department": "NRSC",
            "count": 5
          }
        ],
        "namesSha256": "7b2df4fe18d707b8dc0a0c1e86a2029f368f79e7eefa55ff964cdb7a6e3134a6",
        "lgdBlockCode": "6479"
      }
    },
    {
      "type": "Feature",
      "geometry": null,
      "properties": {
        "lgdGramPanchayatCode": "223891",
        "count": 18,
        "namedCount": 16,
        "areaHectares": 19.6739,
        "largestAreaHectares": 6.8173,
        "byDepartment": [
          {
            "department": "NRSC",
            "count": 16
          },
          {
            "department": "AED",
            "count": 2
          }
        ],
        "namesSha256": "a54a04420f77bc1ca49a89459107ab9c1d463001d376a57422668cff5abe5f10",
        "lgdBlockCode": "6479"
      }
    }
  ]
}
