{"nvdm":"1.0","dataset":"basins/flood-zones","scope":{"kind":"basin","id":"palakkad-rivers"},"provenance":{"sources":[{"id":"ksrec-open-geoserver","title":"KSREC GeoServer (WFS): local-body boundaries, watershed atlas, wetlands, paddy, notified wetland parcels, flood extents and quarries of Kerala","publisher":"Kerala State Remote Sensing and Environment Centre (KSREC)","license":"No licence or terms are stated on the GeoServer (WFS capabilities: AccessConstraints NONE). Served with attribution to KSREC by the maintainer's decision; layers KSREC derived from OpenStreetMap (quarries, waterbodies) carry ODbL 1.0.","role":"input","url":"http://ksrec.in:9090/geoserver/ows"}],"method":"derived","produced_at":"2026-09-29","produced_by":"scripts/build_palakkad_rivers_basin.py","note":"Palakkad district's rivers, reservoirs, wetlands and groundwater (scope palakkad-rivers; the district's own scope id is kl-palakkad). The district is the union of its local bodies in KSREC's layer and the catchments (shedId) are the river basins of KSREC's watershed atlas cut to it. KSREC publishes no licence and its layers are served with attribution; its quarry layer is OpenStreetMap's (ODbL)."},"type":"FeatureCollection","features":[{"type":"Feature","properties":{"localBody":"Chalisseri","kind":"25-year","areaHa":1.67,"shedId":"RB19"},"geometry":{"type":"MultiPolygon","coordinates":[[[[76.0971,10.7279],[76.0967,10.7278],[76.0967,10.7279],[76.0971,10.7279]]],[[[76.0871,10.7279],[76.0871,10.7287],[76.0879,10.7288],[76.0879,10.7279],[76.0871,10.7279]]],[[[76.0821,10.7287],[76.0829,10.7288],[76.0829,10.7279],[76.0821,10.7279],[76.0821,10.7287]]]]}},{"type":"Feature","properties":{"localBody":"Chalisseri","kind":"25-year","areaHa":0.98,"shedId":"RB19"},"geometry":{"type":"Polygon","coordinates":[[[76.0987,10.7304],[76.0987,10.7313],[76.0996,10.7313],[76.0996,10.7304],[76.0987,10.7304]]]}},{"type":"Feature","properties":{"localBody":"Chalisseri","kind":"25-year","areaHa":0.77,"shedId":"RB19"},"geometry":{"type":"Polygon","coordinates":[[[76.0996,10.7329],[76.1004,10.7329],[76.1004,10.7321],[76.0996,10.7321],[76.0996,10.7329]]]}},{"type":"Feature","properties":{"localBody":"Chalisseri","kind":"25-year","areaHa":0.82,"shedId":"RB19"},"geometry":{"type":"Polygon","coordinates":[[[76.0887,10.7321],[76.0888,10.7329],[76.0896,10.7329],[76.0896,10.7321],[76.0887,10.7321]]]}},{"type":"Feature","properties":{"localBody":"Chalisseri","kind":"25-year","areaHa":0.67,"shedId":"RB19"},"geometry":{"type":"Polygon","coordinates":[[[76.0679,10.7381],[76.0679,10.7387],[76.0687,10.7388],[76.0688,10.7381],[76.0679,10.7381]]]}},{"type":"Feature","properties":{"localBody":"Chalisseri","kind":"25-year","areaHa":2.42,"shedId":"RB19"},"geometry":{"type":"Polygon","coordinates":[[[76.0787,10.7346],[76.0762,10.7346],[76.0762,10.7354],[76.0787,10.7354],[76.0787,10.7346]]]}},{"type":"Feature","properties":{"localBody":"Chalisseri","kind":"25-year","areaHa":0.65,"shedId":"RB19"},"geometry":{"type":"Polygon","coordinates":[[[76.0664,10.7396],[76.0666,10.7401],[76.0663,10.7401],[76.0663,10.7404],[76.0671,10.7404],[76.0671,10.7396],[76.0664,10.7396]]]}},{"type":"Feature","properties":{"localBody":"Kappur","kind":"25-year","areaHa":0.35,"shedId":"RB19"},"geometry":{"type":"Polygon","coordinates":[[[76.0511,10.7407],[76.0504,10.74115],[76.0504,10.7413],[76.0513,10.7412],[76.0511,10.7407]]]}},{"type":"Feature","properties":{"localBody":"Kappur","kind":"25-year","areaHa":0.82,"shedId":"RB19"},"geometry":{"type":"Polygon","coordinates":[[[76.0496,10.7412],[76.0496,10.7421],[76.0504,10.7421],[76.0504,10.7413],[76.0496,10.7412]]]}},{"type":"Feature","properties":{"localBody":"Kappur","kind":"25-year","areaHa":1.31,"shedId":"RB19"},"geometry":{"type":"Polygon","coordinates":[[[76.04885,10.7421],[76.048,10.7426],[76.0479,10.7429],[76.0496,10.7429],[76.0496,10.7421],[76.04885,10.7421]]]}},{"type":"Feature","properties":{"localBody":"Kappur","kind":"25-year","areaHa":0.82,"shedId":"RB19"},"geometry":{"type":"Polygon","coordinates":[[[76.0629,10.7471],[76.0637,10.7471],[76.0637,10.7463],[76.0629,10.7462],[76.0629,10.7471]]]}},{"type":"Feature","properties":{"localBody":"Kappur","kind":"25-year","areaHa":0.76,"shedId":"RB19"},"geometry":{"type":"Polygon","coordinates":[[[76.0404,10.7548],[76.0394,10.7549],[76.0391,10.7554],[76.0404,10.7554],[76.0404,10.7548]]]}},{"type":"Feature","properties":{"localBody":"Chalisseri","kind":"500-year","areaHa":0.87,"shedId":"RB19"},"geometry":{"type":"Polygon","coordinates":[[[76.0679,10.7387],[76.0679,10.7396],[76.0688,10.7396],[76.0687,10.7388],[76.0679,10.7387]]]}},{"type":"Feature","properties":{"localBody":"Chalisseri","kind":"500-year","areaHa":0.87,"shedId":"RB19"},"geometry":{"type":"Polygon","coordinates":[[[76.0771,10.7354],[76.0771,10.7363],[76.0779,10.7363],[76.0779,10.7354],[76.0771,10.7354]]]}},{"type":"Feature","properties":{"localBody":"Chalisseri","kind":"500-year","areaHa":0.82,"shedId":"RB19"},"geometry":{"type":"Polygon","coordinates":[[[76.0779,10.7404],[76.0787,10.7404],[76.0788,10.7396],[76.0779,10.7396],[76.0779,10.7404]]]}},{"type":"Feature","properties":{"localBody":"Chalisseri","kind":"500-year","areaHa":2.62,"shedId":"RB19"},"geometry":{"type":"Polygon","coordinates":[[[76.0688,10.7404],[76.0679,10.7404],[76.0679,10.7413],[76.0696,10.7413],[76.0696,10.7396],[76.0688,10.7396],[76.0688,10.7404]]]}},{"type":"Feature","properties":{"localBody":"Chalisseri","kind":"500-year","areaHa":0.93,"shedId":"RB19"},"geometry":{"type":"Polygon","coordinates":[[[76.0787,10.7413],[76.0796,10.7412],[76.0796,10.7404],[76.0787,10.7404],[76.0787,10.7413]]]}},{"type":"Feature","properties":{"localBody":"Chalisseri","kind":"500-year","areaHa":6.74,"shedId":"RB19"},"geometry":{"type":"Polygon","coordinates":[[[76.0796,10.7412],[76.0796,10.7438],[76.0804,10.7437],[76.0804,10.7462],[76.0812,10.7462],[76.0812,10.7454],[76.0821,10.7454],[76.0821,10.7446],[76.0813,10.7446],[76.0813,10.7429],[76.0804,10.7429],[76.0804,10.7412],[76.0796,10.7412]]]}},{"type":"Feature","properties":{"localBody":"Kappur","kind":"500-year","areaHa":0.82,"shedId":"RB19"},"geometry":{"type":"Polygon","coordinates":[[[76.0471,10.7946],[76.0471,10.7937],[76.0464,10.7937],[76.0463,10.7946],[76.0471,10.7946]]]}},{"type":"Feature","properties":{"localBody":"Anakkara","kind":"500-year","areaHa":2.83,"shedId":"RB19"},"geometry":{"type":"Polygon","coordinates":[[[76.0466,10.8034],[76.0471,10.8038],[76.0471,10.8054],[76.0488,10.8054],[76.0488,10.8062],[76.0492,10.8062],[76.0491,10.8056],[76.0468,10.803],[76.0466,10.8034]]]}},{"type":"Feature","properties":{"localBody":"Kappur","kind":"500-year","areaHa":22.77,"shedId":"RB19"},"geometry":{"type":"MultiPolygon","coordinates":[[[[76.0469,10.8013],[76.0463,10.8009],[76.0456,10.801],[76.0457,10.8014],[76.0461,10.8014],[76.0468,10.8021],[76.047,10.8034],[76.0491,10.8056],[76.0492,10.8062],[76.0504,10.8063],[76.0504,10.8029],[76.0479,10.8029],[76.0479,10.8021],[76.0471,10.8021],[76.0469,10.8013]]],[[[76.04162,10.7913],[76.0417,10.7918],[76.0421,10.7921],[76.0421,10.7912],[76.04162,10.7913]]],[[[76.0421,10.7923],[76.0433,10.7956],[76.0432,10.7972],[76.0445,10.7968],[76.0443,10.7962],[76.0448,10.7953],[76.0462,10.7955],[76.0463,10.7946],[76.0446,10.7946],[76.0446,10.7937],[76.0438,10.7937],[76.0438,10.7913],[76.0429,10.7913],[76.0429,10.7921],[76.0421,10.7923]]]]}},{"type":"Feature","properties":{"localBody":"Chalisseri","kind":"500-year","areaHa":6.06,"shedId":"RB19"},"geometry":{"type":"MultiPolygon","coordinates":[[[[76.0888,10.7288],[76.0887,10.7279],[76.0879,10.7279],[76.0879,10.7288],[76.0888,10.7288]]],[[[76.0871,10.7287],[76.0871,10.7296],[76.0879,10.7296],[76.0879,10.7288],[76.0871,10.7287]]],[[[76.0804,10.7279],[76.0804,10.7287],[76.0812,10.7288],[76.0813,10.7279],[76.0804,10.7279]]],[[[76.0779,10.7279],[76.0779,10.7288],[76.0787,10.7288],[76.0788,10.7279],[76.0779,10.7279]]],[[[76.0712,10.7354],[76.0721,10.7354],[76.0721,10.7346],[76.0712,10.7346],[76.0712,10.7354]]],[[[76.0704,10.7354],[76.0704,10.7363],[76.0712,10.7363],[76.0712,10.7354],[76.0704,10.7354]]],[[[76.0713,10.7321],[76.0713,10.7329],[76.0721,10.7329],[76.0721,10.7321],[76.0713,10.7321]]]]}},{"type":"Feature","properties":{"localBody":"Kappur","kind":"500-year","areaHa":8.97,"shedId":"RB19"},"geometry":{"type":"MultiPolygon","coordinates":[[[[76.0556,10.8154],[76.0563,10.8156],[76.0567,10.8154],[76.0556,10.8154]]],[[[76.0554,10.8121],[76.0554,10.8112],[76.0546,10.8112],[76.0546,10.8104],[76.0542,10.8104],[76.0544,10.8116],[76.0524,10.8122],[76.0529,10.8137],[76.0532,10.8137],[76.0539,10.8126],[76.0538,10.8121],[76.0554,10.8121]]],[[[76.0549,10.8147],[76.0553,10.8147],[76.0554,10.8152],[76.0554,10.8146],[76.0549,10.8147]]],[[[76.0539,10.8139],[76.0542,10.8143],[76.0546,10.8144],[76.0546,10.8137],[76.0539,10.8139]]],[[[76.051,10.8097],[76.0517,10.8105],[76.0531,10.8099],[76.0537,10.81],[76.0537,10.8087],[76.0529,10.8088],[76.0529,10.8096],[76.051,10.8097]]],[[[76.0492,10.8071],[76.0502,10.8088],[76.0504,10.8079],[76.0512,10.8079],[76.0512,10.8071],[76.0492,10.8071]]],[[[76.0505,10.8096],[76.0506,10.8098],[76.0508,10.8096],[76.0505,10.8096]]]]}},{"type":"Feature","properties":{"localBody":"Chalisseri","kind":"50-year","areaHa":1.6,"shedId":"RB19"},"geometry":{"type":"MultiPolygon","coordinates":[[[[76.0987,10.7321],[76.0988,10.7329],[76.0996,10.7329],[76.0996,10.7321],[76.0987,10.7321]]],[[[76.0971,10.7296],[76.0979,10.7296],[76.0979,10.7288],[76.0971,10.7288],[76.0971,10.7296]]]]}},{"type":"Feature","properties":{"localBody":"Chalisseri","kind":"50-year","areaHa":0.93,"shedId":"RB19"},"geometry":{"type":"Polygon","coordinates":[[[76.0904,10.7313],[76.0912,10.7313],[76.0913,10.7304],[76.0904,10.7304],[76.0904,10.7313]]]}},{"type":"Feature","properties":{"localBody":"Kappur","kind":"50-year","areaHa":0.33,"shedId":"RB19"},"geometry":{"type":"Polygon","coordinates":[[[76.0529,10.7412],[76.0517,10.741],[76.0512,10.7407],[76.0513,10.7412],[76.0529,10.7412]]]}},{"type":"Feature","properties":{"localBody":"Kappur","kind":"50-year","areaHa":0.77,"shedId":"RB19"},"geometry":{"type":"Polygon","coordinates":[[[76.0629,10.7438],[76.0621,10.7438],[76.0621,10.7446],[76.0629,10.7446],[76.0629,10.7438]]]}},{"type":"Feature","properties":{"localBody":"Kappur","kind":"50-year","areaHa":0.82,"shedId":"RB19"},"geometry":{"type":"Polygon","coordinates":[[[76.0629,10.7479],[76.0629,10.7487],[76.0637,10.7488],[76.0637,10.7479],[76.0629,10.7479]]]}},{"type":"Feature","properties":{"localBody":"Kappur","kind":"50-year","areaHa":0.87,"shedId":"RB19"},"geometry":{"type":"Polygon","coordinates":[[[76.0629,10.7496],[76.0629,10.7504],[76.0638,10.7504],[76.0638,10.7496],[76.0629,10.7496]]]}},{"type":"Feature","properties":{"localBody":"Kappur","kind":"50-year","areaHa":0.0,"shedId":"RB19"},"geometry":{"type":"Polygon","coordinates":[[[76.03954,10.75714],[76.0396,10.7572],[76.0396,10.7571],[76.03954,10.75714]]]}},{"type":"Feature","properties":{"localBody":"Kappur","kind":"50-year","areaHa":1.75,"shedId":"RB19"},"geometry":{"type":"Polygon","coordinates":[[[76.0404,10.7671],[76.0421,10.7671],[76.0421,10.7662],[76.0404,10.7663],[76.0404,10.7671]]]}},{"type":"Feature","properties":{"localBody":"Chalisseri","kind":"50-year","areaHa":1.5,"shedId":"RB19"},"geometry":{"type":"Polygon","coordinates":[[[76.0697,10.7346],[76.0696,10.7354],[76.0712,10.7354],[76.0712,10.7346],[76.0697,10.7346]]]}},{"type":"Feature","properties":{"localBody":"Chalisseri","kind":"100-year","areaHa":3.45,"shedId":"RB19"},"geometry":{"type":"MultiPolygon","coordinates":[[[[76.0963,10.7296],[76.0963,10.7304],[76.0971,10.7304],[76.0971,10.7296],[76.0963,10.7296]]],[[[76.0771,10.7279],[76.0762,10.7279],[76.0763,10.7287],[76.0754,10.7287],[76.0754,10.7296],[76.0771,10.7296],[76.0771,10.7279]]]]}},{"type":"Feature","properties":{"localBody":"Chalisseri","kind":"100-year","areaHa":1.6,"shedId":"RB19"},"geometry":{"type":"Polygon","coordinates":[[[76.0888,10.7313],[76.0871,10.7313],[76.0871,10.7321],[76.0887,10.7321],[76.0888,10.7313]]]}},{"type":"Feature","properties":{"localBody":"Chalisseri","kind":"100-year","areaHa":1.85,"shedId":"RB19"},"geometry":{"type":"Polygon","coordinates":[[[76.0804,10.7363],[76.0813,10.7363],[76.0813,10.7346],[76.0804,10.7346],[76.0804,10.7363]]]}},{"type":"Feature","properties":{"localBody":"Chalisseri","kind":"100-year","areaHa":5.91,"shedId":"RB19"},"geometry":{"type":"Polygon","coordinates":[[[76.0813,10.7371],[76.0846,10.7371],[76.0846,10.7354],[76.0821,10.7354],[76.0821,10.7363],[76.0813,10.7363],[76.0813,10.7371]]]}},{"type":"Feature","properties":{"localBody":"Chalisseri","kind":"100-year","areaHa":0.98,"shedId":"RB19"},"geometry":{"type":"Polygon","coordinates":[[[76.1079,10.7371],[76.1093,10.7371],[76.1094,10.7368],[76.1079,10.7363],[76.1079,10.7371]]]}},{"type":"Feature","properties":{"localBody":"Nagalassery","kind":"100-year","areaHa":1.66,"shedId":"RB19"},"geometry":{"type":"Polygon","coordinates":[[[76.1079,10.7363],[76.1093,10.7367],[76.1093,10.7371],[76.1096,10.7371],[76.1096,10.7362],[76.1087,10.7362],[76.1088,10.7354],[76.1079,10.7354],[76.1079,10.7363]]]}},{"type":"Feature","properties":{"localBody":"Chalisseri","kind":"100-year","areaHa":0.77,"shedId":"RB19"},"geometry":{"type":"Polygon","coordinates":[[[76.0696,10.7371],[76.0696,10.7379],[76.0704,10.7379],[76.0704,10.7371],[76.0696,10.7371]]]}},{"type":"Feature","properties":{"localBody":"Chalisseri","kind":"100-year","areaHa":0.93,"shedId":"RB19"},"geometry":{"type":"Polygon","coordinates":[[[76.0837,10.7388],[76.0846,10.7387],[76.0846,10.7379],[76.0837,10.7379],[76.0837,10.7388]]]}},{"type":"Feature","properties":{"localBody":"Chalisseri","kind":"100-year","areaHa":0.87,"shedId":"RB19"},"geometry":{"type":"Polygon","coordinates":[[[76.0746,10.7412],[76.0746,10.7421],[76.0754,10.7421],[76.0754,10.7412],[76.0746,10.7412]]]}},{"type":"Feature","properties":{"localBody":"Kappur","kind":"100-year","areaHa":0.88,"shedId":"RB19"},"geometry":{"type":"Polygon","coordinates":[[[76.0487,10.7429],[76.0488,10.7438],[76.0496,10.7437],[76.0496,10.7429],[76.0487,10.7429]]]}},{"type":"Feature","properties":{"localBody":"Kappur","kind":"100-year","areaHa":1.28,"shedId":"RB19"},"geometry":{"type":"MultiPolygon","coordinates":[[[[76.0654,10.7423],[76.0648,10.7424],[76.0646,10.7429],[76.0654,10.7429],[76.0654,10.7423]]],[[[76.0638,10.7438],[76.0638,10.7446],[76.0646,10.7446],[76.0646,10.7437],[76.0638,10.7438]]]]}},{"type":"Feature","properties":{"localBody":"Chalisseri","kind":"100-year","areaHa":0.04,"shedId":"RB19"},"geometry":{"type":"Polygon","coordinates":[[[76.0654,10.7421],[76.0651,10.7423],[76.0654,10.7423],[76.0654,10.7421]]]}},{"type":"Feature","properties":{"localBody":"Kappur","kind":"100-year","areaHa":2.57,"shedId":"RB19"},"geometry":{"type":"Polygon","coordinates":[[[76.0637,10.7471],[76.0638,10.7496],[76.0646,10.7496],[76.0646,10.7471],[76.0637,10.7471]]]}},{"type":"Feature","properties":{"localBody":"Kappur","kind":"100-year","areaHa":0.52,"shedId":"RB19"},"geometry":{"type":"Polygon","coordinates":[[[76.0402,10.7554],[76.0396,10.7554],[76.0396,10.7558],[76.0404,10.7563],[76.0402,10.7554]]]}},{"type":"Feature","properties":{"localBody":"Kappur","kind":"100-year","areaHa":0.82,"shedId":"RB19"},"geometry":{"type":"Polygon","coordinates":[[[76.0429,10.7904],[76.0421,10.7904],[76.0421,10.7912],[76.0429,10.7913],[76.0429,10.7904]]]}},{"type":"Feature","properties":{"localBody":"Chalisseri","kind":"200-year","areaHa":0.82,"shedId":"RB19"},"geometry":{"type":"Polygon","coordinates":[[[76.0796,10.7354],[76.0796,10.7362],[76.0804,10.7363],[76.0804,10.7354],[76.0796,10.7354]]]}},{"type":"Feature","properties":{"localBody":"Chalisseri","kind":"200-year","areaHa":0.77,"shedId":"RB19"},"geometry":{"type":"Polygon","coordinates":[[[76.0829,10.7371],[76.0829,10.7379],[76.0837,10.7379],[76.0837,10.7371],[76.0829,10.7371]]]}},{"type":"Feature","properties":{"localBody":"Chalisseri","kind":"200-year","areaHa":0.87,"shedId":"RB19"},"geometry":{"type":"Polygon","coordinates":[[[76.0787,10.7354],[76.0796,10.7354],[76.0796,10.7346],[76.0787,10.7346],[76.0787,10.7354]]]}},{"type":"Feature","properties":{"localBody":"Chalisseri","kind":"200-year","areaHa":0.77,"shedId":"RB19"},"geometry":{"type":"Polygon","coordinates":[[[76.0771,10.7396],[76.0771,10.7404],[76.0779,10.7404],[76.0779,10.7396],[76.0771,10.7396]]]}},{"type":"Feature","properties":{"localBody":"Kappur","kind":"200-year","areaHa":0.01,"shedId":"RB19"},"geometry":{"type":"Polygon","coordinates":[[[76.0504,10.7413],[76.0497,10.7412],[76.0496,10.7411],[76.0496,10.7412],[76.0504,10.7413]]]}},{"type":"Feature","properties":{"localBody":"Chalisseri","kind":"200-year","areaHa":2.57,"shedId":"RB19"},"geometry":{"type":"MultiPolygon","coordinates":[[[[76.0762,10.7404],[76.0763,10.7413],[76.0771,10.7413],[76.0771,10.7404],[76.0762,10.7404]]],[[[76.0746,10.7404],[76.0738,10.7404],[76.0738,10.7421],[76.0746,10.7421],[76.0746,10.7404]]]]}},{"type":"Feature","properties":{"localBody":"Kappur","kind":"200-year","areaHa":0.76,"shedId":"RB19"},"geometry":{"type":"Polygon","coordinates":[[[76.0427,10.7912],[76.0421,10.7912],[76.0421,10.7921],[76.0429,10.7921],[76.0427,10.7912]]]}},{"type":"Feature","properties":{"localBody":"Chalisseri","kind":"200-year","areaHa":4.6,"shedId":"RB19"},"geometry":{"type":"MultiPolygon","coordinates":[[[[76.0996,10.7304],[76.0996,10.7296],[76.0987,10.7296],[76.0987,10.7304],[76.0996,10.7304]]],[[[76.0751,10.7287],[76.0749,10.7293],[76.0746,10.7296],[76.0754,10.7296],[76.0754,10.7287],[76.0751,10.7287]]],[[[76.0738,10.7329],[76.0746,10.7329],[76.0746,10.7321],[76.0737,10.7321],[76.0738,10.7329]]],[[[76.0729,10.7304],[76.0729,10.7299],[76.0721,10.72975],[76.0721,10.7304],[76.0729,10.7304]]],[[[76.0712,10.7304],[76.0713,10.7313],[76.0721,10.7313],[76.0721,10.7304],[76.0712,10.7304]]],[[[76.0704,10.7321],[76.0696,10.7321],[76.0696,10.7329],[76.0704,10.7329],[76.0704,10.7321]]],[[[76.0688,10.7312],[76.0684,10.7316],[76.0688,10.7317],[76.0688,10.7312]]]]}},{"type":"Feature","properties":{"localBody":"Chalisseri","kind":"10-year","areaHa":21.25,"shedId":"RB19"},"geometry":{"type":"MultiPolygon","coordinates":[[[[76.0871,10.7304],[76.0871,10.7279],[76.091,10.7279],[76.0897,10.7271],[76.0867,10.7272],[76.0858,10.7276],[76.0854,10.728],[76.0854,10.7288],[76.0863,10.7287],[76.0863,10.7304],[76.0871,10.7304]]],[[[76.091,10.7279],[76.0938,10.7279],[76.0937,10.7288],[76.0954,10.7288],[76.0954,10.7296],[76.0971,10.7296],[76.0971,10.7279],[76.0967,10.7279],[76.0966,10.7283],[76.0956,10.7281],[76.0952,10.7284],[76.094,10.7276],[76.0936,10.7277],[76.0934,10.7273],[76.0915,10.7274],[76.091,10.7279]]],[[[76.0751,10.7287],[76.0763,10.7287],[76.0762,10.7279],[76.0771,10.7279],[76.0771,10.7288],[76.0779,10.7288],[76.0779,10.7279],[76.0829,10.7279],[76.0829,10.7288],[76.0838,10.7288],[76.0837,10.7279],[76.0848,10.7279],[76.0849,10.7275],[76.0833,10.7269],[76.0827,10.7274],[76.082,10.7272],[76.0807,10.7276],[76.0767,10.7275],[76.0757,10.7277],[76.0757,10.7282],[76.0751,10.7287]]],[[[76.0744,10.7296],[76.0746,10.7296],[76.0746,10.7295],[76.0744,10.7296]]]]}},{"type":"Feature","properties":{"localBody":"Chalisseri","kind":"10-year","areaHa":0.82,"shedId":"RB19"},"geometry":{"type":"Polygon","coordinates":[[[76.0879,10.7321],[76.0879,10.7329],[76.0888,10.7329],[76.0887,10.7321],[76.0879,10.7321]]]}},{"type":"Feature","properties":{"localBody":"Chalisseri","kind":"10-year","areaHa":8.28,"shedId":"RB19"},"geometry":{"type":"Polygon","coordinates":[[[76.0996,10.7313],[76.0987,10.7313],[76.0987,10.7304],[76.0979,10.7304],[76.0979,10.7296],[76.0971,10.7296],[76.0971,10.7304],[76.0963,10.7304],[76.0962,10.7321],[76.0971,10.7321],[76.0971,10.7329],[76.0988,10.7329],[76.0987,10.7321],[76.0996,10.7321],[76.0996,10.7313]]]}},{"type":"Feature","properties":{"localBody":"Chalisseri","kind":"10-year","areaHa":0.88,"shedId":"RB19"},"geometry":{"type":"Polygon","coordinates":[[[76.0738,10.7329],[76.0737,10.7337],[76.0746,10.7338],[76.0746,10.7329],[76.0738,10.7329]]]}},{"type":"Feature","properties":{"localBody":"Chalisseri","kind":"10-year","areaHa":7.56,"shedId":"RB19"},"geometry":{"type":"Polygon","coordinates":[[[76.0904,10.7313],[76.0904,10.7304],[76.0871,10.7304],[76.0871,10.7313],[76.0896,10.7313],[76.0896,10.7329],[76.0888,10.7329],[76.0887,10.7337],[76.0904,10.7337],[76.0904,10.7321],[76.0913,10.7321],[76.0912,10.7313],[76.0904,10.7313]]]}},{"type":"Feature","properties":{"localBody":"Chalisseri","kind":"10-year","areaHa":0.93,"shedId":"RB19"},"geometry":{"type":"Polygon","coordinates":[[[76.1004,10.7337],[76.1013,10.7338],[76.1013,10.7329],[76.1004,10.7329],[76.1004,10.7337]]]}},{"type":"Feature","properties":{"localBody":"Nagalassery","kind":"10-year","areaHa":0.87,"shedId":"RB19"},"geometry":{"type":"Polygon","coordinates":[[[76.1071,10.7346],[76.1071,10.7337],[76.1063,10.7338],[76.1062,10.7346],[76.1071,10.7346]]]}},{"type":"Feature","properties":{"localBody":"Chalisseri","kind":"10-year","areaHa":1.64,"shedId":"RB19"},"geometry":{"type":"Polygon","coordinates":[[[76.1013,10.7338],[76.1012,10.7354],[76.1021,10.7354],[76.1021,10.7338],[76.1013,10.7338]]]}},{"type":"Feature","properties":{"localBody":"Chalisseri","kind":"10-year","areaHa":0.74,"shedId":"RB19"},"geometry":{"type":"Polygon","coordinates":[[[76.1063,10.7354],[76.105,10.7349],[76.1049,10.7346],[76.1046,10.7347],[76.1046,10.7354],[76.1063,10.7354]]]}},{"type":"Feature","properties":{"localBody":"Nagalassery","kind":"10-year","areaHa":0.68,"shedId":"RB19"},"geometry":{"type":"MultiPolygon","coordinates":[[[[76.1046,10.7346],[76.1046,10.7347],[76.1047,10.7346],[76.1046,10.7346]]],[[[76.1049,10.7347],[76.105,10.7349],[76.1062,10.7353],[76.1062,10.7346],[76.1049,10.7347]]]]}},{"type":"Feature","properties":{"localBody":"Chalisseri","kind":"10-year","areaHa":0.01,"shedId":"RB19"},"geometry":{"type":"Polygon","coordinates":[[[76.1071,10.7354],[76.1073,10.7354],[76.1071,10.7353],[76.1071,10.7354]]]}},{"type":"Feature","properties":{"localBody":"Nagalassery","kind":"10-year","areaHa":0.73,"shedId":"RB19"},"geometry":{"type":"Polygon","coordinates":[[[76.1071,10.7353],[76.1079,10.7354],[76.1079,10.7346],[76.1071,10.7346],[76.1071,10.7353]]]}},{"type":"Feature","properties":{"localBody":"Chalisseri","kind":"10-year","areaHa":2.57,"shedId":"RB19"},"geometry":{"type":"Polygon","coordinates":[[[76.1046,10.7354],[76.1021,10.7354],[76.1021,10.7362],[76.1046,10.7363],[76.1046,10.7354]]]}},{"type":"Feature","properties":{"localBody":"Nagalassery","kind":"10-year","areaHa":0.05,"shedId":"RB19"},"geometry":{"type":"Polygon","coordinates":[[[76.1042,10.7354],[76.1033,10.7355],[76.1042,10.7355],[76.1042,10.7354]]]}},{"type":"Feature","properties":{"localBody":"Chalisseri","kind":"10-year","areaHa":0.15,"shedId":"RB19"},"geometry":{"type":"MultiPolygon","coordinates":[[[[76.06922,10.7371],[76.0696,10.73734],[76.0696,10.7371],[76.06922,10.7371]]],[[[76.0696,10.7379],[76.0696,10.7375],[76.0692,10.7379],[76.0696,10.7379]]]]}},{"type":"Feature","properties":{"localBody":"Chalisseri","kind":"10-year","areaHa":0.21,"shedId":"RB19"},"geometry":{"type":"MultiPolygon","coordinates":[[[[76.0679,10.7381],[76.0678,10.7382],[76.0679,10.7383],[76.0679,10.7381]]],[[[76.0679,10.7384],[76.0671,10.7386],[76.0671,10.7387],[76.0679,10.7387],[76.0679,10.7384]]]]}},{"type":"Feature","properties":{"localBody":"Chalisseri","kind":"10-year","areaHa":0.25,"shedId":"RB19"},"geometry":{"type":"Polygon","coordinates":[[[76.067,10.7388],[76.0668,10.7393],[76.0664,10.7396],[76.0671,10.7396],[76.067,10.7388]]]}},{"type":"Feature","properties":{"localBody":"Chalisseri","kind":"10-year","areaHa":6.39,"shedId":"RB19"},"geometry":{"type":"Polygon","coordinates":[[[76.0762,10.7346],[76.0754,10.7346],[76.0754,10.7338],[76.0746,10.7338],[76.0746,10.7396],[76.0754,10.7396],[76.0754,10.7354],[76.0762,10.7354],[76.0762,10.7346]]]}},{"type":"Feature","properties":{"localBody":"Chalisseri","kind":"10-year","areaHa":2.62,"shedId":"RB19"},"geometry":{"type":"Polygon","coordinates":[[[76.0763,10.7396],[76.0754,10.7396],[76.0754,10.7404],[76.0746,10.7404],[76.0746,10.7412],[76.0763,10.7413],[76.0763,10.7396]]]}},{"type":"Feature","properties":{"localBody":"Chalisseri","kind":"10-year","areaHa":0.45,"shedId":"RB19"},"geometry":{"type":"MultiPolygon","coordinates":[[[[76.0652,10.7421],[76.0654,10.7421],[76.0654,10.7416],[76.0652,10.7421]]],[[[76.0654,10.7412],[76.0662,10.7413],[76.0663,10.7404],[76.066,10.7404],[76.0662,10.7407],[76.0659,10.7411],[76.0655,10.7409],[76.0653,10.7414],[76.0654,10.7416],[76.0654,10.7412]]]]}},{"type":"Feature","properties":{"localBody":"Kappur","kind":"10-year","areaHa":5.87,"shedId":"RB19"},"geometry":{"type":"MultiPolygon","coordinates":[[[[76.0621,10.7446],[76.0621,10.7463],[76.0629,10.7462],[76.0629,10.7454],[76.0638,10.7454],[76.0638,10.7438],[76.0646,10.7437],[76.0646,10.7427],[76.0639,10.7437],[76.0635,10.7437],[76.0632,10.7431],[76.0627,10.7437],[76.0629,10.7446],[76.0621,10.7446]]],[[[76.0621,10.7438],[76.0624,10.7436],[76.0617,10.7434],[76.06178,10.7429],[76.0613,10.7429],[76.0612,10.7446],[76.0621,10.7446],[76.0621,10.7438]]]]}},{"type":"Feature","properties":{"localBody":"Kappur","kind":"10-year","areaHa":0.12,"shedId":"RB19"},"geometry":{"type":"Polygon","coordinates":[[[76.0391,10.7554],[76.0396,10.7558],[76.0396,10.7554],[76.0391,10.7554]]]}},{"type":"Feature","properties":{"localBody":"Kappur","kind":"10-year","areaHa":4.06,"shedId":"RB19"},"geometry":{"type":"Polygon","coordinates":[[[76.0421,10.7671],[76.0401,10.7671],[76.0395,10.7678],[76.0404,10.7679],[76.0404,10.7696],[76.0413,10.7696],[76.0413,10.7679],[76.0421,10.7679],[76.0421,10.7671]]]}},{"type":"Feature","properties":{"localBody":"Kappur","kind":"10-year","areaHa":1.23,"shedId":"RB19"},"geometry":{"type":"Polygon","coordinates":[[[76.04,10.7696],[76.0402,10.7726],[76.0398,10.7729],[76.0404,10.7729],[76.0404,10.7696],[76.04,10.7696]]]}},{"type":"Feature","properties":{"localBody":"Kappur","kind":"10-year","areaHa":1.85,"shedId":"RB19"},"geometry":{"type":"Polygon","coordinates":[[[76.0404,10.7729],[76.0404,10.7746],[76.0413,10.7746],[76.0413,10.7729],[76.0404,10.7729]]]}},{"type":"Feature","properties":{"localBody":"Kappur","kind":"10-year","areaHa":1.54,"shedId":"RB19"},"geometry":{"type":"MultiPolygon","coordinates":[[[[76.0403,10.7762],[76.041,10.7777],[76.0411,10.7787],[76.0413,10.7787],[76.0413,10.7762],[76.0403,10.7762]]],[[[76.0404,10.7746],[76.0403,10.7753],[76.0404,10.7755],[76.0404,10.7746]]]]}},{"type":"Feature","properties":{"localBody":"Kappur","kind":"10-year","areaHa":5.8,"shedId":"RB19"},"geometry":{"type":"Polygon","coordinates":[[[76.0413,10.7789],[76.0413,10.7834],[76.0417,10.7844],[76.0414,10.7846],[76.0416,10.7853],[76.0421,10.7854],[76.0421,10.7788],[76.0413,10.7789]]]}},{"type":"Feature","properties":{"localBody":"Kappur","kind":"10-year","areaHa":6.13,"shedId":"RB19"},"geometry":{"type":"Polygon","coordinates":[[[76.0421,10.7856],[76.0421,10.7879],[76.04171,10.7879],[76.0412,10.7892],[76.04143,10.7896],[76.0421,10.7896],[76.0421,10.7904],[76.0429,10.7904],[76.0429,10.7854],[76.0421,10.7856]]]}},{"type":"Feature","properties":{"localBody":"Chalisseri","kind":"10-year","areaHa":11.76,"shedId":"RB19"},"geometry":{"type":"MultiPolygon","coordinates":[[[[76.0696,10.7321],[76.0729,10.7321],[76.0729,10.7329],[76.0738,10.7329],[76.0738,10.7313],[76.0713,10.7313],[76.0712,10.7304],[76.0721,10.7304],[76.0721,10.72975],[76.0705,10.7296],[76.0701,10.7301],[76.0693,10.73],[76.0697,10.7311],[76.0686,10.7311],[76.0684,10.7313],[76.0688,10.7312],[76.0687,10.7329],[76.0696,10.7329],[76.0696,10.7321]]],[[[76.0696,10.7354],[76.0696,10.7333],[76.0693,10.7333],[76.069,10.7354],[76.0696,10.7354]]]]}}]}