{"nvdm":"1.0","dataset":"basins/waterbodies-minor","scope":{"kind":"basin","id":"krishnagiri-rivers"},"provenance":{"sources":[{"id":"tngis-open-geoserver","title":"TNGIS open GeoServer (WFS): district, taluk, block and village panchayat boundaries, TN WRD sub-basins and reservoirs, micro-watershed atlas, all-water-bodies and all-tanks registers, mine leases, industry register matched to land parcels","publisher":"Tamil Nadu e-Governance Agency (TNGIS)","license":"Tamil Nadu government data on an open GeoServer (WFS, no login); published with TNGIS's permission and with attribution.","role":"input","url":"https://tngis.tn.gov.in/tngismaps/ows"}],"method":"derived","produced_at":"2026-09-18","produced_by":"scripts/build_krishnagiri_rivers_basin.py","internal_inputs":["public/data/basins/krishnagiri-rivers/sub-hydrosheds.geojson"],"note":"Krishnagiri district's rivers, groundwater and industry (scope krishnagiri-rivers; the district's own scope id is tn-krishnagiri). The district boundary is the frame and TN WRD's sub-basins, clipped to it, are the catchments (shedId): the Thenpennai's to the east, the Cauvery's Chinnar and Dodda Halla to the south-west. The industry register holds only units TNGIS matched to a land parcel, so every count is a lower bound; sector comes from the reviewed TNPCB type-code lookup pipeline-inputs/basins/krishnagiri-rivers/tnpcb-type-sectors.json."},"type":"FeatureCollection","features":[{"type":"Feature","properties":{"kind":"water-body","areaHa":0.63,"sourceDepartment":"AED","panchayatOrTown":"Kolatti","shedId":"SB117"},"geometry":{"type":"Polygon","coordinates":[[[77.7985,12.4229],[77.7983,12.4221],[77.7975,12.4223],[77.7977,12.4227],[77.7985,12.4229]]]}},{"type":"Feature","properties":{"kind":"water-body","areaHa":0.18,"sourceDepartment":"NRSC","panchayatOrTown":"Palayamkotta","shedId":"SB117"},"geometry":{"type":"Polygon","coordinates":[[[77.7241,12.4928],[77.724,12.4926],[77.7236,12.4926],[77.7237,12.4931],[77.7241,12.4928]]]}},{"type":"Feature","properties":{"kind":"water-body","areaHa":0.14,"sourceDepartment":"NRSC","panchayatOrTown":"Palayamkotta","shedId":"SB117"},"geometry":{"type":"Polygon","coordinates":[[[77.7097,12.4914],[77.7095,12.4911],[77.7092,12.4912],[77.7093,12.4915],[77.7097,12.4914]]]}},{"type":"Feature","properties":{"kind":"water-body","areaHa":0.43,"sourceDepartment":"NRSC","panchayatOrTown":"Thavarakarai","shedId":"SB117"},"geometry":{"type":"Polygon","coordinates":[[[77.7338,12.4911],[77.734,12.4898],[77.7337,12.4898],[77.7336,12.4908],[77.7338,12.4911]]]}},{"type":"Feature","properties":{"kind":"water-body","areaHa":0.87,"sourceDepartment":"NRSC","panchayatOrTown":"Karandapalli","shedId":"SB117"},"geometry":{"type":"Polygon","coordinates":[[[77.7048,12.4747],[77.7045,12.4744],[77.7043,12.4745],[77.7034,12.4744],[77.7033,12.4749],[77.7043,12.4751],[77.7048,12.4747]]]}},{"type":"Feature","properties":{"kind":"water-body","areaHa":0.01,"sourceDepartment":"NRSC","panchayatOrTown":"Palayamkotta","shedId":"SB117"},"geometry":{"type":"Polygon","coordinates":[[[77.7162,12.4777],[77.7162,12.4778],[77.7163,12.4777],[77.7162,12.4777]]]}},{"type":"Feature","properties":{"kind":"water-body","areaHa":0.04,"sourceDepartment":"NRSC","panchayatOrTown":"Karandapalli","shedId":"SB117"},"geometry":{"type":"Polygon","coordinates":[[[77.7284,12.4633],[77.7284,12.4632],[77.7283,12.4633],[77.7284,12.4635],[77.7286,12.4634],[77.7284,12.4633]]]}},{"type":"Feature","properties":{"kind":"water-body","areaHa":0.6,"sourceDepartment":"NRSC","panchayatOrTown":"Karandapalli","shedId":"SB117"},"geometry":{"type":"Polygon","coordinates":[[[77.7295,12.4627],[77.7297,12.4621],[77.7294,12.4623],[77.7292,12.4622],[77.729,12.4624],[77.7292,12.4633],[77.7296,12.4632],[77.7295,12.4627]]]}},{"type":"Feature","properties":{"kind":"water-body","areaHa":0.67,"sourceDepartment":"NRSC","panchayatOrTown":"Malligarjunadurgam","shedId":"SB117"},"geometry":{"type":"Polygon","coordinates":[[[77.7307,12.4612],[77.7303,12.4606],[77.73,12.4607],[77.7296,12.4606],[77.7294,12.4607],[77.7292,12.461],[77.7307,12.4612]]]}},{"type":"Feature","properties":{"kind":"water-body","areaHa":0.28,"sourceDepartment":"NRSC","panchayatOrTown":"Erudukotta","shedId":"SB117"},"geometry":{"type":"Polygon","coordinates":[[[77.7842,12.4607],[77.7838,12.4605],[77.7835,12.4606],[77.7834,12.461],[77.784,12.4609],[77.7842,12.4607]]]}},{"type":"Feature","properties":{"kind":"water-body","areaHa":1.21,"sourceDepartment":"NRSC","panchayatOrTown":"Madakkal","shedId":"SB117"},"geometry":{"type":"Polygon","coordinates":[[[77.6491,12.4417],[77.6486,12.4417],[77.6485,12.4425],[77.6489,12.4428],[77.6499,12.4425],[77.6496,12.4423],[77.6495,12.4419],[77.6491,12.4417]]]}},{"type":"Feature","properties":{"kind":"water-body","areaHa":0.05,"sourceDepartment":"NRSC","panchayatOrTown":"Kolatti","shedId":"SB117"},"geometry":{"type":"Polygon","coordinates":[[[77.802,12.4414],[77.8018,12.4412],[77.8017,12.4413],[77.8018,12.4415],[77.802,12.4414]]]}},{"type":"Feature","properties":{"kind":"water-body","areaHa":0.46,"sourceDepartment":"AED","panchayatOrTown":"Natrapalayam","shedId":"SB117"},"geometry":{"type":"Polygon","coordinates":[[[77.7484,12.2344],[77.748,12.2343],[77.7478,12.2345],[77.7478,12.2349],[77.7479,12.235],[77.7482,12.235],[77.7485,12.2346],[77.7484,12.2344]]]}},{"type":"Feature","properties":{"kind":"water-body","areaHa":0.13,"sourceDepartment":"NRSC","panchayatOrTown":"Malligarjunadurgam","shedId":"SB117"},"geometry":{"type":"Polygon","coordinates":[[[77.7173,12.4479],[77.7172,12.4476],[77.7168,12.4476],[77.7168,12.4478],[77.7173,12.4479]]]}},{"type":"Feature","properties":{"recordedAs":"Eri","kind":"water-body","areaHa":0.25,"sourceDepartment":"TNRD","ownerDepartment":"TNRD","panchayatOrTown":"Palayamkotta","shedId":"SB117"},"geometry":{"type":"Polygon","coordinates":[[[77.6873,12.4829],[77.6869,12.4831],[77.6869,12.4832],[77.6867,12.4833],[77.6867,12.4834],[77.6869,12.4833],[77.6873,12.4833],[77.6874,12.4832],[77.6876,12.4832],[77.6876,12.483],[77.6874,12.483],[77.6873,12.4829]]]}},{"type":"Feature","properties":{"recordedAs":"Eri","kind":"water-body","areaHa":0.28,"sourceDepartment":"TNRD","ownerDepartment":"TNRD","panchayatOrTown":"Kottaiyur","shedId":"SB117"},"geometry":{"type":"Polygon","coordinates":[[[77.6366,12.2727],[77.6361,12.2728],[77.6363,12.2732],[77.6368,12.2732],[77.6366,12.2727]]]}},{"type":"Feature","properties":{"recordedAs":"Eri","kind":"water-body","areaHa":1.36,"sourceDepartment":"TNRD","ownerDepartment":"TNRD","panchayatOrTown":"Kottaiyur","shedId":"SB117"},"geometry":{"type":"Polygon","coordinates":[[[77.6196,12.2763],[77.6192,12.2763],[77.6193,12.2768],[77.6196,12.2773],[77.6197,12.2779],[77.6201,12.2779],[77.6201,12.2777],[77.62,12.2776],[77.6205,12.2772],[77.6205,12.2771],[77.6202,12.2768],[77.6202,12.2766],[77.6201,12.2765],[77.6199,12.2765],[77.6196,12.2763]]]}},{"type":"Feature","properties":{"recordedAs":"Eri","kind":"water-body","areaHa":0.27,"sourceDepartment":"TNRD","ownerDepartment":"TNRD","panchayatOrTown":"Madakkal","shedId":"SB117"},"geometry":{"type":"Polygon","coordinates":[[[77.6466,12.4493],[77.6462,12.4493],[77.6462,12.4495],[77.6466,12.4498],[77.6468,12.4498],[77.6468,12.4494],[77.6466,12.4493]]]}},{"type":"Feature","properties":{"kind":"water-body","areaHa":0.29,"sourceDepartment":"AED","panchayatOrTown":"Andevanapalli","shedId":"SB117"},"geometry":{"type":"Polygon","coordinates":[[[77.7681,12.451],[77.7675,12.451],[77.7675,12.4513],[77.7677,12.4514],[77.768,12.4514],[77.7682,12.4512],[77.7681,12.451]]]}},{"type":"Feature","properties":{"kind":"water-body","areaHa":2.3,"sourceDepartment":"AED","panchayatOrTown":"Erudukotta","shedId":"SB117"},"geometry":{"type":"Polygon","coordinates":[[[77.7826,12.4504],[77.7816,12.4498],[77.7815,12.4499],[77.7813,12.4505],[77.7811,12.4508],[77.781,12.4516],[77.7808,12.452],[77.7809,12.4521],[77.7811,12.4521],[77.7823,12.4509],[77.7826,12.4507],[77.7826,12.4504]]]}},{"type":"Feature","properties":{"kind":"water-body","areaHa":0.4,"sourceDepartment":"AED","panchayatOrTown":"Karandapalli","shedId":"SB117"},"geometry":{"type":"Polygon","coordinates":[[[77.707,12.4531],[77.7068,12.453],[77.7066,12.4531],[77.7066,12.4532],[77.707,12.4536],[77.7073,12.4538],[77.7075,12.4538],[77.7074,12.4535],[77.707,12.4531]]]}},{"type":"Feature","properties":{"kind":"water-body","areaHa":0.53,"sourceDepartment":"NRSC","panchayatOrTown":"Kottaiyur","shedId":"SB117"},"geometry":{"type":"Polygon","coordinates":[[[77.6331,12.2823],[77.633,12.2818],[77.6327,12.2813],[77.6325,12.2817],[77.6321,12.2819],[77.6322,12.2821],[77.6328,12.2821],[77.6331,12.2823]]]}},{"type":"Feature","properties":{"kind":"water-body","areaHa":0.18,"sourceDepartment":"NRSC","panchayatOrTown":"Thavarakarai","shedId":"SB117"},"geometry":{"type":"Polygon","coordinates":[[[77.7606,12.5014],[77.7604,12.5011],[77.76,12.5012],[77.7601,12.5015],[77.7606,12.5014]]]}},{"type":"Feature","properties":{"kind":"water-body","areaHa":0.24,"sourceDepartment":"NRSC","panchayatOrTown":"Kolatti","shedId":"SB117"},"geometry":{"type":"Polygon","coordinates":[[[77.7946,12.4449],[77.7944,12.4445],[77.7942,12.4446],[77.7941,12.4449],[77.7942,12.4452],[77.7946,12.4449]]]}},{"type":"Feature","properties":{"kind":"water-body","areaHa":0.23,"sourceDepartment":"NRSC","panchayatOrTown":"GULLATTY  R.F.","shedId":"SB117"},"geometry":{"type":"Polygon","coordinates":[[[77.8445,12.4048],[77.8444,12.4045],[77.8441,12.4047],[77.8442,12.4052],[77.8444,12.4052],[77.8445,12.4048]]]}},{"type":"Feature","properties":{"kind":"water-body","areaHa":0.18,"sourceDepartment":"NRSC","panchayatOrTown":"Erudukotta","shedId":"SB117"},"geometry":{"type":"Polygon","coordinates":[[[77.8031,12.448],[77.803,12.4476],[77.8027,12.4477],[77.8028,12.4482],[77.8031,12.448]]]}},{"type":"Feature","properties":{"kind":"water-body","areaHa":0.1,"sourceDepartment":"NRSC","panchayatOrTown":"Kottaiyur","shedId":"SB117"},"geometry":{"type":"Polygon","coordinates":[[[77.6557,12.2796],[77.6554,12.2796],[77.6556,12.2799],[77.6559,12.2798],[77.6557,12.2796]]]}},{"type":"Feature","properties":{"kind":"water-body","areaHa":0.37,"sourceDepartment":"NRSC","panchayatOrTown":"Erudukotta","shedId":"SB117"},"geometry":{"type":"Polygon","coordinates":[[[77.7937,12.4467],[77.7938,12.4464],[77.7927,12.4465],[77.7927,12.4468],[77.7937,12.4467]]]}},{"type":"Feature","properties":{"kind":"water-body","areaHa":0.17,"sourceDepartment":"NRSC","panchayatOrTown":"Agalakotta","shedId":"SB117"},"geometry":{"type":"Polygon","coordinates":[[[77.6796,12.4481],[77.6796,12.4477],[77.6792,12.4477],[77.6792,12.448],[77.6796,12.4481]]]}},{"type":"Feature","properties":{"kind":"water-body","areaHa":0.38,"sourceDepartment":"NRSC","panchayatOrTown":"Agalakotta","shedId":"SB117"},"geometry":{"type":"Polygon","coordinates":[[[77.6753,12.4742],[77.6747,12.4742],[77.675,12.4746],[77.6758,12.4746],[77.6756,12.4743],[77.6753,12.4742]]]}},{"type":"Feature","properties":{"kind":"water-body","areaHa":0.19,"sourceDepartment":"NRSC","panchayatOrTown":"Palayamkotta","shedId":"SB117"},"geometry":{"type":"Polygon","coordinates":[[[77.6803,12.4745],[77.6802,12.4742],[77.6798,12.4743],[77.6799,12.4747],[77.6803,12.4745]]]}},{"type":"Feature","properties":{"kind":"water-body","areaHa":0.23,"sourceDepartment":"NRSC","panchayatOrTown":"Agalakotta","shedId":"SB117"},"geometry":{"type":"Polygon","coordinates":[[[77.6742,12.4746],[77.6742,12.4744],[77.674,12.4741],[77.6737,12.4741],[77.6738,12.4746],[77.6742,12.4746]]]}},{"type":"Feature","properties":{"kind":"water-body","areaHa":0.77,"sourceDepartment":"NRSC","panchayatOrTown":"Karandapalli","shedId":"SB117"},"geometry":{"type":"Polygon","coordinates":[[[77.6899,12.4732],[77.6893,12.4732],[77.6892,12.4738],[77.6897,12.4739],[77.6904,12.4738],[77.6902,12.4734],[77.6899,12.4732]]]}},{"type":"Feature","properties":{"kind":"water-body","areaHa":0.99,"sourceDepartment":"NRSC","panchayatOrTown":"Karandapalli","shedId":"SB117"},"geometry":{"type":"Polygon","coordinates":[[[77.692,12.473],[77.6922,12.4727],[77.6918,12.4728],[77.6914,12.4731],[77.6906,12.4733],[77.6907,12.4737],[77.692,12.4736],[77.692,12.473]]]}},{"type":"Feature","properties":{"kind":"water-body","areaHa":0.49,"sourceDepartment":"NRSC","panchayatOrTown":"Karandapalli","shedId":"SB117"},"geometry":{"type":"Polygon","coordinates":[[[77.7224,12.4722],[77.7223,12.4717],[77.7221,12.4718],[77.722,12.4723],[77.7222,12.4728],[77.7225,12.4729],[77.7226,12.4725],[77.7224,12.4722]]]}},{"type":"Feature","properties":{"kind":"water-body","areaHa":0.99,"sourceDepartment":"NRSC","panchayatOrTown":"Palayamkotta","shedId":"SB117"},"geometry":{"type":"MultiPolygon","coordinates":[[[[77.7161,12.4775],[77.7162,12.4775],[77.7162,12.4776],[77.7166,12.4774],[77.7166,12.4771],[77.7169,12.4771],[77.7168,12.4767],[77.7161,12.4761],[77.716,12.4764],[77.716,12.4772],[77.7161,12.4772],[77.7161,12.4775]]],[[[77.7161,12.4775],[77.7161,12.4776],[77.7162,12.4777],[77.7162,12.4776],[77.7161,12.4775]]]]}},{"type":"Feature","properties":{"kind":"water-body","areaHa":0.08,"sourceDepartment":"NRSC","panchayatOrTown":"Karandapalli","shedId":"SB117"},"geometry":{"type":"Polygon","coordinates":[[[77.6943,12.4756],[77.6942,12.4754],[77.694,12.4754],[77.6941,12.4758],[77.6943,12.4756]]]}},{"type":"Feature","properties":{"kind":"water-body","areaHa":0.32,"sourceDepartment":"NRSC","panchayatOrTown":"Karandapalli","shedId":"SB117"},"geometry":{"type":"Polygon","coordinates":[[[77.7131,12.4755],[77.7127,12.4751],[77.7122,12.4752],[77.7124,12.4756],[77.7131,12.4755]]]}},{"type":"Feature","properties":{"kind":"water-body","areaHa":0.16,"sourceDepartment":"NRSC","panchayatOrTown":"Palayamkotta","shedId":"SB117"},"geometry":{"type":"Polygon","coordinates":[[[77.7082,12.475],[77.7082,12.4749],[77.7078,12.475],[77.7078,12.4751],[77.7084,12.4753],[77.7085,12.4752],[77.7082,12.475]]]}},{"type":"Feature","properties":{"kind":"water-body","areaHa":0.96,"sourceDepartment":"NRSC","panchayatOrTown":"Karandapalli","shedId":"SB117"},"geometry":{"type":"Polygon","coordinates":[[[77.7114,12.4687],[77.7114,12.4686],[77.7109,12.4687],[77.7105,12.4689],[77.7106,12.4691],[77.7115,12.4695],[77.7119,12.4694],[77.7118,12.4688],[77.7114,12.4687]]]}},{"type":"Feature","properties":{"kind":"water-body","areaHa":0.23,"sourceDepartment":"NRSC","panchayatOrTown":"Karandapalli","shedId":"SB117"},"geometry":{"type":"Polygon","coordinates":[[[77.7044,12.4685],[77.7043,12.4682],[77.704,12.4682],[77.7038,12.4686],[77.704,12.4687],[77.7044,12.4685]]]}},{"type":"Feature","properties":{"kind":"water-body","areaHa":0.47,"sourceDepartment":"NRSC","panchayatOrTown":"Kolatti","shedId":"SB117"},"geometry":{"type":"Polygon","coordinates":[[[77.7986,12.4346],[77.7983,12.4343],[77.7979,12.4344],[77.7978,12.4351],[77.798,12.4351],[77.7982,12.4349],[77.7986,12.4347],[77.7986,12.4346]]]}},{"type":"Feature","properties":{"kind":"water-body","areaHa":0.11,"sourceDepartment":"NRSC","panchayatOrTown":"Agalakotta","shedId":"SB117"},"geometry":{"type":"Polygon","coordinates":[[[77.6704,12.4598],[77.6705,12.4595],[77.6701,12.4596],[77.6702,12.4599],[77.6704,12.4598]]]}},{"type":"Feature","properties":{"kind":"water-body","areaHa":0.09,"sourceDepartment":"NRSC","panchayatOrTown":"Santhanapalli","shedId":"SB117"},"geometry":{"type":"Polygon","coordinates":[[[77.8231,12.458],[77.8232,12.4578],[77.8228,12.4578],[77.8229,12.4581],[77.8231,12.458]]]}},{"type":"Feature","properties":{"kind":"water-body","areaHa":0.14,"sourceDepartment":"NRSC","panchayatOrTown":"Erudukotta","shedId":"SB117"},"geometry":{"type":"Polygon","coordinates":[[[77.8057,12.4577],[77.8058,12.4573],[77.8055,12.4573],[77.8054,12.4577],[77.8057,12.4577]]]}},{"type":"Feature","properties":{"kind":"water-body","areaHa":0.11,"sourceDepartment":"NRSC","panchayatOrTown":"Agalakotta","shedId":"SB117"},"geometry":{"type":"Polygon","coordinates":[[[77.6697,12.4565],[77.6696,12.4563],[77.6692,12.4564],[77.6693,12.4566],[77.6697,12.4565]]]}},{"type":"Feature","properties":{"kind":"water-body","areaHa":0.14,"sourceDepartment":"NRSC","panchayatOrTown":"Agalakotta","shedId":"SB117"},"geometry":{"type":"Polygon","coordinates":[[[77.6953,12.4561],[77.6951,12.4557],[77.6949,12.4557],[77.695,12.4562],[77.6953,12.4561]]]}},{"type":"Feature","properties":{"kind":"water-body","areaHa":0.19,"sourceDepartment":"NRSC","panchayatOrTown":"Panai R.F East , West","shedId":"SB117"},"geometry":{"type":"Polygon","coordinates":[[[77.7204,12.434],[77.7203,12.4339],[77.72,12.4339],[77.7199,12.4342],[77.7204,12.4344],[77.7203,12.4342],[77.7204,12.434]]]}},{"type":"Feature","properties":{"kind":"water-body","areaHa":0.12,"sourceDepartment":"NRSC","panchayatOrTown":"Kolatti","shedId":"SB117"},"geometry":{"type":"Polygon","coordinates":[[[77.8013,12.4407],[77.8014,12.4403],[77.8011,12.4404],[77.801,12.4407],[77.8013,12.4407]]]}},{"type":"Feature","properties":{"kind":"water-body","areaHa":0.3,"sourceDepartment":"NRSC","panchayatOrTown":"Erudukotta","shedId":"SB117"},"geometry":{"type":"Polygon","coordinates":[[[77.8273,12.44],[77.827,12.4397],[77.8267,12.4398],[77.8269,12.4402],[77.8274,12.4404],[77.8273,12.44]]]}},{"type":"Feature","properties":{"kind":"water-body","areaHa":0.28,"sourceDepartment":"NRSC","panchayatOrTown":"Erudukotta","shedId":"SB117"},"geometry":{"type":"Polygon","coordinates":[[[77.8238,12.437],[77.8237,12.437],[77.8235,12.4372],[77.8242,12.4377],[77.8243,12.4375],[77.8238,12.437]]]}},{"type":"Feature","properties":{"kind":"water-body","areaHa":0.07,"sourceDepartment":"NRSC","panchayatOrTown":"Erudukotta","shedId":"SB117"},"geometry":{"type":"Polygon","coordinates":[[[77.8299,12.4374],[77.8301,12.437],[77.8298,12.437],[77.8299,12.4374]]]}},{"type":"Feature","properties":{"kind":"water-body","areaHa":0.13,"sourceDepartment":"NRSC","panchayatOrTown":"Erudukotta","shedId":"SB117"},"geometry":{"type":"Polygon","coordinates":[[[77.8105,12.4352],[77.8104,12.4348],[77.8101,12.4351],[77.8102,12.4353],[77.8105,12.4352]]]}},{"type":"Feature","properties":{"kind":"water-body","areaHa":1.08,"sourceDepartment":"NRSC","panchayatOrTown":"Malligarjunadurgam","shedId":"SB117"},"geometry":{"type":"Polygon","coordinates":[[[77.7434,12.4341],[77.7431,12.4336],[77.7427,12.4339],[77.7425,12.4343],[77.7427,12.4344],[77.7428,12.4346],[77.7431,12.4348],[77.7429,12.4349],[77.7434,12.435],[77.7436,12.4353],[77.7436,12.4348],[77.7434,12.4341]]]}},{"type":"Feature","properties":{"kind":"water-body","areaHa":0.26,"sourceDepartment":"NRSC","panchayatOrTown":"Madakkal","shedId":"SB117"},"geometry":{"type":"Polygon","coordinates":[[[77.6411,12.4328],[77.6409,12.4323],[77.6405,12.4323],[77.6408,12.433],[77.6411,12.4328]]]}},{"type":"Feature","properties":{"kind":"water-body","areaHa":0.28,"sourceDepartment":"NRSC","panchayatOrTown":"Erudukotta","shedId":"SB117"},"geometry":{"type":"Polygon","coordinates":[[[77.8241,12.4331],[77.8238,12.4325],[77.8235,12.4327],[77.8236,12.4331],[77.8241,12.4331]]]}},{"type":"Feature","properties":{"kind":"water-body","areaHa":0.1,"sourceDepartment":"NRSC","panchayatOrTown":"Erudukotta","shedId":"SB117"},"geometry":{"type":"Polygon","coordinates":[[[77.8274,12.429],[77.8272,12.4287],[77.827,12.4287],[77.8272,12.4291],[77.8274,12.429]]]}},{"type":"Feature","properties":{"kind":"water-body","areaHa":0.07,"sourceDepartment":"NRSC","panchayatOrTown":"Panai R.F East , West","shedId":"SB117"},"geometry":{"type":"Polygon","coordinates":[[[77.727,12.4259],[77.7268,12.4256],[77.7267,12.4257],[77.7268,12.426],[77.727,12.4259]]]}},{"type":"Feature","properties":{"kind":"water-body","areaHa":0.23,"sourceDepartment":"NRSC","panchayatOrTown":"Kolatti","shedId":"SB117"},"geometry":{"type":"Polygon","coordinates":[[[77.7924,12.4246],[77.7922,12.4239],[77.7919,12.424],[77.7921,12.4245],[77.7924,12.4246]]]}},{"type":"Feature","properties":{"kind":"water-body","areaHa":0.33,"sourceDepartment":"NRSC","panchayatOrTown":"Bilalam","shedId":"SB117"},"geometry":{"type":"Polygon","coordinates":[[[77.8213,12.4222],[77.8211,12.4219],[77.8208,12.422],[77.8207,12.4222],[77.8209,12.4226],[77.8212,12.4225],[77.8213,12.4222]]]}},{"type":"Feature","properties":{"kind":"water-body","areaHa":0.5,"sourceDepartment":"NRSC","panchayatOrTown":"Bilalam","shedId":"SB117"},"geometry":{"type":"Polygon","coordinates":[[[77.8261,12.4209],[77.8261,12.4207],[77.8254,12.4209],[77.8252,12.4213],[77.8254,12.4216],[77.8257,12.4214],[77.8261,12.4209]]]}},{"type":"Feature","properties":{"kind":"water-body","areaHa":0.07,"sourceDepartment":"NRSC","panchayatOrTown":"Bilalam","shedId":"SB117"},"geometry":{"type":"Polygon","coordinates":[[[77.8268,12.416],[77.8266,12.4158],[77.8265,12.4159],[77.8266,12.4162],[77.8268,12.416]]]}},{"type":"Feature","properties":{"kind":"water-body","areaHa":0.23,"sourceDepartment":"NRSC","panchayatOrTown":"Salivaram","shedId":"SB117"},"geometry":{"type":"Polygon","coordinates":[[[77.766,12.4127],[77.7664,12.4127],[77.7667,12.4127],[77.7666,12.4124],[77.766,12.4124],[77.766,12.4127]]]}},{"type":"Feature","properties":{"kind":"water-body","areaHa":0.43,"sourceDepartment":"NRSC","panchayatOrTown":"Bilalam","shedId":"SB117"},"geometry":{"type":"Polygon","coordinates":[[[77.8324,12.41],[77.8323,12.4097],[77.8316,12.4099],[77.8316,12.4105],[77.8324,12.41]]]}},{"type":"Feature","properties":{"kind":"water-body","areaHa":0.07,"sourceDepartment":"NRSC","panchayatOrTown":"Panai R.F East, West","shedId":"SB117"},"geometry":{"type":"Polygon","coordinates":[[[77.7075,12.4062],[77.7075,12.4059],[77.7073,12.406],[77.7072,12.4062],[77.7075,12.4062]]]}},{"type":"Feature","properties":{"kind":"water-body","areaHa":0.25,"sourceDepartment":"NRSC","panchayatOrTown":"GULLATTY  R.F.","shedId":"SB117"},"geometry":{"type":"Polygon","coordinates":[[[77.8403,12.3905],[77.8402,12.39],[77.8398,12.3901],[77.8399,12.3906],[77.8403,12.3905]]]}},{"type":"Feature","properties":{"kind":"water-body","areaHa":0.23,"sourceDepartment":"NRSC","panchayatOrTown":"GULLATTY  R.F.","shedId":"SB117"},"geometry":{"type":"Polygon","coordinates":[[[77.7905,12.3772],[77.7905,12.3769],[77.7903,12.3769],[77.7902,12.3771],[77.7905,12.3773],[77.7904,12.3776],[77.7906,12.3778],[77.7908,12.3777],[77.7905,12.3772]]]}},{"type":"Feature","properties":{"kind":"water-body","areaHa":0.34,"sourceDepartment":"NRSC","panchayatOrTown":"Anchetty (East)","shedId":"SB117"},"geometry":{"type":"Polygon","coordinates":[[[77.7286,12.377],[77.7285,12.3769],[77.728,12.3766],[77.7279,12.3769],[77.7283,12.3773],[77.7286,12.3773],[77.7286,12.377]]]}},{"type":"Feature","properties":{"kind":"water-body","areaHa":0.38,"sourceDepartment":"NRSC","panchayatOrTown":"Taggatti","shedId":"SB117"},"geometry":{"type":"Polygon","coordinates":[[[77.6297,12.3704],[77.6293,12.3702],[77.6289,12.3704],[77.6287,12.3707],[77.6287,12.3709],[77.6289,12.3707],[77.6297,12.3706],[77.6297,12.3704]]]}},{"type":"Feature","properties":{"kind":"water-body","areaHa":0.47,"sourceDepartment":"NRSC","panchayatOrTown":"Anchetty (West)","shedId":"SB117"},"geometry":{"type":"Polygon","coordinates":[[[77.6951,12.3595],[77.6947,12.3595],[77.6946,12.361],[77.6949,12.3602],[77.6951,12.36],[77.6951,12.3595]]]}},{"type":"Feature","properties":{"kind":"water-body","areaHa":0.24,"sourceDepartment":"NRSC","panchayatOrTown":"Taggatti","shedId":"SB117"},"geometry":{"type":"Polygon","coordinates":[[[77.6373,12.3534],[77.6377,12.3533],[77.6381,12.3533],[77.6378,12.3531],[77.6372,12.353],[77.6373,12.3534]]]}},{"type":"Feature","properties":{"kind":"water-body","areaHa":0.07,"sourceDepartment":"NRSC","panchayatOrTown":"Anchetty (East)","shedId":"SB117"},"geometry":{"type":"Polygon","coordinates":[[[77.7467,12.3489],[77.7466,12.3487],[77.7464,12.3487],[77.7465,12.349],[77.7467,12.3489]]]}},{"type":"Feature","properties":{"kind":"water-body","areaHa":0.34,"sourceDepartment":"NRSC","panchayatOrTown":"UDUBARANI  R.F.","shedId":"SB117"},"geometry":{"type":"Polygon","coordinates":[[[77.7277,12.3366],[77.7277,12.3365],[77.7275,12.3366],[77.7275,12.3367],[77.7277,12.3369],[77.7278,12.3372],[77.7281,12.3372],[77.7282,12.3367],[77.7277,12.3366]]]}},{"type":"Feature","properties":{"kind":"water-body","areaHa":0.87,"sourceDepartment":"NRSC","panchayatOrTown":"Urigam","shedId":"SB117"},"geometry":{"type":"Polygon","coordinates":[[[77.6241,12.3209],[77.6248,12.3208],[77.625,12.3205],[77.6249,12.3195],[77.6246,12.3196],[77.6244,12.32],[77.6243,12.3205],[77.6242,12.3205],[77.6241,12.3209]]]}},{"type":"Feature","properties":{"kind":"water-body","areaHa":0.25,"sourceDepartment":"NRSC","panchayatOrTown":"Mallahalli  R.F.","shedId":"SB117"},"geometry":{"type":"Polygon","coordinates":[[[77.6399,12.3136],[77.6397,12.313],[77.6395,12.313],[77.6395,12.3137],[77.6399,12.3136]]]}},{"type":"Feature","properties":{"kind":"water-body","areaHa":0.46,"sourceDepartment":"NRSC","panchayatOrTown":"Urigam","shedId":"SB117"},"geometry":{"type":"Polygon","coordinates":[[[77.6184,12.2971],[77.619,12.2969],[77.6193,12.2969],[77.6194,12.2968],[77.619,12.2965],[77.6187,12.2965],[77.6186,12.2967],[77.6182,12.2967],[77.6184,12.2971]]]}},{"type":"Feature","properties":{"kind":"water-body","areaHa":0.75,"sourceDepartment":"NRSC","panchayatOrTown":"Kottaiyur","shedId":"SB117"},"geometry":{"type":"Polygon","coordinates":[[[77.6003,12.2877],[77.6003,12.2871],[77.5999,12.2872],[77.5994,12.2882],[77.5998,12.2888],[77.5999,12.2879],[77.6003,12.2877]]]}},{"type":"Feature","properties":{"kind":"water-body","areaHa":0.2,"sourceDepartment":"NRSC","panchayatOrTown":"Manchugondapalli","shedId":"SB117"},"geometry":{"type":"Polygon","coordinates":[[[77.5378,12.283],[77.5376,12.2825],[77.5372,12.2826],[77.5374,12.2829],[77.5378,12.283]]]}},{"type":"Feature","properties":{"kind":"water-body","areaHa":0.82,"sourceDepartment":"NRSC","panchayatOrTown":"Anchetty (East)","shedId":"SB117"},"geometry":{"type":"Polygon","coordinates":[[[77.7542,12.278],[77.7541,12.2778],[77.7536,12.2778],[77.7535,12.2785],[77.7544,12.2792],[77.7545,12.279],[77.7542,12.2784],[77.754,12.2783],[77.7539,12.2781],[77.7542,12.278]]]}},{"type":"Feature","properties":{"kind":"water-body","areaHa":2.73,"sourceDepartment":"NRSC","panchayatOrTown":"Natrapalayam R.F.","shedId":"SB117"},"geometry":{"type":"Polygon","coordinates":[[[77.7314,12.2574],[77.7308,12.2566],[77.7303,12.2569],[77.7303,12.2572],[77.731,12.2582],[77.7309,12.2591],[77.7305,12.2594],[77.7305,12.2604],[77.7307,12.2606],[77.7308,12.2599],[77.7309,12.2597],[77.7313,12.2594],[77.7316,12.2587],[77.7314,12.2574]]]}},{"type":"Feature","properties":{"kind":"water-body","areaHa":0.16,"sourceDepartment":"NRSC","panchayatOrTown":"Natrapalayam","shedId":"SB117"},"geometry":{"type":"Polygon","coordinates":[[[77.7387,12.2524],[77.7386,12.2521],[77.7382,12.2521],[77.7384,12.2525],[77.7387,12.2524]]]}},{"type":"Feature","properties":{"kind":"water-body","areaHa":0.11,"sourceDepartment":"NRSC","panchayatOrTown":"Kottaiyur","shedId":"SB117"},"geometry":{"type":"Polygon","coordinates":[[[77.6272,12.2513],[77.627,12.2511],[77.6269,12.2511],[77.627,12.2515],[77.6272,12.2516],[77.6272,12.2513]]]}},{"type":"Feature","properties":{"kind":"water-body","areaHa":0.22,"sourceDepartment":"NRSC","panchayatOrTown":"Natrapalayam","shedId":"SB117"},"geometry":{"type":"Polygon","coordinates":[[[77.7249,12.2514],[77.7248,12.251],[77.7244,12.251],[77.7245,12.2515],[77.7249,12.2514]]]}},{"type":"Feature","properties":{"kind":"water-body","areaHa":0.18,"sourceDepartment":"NRSC","panchayatOrTown":"Natrapalayam","shedId":"SB117"},"geometry":{"type":"Polygon","coordinates":[[[77.7353,12.2508],[77.7348,12.2502],[77.7346,12.2502],[77.7347,12.2505],[77.7353,12.2508]]]}},{"type":"Feature","properties":{"kind":"water-body","areaHa":0.08,"sourceDepartment":"NRSC","panchayatOrTown":"Natrapalayam","shedId":"SB117"},"geometry":{"type":"Polygon","coordinates":[[[77.7453,12.2463],[77.7452,12.2461],[77.745,12.2462],[77.7451,12.2465],[77.7453,12.2463]]]}},{"type":"Feature","properties":{"kind":"water-body","areaHa":0.01,"sourceDepartment":"NRSC","panchayatOrTown":"Mallahalli  R.F.","shedId":"SB117"},"geometry":{"type":"Polygon","coordinates":[[[77.6107,12.2073],[77.6108,12.2072],[77.6107,12.2072],[77.6107,12.2073]]]}},{"type":"Feature","properties":{"kind":"water-body","areaHa":0.26,"sourceDepartment":"NRSC","panchayatOrTown":"KESTHUR  R.F.","shedId":"SB117"},"geometry":{"type":"Polygon","coordinates":[[[77.5371,12.2015],[77.5367,12.2009],[77.5365,12.2009],[77.5366,12.2014],[77.5371,12.2017],[77.5371,12.2015]]]}},{"type":"Feature","properties":{"kind":"water-body","areaHa":0.01,"sourceDepartment":"NRSC","panchayatOrTown":"Mallahalli  R.F.","shedId":"SB117"},"geometry":{"type":"Polygon","coordinates":[[[77.6412,12.1979],[77.6412,12.1978],[77.6411,12.1978],[77.6412,12.1979]]]}},{"type":"Feature","properties":{"kind":"water-body","areaHa":0.02,"sourceDepartment":"NRSC","panchayatOrTown":"Mallahalli  R.F.","shedId":"SB117"},"geometry":{"type":"Polygon","coordinates":[[[77.6409,12.1978],[77.6409,12.1977],[77.6405,12.1977],[77.6409,12.1978]]]}},{"type":"Feature","properties":{"kind":"water-body","areaHa":0.39,"sourceDepartment":"AED","panchayatOrTown":"Natrapalayam R.F.","shedId":"SB117"},"geometry":{"type":"Polygon","coordinates":[[[77.6853,12.2105],[77.685,12.2105],[77.6849,12.2106],[77.6849,12.211],[77.685,12.2112],[77.6852,12.2112],[77.6854,12.211],[77.6855,12.211],[77.6853,12.2105]]]}},{"type":"Feature","properties":{"kind":"water-body","areaHa":0.51,"sourceDepartment":"AED","panchayatOrTown":"Natrapalayam","shedId":"SB117"},"geometry":{"type":"Polygon","coordinates":[[[77.7486,12.2372],[77.7483,12.237],[77.7479,12.2373],[77.7479,12.2375],[77.7481,12.2378],[77.7485,12.2377],[77.7486,12.2375],[77.7486,12.2372]]]}},{"type":"Feature","properties":{"kind":"water-body","areaHa":0.37,"sourceDepartment":"AED","panchayatOrTown":"Kottaiyur","shedId":"SB117"},"geometry":{"type":"Polygon","coordinates":[[[77.623,12.2712],[77.6226,12.2711],[77.6225,12.2712],[77.6226,12.2716],[77.6228,12.2718],[77.6231,12.2716],[77.623,12.2712]]]}},{"type":"Feature","properties":{"kind":"water-body","areaHa":0.12,"sourceDepartment":"AED","panchayatOrTown":"Natrapalayam","shedId":"SB117"},"geometry":{"type":"Polygon","coordinates":[[[77.7417,12.2765],[77.7414,12.2762],[77.7413,12.2763],[77.7413,12.2765],[77.7414,12.2766],[77.7416,12.2766],[77.7417,12.2765]]]}},{"type":"Feature","properties":{"kind":"water-body","areaHa":0.49,"sourceDepartment":"AED","panchayatOrTown":"Natrapalayam R.F.","shedId":"SB117"},"geometry":{"type":"Polygon","coordinates":[[[77.7163,12.2471],[77.7157,12.2471],[77.7157,12.2474],[77.7158,12.2476],[77.716,12.2477],[77.7163,12.2477],[77.7165,12.2475],[77.7165,12.2473],[77.7163,12.2471]]]}},{"type":"Feature","properties":{"kind":"water-body","areaHa":1.38,"sourceDepartment":"AED","panchayatOrTown":"Mallahalli  R.F.","shedId":"SB117"},"geometry":{"type":"Polygon","coordinates":[[[77.6296,12.2468],[77.6292,12.247],[77.6288,12.2475],[77.6288,12.2476],[77.6293,12.248],[77.6297,12.2482],[77.63,12.2482],[77.6301,12.2478],[77.63,12.2474],[77.6298,12.247],[77.6296,12.2468]]]}},{"type":"Feature","properties":{"kind":"water-body","areaHa":0.81,"sourceDepartment":"AED","panchayatOrTown":"Natrapalayam","shedId":"SB117"},"geometry":{"type":"Polygon","coordinates":[[[77.7254,12.2494],[77.7252,12.2493],[77.725,12.2494],[77.7251,12.2506],[77.7254,12.2506],[77.7255,12.2505],[77.7257,12.25],[77.7256,12.2496],[77.7254,12.2494]]]}},{"type":"Feature","properties":{"kind":"water-body","areaHa":0.16,"sourceDepartment":"AED","panchayatOrTown":"Natrapalayam","shedId":"SB117"},"geometry":{"type":"Polygon","coordinates":[[[77.7384,12.2517],[77.7381,12.2516],[77.7379,12.2518],[77.7381,12.252],[77.7382,12.252],[77.7384,12.2519],[77.7384,12.2517]]]}},{"type":"Feature","properties":{"kind":"water-body","areaHa":0.44,"sourceDepartment":"AED","panchayatOrTown":"Thaggatti R.F.","shedId":"SB117"},"geometry":{"type":"Polygon","coordinates":[[[77.6845,12.2548],[77.6843,12.2547],[77.6839,12.255],[77.6839,12.2551],[77.6842,12.2554],[77.6846,12.2553],[77.6846,12.2551],[77.6847,12.255],[77.6845,12.2548]]]}},{"type":"Feature","properties":{"kind":"water-body","areaHa":0.19,"sourceDepartment":"AED","panchayatOrTown":"Natrapalayam R.F.","shedId":"SB117"},"geometry":{"type":"Polygon","coordinates":[[[77.7341,12.2675],[77.7337,12.2675],[77.7337,12.2677],[77.7339,12.2679],[77.734,12.2679],[77.7342,12.2677],[77.7341,12.2675]]]}},{"type":"Feature","properties":{"kind":"water-body","areaHa":0.27,"sourceDepartment":"AED","panchayatOrTown":"Bilikkal R.F.","shedId":"SB117"},"geometry":{"type":"Polygon","coordinates":[[[77.5825,12.2763],[77.5822,12.2763],[77.5821,12.2764],[77.5823,12.2766],[77.5825,12.2766],[77.5826,12.2767],[77.583,12.2767],[77.5829,12.2765],[77.5825,12.2763]]]}},{"type":"Feature","properties":{"kind":"water-body","areaHa":0.35,"sourceDepartment":"AED","panchayatOrTown":"Natrapalayam","shedId":"SB117"},"geometry":{"type":"Polygon","coordinates":[[[77.7415,12.2645],[77.7412,12.2644],[77.741,12.2646],[77.7413,12.265],[77.7415,12.2651],[77.7417,12.2647],[77.7415,12.2645]]]}},{"type":"Feature","properties":{"kind":"water-body","areaHa":1.31,"sourceDepartment":"AED","panchayatOrTown":"TALLAKODU","shedId":"SB117"},"geometry":{"type":"Polygon","coordinates":[[[77.4887,12.2658],[77.4879,12.2656],[77.4878,12.2658],[77.4878,12.2665],[77.488,12.2667],[77.4883,12.2668],[77.489,12.2664],[77.4891,12.2662],[77.489,12.266],[77.4887,12.2658]]]}},{"type":"Feature","properties":{"kind":"water-body","areaHa":0.55,"sourceDepartment":"AED","panchayatOrTown":"Natrapalayam R.F.","shedId":"SB117"},"geometry":{"type":"Polygon","coordinates":[[[77.737,12.2714],[77.7363,12.2715],[77.7361,12.2716],[77.7361,12.2718],[77.7366,12.2721],[77.7368,12.2721],[77.737,12.2717],[77.737,12.2714]]]}},{"type":"Feature","properties":{"kind":"water-body","areaHa":0.2,"sourceDepartment":"AED","panchayatOrTown":"Kottaiyur","shedId":"SB117"},"geometry":{"type":"Polygon","coordinates":[[[77.6537,12.2684],[77.6535,12.2684],[77.6534,12.2685],[77.6538,12.2689],[77.6539,12.2689],[77.654,12.2687],[77.6537,12.2684]]]}},{"type":"Feature","properties":{"kind":"water-body","areaHa":0.43,"sourceDepartment":"AED","panchayatOrTown":"Manchugondapalli","shedId":"SB117"},"geometry":{"type":"Polygon","coordinates":[[[77.5448,12.2726],[77.5446,12.2726],[77.5444,12.273],[77.5444,12.2735],[77.5447,12.2735],[77.5447,12.2734],[77.5449,12.2732],[77.5449,12.2727],[77.5448,12.2726]]]}},{"type":"Feature","properties":{"kind":"water-body","areaHa":0.2,"sourceDepartment":"AED","panchayatOrTown":"Bilikkal R.F.","shedId":"SB117"},"geometry":{"type":"Polygon","coordinates":[[[77.585,12.2694],[77.5848,12.2693],[77.5847,12.2694],[77.5846,12.2696],[77.5847,12.2698],[77.585,12.2698],[77.5851,12.2696],[77.585,12.2694]]]}},{"type":"Feature","properties":{"kind":"water-body","areaHa":0.26,"sourceDepartment":"AED","panchayatOrTown":"Natrapalayam R.F.","shedId":"SB117"},"geometry":{"type":"Polygon","coordinates":[[[77.7302,12.271],[77.7299,12.2705],[77.7297,12.2705],[77.7297,12.2708],[77.7298,12.271],[77.73,12.2712],[77.7301,12.2712],[77.7302,12.271]]]}},{"type":"Feature","properties":{"kind":"water-body","areaHa":0.82,"sourceDepartment":"AED","panchayatOrTown":"Kottaiyur","shedId":"SB117"},"geometry":{"type":"Polygon","coordinates":[[[77.6036,12.2743],[77.6031,12.2741],[77.6029,12.2742],[77.6026,12.2742],[77.6025,12.2743],[77.6027,12.2748],[77.6029,12.275],[77.6033,12.2749],[77.6035,12.2747],[77.6036,12.2743]]]}},{"type":"Feature","properties":{"kind":"water-body","areaHa":0.18,"sourceDepartment":"AED","panchayatOrTown":"Kottaiyur","shedId":"SB117"},"geometry":{"type":"Polygon","coordinates":[[[77.6562,12.2753],[77.656,12.2752],[77.6558,12.2754],[77.656,12.2757],[77.6562,12.2757],[77.6562,12.2753]]]}},{"type":"Feature","properties":{"kind":"water-body","areaHa":0.31,"sourceDepartment":"AED","panchayatOrTown":"Kottaiyur","shedId":"SB117"},"geometry":{"type":"Polygon","coordinates":[[[77.6295,12.2784],[77.6293,12.2783],[77.6291,12.2785],[77.6293,12.2791],[77.6295,12.2791],[77.6295,12.2792],[77.6297,12.2791],[77.6297,12.279],[77.6295,12.2788],[77.6294,12.2785],[77.6295,12.2784]]]}},{"type":"Feature","properties":{"kind":"water-body","areaHa":0.54,"sourceDepartment":"AED","panchayatOrTown":"Anchetty (East)","shedId":"SB117"},"geometry":{"type":"Polygon","coordinates":[[[77.7671,12.281],[77.7668,12.2807],[77.7666,12.2809],[77.7666,12.2812],[77.7671,12.2818],[77.7673,12.2818],[77.7671,12.281]]]}},{"type":"Feature","properties":{"kind":"water-body","areaHa":0.37,"sourceDepartment":"AED","panchayatOrTown":"Anchetty (East)","shedId":"SB117"},"geometry":{"type":"Polygon","coordinates":[[[77.7682,12.2861],[77.768,12.2861],[77.7679,12.2862],[77.7679,12.2867],[77.768,12.287],[77.7682,12.287],[77.7683,12.2869],[77.7682,12.2861]]]}},{"type":"Feature","properties":{"kind":"water-body","areaHa":0.36,"sourceDepartment":"AED","panchayatOrTown":"Kottaiyur","shedId":"SB117"},"geometry":{"type":"Polygon","coordinates":[[[77.597,12.291],[77.5968,12.291],[77.5966,12.2913],[77.5966,12.2916],[77.5967,12.2918],[77.5969,12.2917],[77.5971,12.2914],[77.5971,12.2911],[77.597,12.291]]]}},{"type":"Feature","properties":{"kind":"water-body","areaHa":0.31,"sourceDepartment":"AED","panchayatOrTown":"Natrapalayam R.F.","shedId":"SB117"},"geometry":{"type":"Polygon","coordinates":[[[77.7329,12.2949],[77.7325,12.295],[77.7325,12.2952],[77.7328,12.2956],[77.733,12.2955],[77.7331,12.2953],[77.7329,12.2949]]]}},{"type":"Feature","properties":{"kind":"water-body","areaHa":0.64,"sourceDepartment":"AED","panchayatOrTown":"Kottaiyur","shedId":"SB117"},"geometry":{"type":"Polygon","coordinates":[[[77.6458,12.3028],[77.6455,12.3024],[77.6452,12.3025],[77.6449,12.3028],[77.6449,12.303],[77.6454,12.3032],[77.6457,12.3032],[77.6458,12.3028]]]}},{"type":"Feature","properties":{"kind":"water-body","areaHa":0.6,"sourceDepartment":"AED","panchayatOrTown":"Urigam","shedId":"SB117"},"geometry":{"type":"Polygon","coordinates":[[[77.5852,12.3154],[77.5849,12.3153],[77.5847,12.3155],[77.5847,12.3158],[77.5848,12.316],[77.585,12.3161],[77.5854,12.3161],[77.5855,12.316],[77.5855,12.3157],[77.5852,12.3154]]]}},{"type":"Feature","properties":{"kind":"water-body","areaHa":0.5,"sourceDepartment":"AED","panchayatOrTown":"Taggatti","shedId":"SB117"},"geometry":{"type":"Polygon","coordinates":[[[77.6178,12.3692],[77.6176,12.369],[77.6174,12.3694],[77.6177,12.3702],[77.6178,12.3702],[77.618,12.3696],[77.6178,12.3692]]]}},{"type":"Feature","properties":{"kind":"water-body","areaHa":0.2,"sourceDepartment":"AED","panchayatOrTown":"Thaggatti R.F.","shedId":"SB117"},"geometry":{"type":"Polygon","coordinates":[[[77.6803,12.3179],[77.6799,12.3179],[77.6798,12.318],[77.6798,12.3182],[77.6803,12.3182],[77.6804,12.3181],[77.6803,12.3179]]]}},{"type":"Feature","properties":{"kind":"water-body","areaHa":0.25,"sourceDepartment":"AED","panchayatOrTown":"Thaggatti R.F.","shedId":"SB117"},"geometry":{"type":"Polygon","coordinates":[[[77.6602,12.318],[77.6599,12.318],[77.6597,12.3184],[77.6598,12.3185],[77.6601,12.3185],[77.6603,12.3181],[77.6602,12.318]]]}},{"type":"Feature","properties":{"kind":"water-body","areaHa":0.35,"sourceDepartment":"AED","panchayatOrTown":"Taggatti","shedId":"SB117"},"geometry":{"type":"Polygon","coordinates":[[[77.6534,12.3246],[77.6531,12.3246],[77.6529,12.3248],[77.6529,12.3252],[77.6532,12.3253],[77.6534,12.3251],[77.6534,12.3246]]]}},{"type":"Feature","properties":{"kind":"water-body","areaHa":0.32,"sourceDepartment":"AED","panchayatOrTown":"Ulibanda    (R.F.)","shedId":"SB117"},"geometry":{"type":"Polygon","coordinates":[[[77.6695,12.3202],[77.6693,12.3202],[77.6692,12.3203],[77.6692,12.3206],[77.6693,12.3208],[77.6697,12.3208],[77.6698,12.3206],[77.6695,12.3202]]]}},{"type":"Feature","properties":{"kind":"water-body","areaHa":0.29,"sourceDepartment":"AED","panchayatOrTown":"UDUBARANI  R.F.","shedId":"SB117"},"geometry":{"type":"Polygon","coordinates":[[[77.7264,12.3258],[77.726,12.3258],[77.7259,12.326],[77.7261,12.3262],[77.7264,12.3263],[77.7266,12.3261],[77.7264,12.3258]]]}},{"type":"Feature","properties":{"kind":"water-body","areaHa":0.87,"sourceDepartment":"AED","panchayatOrTown":"Anchetty (East)","shedId":"SB117"},"geometry":{"type":"Polygon","coordinates":[[[77.7489,12.3286],[77.7486,12.3286],[77.7478,12.3289],[77.7477,12.329],[77.7478,12.3293],[77.7481,12.3295],[77.7487,12.3293],[77.7489,12.3291],[77.7489,12.3286]]]}},{"type":"Feature","properties":{"kind":"water-body","areaHa":0.14,"sourceDepartment":"AED","panchayatOrTown":"Urigam","shedId":"SB117"},"geometry":{"type":"Polygon","coordinates":[[[77.5922,12.3289],[77.5919,12.3289],[77.5919,12.3291],[77.592,12.3292],[77.5922,12.3292],[77.5924,12.329],[77.5922,12.3289]]]}},{"type":"Feature","properties":{"kind":"water-body","areaHa":0.88,"sourceDepartment":"AED","panchayatOrTown":"Salivaram","shedId":"SB117"},"geometry":{"type":"Polygon","coordinates":[[[77.7831,12.389],[77.7827,12.389],[77.7824,12.3891],[77.7822,12.3893],[77.7822,12.3894],[77.7826,12.3898],[77.7832,12.3901],[77.7832,12.3892],[77.7831,12.389]]]}},{"type":"Feature","properties":{"kind":"water-body","areaHa":0.48,"sourceDepartment":"AED","panchayatOrTown":"Taggatti","shedId":"SB117"},"geometry":{"type":"Polygon","coordinates":[[[77.6438,12.3391],[77.6435,12.3389],[77.6432,12.3392],[77.6432,12.3396],[77.6434,12.3398],[77.6438,12.3395],[77.6438,12.3391]]]}},{"type":"Feature","properties":{"kind":"water-body","areaHa":0.84,"sourceDepartment":"AED","panchayatOrTown":"Anchetty (East)","shedId":"SB117"},"geometry":{"type":"Polygon","coordinates":[[[77.7215,12.336],[77.7208,12.336],[77.7206,12.3361],[77.7212,12.3371],[77.7213,12.3371],[77.7216,12.3365],[77.7216,12.3361],[77.7215,12.336]]]}},{"type":"Feature","properties":{"kind":"water-body","areaHa":0.31,"sourceDepartment":"AED","panchayatOrTown":"Ulibanda    (R.F.)","shedId":"SB117"},"geometry":{"type":"Polygon","coordinates":[[[77.6706,12.3364],[77.6704,12.3364],[77.6703,12.3366],[77.6701,12.3367],[77.6701,12.3369],[77.6702,12.337],[77.6706,12.3369],[77.6707,12.3367],[77.6707,12.3365],[77.6706,12.3364]]]}},{"type":"Feature","properties":{"kind":"water-body","areaHa":0.19,"sourceDepartment":"AED","panchayatOrTown":"Anchetty (East)","shedId":"SB117"},"geometry":{"type":"Polygon","coordinates":[[[77.7397,12.3399],[77.7395,12.34],[77.7395,12.3402],[77.7397,12.3404],[77.7399,12.3403],[77.7399,12.34],[77.7397,12.3399]]]}},{"type":"Feature","properties":{"kind":"water-body","areaHa":0.14,"sourceDepartment":"AED","panchayatOrTown":"Manchi New R.F","shedId":"SB117"},"geometry":{"type":"Polygon","coordinates":[[[77.804,12.34],[77.8038,12.3399],[77.8036,12.3401],[77.8036,12.3402],[77.8037,12.3403],[77.8039,12.3403],[77.804,12.3402],[77.804,12.34]]]}},{"type":"Feature","properties":{"kind":"water-body","areaHa":0.37,"sourceDepartment":"AED","panchayatOrTown":"Anchetty (East)","shedId":"SB117"},"geometry":{"type":"Polygon","coordinates":[[[77.755,12.3405],[77.7546,12.3406],[77.7545,12.3407],[77.7544,12.3408],[77.7544,12.3411],[77.7547,12.3412],[77.7549,12.341],[77.7551,12.3406],[77.755,12.3405]]]}},{"type":"Feature","properties":{"kind":"water-body","areaHa":1.02,"sourceDepartment":"AED","panchayatOrTown":"Taggatti","shedId":"SB117"},"geometry":{"type":"Polygon","coordinates":[[[77.6439,12.3432],[77.644,12.3428],[77.6431,12.3433],[77.6422,12.3442],[77.6424,12.3443],[77.6429,12.344],[77.6435,12.3438],[77.6439,12.3432]]]}},{"type":"Feature","properties":{"kind":"water-body","areaHa":0.39,"sourceDepartment":"AED","panchayatOrTown":"Taggatti","shedId":"SB117"},"geometry":{"type":"Polygon","coordinates":[[[77.6406,12.347],[77.6403,12.347],[77.6403,12.3472],[77.6405,12.3476],[77.6408,12.3476],[77.641,12.3475],[77.641,12.3472],[77.6406,12.347]]]}},{"type":"Feature","properties":{"kind":"water-body","areaHa":0.42,"sourceDepartment":"AED","panchayatOrTown":"Urigam R.F.","shedId":"SB117"},"geometry":{"type":"Polygon","coordinates":[[[77.6363,12.3473],[77.6361,12.3471],[77.6359,12.3472],[77.6357,12.348],[77.636,12.348],[77.6362,12.3479],[77.6362,12.3477],[77.6363,12.3476],[77.6363,12.3473]]]}},{"type":"Feature","properties":{"kind":"water-body","areaHa":0.43,"sourceDepartment":"AED","panchayatOrTown":"Urigam R.F.","shedId":"SB117"},"geometry":{"type":"Polygon","coordinates":[[[77.6358,12.3491],[77.6355,12.3491],[77.6353,12.3495],[77.6354,12.35],[77.6355,12.3501],[77.6357,12.3499],[77.6358,12.3496],[77.6358,12.3491]]]}},{"type":"Feature","properties":{"kind":"water-body","areaHa":0.29,"sourceDepartment":"AED","panchayatOrTown":"Madakkal","shedId":"SB117"},"geometry":{"type":"Polygon","coordinates":[[[77.6678,12.3807],[77.6675,12.3807],[77.6675,12.3811],[77.6677,12.3813],[77.6679,12.3813],[77.668,12.3812],[77.6679,12.3808],[77.6678,12.3807]]]}},{"type":"Feature","properties":{"kind":"water-body","areaHa":0.2,"sourceDepartment":"AED","panchayatOrTown":"Panai R.F East, West","shedId":"SB117"},"geometry":{"type":"Polygon","coordinates":[[[77.7039,12.4065],[77.7037,12.4065],[77.7036,12.4066],[77.7036,12.4069],[77.7037,12.407],[77.704,12.4069],[77.704,12.4066],[77.7039,12.4065]]]}},{"type":"Feature","properties":{"kind":"water-body","areaHa":0.37,"sourceDepartment":"AED","panchayatOrTown":"Taggatti","shedId":"SB117"},"geometry":{"type":"Polygon","coordinates":[[[77.6792,12.3581],[77.6789,12.3581],[77.6789,12.3587],[77.6791,12.3589],[77.6794,12.3586],[77.6794,12.3584],[77.6792,12.3581]]]}},{"type":"Feature","properties":{"kind":"water-body","areaHa":0.13,"sourceDepartment":"AED","panchayatOrTown":"GULLATTY  R.F.","shedId":"SB117"},"geometry":{"type":"Polygon","coordinates":[[[77.812,12.3694],[77.8118,12.3694],[77.8116,12.3697],[77.8117,12.3698],[77.8119,12.3698],[77.8119,12.3697],[77.812,12.3697],[77.812,12.3694]]]}},{"type":"Feature","properties":{"kind":"water-body","areaHa":0.22,"sourceDepartment":"AED","panchayatOrTown":"Manchi New R.F","shedId":"SB117"},"geometry":{"type":"Polygon","coordinates":[[[77.7718,12.3787],[77.7715,12.3787],[77.7715,12.3791],[77.772,12.3791],[77.772,12.3789],[77.7718,12.3787]]]}},{"type":"Feature","properties":{"kind":"water-body","areaHa":0.32,"sourceDepartment":"AED","panchayatOrTown":"Manchi New R.F","shedId":"SB117"},"geometry":{"type":"Polygon","coordinates":[[[77.7762,12.3721],[77.7759,12.3721],[77.7757,12.3726],[77.7762,12.3726],[77.7764,12.3725],[77.7764,12.3723],[77.7762,12.3721]]]}},{"type":"Feature","properties":{"kind":"water-body","areaHa":0.46,"sourceDepartment":"AED","panchayatOrTown":"Panai R.F East , West","shedId":"SB117"},"geometry":{"type":"Polygon","coordinates":[[[77.6955,12.4363],[77.695,12.436],[77.6947,12.4364],[77.6948,12.4366],[77.6954,12.4367],[77.6955,12.4363]]]}},{"type":"Feature","properties":{"kind":"water-body","areaHa":1.12,"sourceDepartment":"AED","panchayatOrTown":"Anchetty (East)","shedId":"SB117"},"geometry":{"type":"Polygon","coordinates":[[[77.7296,12.3763],[77.729,12.3761],[77.7285,12.3762],[77.7282,12.3765],[77.7282,12.3766],[77.7283,12.3768],[77.7285,12.3769],[77.7292,12.3769],[77.7297,12.3767],[77.7296,12.3763]]]}},{"type":"Feature","properties":{"kind":"water-body","areaHa":0.57,"sourceDepartment":"AED","panchayatOrTown":"Bettamugulalam","shedId":"SB117"},"geometry":{"type":"Polygon","coordinates":[[[77.8205,12.379],[77.8202,12.379],[77.8197,12.3793],[77.8199,12.3797],[77.8201,12.3798],[77.8204,12.3797],[77.8205,12.3795],[77.8205,12.379]]]}},{"type":"Feature","properties":{"kind":"water-body","areaHa":0.25,"sourceDepartment":"AED","panchayatOrTown":"Bettamugulalam","shedId":"SB117"},"geometry":{"type":"Polygon","coordinates":[[[77.8202,12.38],[77.8201,12.3799],[77.8199,12.38],[77.8201,12.3805],[77.8203,12.3805],[77.8204,12.3804],[77.8204,12.38],[77.8202,12.38]]]}},{"type":"Feature","properties":{"kind":"water-body","areaHa":0.22,"sourceDepartment":"AED","panchayatOrTown":"Manchi New R.F","shedId":"SB117"},"geometry":{"type":"Polygon","coordinates":[[[77.7868,12.3834],[77.7867,12.3834],[77.7864,12.3837],[77.7866,12.384],[77.7868,12.3839],[77.7869,12.3837],[77.7868,12.3834]]]}},{"type":"Feature","properties":{"kind":"water-body","areaHa":0.52,"sourceDepartment":"AED","panchayatOrTown":"Salivaram","shedId":"SB117"},"geometry":{"type":"Polygon","coordinates":[[[77.7703,12.389],[77.7712,12.389],[77.7714,12.3889],[77.7714,12.3888],[77.7706,12.3884],[77.7704,12.3886],[77.7703,12.389]]]}},{"type":"Feature","properties":{"kind":"water-body","areaHa":0.26,"sourceDepartment":"AED","panchayatOrTown":"Madakkal","shedId":"SB117"},"geometry":{"type":"Polygon","coordinates":[[[77.6455,12.3886],[77.6453,12.3885],[77.6453,12.389],[77.6455,12.3892],[77.6456,12.3892],[77.6458,12.389],[77.6458,12.3889],[77.6455,12.3886]]]}},{"type":"Feature","properties":{"kind":"water-body","areaHa":0.28,"sourceDepartment":"AED","panchayatOrTown":"Madakkal","shedId":"SB117"},"geometry":{"type":"Polygon","coordinates":[[[77.6682,12.389],[77.6679,12.389],[77.6679,12.3895],[77.6682,12.3897],[77.6683,12.3896],[77.6683,12.3892],[77.6682,12.389]]]}},{"type":"Feature","properties":{"kind":"water-body","areaHa":0.23,"sourceDepartment":"AED","panchayatOrTown":"Salivaram","shedId":"SB117"},"geometry":{"type":"Polygon","coordinates":[[[77.7769,12.3902],[77.7765,12.3901],[77.7763,12.3904],[77.7765,12.3905],[77.7769,12.3905],[77.7769,12.3902]]]}},{"type":"Feature","properties":{"kind":"water-body","areaHa":0.94,"sourceDepartment":"AED","panchayatOrTown":"Panai R.F East , West","shedId":"SB117"},"geometry":{"type":"Polygon","coordinates":[[[77.7433,12.3912],[77.7429,12.3905],[77.7425,12.3906],[77.7425,12.391],[77.7427,12.3913],[77.7428,12.3917],[77.743,12.3919],[77.7433,12.3919],[77.7434,12.3918],[77.7433,12.3912]]]}},{"type":"Feature","properties":{"kind":"water-body","areaHa":0.16,"sourceDepartment":"AED","panchayatOrTown":"Madakkal","shedId":"SB117"},"geometry":{"type":"Polygon","coordinates":[[[77.6284,12.3928],[77.628,12.3929],[77.628,12.393],[77.6282,12.3931],[77.6285,12.3931],[77.6286,12.3929],[77.6284,12.3928]]]}},{"type":"Feature","properties":{"kind":"water-body","areaHa":0.14,"sourceDepartment":"AED","panchayatOrTown":"Ulibanda    (R.F.)","shedId":"SB117"},"geometry":{"type":"Polygon","coordinates":[[[77.6673,12.4111],[77.6671,12.4111],[77.6671,12.4115],[77.6672,12.4115],[77.6672,12.4116],[77.6674,12.4115],[77.6674,12.4112],[77.6673,12.4111]]]}},{"type":"Feature","properties":{"kind":"water-body","areaHa":0.31,"sourceDepartment":"AED","panchayatOrTown":"Madakkal","shedId":"SB117"},"geometry":{"type":"Polygon","coordinates":[[[77.6739,12.4146],[77.6736,12.4146],[77.6732,12.4149],[77.6733,12.415],[77.6738,12.415],[77.6741,12.4147],[77.6739,12.4146]]]}},{"type":"Feature","properties":{"kind":"water-body","areaHa":2.24,"sourceDepartment":"AED","panchayatOrTown":"Kolatti","shedId":"SB117"},"geometry":{"type":"Polygon","coordinates":[[[77.796,12.4231],[77.7947,12.4227],[77.7942,12.4228],[77.7942,12.4231],[77.7947,12.4239],[77.7948,12.4247],[77.7949,12.4247],[77.7953,12.424],[77.7959,12.4236],[77.796,12.4234],[77.796,12.4231]]]}},{"type":"Feature","properties":{"kind":"water-body","areaHa":0.16,"sourceDepartment":"AED","panchayatOrTown":"Anchetty (East)","shedId":"SB117"},"geometry":{"type":"Polygon","coordinates":[[[77.7149,12.3989],[77.7147,12.3988],[77.7145,12.3992],[77.7149,12.3992],[77.715,12.3991],[77.7149,12.3989]]]}},{"type":"Feature","properties":{"kind":"water-body","areaHa":0.38,"sourceDepartment":"AED","panchayatOrTown":"Ulibanda    (R.F.)","shedId":"SB117"},"geometry":{"type":"Polygon","coordinates":[[[77.639,12.4006],[77.6389,12.4005],[77.6387,12.4007],[77.6388,12.4011],[77.6391,12.4012],[77.6394,12.401],[77.6394,12.4008],[77.6392,12.4006],[77.639,12.4006]]]}},{"type":"Feature","properties":{"kind":"water-body","areaHa":0.2,"sourceDepartment":"AED","panchayatOrTown":"Salivaram","shedId":"SB117"},"geometry":{"type":"Polygon","coordinates":[[[77.766,12.4025],[77.7659,12.4024],[77.7657,12.4024],[77.7655,12.4026],[77.7659,12.4029],[77.766,12.4025]]]}},{"type":"Feature","properties":{"kind":"water-body","areaHa":0.13,"sourceDepartment":"AED","panchayatOrTown":"Madakkal","shedId":"SB117"},"geometry":{"type":"Polygon","coordinates":[[[77.6267,12.4074],[77.6264,12.4074],[77.6264,12.4076],[77.6265,12.4077],[77.6268,12.4077],[77.6268,12.4075],[77.6267,12.4075],[77.6267,12.4074]]]}},{"type":"Feature","properties":{"kind":"water-body","areaHa":0.19,"sourceDepartment":"AED","panchayatOrTown":"GULLATTY  R.F.","shedId":"SB117"},"geometry":{"type":"Polygon","coordinates":[[[77.8232,12.4092],[77.8229,12.4092],[77.8228,12.4093],[77.8229,12.4097],[77.8231,12.4096],[77.8232,12.4092]]]}},{"type":"Feature","properties":{"kind":"water-body","areaHa":0.15,"sourceDepartment":"AED","panchayatOrTown":"Madakkal","shedId":"SB117"},"geometry":{"type":"Polygon","coordinates":[[[77.677,12.4104],[77.6766,12.4104],[77.6766,12.4105],[77.6769,12.4107],[77.6771,12.4107],[77.6772,12.4106],[77.677,12.4104]]]}},{"type":"Feature","properties":{"kind":"water-body","areaHa":0.38,"sourceDepartment":"AED","panchayatOrTown":"Malligarjunadurgam","shedId":"SB117"},"geometry":{"type":"Polygon","coordinates":[[[77.7523,12.4227],[77.7521,12.4228],[77.7521,12.4232],[77.7523,12.4234],[77.7525,12.4234],[77.7527,12.4232],[77.7527,12.4231],[77.7525,12.4228],[77.7523,12.4227]]]}},{"type":"Feature","properties":{"kind":"water-body","areaHa":0.11,"sourceDepartment":"AED","panchayatOrTown":"Madakkal","shedId":"SB117"},"geometry":{"type":"Polygon","coordinates":[[[77.6529,12.4241],[77.6527,12.4241],[77.6527,12.4242],[77.6529,12.4245],[77.653,12.4245],[77.653,12.4242],[77.6529,12.4241]]]}},{"type":"Feature","properties":{"kind":"water-body","areaHa":0.19,"sourceDepartment":"AED","panchayatOrTown":"Madakkal","shedId":"SB117"},"geometry":{"type":"Polygon","coordinates":[[[77.6649,12.4272],[77.6647,12.4272],[77.6646,12.4273],[77.6645,12.4275],[77.6646,12.4276],[77.6649,12.4276],[77.665,12.4275],[77.665,12.4273],[77.6649,12.4272]]]}},{"type":"Feature","properties":{"kind":"water-body","areaHa":0.35,"sourceDepartment":"AED","panchayatOrTown":"Kolatti","shedId":"SB117"},"geometry":{"type":"Polygon","coordinates":[[[77.7976,12.4348],[77.7971,12.4348],[77.7971,12.4352],[77.7975,12.4353],[77.7978,12.4351],[77.7978,12.4349],[77.7976,12.4348]]]}},{"type":"Feature","properties":{"kind":"water-body","areaHa":0.64,"sourceDepartment":"AED","panchayatOrTown":"Salivaram","shedId":"SB117"},"geometry":{"type":"Polygon","coordinates":[[[77.783,12.4298],[77.7829,12.4295],[77.7827,12.4295],[77.7825,12.4297],[77.7822,12.43],[77.7824,12.4304],[77.7829,12.4304],[77.783,12.4302],[77.783,12.4298]]]}},{"type":"Feature","properties":{"kind":"water-body","areaHa":0.17,"sourceDepartment":"AED","panchayatOrTown":"Kolatti","shedId":"SB117"},"geometry":{"type":"Polygon","coordinates":[[[77.7989,12.4357],[77.7987,12.4358],[77.7987,12.436],[77.7988,12.4361],[77.7991,12.4361],[77.7991,12.4358],[77.7989,12.4357]]]}},{"type":"Feature","properties":{"kind":"water-body","areaHa":4.27,"sourceDepartment":"AED","panchayatOrTown":"Andevanapalli","shedId":"SB117"},"geometry":{"type":"Polygon","coordinates":[[[77.7691,12.4375],[77.7685,12.4372],[77.7682,12.4375],[77.7678,12.4381],[77.7677,12.4384],[77.7677,12.4388],[77.7682,12.4391],[77.7688,12.4396],[77.769,12.4397],[77.7695,12.4397],[77.7696,12.4396],[77.7696,12.4392],[77.7693,12.4386],[77.7695,12.4383],[77.77,12.4379],[77.77,12.4376],[77.7691,12.4375]]]}},{"type":"Feature","properties":{"kind":"water-body","areaHa":1.42,"sourceDepartment":"AED","panchayatOrTown":"Erudukotta","shedId":"SB117"},"geometry":{"type":"Polygon","coordinates":[[[77.7895,12.4405],[77.7891,12.4401],[77.789,12.4401],[77.7882,12.441],[77.7882,12.4412],[77.7884,12.4414],[77.7889,12.4414],[77.7894,12.4412],[77.7896,12.441],[77.7895,12.4405]]]}},{"type":"Feature","properties":{"kind":"water-body","areaHa":0.61,"sourceDepartment":"AED","panchayatOrTown":"Andevanapalli","shedId":"SB117"},"geometry":{"type":"Polygon","coordinates":[[[77.7718,12.4589],[77.7714,12.4589],[77.7714,12.459],[77.7713,12.459],[77.7714,12.4597],[77.7716,12.4599],[77.772,12.4596],[77.772,12.4594],[77.7718,12.4589]]]}},{"type":"Feature","properties":{"kind":"water-body","areaHa":0.88,"sourceDepartment":"AED","panchayatOrTown":"Erudukotta","shedId":"SB117"},"geometry":{"type":"Polygon","coordinates":[[[77.7859,12.4587],[77.7857,12.4587],[77.7849,12.4592],[77.7846,12.4593],[77.7852,12.4596],[77.7857,12.4595],[77.786,12.4593],[77.7859,12.4587]]]}},{"type":"Feature","properties":{"kind":"water-body","areaHa":0.29,"sourceDepartment":"AED","panchayatOrTown":"Madakkal","shedId":"SB117"},"geometry":{"type":"Polygon","coordinates":[[[77.6522,12.4431],[77.652,12.4431],[77.6519,12.4432],[77.6519,12.4436],[77.652,12.4437],[77.6524,12.4435],[77.6524,12.4433],[77.6522,12.4431]]]}},{"type":"Feature","properties":{"kind":"water-body","areaHa":3.98,"sourceDepartment":"AED","panchayatOrTown":"Erudukotta","shedId":"SB117"},"geometry":{"type":"Polygon","coordinates":[[[77.7889,12.4529],[77.7883,12.4523],[77.7882,12.4524],[77.7878,12.4541],[77.7878,12.4545],[77.7879,12.4548],[77.788,12.455],[77.7882,12.4551],[77.7885,12.4551],[77.7889,12.4548],[77.7891,12.4544],[77.7898,12.4535],[77.7898,12.4533],[77.7889,12.4529]]]}},{"type":"Feature","properties":{"kind":"water-body","areaHa":0.19,"sourceDepartment":"AED","panchayatOrTown":"Agalakotta","shedId":"SB117"},"geometry":{"type":"Polygon","coordinates":[[[77.6663,12.4639],[77.6661,12.4639],[77.666,12.4641],[77.6662,12.4643],[77.6665,12.4643],[77.6665,12.4641],[77.6663,12.4639]]]}},{"type":"Feature","properties":{"kind":"water-body","areaHa":0.24,"sourceDepartment":"AED","panchayatOrTown":"Karandapalli","shedId":"SB117"},"geometry":{"type":"Polygon","coordinates":[[[77.6913,12.464],[77.6909,12.464],[77.6908,12.4642],[77.6911,12.4644],[77.6913,12.4644],[77.6914,12.4643],[77.6914,12.4641],[77.6913,12.464]]]}},{"type":"Feature","properties":{"kind":"water-body","areaHa":1.35,"sourceDepartment":"AED","panchayatOrTown":"Andevanapalli","shedId":"SB117"},"geometry":{"type":"Polygon","coordinates":[[[77.7636,12.4529],[77.7631,12.453],[77.7627,12.4534],[77.7627,12.454],[77.7632,12.4544],[77.7634,12.4544],[77.7636,12.4541],[77.7636,12.4533],[77.7637,12.4531],[77.7636,12.4529]]]}},{"type":"Feature","properties":{"kind":"water-body","areaHa":0.57,"sourceDepartment":"AED","panchayatOrTown":"Karandapalli","shedId":"SB117"},"geometry":{"type":"Polygon","coordinates":[[[77.7234,12.4656],[77.7228,12.4659],[77.7227,12.4662],[77.7227,12.4665],[77.7228,12.4666],[77.7231,12.4663],[77.7233,12.4663],[77.7235,12.4659],[77.7235,12.4657],[77.7234,12.4656]]]}},{"type":"Feature","properties":{"kind":"water-body","areaHa":0.91,"sourceDepartment":"AED","panchayatOrTown":"Erudukotta","shedId":"SB117"},"geometry":{"type":"Polygon","coordinates":[[[77.8129,12.4451],[77.8124,12.4451],[77.8122,12.4453],[77.8126,12.4458],[77.8129,12.4458],[77.8131,12.4459],[77.8132,12.4458],[77.8134,12.4458],[77.8135,12.4456],[77.8136,12.4456],[77.8135,12.4453],[77.8129,12.4451]]]}},{"type":"Feature","properties":{"kind":"water-body","areaHa":0.23,"sourceDepartment":"AED","panchayatOrTown":"Malligarjunadurgam","shedId":"SB117"},"geometry":{"type":"Polygon","coordinates":[[[77.7419,12.4458],[77.7415,12.4458],[77.7414,12.4459],[77.7414,12.446],[77.7417,12.4463],[77.7419,12.4462],[77.7419,12.4458]]]}},{"type":"Feature","properties":{"kind":"water-body","areaHa":1.83,"sourceDepartment":"AED","panchayatOrTown":"Andevanapalli","shedId":"SB117"},"geometry":{"type":"Polygon","coordinates":[[[77.7558,12.4451],[77.7552,12.4452],[77.755,12.4456],[77.7559,12.4471],[77.7561,12.4472],[77.7563,12.4469],[77.7563,12.4467],[77.7559,12.4452],[77.7558,12.4451]]]}},{"type":"Feature","properties":{"kind":"water-body","areaHa":0.64,"sourceDepartment":"AED","panchayatOrTown":"Andevanapalli","shedId":"SB117"},"geometry":{"type":"Polygon","coordinates":[[[77.767,12.4534],[77.7667,12.4534],[77.7669,12.4545],[77.767,12.4546],[77.7672,12.4545],[77.7674,12.454],[77.7673,12.4537],[77.767,12.4534]]]}},{"type":"Feature","properties":{"kind":"water-body","areaHa":0.28,"sourceDepartment":"AED","panchayatOrTown":"Karandapalli","shedId":"SB117"},"geometry":{"type":"Polygon","coordinates":[[[77.7073,12.4551],[77.7068,12.4549],[77.7067,12.4551],[77.7071,12.4555],[77.7072,12.4555],[77.7073,12.4554],[77.7073,12.4551]]]}},{"type":"Feature","properties":{"kind":"water-body","areaHa":0.22,"sourceDepartment":"AED","panchayatOrTown":"Andevanapalli","shedId":"SB117"},"geometry":{"type":"Polygon","coordinates":[[[77.7655,12.4653],[77.7652,12.4653],[77.7651,12.4654],[77.7654,12.4658],[77.7656,12.4657],[77.7656,12.4654],[77.7655,12.4653]]]}},{"type":"Feature","properties":{"kind":"water-body","areaHa":0.23,"sourceDepartment":"AED","panchayatOrTown":"Agalakotta","shedId":"SB117"},"geometry":{"type":"Polygon","coordinates":[[[77.6706,12.4664],[77.6703,12.4661],[77.6701,12.4662],[77.6701,12.4664],[77.6703,12.4667],[77.6705,12.4667],[77.6706,12.4665],[77.6706,12.4664]]]}},{"type":"Feature","properties":{"kind":"water-body","areaHa":0.18,"sourceDepartment":"AED","panchayatOrTown":"Agalakotta","shedId":"SB117"},"geometry":{"type":"Polygon","coordinates":[[[77.6723,12.4712],[77.6721,12.4709],[77.6719,12.4709],[77.6718,12.4712],[77.6719,12.4713],[77.6722,12.4713],[77.6723,12.4712]]]}},{"type":"Feature","properties":{"kind":"water-body","areaHa":0.19,"sourceDepartment":"AED","panchayatOrTown":"Karandapalli","shedId":"SB117"},"geometry":{"type":"Polygon","coordinates":[[[77.7354,12.4733],[77.7352,12.4733],[77.7351,12.4735],[77.7351,12.4737],[77.7352,12.4738],[77.7354,12.4738],[77.7355,12.4737],[77.7354,12.4733]]]}},{"type":"Feature","properties":{"kind":"water-body","areaHa":0.38,"sourceDepartment":"AED","panchayatOrTown":"Palayamkotta","shedId":"SB117"},"geometry":{"type":"Polygon","coordinates":[[[77.7077,12.49],[77.7072,12.49],[77.7072,12.4903],[77.7073,12.4905],[77.7078,12.4905],[77.7079,12.4904],[77.7079,12.4902],[77.7077,12.49]]]}},{"type":"Feature","properties":{"kind":"water-body","areaHa":0.34,"sourceDepartment":"AED","panchayatOrTown":"Palayamkotta","shedId":"SB117"},"geometry":{"type":"Polygon","coordinates":[[[77.6824,12.4767],[77.6821,12.4766],[77.6821,12.4772],[77.6823,12.4773],[77.6826,12.4773],[77.6826,12.4769],[77.6824,12.4768],[77.6824,12.4767]]]}},{"type":"Feature","properties":{"kind":"water-body","areaHa":0.14,"sourceDepartment":"AED","panchayatOrTown":"Santhanapalli","shedId":"SB117"},"geometry":{"type":"Polygon","coordinates":[[[77.8001,12.4812],[77.7999,12.4811],[77.7997,12.4813],[77.7997,12.4814],[77.7998,12.4815],[77.8001,12.4814],[77.8001,12.4812]]]}},{"type":"Feature","properties":{"kind":"water-body","areaHa":0.5,"sourceDepartment":"AED","panchayatOrTown":"Agalakotta","shedId":"SB117"},"geometry":{"type":"Polygon","coordinates":[[[77.6713,12.4797],[77.671,12.4797],[77.6708,12.4798],[77.6708,12.4801],[77.6711,12.4806],[77.6713,12.4806],[77.6714,12.4804],[77.6713,12.4797]]]}},{"type":"Feature","properties":{"kind":"water-body","areaHa":0.3,"sourceDepartment":"AED","panchayatOrTown":"Naganur R.F","shedId":"SB117"},"geometry":{"type":"Polygon","coordinates":[[[77.7691,12.4816],[77.7689,12.4815],[77.7687,12.4816],[77.7685,12.4817],[77.7685,12.4819],[77.7689,12.482],[77.7692,12.4818],[77.7691,12.4816]]]}},{"type":"Feature","properties":{"kind":"water-body","areaHa":0.2,"sourceDepartment":"AED","panchayatOrTown":"Kottur","shedId":"SB117"},"geometry":{"type":"Polygon","coordinates":[[[77.7298,12.4964],[77.7295,12.4963],[77.7295,12.4964],[77.7294,12.4964],[77.7294,12.4966],[77.7296,12.4968],[77.7298,12.4968],[77.7299,12.4966],[77.7298,12.4964]]]}},{"type":"Feature","properties":{"kind":"water-body","areaHa":0.45,"sourceDepartment":"AED","panchayatOrTown":"Palayamkotta","shedId":"SB117"},"geometry":{"type":"Polygon","coordinates":[[[77.6934,12.4851],[77.6932,12.4851],[77.6929,12.4854],[77.6929,12.4857],[77.6932,12.4858],[77.6936,12.4857],[77.6936,12.4854],[77.6934,12.4851]]]}},{"type":"Feature","properties":{"kind":"water-body","areaHa":0.29,"sourceDepartment":"AED","panchayatOrTown":"Thavarakarai","shedId":"SB117"},"geometry":{"type":"Polygon","coordinates":[[[77.7463,12.5001],[77.7461,12.5],[77.7459,12.5001],[77.7458,12.5003],[77.746,12.5007],[77.7463,12.5004],[77.7463,12.5001]]]}},{"type":"Feature","properties":{"kind":"water-body","areaHa":0.7,"sourceDepartment":"AED","panchayatOrTown":"Palayamkotta","shedId":"SB117"},"geometry":{"type":"Polygon","coordinates":[[[77.7165,12.4927],[77.7157,12.4924],[77.7154,12.4926],[77.7154,12.4928],[77.7158,12.493],[77.7166,12.4931],[77.7165,12.4927]]]}},{"type":"Feature","properties":{"kind":"water-body","areaHa":0.23,"sourceDepartment":"AED","panchayatOrTown":"Thavarakarai","shedId":"SB117"},"geometry":{"type":"Polygon","coordinates":[[[77.7457,12.5013],[77.7459,12.5009],[77.7454,12.501],[77.7452,12.5012],[77.7452,12.5013],[77.7457,12.5013]]]}},{"type":"Feature","properties":{"kind":"water-body","areaHa":0.47,"sourceDepartment":"AED","panchayatOrTown":"Palayamkotta","shedId":"SB117"},"geometry":{"type":"Polygon","coordinates":[[[77.7038,12.496],[77.7034,12.496],[77.7032,12.4962],[77.7032,12.4964],[77.7034,12.4966],[77.7038,12.4966],[77.704,12.4963],[77.704,12.4962],[77.7038,12.496]]]}},{"type":"Feature","properties":{"kind":"water-body","areaHa":0.13,"sourceDepartment":"AED","panchayatOrTown":"Thavarakarai","shedId":"SB117"},"geometry":{"type":"Polygon","coordinates":[[[77.7428,12.4985],[77.7425,12.4985],[77.7424,12.4986],[77.7424,12.4988],[77.7427,12.4988],[77.7428,12.4985]]]}},{"type":"Feature","properties":{"kind":"water-body","areaHa":0.54,"sourceDepartment":"AED","panchayatOrTown":"Urigam","shedId":"SB117"},"geometry":{"type":"Polygon","coordinates":[[[77.6216,12.3109],[77.6213,12.3109],[77.6212,12.311],[77.6216,12.3114],[77.6218,12.3118],[77.6219,12.3118],[77.6221,12.3116],[77.6222,12.3113],[77.6216,12.3109]]]}}]}