{"nvdm":"1.0","dataset":"basins/waterbodies-minor","scope":{"kind":"basin","id":"krishnagiri-rivers"},"provenance":{"sources":[{"id":"tngis-open-geoserver","title":"TNGIS open GeoServer (WFS): district, taluk, block and village panchayat boundaries, TN WRD sub-basins and reservoirs, micro-watershed atlas, all-water-bodies and all-tanks registers, mine leases, industry register matched to land parcels","publisher":"Tamil Nadu e-Governance Agency (TNGIS)","license":"Tamil Nadu government data on an open GeoServer (WFS, no login); published with TNGIS's permission and with attribution.","role":"input","url":"https://tngis.tn.gov.in/tngismaps/ows"}],"method":"derived","produced_at":"2026-09-18","produced_by":"scripts/build_krishnagiri_rivers_basin.py","internal_inputs":["public/data/basins/krishnagiri-rivers/sub-hydrosheds.geojson"],"note":"Krishnagiri district's rivers, groundwater and industry (scope krishnagiri-rivers; the district's own scope id is tn-krishnagiri). The district boundary is the frame and TN WRD's sub-basins, clipped to it, are the catchments (shedId): the Thenpennai's to the east, the Cauvery's Chinnar and Dodda Halla to the south-west. The industry register holds only units TNGIS matched to a land parcel, so every count is a lower bound; sector comes from the reviewed TNPCB type-code lookup pipeline-inputs/basins/krishnagiri-rivers/tnpcb-type-sectors.json."},"type":"FeatureCollection","features":[{"type":"Feature","properties":{"recordedAs":"Stream","kind":"stream-parcel","areaHa":0.05,"sourceDepartment":"DOSS","panchayatOrTown":"Nariganapuram","shedId":"SBP02"},"geometry":{"type":"Polygon","coordinates":[[[77.9417,12.7966],[77.942,12.7965],[77.942,12.7962],[77.9417,12.7966]]]}},{"type":"Feature","properties":{"recordedAs":"Stream","kind":"stream-parcel","areaHa":0.04,"sourceDepartment":"DOSS","panchayatOrTown":"Sudagondapalli","shedId":"SBP02"},"geometry":{"type":"Polygon","coordinates":[[[77.9266,12.7801],[77.9269,12.7802],[77.9268,12.78],[77.9266,12.78],[77.9266,12.7801]]]}},{"type":"Feature","properties":{"recordedAs":"Stream","kind":"stream-parcel","areaHa":0.02,"sourceDepartment":"DOSS","panchayatOrTown":"Sudagondapalli","shedId":"SBP02"},"geometry":{"type":"Polygon","coordinates":[[[77.9266,12.7801],[77.9266,12.7799],[77.9265,12.7799],[77.9266,12.7801]]]}},{"type":"Feature","properties":{"recordedAs":"Stream","kind":"stream-parcel","areaHa":0.01,"sourceDepartment":"DOSS","panchayatOrTown":"Sudagondapalli","shedId":"SBP02"},"geometry":{"type":"Polygon","coordinates":[[[77.9269,12.7802],[77.9269,12.7801],[77.9268,12.78],[77.9269,12.7802]]]}},{"type":"Feature","properties":{"recordedAs":"Stream","kind":"stream-parcel","areaHa":0.35,"sourceDepartment":"DOSS","panchayatOrTown":"Adavanapalle","shedId":"SBP02"},"geometry":{"type":"Polygon","coordinates":[[[77.9289,12.7618],[77.9298,12.7612],[77.9308,12.7608],[77.9313,12.7608],[77.9313,12.7607],[77.9308,12.7607],[77.9299,12.761],[77.9297,12.7611],[77.9293,12.7615],[77.9288,12.7617],[77.9289,12.7618]]]}},{"type":"Feature","properties":{"recordedAs":"Stream","kind":"stream-parcel","areaHa":3.37,"sourceDepartment":"DOSS","panchayatOrTown":"Dasapalli","shedId":"SBP02"},"geometry":{"type":"Polygon","coordinates":[[[77.9241,12.7502],[77.9246,12.7501],[77.9237,12.7481],[77.9242,12.7477],[77.9239,12.7465],[77.9231,12.747],[77.9223,12.7471],[77.9225,12.7472],[77.9227,12.7476],[77.9232,12.7481],[77.9237,12.7494],[77.9241,12.7502]]]}},{"type":"Feature","properties":{"recordedAs":"Stream","kind":"stream-parcel","areaHa":0.63,"sourceDepartment":"DOSS","panchayatOrTown":"Dasapalli","shedId":"SBP02"},"geometry":{"type":"Polygon","coordinates":[[[77.9232,12.7524],[77.9244,12.7523],[77.9247,12.7527],[77.9253,12.7527],[77.9252,12.7525],[77.9247,12.7524],[77.9245,12.7521],[77.9232,12.7521],[77.9232,12.7524]]]}},{"type":"Feature","properties":{"recordedAs":"Kuttai","kind":"water-body","areaHa":0.68,"sourceDepartment":"DOSS","panchayatOrTown":"Adavanapalle","shedId":"SBP02"},"geometry":{"type":"Polygon","coordinates":[[[77.9272,12.7553],[77.9273,12.7553],[77.9277,12.7559],[77.9281,12.7554],[77.9281,12.7551],[77.9279,12.7549],[77.9272,12.755],[77.9272,12.7553]]]}},{"type":"Feature","properties":{"recordedAs":"Eri","kind":"water-body","areaHa":0.76,"sourceDepartment":"DOSS","ownerDepartment":"TNRD","panchayatOrTown":"Venkatesapuram","shedId":"SBP02"},"geometry":{"type":"Polygon","coordinates":[[[77.9313,12.7608],[77.932,12.7616],[77.9317,12.7604],[77.932,12.7601],[77.9315,12.7601],[77.9313,12.7598],[77.9312,12.7603],[77.9313,12.7608]]]}},{"type":"Feature","properties":{"recordedAs":"Kuttai","kind":"water-body","areaHa":1.7,"sourceDepartment":"DOSS","panchayatOrTown":"Alenattam","shedId":"SBP02"},"geometry":{"type":"Polygon","coordinates":[[[77.946,12.7707],[77.9465,12.7695],[77.9451,12.7687],[77.9456,12.7706],[77.946,12.7707]]]}},{"type":"Feature","properties":{"recordedAs":"Kuttai","kind":"water-body","areaHa":0.04,"sourceDepartment":"DOSS","panchayatOrTown":"Nariganapuram","shedId":"SBP02"},"geometry":{"type":"Polygon","coordinates":[[[77.9418,12.8109],[77.942,12.8109],[77.9421,12.8109],[77.9419,12.8107],[77.9418,12.8109]]]}},{"type":"Feature","properties":{"recordedAs":"Kuttai","kind":"water-body","areaHa":0.47,"sourceDepartment":"DOSS","panchayatOrTown":"Nariganapuram","shedId":"SBP02"},"geometry":{"type":"Polygon","coordinates":[[[77.9394,12.7829],[77.9393,12.7831],[77.9395,12.7831],[77.9396,12.7829],[77.9399,12.7827],[77.9402,12.7827],[77.9403,12.7828],[77.9402,12.7829],[77.9404,12.7831],[77.9407,12.7829],[77.9407,12.7826],[77.9403,12.7824],[77.9402,12.7825],[77.9398,12.7826],[77.9394,12.7829]]]}},{"type":"Feature","properties":{"recordedAs":"Stream","kind":"stream-parcel","areaHa":0.56,"sourceDepartment":"DOSS","panchayatOrTown":"Sudagondapalli","shedId":"SBP02"},"geometry":{"type":"Polygon","coordinates":[[[77.928,12.7813],[77.9279,12.7816],[77.9281,12.7819],[77.9289,12.7817],[77.9299,12.7819],[77.9299,12.7817],[77.9289,12.7816],[77.928,12.7813]]]}},{"type":"Feature","properties":{"recordedAs":"Stream","kind":"stream-parcel","areaHa":0.49,"sourceDepartment":"DOSS","panchayatOrTown":"Sudagondapalli","shedId":"SBP02"},"geometry":{"type":"Polygon","coordinates":[[[77.927,12.781],[77.9276,12.7813],[77.9276,12.7816],[77.9279,12.7816],[77.928,12.7813],[77.9274,12.7811],[77.9271,12.7809],[77.9272,12.7806],[77.9271,12.7806],[77.9269,12.7802],[77.9266,12.7801],[77.9265,12.7799],[77.9264,12.7799],[77.9262,12.7801],[77.9268,12.7803],[77.927,12.7806],[77.927,12.781]]]}},{"type":"Feature","properties":{"recordedAs":"Stream","kind":"stream-parcel","areaHa":2.11,"sourceDepartment":"DOSS","panchayatOrTown":"Alenattam","shedId":"SBP02"},"geometry":{"type":"Polygon","coordinates":[[[77.949,12.7714],[77.9489,12.7709],[77.9485,12.7707],[77.9477,12.7701],[77.9465,12.7695],[77.9465,12.7697],[77.9463,12.77],[77.9469,12.7703],[77.9471,12.7703],[77.9477,12.771],[77.948,12.7712],[77.9486,12.7714],[77.949,12.7714]]]}},{"type":"Feature","properties":{"recordedAs":"Stream","kind":"stream-parcel","areaHa":0.2,"sourceDepartment":"DOSS","panchayatOrTown":"Sudagondapalli","shedId":"SBP02"},"geometry":{"type":"Polygon","coordinates":[[[77.9283,12.7828],[77.9283,12.7832],[77.9282,12.7833],[77.9283,12.7835],[77.9286,12.7833],[77.9285,12.7831],[77.9285,12.7827],[77.9283,12.7828]]]}},{"type":"Feature","properties":{"recordedAs":"Kuttai","kind":"water-body","areaHa":0.35,"sourceDepartment":"DOSS","panchayatOrTown":"Sudagondapalli","shedId":"SBP02"},"geometry":{"type":"Polygon","coordinates":[[[77.933,12.7776],[77.9332,12.7775],[77.9332,12.7769],[77.9326,12.777],[77.9325,12.7771],[77.9329,12.7774],[77.933,12.7776]]]}},{"type":"Feature","properties":{"recordedAs":"Stream","kind":"stream-parcel","areaHa":0.68,"sourceDepartment":"DOSS","panchayatOrTown":"Mallasandiram","shedId":"SBP02"},"geometry":{"type":"Polygon","coordinates":[[[78.0864,12.6296],[78.0866,12.6301],[78.0871,12.6303],[78.0872,12.6305],[78.0877,12.6306],[78.088,12.6312],[78.0882,12.6313],[78.0878,12.6304],[78.0879,12.6303],[78.0876,12.6301],[78.0872,12.6302],[78.0867,12.6299],[78.0866,12.6295],[78.0864,12.6296]]]}},{"type":"Feature","properties":{"recordedAs":"Stream","kind":"stream-parcel","areaHa":0.25,"sourceDepartment":"DOSS","panchayatOrTown":"Mallasandiram","shedId":"SBP02"},"geometry":{"type":"MultiPolygon","coordinates":[[[[78.0897,12.6365],[78.0901,12.6365],[78.0903,12.6363],[78.0896,12.6363],[78.0897,12.6365]]],[[[78.0903,12.6363],[78.0904,12.6366],[78.0907,12.6367],[78.0907,12.6369],[78.0909,12.6366],[78.0906,12.6366],[78.0903,12.6363]]],[[[78.0909,12.6366],[78.0912,12.6368],[78.0911,12.6366],[78.0909,12.6366]]]]}},{"type":"Feature","properties":{"recordedAs":"Stream","kind":"stream-parcel","areaHa":0.53,"sourceDepartment":"DOSS","panchayatOrTown":"Mallasandiram","shedId":"SBP02"},"geometry":{"type":"Polygon","coordinates":[[[78.0871,12.6385],[78.0869,12.6387],[78.0871,12.6388],[78.0874,12.6383],[78.0879,12.6367],[78.0882,12.6367],[78.0884,12.6366],[78.0883,12.6365],[78.0878,12.6366],[78.0871,12.6385]]]}},{"type":"Feature","properties":{"recordedAs":"Stream","kind":"stream-parcel","areaHa":0.4,"sourceDepartment":"DOSS","panchayatOrTown":"Nariganapuram","shedId":"SBP02"},"geometry":{"type":"Polygon","coordinates":[[[77.9423,12.7965],[77.9417,12.7966],[77.9416,12.7971],[77.942,12.7971],[77.942,12.797],[77.9422,12.7971],[77.9423,12.7965]]]}},{"type":"Feature","properties":{"recordedAs":"Stream","kind":"stream-parcel","areaHa":0.58,"sourceDepartment":"DOSS","panchayatOrTown":"Sudagondapalli","shedId":"SBP02"},"geometry":{"type":"Polygon","coordinates":[[[77.9288,12.7822],[77.9286,12.7821],[77.9285,12.7818],[77.9281,12.7819],[77.9282,12.7828],[77.9288,12.7827],[77.9287,12.7824],[77.9288,12.7822]]]}},{"type":"Feature","properties":{"kind":"water-body","areaHa":1.0,"sourceDepartment":"AED","panchayatOrTown":"Addagurukki","shedId":"SBP02"},"geometry":{"type":"Polygon","coordinates":[[[77.966,12.6968],[77.9658,12.6967],[77.9656,12.6968],[77.9652,12.6968],[77.9654,12.6975],[77.9656,12.6978],[77.9659,12.698],[77.9661,12.6978],[77.9662,12.6972],[77.966,12.6968]]]}},{"type":"Feature","properties":{"kind":"water-body","areaHa":0.08,"sourceDepartment":"AED","panchayatOrTown":"B.S.Thimmasandiram","shedId":"SBP02"},"geometry":{"type":"Polygon","coordinates":[[[77.9472,12.8384],[77.947,12.8384],[77.9469,12.8385],[77.9469,12.8387],[77.9471,12.8386],[77.9472,12.8384]]]}},{"type":"Feature","properties":{"kind":"water-body","areaHa":0.51,"sourceDepartment":"AED","panchayatOrTown":"Chennappalli","shedId":"SBP02"},"geometry":{"type":"Polygon","coordinates":[[[78.046,12.6112],[78.0454,12.6112],[78.0453,12.6113],[78.0453,12.6115],[78.0457,12.6118],[78.046,12.6118],[78.0462,12.6117],[78.0462,12.6115],[78.046,12.6113],[78.046,12.6112]]]}},{"type":"Feature","properties":{"kind":"water-body","areaHa":3.1,"sourceDepartment":"AED","panchayatOrTown":"Kamandhoddi","shedId":"SBP02"},"geometry":{"type":"Polygon","coordinates":[[[77.9767,12.6531],[77.9765,12.653],[77.9757,12.6531],[77.9754,12.6532],[77.9752,12.6534],[77.9752,12.654],[77.9753,12.6542],[77.9757,12.6547],[77.9762,12.655],[77.9767,12.655],[77.9767,12.654],[77.977,12.6531],[77.9767,12.6531]]]}},{"type":"Feature","properties":{"kind":"water-body","areaHa":1.07,"sourceDepartment":"AED","panchayatOrTown":"Doddur","shedId":"SBP02"},"geometry":{"type":"Polygon","coordinates":[[[78.063,12.6809],[78.0624,12.6808],[78.0622,12.681],[78.0621,12.681],[78.0621,12.6815],[78.0625,12.6818],[78.063,12.6818],[78.0632,12.6812],[78.063,12.6809]]]}},{"type":"Feature","properties":{"kind":"water-body","areaHa":1.09,"sourceDepartment":"AED","panchayatOrTown":"Nallakanakothapalli","shedId":"SBP02"},"geometry":{"type":"Polygon","coordinates":[[[77.9859,12.6933],[77.9855,12.6933],[77.9855,12.6945],[77.9857,12.6948],[77.9862,12.6943],[77.9863,12.694],[77.9863,12.6937],[77.9859,12.6933]]]}},{"type":"Feature","properties":{"kind":"water-body","areaHa":1.07,"sourceDepartment":"AED","panchayatOrTown":"Sembarsanapalli","shedId":"SBP02"},"geometry":{"type":"Polygon","coordinates":[[[78.0392,12.7001],[78.0385,12.7002],[78.038,12.7005],[78.0379,12.7007],[78.0381,12.7009],[78.0392,12.7008],[78.0394,12.7007],[78.0395,12.7005],[78.0395,12.7003],[78.0394,12.7003],[78.0394,12.7002],[78.0392,12.7001]]]}},{"type":"Feature","properties":{"kind":"water-body","areaHa":4.42,"sourceDepartment":"AED","panchayatOrTown":"Dhoripalli","shedId":"SBP02"},"geometry":{"type":"Polygon","coordinates":[[[77.9604,12.7139],[77.9607,12.7138],[77.9611,12.7138],[77.9619,12.714],[77.9623,12.714],[77.9623,12.7137],[77.962,12.7135],[77.9616,12.7134],[77.9608,12.713],[77.9605,12.7121],[77.9603,12.7118],[77.9599,12.7118],[77.9598,12.7121],[77.9598,12.7136],[77.9597,12.7142],[77.9592,12.7153],[77.9592,12.7159],[77.9594,12.7161],[77.9596,12.7157],[77.9598,12.7155],[77.96,12.7144],[77.9604,12.7139]]]}},{"type":"Feature","properties":{"kind":"water-body","areaHa":1.19,"sourceDepartment":"AED","panchayatOrTown":"Allur","shedId":"SBP02"},"geometry":{"type":"Polygon","coordinates":[[[77.9422,12.7151],[77.9421,12.715],[77.9418,12.715],[77.9412,12.7155],[77.9413,12.7161],[77.9416,12.7166],[77.9417,12.7166],[77.9419,12.7163],[77.9419,12.716],[77.9422,12.7154],[77.9422,12.7151]]]}},{"type":"Feature","properties":{"kind":"water-body","areaHa":3.27,"sourceDepartment":"AED","panchayatOrTown":"Sembarsanapalli","shedId":"SBP02"},"geometry":{"type":"Polygon","coordinates":[[[78.04,12.719],[78.0394,12.719],[78.0387,12.7192],[78.0384,12.7195],[78.0384,12.7197],[78.0387,12.72],[78.0394,12.7203],[78.0398,12.7206],[78.04,12.7211],[78.0404,12.7213],[78.0406,12.721],[78.0406,12.7208],[78.0403,12.7198],[78.0402,12.7191],[78.04,12.719]]]}},{"type":"Feature","properties":{"kind":"water-body","areaHa":0.68,"sourceDepartment":"AED","panchayatOrTown":"Dhoripalli","shedId":"SBP02"},"geometry":{"type":"Polygon","coordinates":[[[77.9525,12.7306],[77.9516,12.7305],[77.9515,12.7306],[77.9517,12.731],[77.9521,12.7313],[77.9524,12.7312],[77.9525,12.7306]]]}},{"type":"Feature","properties":{"kind":"water-body","areaHa":1.28,"sourceDepartment":"AED","panchayatOrTown":"Angondapalli","shedId":"SBP02"},"geometry":{"type":"Polygon","coordinates":[[[78.0039,12.7314],[78.0035,12.7314],[78.0032,12.7318],[78.0032,12.7325],[78.0033,12.7329],[78.0034,12.733],[78.0038,12.7329],[78.0039,12.7327],[78.004,12.7318],[78.0039,12.7314]]]}},{"type":"Feature","properties":{"kind":"water-body","areaHa":1.93,"sourceDepartment":"AED","panchayatOrTown":"Dasapalli","shedId":"SBP02"},"geometry":{"type":"Polygon","coordinates":[[[77.9224,12.744],[77.9215,12.7436],[77.9212,12.7437],[77.9212,12.7444],[77.9213,12.7449],[77.9216,12.7454],[77.9217,12.7454],[77.9221,12.745],[77.9225,12.7444],[77.9224,12.744]]]}},{"type":"Feature","properties":{"kind":"water-body","areaHa":1.11,"sourceDepartment":"AED","panchayatOrTown":"Angondapalli","shedId":"SBP02"},"geometry":{"type":"Polygon","coordinates":[[[78.015,12.7347],[78.0135,12.7347],[78.0135,12.7348],[78.0134,12.7348],[78.0134,12.735],[78.0138,12.7354],[78.014,12.7354],[78.0148,12.7352],[78.0151,12.735],[78.0152,12.7348],[78.015,12.7347]]]}},{"type":"Feature","properties":{"kind":"water-body","areaHa":1.28,"sourceDepartment":"AED","panchayatOrTown":"Dhoripalli","shedId":"SBP02"},"geometry":{"type":"Polygon","coordinates":[[[77.9484,12.738],[77.9484,12.7375],[77.9478,12.7378],[77.9477,12.7379],[77.9476,12.7384],[77.9479,12.7388],[77.9485,12.7391],[77.9488,12.739],[77.9486,12.7387],[77.9484,12.738]]]}},{"type":"Feature","properties":{"kind":"water-body","areaHa":0.58,"sourceDepartment":"AED","panchayatOrTown":"Dhoripalli","shedId":"SBP02"},"geometry":{"type":"Polygon","coordinates":[[[77.9438,12.7392],[77.9431,12.7392],[77.943,12.7393],[77.943,12.7395],[77.9435,12.7399],[77.9437,12.7399],[77.9439,12.7396],[77.9438,12.7392]]]}},{"type":"Feature","properties":{"kind":"water-body","areaHa":0.82,"sourceDepartment":"AED","panchayatOrTown":"Dhoripalli","shedId":"SBP02"},"geometry":{"type":"Polygon","coordinates":[[[77.946,12.7411],[77.9452,12.7405],[77.945,12.7409],[77.945,12.7413],[77.9452,12.7415],[77.9456,12.7415],[77.946,12.7412],[77.946,12.7411]]]}},{"type":"Feature","properties":{"kind":"water-body","areaHa":0.84,"sourceDepartment":"AED","panchayatOrTown":"Athimugam","shedId":"SBP02"},"geometry":{"type":"Polygon","coordinates":[[[77.9665,12.7429],[77.966,12.7429],[77.9656,12.743],[77.9656,12.7435],[77.9659,12.7439],[77.9662,12.7438],[77.9665,12.7433],[77.9665,12.7429]]]}},{"type":"Feature","properties":{"kind":"water-body","areaHa":1.0,"sourceDepartment":"AED","panchayatOrTown":"Athimugam","shedId":"SBP02"},"geometry":{"type":"Polygon","coordinates":[[[77.9634,12.7456],[77.9644,12.7455],[77.9645,12.7453],[77.9644,12.7451],[77.9639,12.7447],[77.9636,12.7448],[77.9632,12.7451],[77.9632,12.7455],[77.9634,12.7456]]]}},{"type":"Feature","properties":{"kind":"water-body","areaHa":0.2,"sourceDepartment":"AED","panchayatOrTown":"Peddchigarlapalli","shedId":"SBP02"},"geometry":{"type":"Polygon","coordinates":[[[78.0215,12.7477],[78.0212,12.7477],[78.021,12.7479],[78.021,12.748],[78.0211,12.7481],[78.0214,12.7481],[78.0215,12.748],[78.0215,12.7477]]]}},{"type":"Feature","properties":{"kind":"water-body","areaHa":4.72,"sourceDepartment":"AED","panchayatOrTown":"Venkatesapuram","shedId":"SBP02"},"geometry":{"type":"Polygon","coordinates":[[[77.9299,12.7454],[77.9297,12.7453],[77.9294,12.7455],[77.9294,12.7459],[77.9292,12.7463],[77.9287,12.7469],[77.9287,12.7471],[77.9291,12.7478],[77.9293,12.7485],[77.9294,12.7486],[77.9294,12.7488],[77.9297,12.7488],[77.9299,12.7487],[77.9301,12.7483],[77.9301,12.7477],[77.9302,12.7475],[77.9304,12.7473],[77.9313,12.7468],[77.9312,12.7466],[77.9306,12.7466],[77.9303,12.7465],[77.9301,12.7463],[77.93,12.7461],[77.93,12.7456],[77.9299,12.7454]]]}},{"type":"Feature","properties":{"kind":"water-body","areaHa":0.58,"sourceDepartment":"AED","panchayatOrTown":"Pannapalli","shedId":"SBP02"},"geometry":{"type":"Polygon","coordinates":[[[78.0016,12.758],[78.0012,12.7579],[78.0012,12.758],[78.0011,12.758],[78.001,12.7582],[78.0012,12.7586],[78.0014,12.7588],[78.0015,12.7588],[78.0015,12.7589],[78.0017,12.7589],[78.0018,12.7587],[78.0017,12.7586],[78.0017,12.7583],[78.0016,12.7582],[78.0016,12.758]]]}},{"type":"Feature","properties":{"kind":"water-body","areaHa":0.28,"sourceDepartment":"AED","panchayatOrTown":"Venkatesapuram","shedId":"SBP02"},"geometry":{"type":"Polygon","coordinates":[[[77.9351,12.7616],[77.9349,12.7616],[77.9349,12.7618],[77.9348,12.7619],[77.9348,12.7621],[77.9349,12.7621],[77.9349,12.7622],[77.9351,12.7622],[77.9354,12.7619],[77.9352,12.7617],[77.9351,12.7617],[77.9351,12.7616]]]}},{"type":"Feature","properties":{"kind":"water-body","areaHa":0.53,"sourceDepartment":"AED","panchayatOrTown":"Pannapalli","shedId":"SBP02"},"geometry":{"type":"Polygon","coordinates":[[[78.008,12.7903],[78.0073,12.7903],[78.0073,12.7907],[78.0077,12.7909],[78.0077,12.791],[78.0079,12.791],[78.0081,12.7907],[78.0081,12.7904],[78.008,12.7904],[78.008,12.7903]]]}},{"type":"Feature","properties":{"kind":"water-body","areaHa":0.26,"sourceDepartment":"AED","panchayatOrTown":"Berigai","shedId":"SBP02"},"geometry":{"type":"Polygon","coordinates":[[[77.9634,12.8018],[77.9629,12.8019],[77.9629,12.8021],[77.9633,12.8023],[77.9634,12.8021],[77.9635,12.8021],[77.9635,12.8019],[77.9634,12.8018]]]}},{"type":"Feature","properties":{"kind":"water-body","areaHa":0.18,"sourceDepartment":"AED","panchayatOrTown":"Nandimangalam","shedId":"SBP02"},"geometry":{"type":"Polygon","coordinates":[[[77.9559,12.8023],[77.9557,12.8023],[77.9556,12.8025],[77.9557,12.8025],[77.9558,12.8027],[77.9561,12.8027],[77.9561,12.8025],[77.9559,12.8023]]]}},{"type":"Feature","properties":{"kind":"water-body","areaHa":3.47,"sourceDepartment":"AED","panchayatOrTown":"Nariganapuram","shedId":"SBP02"},"geometry":{"type":"Polygon","coordinates":[[[77.941,12.8096],[77.9405,12.8096],[77.939,12.8109],[77.9389,12.811],[77.9389,12.8112],[77.939,12.8112],[77.9391,12.8114],[77.9398,12.8116],[77.9405,12.8116],[77.941,12.8114],[77.941,12.8096]]]}},{"type":"Feature","properties":{"kind":"water-body","areaHa":0.17,"sourceDepartment":"AED","panchayatOrTown":"Berigai","shedId":"SBP02"},"geometry":{"type":"Polygon","coordinates":[[[77.9714,12.817],[77.9712,12.817],[77.9712,12.8171],[77.9711,12.8171],[77.9712,12.8174],[77.9715,12.8174],[77.9715,12.8173],[77.9716,12.8173],[77.9716,12.8172],[77.9715,12.8172],[77.9714,12.817]]]}},{"type":"Feature","properties":{"kind":"water-body","areaHa":0.32,"sourceDepartment":"AED","panchayatOrTown":"Eluvapalli (Berigai)","shedId":"SBP02"},"geometry":{"type":"Polygon","coordinates":[[[77.9793,12.819],[77.9789,12.819],[77.9788,12.8191],[77.9788,12.8194],[77.9789,12.8194],[77.9789,12.8195],[77.9794,12.8195],[77.9794,12.8192],[77.9793,12.819]]]}},{"type":"Feature","properties":{"kind":"water-body","areaHa":2.59,"sourceDepartment":"AED","panchayatOrTown":"Amuthukondapalli","shedId":"SBP02"},"geometry":{"type":"Polygon","coordinates":[[[77.9486,12.8279],[77.9484,12.8279],[77.9482,12.8281],[77.948,12.8285],[77.9479,12.8292],[77.9477,12.8297],[77.9477,12.83],[77.9478,12.8301],[77.9482,12.8301],[77.9484,12.83],[77.9494,12.8291],[77.9495,12.8291],[77.9495,12.8289],[77.9489,12.8286],[77.9487,12.8282],[77.9487,12.828],[77.9486,12.8279]]]}},{"type":"Feature","properties":{"kind":"water-body","areaHa":0.36,"sourceDepartment":"AED","panchayatOrTown":"Kattinaikkandhoddi","shedId":"SBP02"},"geometry":{"type":"Polygon","coordinates":[[[77.9794,12.8268],[77.979,12.8269],[77.979,12.8273],[77.9792,12.8274],[77.9795,12.8274],[77.9796,12.8273],[77.9796,12.827],[77.9794,12.8269],[77.9794,12.8268]]]}},{"type":"Feature","properties":{"kind":"water-body","areaHa":1.81,"sourceDepartment":"AED","panchayatOrTown":"Kattinaikkandhoddi","shedId":"SBP02"},"geometry":{"type":"Polygon","coordinates":[[[77.9792,12.8313],[77.979,12.8312],[77.9783,12.8312],[77.9782,12.8314],[77.9783,12.8318],[77.9786,12.8323],[77.9788,12.833],[77.9789,12.833],[77.9789,12.8331],[77.9791,12.833],[77.9793,12.8322],[77.9796,12.8319],[77.9797,12.8319],[77.9797,12.8318],[77.9796,12.8318],[77.9796,12.8317],[77.9792,12.8313]]]}},{"type":"Feature","properties":{"kind":"water-body","areaHa":3.34,"sourceDepartment":"AED","panchayatOrTown":"B.S.Thimmasandiram","shedId":"SBP02"},"geometry":{"type":"Polygon","coordinates":[[[77.9624,12.8375],[77.9621,12.8375],[77.9619,12.8376],[77.9617,12.8378],[77.9616,12.8382],[77.9616,12.8393],[77.9617,12.8397],[77.962,12.8402],[77.9622,12.8401],[77.9626,12.8393],[77.9632,12.8384],[77.9632,12.8382],[77.9628,12.8377],[77.9624,12.8375]]]}},{"type":"Feature","properties":{"kind":"water-body","areaHa":0.13,"sourceDepartment":"AED","panchayatOrTown":"B.S.Thimmasandiram","shedId":"SBP02"},"geometry":{"type":"Polygon","coordinates":[[[77.9476,12.8389],[77.9474,12.8387],[77.9472,12.8387],[77.9472,12.839],[77.9474,12.8391],[77.9476,12.8389]]]}},{"type":"Feature","properties":{"kind":"water-body","areaHa":3.84,"sourceDepartment":"AED","panchayatOrTown":"B.S.Thimmasandiram","shedId":"SBP02"},"geometry":{"type":"Polygon","coordinates":[[[77.9642,12.8429],[77.9638,12.8426],[77.9637,12.8427],[77.9634,12.8435],[77.9631,12.8448],[77.9631,12.8455],[77.9633,12.8456],[77.9633,12.8455],[77.9637,12.8454],[77.9648,12.8447],[77.965,12.8447],[77.9642,12.8429]]]}},{"type":"Feature","properties":{"kind":"water-body","areaHa":1.69,"sourceDepartment":"AED","panchayatOrTown":"B.S.Thimmasandiram","shedId":"SBP02"},"geometry":{"type":"Polygon","coordinates":[[[77.9474,12.8449],[77.9468,12.845],[77.9463,12.8456],[77.9463,12.8459],[77.9465,12.8461],[77.9471,12.8462],[77.9475,12.8461],[77.9476,12.846],[77.9477,12.8458],[77.9477,12.8452],[77.9474,12.8449]]]}}]}