{"nvdm":"1.0","dataset":"basins/waterbodies-minor","scope":{"kind":"basin","id":"krishnagiri-rivers"},"provenance":{"sources":[{"id":"tngis-open-geoserver","title":"TNGIS open GeoServer (WFS): district, taluk, block and village panchayat boundaries, TN WRD sub-basins and reservoirs, micro-watershed atlas, all-water-bodies and all-tanks registers, mine leases, industry register matched to land parcels","publisher":"Tamil Nadu e-Governance Agency (TNGIS)","license":"Tamil Nadu government data on an open GeoServer (WFS, no login); published with TNGIS's permission and with attribution.","role":"input","url":"https://tngis.tn.gov.in/tngismaps/ows"}],"method":"derived","produced_at":"2026-09-18","produced_by":"scripts/build_krishnagiri_rivers_basin.py","internal_inputs":["public/data/basins/krishnagiri-rivers/sub-hydrosheds.geojson"],"note":"Krishnagiri district's rivers, groundwater and industry (scope krishnagiri-rivers; the district's own scope id is tn-krishnagiri). The district boundary is the frame and TN WRD's sub-basins, clipped to it, are the catchments (shedId): the Thenpennai's to the east, the Cauvery's Chinnar and Dodda Halla to the south-west. The industry register holds only units TNGIS matched to a land parcel, so every count is a lower bound; sector comes from the reviewed TNPCB type-code lookup pipeline-inputs/basins/krishnagiri-rivers/tnpcb-type-sectors.json."},"type":"FeatureCollection","features":[{"type":"Feature","properties":{"kind":"water-body","areaHa":2.03,"sourceDepartment":"AED","panchayatOrTown":"Athippadi","shedId":"SBP07"},"geometry":{"type":"Polygon","coordinates":[[[78.6605,12.2087],[78.6596,12.2085],[78.6592,12.209],[78.6592,12.2094],[78.6593,12.2094],[78.6593,12.2095],[78.6598,12.2098],[78.6605,12.21],[78.6608,12.21],[78.6609,12.2098],[78.6606,12.2092],[78.6605,12.2087]]]}},{"type":"Feature","properties":{"kind":"water-body","areaHa":1.48,"sourceDepartment":"AED","panchayatOrTown":"Athippadi","shedId":"SBP07"},"geometry":{"type":"Polygon","coordinates":[[[78.6573,12.21],[78.657,12.21],[78.6567,12.2102],[78.6567,12.211],[78.6572,12.2115],[78.6578,12.2115],[78.6577,12.2108],[78.6573,12.21]]]}},{"type":"Feature","properties":{"kind":"water-body","areaHa":0.9,"sourceDepartment":"AED","panchayatOrTown":"Athippadi","shedId":"SBP07"},"geometry":{"type":"Polygon","coordinates":[[[78.6525,12.204],[78.6523,12.2041],[78.6521,12.2046],[78.6521,12.2051],[78.6522,12.2052],[78.6525,12.2052],[78.6527,12.205],[78.6529,12.2046],[78.6529,12.2043],[78.6528,12.2041],[78.6525,12.204]]]}},{"type":"Feature","properties":{"kind":"water-body","areaHa":2.64,"sourceDepartment":"AED","panchayatOrTown":"Pungani (Athippadi)","shedId":"SBP07"},"geometry":{"type":"Polygon","coordinates":[[[78.6672,12.2178],[78.667,12.2178],[78.6668,12.218],[78.6666,12.2185],[78.6664,12.2186],[78.6659,12.2191],[78.6659,12.2192],[78.6657,12.2193],[78.6657,12.2196],[78.6663,12.2196],[78.667,12.2194],[78.6674,12.2194],[78.6678,12.2193],[78.6678,12.2192],[78.6679,12.2192],[78.6679,12.2189],[78.6675,12.2182],[78.6672,12.2178]]]}},{"type":"Feature","properties":{"kind":"water-body","areaHa":0.42,"sourceDepartment":"AED","panchayatOrTown":"Athippadi","shedId":"SBP07"},"geometry":{"type":"Polygon","coordinates":[[[78.6608,12.2144],[78.6605,12.2144],[78.6603,12.2146],[78.6603,12.215],[78.6604,12.215],[78.6604,12.2151],[78.6607,12.2151],[78.6609,12.2148],[78.6609,12.2145],[78.6608,12.2144]]]}},{"type":"Feature","properties":{"kind":"water-body","areaHa":0.27,"sourceDepartment":"AED","panchayatOrTown":"Pungani (Athippadi)","shedId":"SBP07"},"geometry":{"type":"Polygon","coordinates":[[[78.6603,12.2171],[78.6598,12.2171],[78.6598,12.2174],[78.66,12.2176],[78.6602,12.2176],[78.6603,12.2175],[78.6603,12.2171]]]}}]}