{"nvdm":"1.0","dataset":"basins/waterbodies-minor","scope":{"kind":"basin","id":"krishnagiri-rivers"},"provenance":{"sources":[{"id":"tngis-open-geoserver","title":"TNGIS open GeoServer (WFS): district, taluk, block and village panchayat boundaries, TN WRD sub-basins and reservoirs, micro-watershed atlas, all-water-bodies and all-tanks registers, mine leases, industry register matched to land parcels","publisher":"Tamil Nadu e-Governance Agency (TNGIS)","license":"Tamil Nadu government data on an open GeoServer (WFS, no login); published with TNGIS's permission and with attribution.","role":"input","url":"https://tngis.tn.gov.in/tngismaps/ows"}],"method":"derived","produced_at":"2026-09-18","produced_by":"scripts/build_krishnagiri_rivers_basin.py","internal_inputs":["public/data/basins/krishnagiri-rivers/sub-hydrosheds.geojson"],"note":"Krishnagiri district's rivers, groundwater and industry (scope krishnagiri-rivers; the district's own scope id is tn-krishnagiri). The district boundary is the frame and TN WRD's sub-basins, clipped to it, are the catchments (shedId): the Thenpennai's to the east, the Cauvery's Chinnar and Dodda Halla to the south-west. The industry register holds only units TNGIS matched to a land parcel, so every count is a lower bound; sector comes from the reviewed TNPCB type-code lookup pipeline-inputs/basins/krishnagiri-rivers/tnpcb-type-sectors.json."},"type":"FeatureCollection","features":[{"type":"Feature","properties":{"recordedAs":"Kulam","kind":"water-body","areaHa":3.53,"sourceDepartment":"DOSS","ownerDepartment":"WRD","panchayatOrTown":"Mittahalli-1","shedId":"SBP17"},"geometry":{"type":"Polygon","coordinates":[[[78.1975,12.4196],[78.1971,12.4196],[78.1971,12.4207],[78.1973,12.4212],[78.1969,12.4213],[78.1969,12.4214],[78.1978,12.4212],[78.1985,12.4208],[78.1989,12.4204],[78.1992,12.4199],[78.1989,12.4193],[78.1975,12.4196]]]}},{"type":"Feature","properties":{"recordedAs":"Eri","kind":"water-body","areaHa":1.86,"sourceDepartment":"DOSS","panchayatOrTown":"Agasipalli","shedId":"SBP17"},"geometry":{"type":"Polygon","coordinates":[[[78.2365,12.5044],[78.2369,12.5049],[78.2378,12.5046],[78.2377,12.5037],[78.2374,12.5032],[78.2369,12.5034],[78.2368,12.503],[78.2367,12.5039],[78.2365,12.5044]]]}},{"type":"Feature","properties":{"kind":"water-body","areaHa":0.67,"sourceDepartment":"AED","panchayatOrTown":"Ponnagarappatti","shedId":"SBP17"},"geometry":{"type":"Polygon","coordinates":[[[78.508,12.1538],[78.5078,12.1536],[78.5075,12.1536],[78.5069,12.1539],[78.5068,12.1541],[78.5069,12.1542],[78.5079,12.1542],[78.508,12.1541],[78.508,12.1538]]]}},{"type":"Feature","properties":{"kind":"water-body","areaHa":0.83,"sourceDepartment":"AED","panchayatOrTown":"Katteri","shedId":"SBP17"},"geometry":{"type":"Polygon","coordinates":[[[78.5482,12.1971],[78.5477,12.1969],[78.5474,12.1971],[78.5472,12.1975],[78.5472,12.1977],[78.5473,12.1978],[78.5479,12.1978],[78.5482,12.1974],[78.5482,12.1971]]]}},{"type":"Feature","properties":{"kind":"water-body","areaHa":1.74,"sourceDepartment":"AED","panchayatOrTown":"Meyyandappatti","shedId":"SBP17"},"geometry":{"type":"Polygon","coordinates":[[[78.5386,12.1859],[78.5377,12.1858],[78.5376,12.1859],[78.5376,12.1861],[78.5378,12.1863],[78.5388,12.1867],[78.5393,12.1868],[78.5401,12.1868],[78.5401,12.1865],[78.5399,12.1863],[78.5396,12.1863],[78.5386,12.1859]]]}},{"type":"Feature","properties":{"kind":"water-body","areaHa":1.12,"sourceDepartment":"AED","panchayatOrTown":"Puduppatti","shedId":"SBP17"},"geometry":{"type":"Polygon","coordinates":[[[78.5197,12.1881],[78.5191,12.1883],[78.519,12.1885],[78.5193,12.1893],[78.5196,12.1895],[78.5196,12.1896],[78.5198,12.1895],[78.5198,12.1891],[78.52,12.1884],[78.52,12.1882],[78.5198,12.1882],[78.5197,12.1881]]]}},{"type":"Feature","properties":{"kind":"water-body","areaHa":1.46,"sourceDepartment":"AED","panchayatOrTown":"Lakkampatti","shedId":"SBP17"},"geometry":{"type":"Polygon","coordinates":[[[78.5549,12.1993],[78.5543,12.1985],[78.5541,12.1985],[78.5534,12.1987],[78.5532,12.1991],[78.5533,12.1991],[78.5534,12.1993],[78.5536,12.1994],[78.5536,12.1995],[78.554,12.1996],[78.5548,12.1994],[78.5549,12.1993]]]}},{"type":"Feature","properties":{"kind":"water-body","areaHa":2.5,"sourceDepartment":"AED","panchayatOrTown":"Chandrapatti","shedId":"SBP17"},"geometry":{"type":"Polygon","coordinates":[[[78.4344,12.2239],[78.4349,12.2239],[78.4351,12.224],[78.4354,12.2245],[78.4355,12.2245],[78.4355,12.2241],[78.4354,12.2238],[78.4349,12.2233],[78.4336,12.223],[78.4332,12.223],[78.4331,12.2231],[78.4333,12.2245],[78.4335,12.2245],[78.4339,12.2241],[78.4344,12.2239]]]}},{"type":"Feature","properties":{"kind":"water-body","areaHa":4.37,"sourceDepartment":"AED","panchayatOrTown":"Panamarathuppatti (Kallavi)","shedId":"SBP17"},"geometry":{"type":"Polygon","coordinates":[[[78.4368,12.2491],[78.4365,12.249],[78.4363,12.2493],[78.4359,12.2513],[78.4384,12.2513],[78.4384,12.2511],[78.4382,12.2507],[78.4377,12.25],[78.4368,12.2491]]]}},{"type":"Feature","properties":{"kind":"water-body","areaHa":2.25,"sourceDepartment":"AED","panchayatOrTown":"Murungipatti","shedId":"SBP17"},"geometry":{"type":"Polygon","coordinates":[[[78.5035,12.2257],[78.5033,12.2257],[78.5033,12.2258],[78.5032,12.2258],[78.5028,12.2265],[78.5035,12.227],[78.5042,12.2272],[78.5045,12.2272],[78.5045,12.2271],[78.5048,12.2267],[78.5048,12.2264],[78.5035,12.2257]]]}},{"type":"Feature","properties":{"kind":"water-body","areaHa":0.38,"sourceDepartment":"AED","panchayatOrTown":"Poorsampatti","shedId":"SBP17"},"geometry":{"type":"Polygon","coordinates":[[[78.517,12.2284],[78.5167,12.2284],[78.5167,12.2287],[78.5169,12.2291],[78.517,12.2291],[78.5173,12.2288],[78.5173,12.2285],[78.5171,12.2285],[78.517,12.2284]]]}},{"type":"Feature","properties":{"kind":"water-body","areaHa":2.3,"sourceDepartment":"AED","panchayatOrTown":"Perumalnaickenpatti","shedId":"SBP17"},"geometry":{"type":"Polygon","coordinates":[[[78.447,12.2279],[78.4469,12.2279],[78.4457,12.2292],[78.4457,12.2296],[78.4458,12.2298],[78.446,12.2299],[78.4463,12.2298],[78.4474,12.2288],[78.4476,12.2285],[78.4476,12.2284],[78.4475,12.2284],[78.4474,12.2282],[78.447,12.2279]]]}},{"type":"Feature","properties":{"kind":"water-body","areaHa":1.55,"sourceDepartment":"AED","panchayatOrTown":"Kolinaickanpatti","shedId":"SBP17"},"geometry":{"type":"Polygon","coordinates":[[[78.4154,12.2337],[78.415,12.2328],[78.4149,12.2323],[78.4148,12.2323],[78.4148,12.2324],[78.4145,12.2328],[78.4138,12.233],[78.4137,12.2331],[78.4137,12.2334],[78.414,12.2336],[78.4148,12.2336],[78.4152,12.2338],[78.4154,12.234],[78.4154,12.2337]]]}},{"type":"Feature","properties":{"kind":"water-body","areaHa":1.03,"sourceDepartment":"AED","panchayatOrTown":"Periyakottakulam","shedId":"SBP17"},"geometry":{"type":"Polygon","coordinates":[[[78.3963,12.2371],[78.3958,12.2373],[78.3955,12.2377],[78.3956,12.2377],[78.3956,12.2378],[78.3958,12.2379],[78.396,12.2379],[78.3964,12.2382],[78.3967,12.2382],[78.3968,12.2381],[78.3968,12.2378],[78.3966,12.2374],[78.3963,12.2371]]]}},{"type":"Feature","properties":{"kind":"water-body","areaHa":3.36,"sourceDepartment":"AED","panchayatOrTown":"Periyakottakulam","shedId":"SBP17"},"geometry":{"type":"Polygon","coordinates":[[[78.3949,12.2333],[78.3955,12.2326],[78.3955,12.2323],[78.3952,12.2323],[78.3951,12.2325],[78.3946,12.2327],[78.3941,12.2327],[78.3939,12.2326],[78.3932,12.2319],[78.393,12.232],[78.3934,12.2331],[78.3934,12.2337],[78.3937,12.2347],[78.3939,12.2348],[78.3939,12.2347],[78.394,12.2347],[78.3943,12.2337],[78.3949,12.2333]]]}},{"type":"Feature","properties":{"kind":"water-body","areaHa":1.32,"sourceDepartment":"AED","panchayatOrTown":"Bommampatti","shedId":"SBP17"},"geometry":{"type":"Polygon","coordinates":[[[78.5138,12.2335],[78.5133,12.2337],[78.513,12.234],[78.513,12.2344],[78.5134,12.2348],[78.5139,12.2348],[78.5141,12.2346],[78.514,12.2336],[78.5138,12.2335]]]}},{"type":"Feature","properties":{"kind":"water-body","areaHa":0.7,"sourceDepartment":"AED","panchayatOrTown":"Veerachikuppam","shedId":"SBP17"},"geometry":{"type":"Polygon","coordinates":[[[78.4744,12.2446],[78.474,12.2446],[78.474,12.245],[78.4743,12.2453],[78.4747,12.2455],[78.4749,12.2452],[78.4749,12.2449],[78.4747,12.2447],[78.4744,12.2446]]]}},{"type":"Feature","properties":{"kind":"water-body","areaHa":0.91,"sourceDepartment":"AED","panchayatOrTown":"Puliyampatti","shedId":"SBP17"},"geometry":{"type":"Polygon","coordinates":[[[78.2733,12.264],[78.2722,12.2636],[78.2724,12.2643],[78.2726,12.2646],[78.2728,12.2648],[78.2729,12.2648],[78.2732,12.2644],[78.2733,12.264]]]}},{"type":"Feature","properties":{"kind":"water-body","areaHa":0.91,"sourceDepartment":"AED","panchayatOrTown":"Mallapuram","shedId":"SBP17"},"geometry":{"type":"Polygon","coordinates":[[[78.4203,12.2692],[78.4199,12.2691],[78.4198,12.2692],[78.4198,12.2695],[78.4199,12.2697],[78.4199,12.2703],[78.42,12.2705],[78.4202,12.2706],[78.4204,12.2704],[78.4205,12.2697],[78.4203,12.2692]]]}},{"type":"Feature","properties":{"kind":"water-body","areaHa":3.14,"sourceDepartment":"AED","panchayatOrTown":"Tadampatti","shedId":"SBP17"},"geometry":{"type":"Polygon","coordinates":[[[78.3634,12.291],[78.3627,12.2906],[78.3625,12.2906],[78.3624,12.2907],[78.3622,12.2913],[78.3621,12.2927],[78.3623,12.2929],[78.3627,12.2929],[78.3634,12.2922],[78.3636,12.2918],[78.3638,12.2917],[78.3638,12.2914],[78.3634,12.291]]]}},{"type":"Feature","properties":{"kind":"water-body","areaHa":0.95,"sourceDepartment":"AED","panchayatOrTown":"Damodarahalli","shedId":"SBP17"},"geometry":{"type":"Polygon","coordinates":[[[78.2513,12.2975],[78.2512,12.2974],[78.2507,12.2974],[78.2505,12.2975],[78.2503,12.2979],[78.2504,12.2981],[78.2506,12.2983],[78.2512,12.2984],[78.2513,12.298],[78.2513,12.2975]]]}},{"type":"Feature","properties":{"kind":"water-body","areaHa":1.43,"sourceDepartment":"AED","panchayatOrTown":"Parandapalli","shedId":"SBP17"},"geometry":{"type":"Polygon","coordinates":[[[78.3756,12.3049],[78.3746,12.3046],[78.3745,12.305],[78.3746,12.3052],[78.3746,12.3058],[78.3747,12.3059],[78.3748,12.3063],[78.3752,12.3059],[78.3757,12.3051],[78.3756,12.3049]]]}},{"type":"Feature","properties":{"kind":"water-body","areaHa":0.51,"sourceDepartment":"AED","panchayatOrTown":"Kudimenahalli","shedId":"SBP17"},"geometry":{"type":"Polygon","coordinates":[[[78.2719,12.3167],[78.2716,12.3167],[78.2712,12.317],[78.2715,12.3176],[78.2718,12.3173],[78.272,12.3169],[78.2719,12.3167]]]}},{"type":"Feature","properties":{"kind":"water-body","areaHa":0.95,"sourceDepartment":"AED","panchayatOrTown":"Kudimenahalli","shedId":"SBP17"},"geometry":{"type":"Polygon","coordinates":[[[78.2659,12.3252],[78.2655,12.3254],[78.2653,12.3258],[78.2653,12.3263],[78.2656,12.3265],[78.2657,12.3265],[78.266,12.3262],[78.2661,12.326],[78.2661,12.3254],[78.2659,12.3252]]]}},{"type":"Feature","properties":{"kind":"water-body","areaHa":1.89,"sourceDepartment":"AED","panchayatOrTown":"Kudimenahalli","shedId":"SBP17"},"geometry":{"type":"Polygon","coordinates":[[[78.268,12.3313],[78.2677,12.3312],[78.2669,12.3314],[78.2663,12.3317],[78.2663,12.3318],[78.2664,12.332],[78.2669,12.3323],[78.2675,12.3325],[78.2678,12.3325],[78.268,12.3323],[78.268,12.3313]]]}},{"type":"Feature","properties":{"kind":"water-body","areaHa":4.24,"sourceDepartment":"AED","panchayatOrTown":"Kudimenahalli","shedId":"SBP17"},"geometry":{"type":"Polygon","coordinates":[[[78.2746,12.3328],[78.2737,12.3327],[78.2732,12.3333],[78.2731,12.3336],[78.2731,12.3351],[78.2737,12.335],[78.2747,12.3344],[78.275,12.3343],[78.275,12.3334],[78.2749,12.3332],[78.2746,12.3328]]]}},{"type":"Feature","properties":{"kind":"water-body","areaHa":4.58,"sourceDepartment":"AED","panchayatOrTown":"Vilangamudi","shedId":"SBP17"},"geometry":{"type":"Polygon","coordinates":[[[78.2994,12.3402],[78.2989,12.3399],[78.2988,12.34],[78.2987,12.3405],[78.2987,12.3411],[78.2983,12.3422],[78.2982,12.3423],[78.2981,12.3428],[78.2984,12.3427],[78.2995,12.3426],[78.3002,12.3419],[78.3003,12.3413],[78.3002,12.3412],[78.3001,12.3407],[78.2998,12.3405],[78.2996,12.3402],[78.2994,12.3402]]]}},{"type":"Feature","properties":{"kind":"water-body","areaHa":1.21,"sourceDepartment":"AED","panchayatOrTown":"Mottur","shedId":"SBP17"},"geometry":{"type":"Polygon","coordinates":[[[78.2514,12.3481],[78.251,12.3479],[78.2506,12.3481],[78.2502,12.3489],[78.2505,12.3492],[78.2508,12.3492],[78.2513,12.3486],[78.2514,12.3484],[78.2514,12.3481]]]}},{"type":"Feature","properties":{"kind":"water-body","areaHa":0.74,"sourceDepartment":"AED","panchayatOrTown":"Mottur","shedId":"SBP17"},"geometry":{"type":"Polygon","coordinates":[[[78.2561,12.3442],[78.2568,12.3442],[78.2569,12.3441],[78.2569,12.3434],[78.2568,12.3432],[78.256,12.3438],[78.256,12.3441],[78.2561,12.3442]]]}},{"type":"Feature","properties":{"kind":"water-body","areaHa":2.17,"sourceDepartment":"AED","panchayatOrTown":"Nagojanahalli","shedId":"SBP17"},"geometry":{"type":"Polygon","coordinates":[[[78.2975,12.3547],[78.2973,12.3545],[78.297,12.3545],[78.296,12.3547],[78.2955,12.3549],[78.2954,12.3551],[78.2955,12.3553],[78.2959,12.3556],[78.2965,12.3557],[78.2971,12.3555],[78.2974,12.3552],[78.2975,12.355],[78.2975,12.3547]]]}},{"type":"Feature","properties":{"kind":"water-body","areaHa":3.63,"sourceDepartment":"AED","panchayatOrTown":"Nagojanahalli","shedId":"SBP17"},"geometry":{"type":"Polygon","coordinates":[[[78.2928,12.3581],[78.2922,12.358],[78.2916,12.3582],[78.2913,12.3584],[78.2909,12.3589],[78.2905,12.36],[78.2904,12.3605],[78.2905,12.3611],[78.2909,12.3611],[78.2911,12.3607],[78.2911,12.3605],[78.2913,12.3602],[78.2914,12.3598],[78.2922,12.3589],[78.2929,12.3583],[78.2928,12.3581]]]}},{"type":"Feature","properties":{"kind":"water-body","areaHa":2.09,"sourceDepartment":"AED","panchayatOrTown":"Nagojanahalli","shedId":"SBP17"},"geometry":{"type":"Polygon","coordinates":[[[78.2845,12.3594],[78.2841,12.3594],[78.2839,12.3595],[78.2834,12.3603],[78.2834,12.3608],[78.2835,12.361],[78.2838,12.3612],[78.284,12.3612],[78.2843,12.3609],[78.2846,12.3604],[78.2848,12.3597],[78.2847,12.3595],[78.2845,12.3594]]]}},{"type":"Feature","properties":{"kind":"water-body","areaHa":1.09,"sourceDepartment":"AED","panchayatOrTown":"Nagojanahalli","shedId":"SBP17"},"geometry":{"type":"Polygon","coordinates":[[[78.2902,12.3622],[78.29,12.3621],[78.2893,12.3621],[78.2891,12.3623],[78.2892,12.3623],[78.2893,12.3626],[78.29,12.3634],[78.2902,12.3633],[78.2901,12.3633],[78.2901,12.3631],[78.2903,12.3624],[78.2902,12.3622]]]}},{"type":"Feature","properties":{"kind":"water-body","areaHa":1.39,"sourceDepartment":"AED","panchayatOrTown":"Maruderi","shedId":"SBP17"},"geometry":{"type":"Polygon","coordinates":[[[78.2729,12.3651],[78.2725,12.3649],[78.2723,12.3651],[78.2723,12.3659],[78.2724,12.3663],[78.2726,12.3664],[78.273,12.3663],[78.2735,12.3659],[78.2735,12.3658],[78.273,12.3653],[78.2729,12.3651]]]}},{"type":"Feature","properties":{"kind":"water-body","areaHa":1.04,"sourceDepartment":"AED","panchayatOrTown":"Jagadab","shedId":"SBP17"},"geometry":{"type":"Polygon","coordinates":[[[78.1952,12.3678],[78.1951,12.3677],[78.1946,12.3678],[78.1942,12.368],[78.1942,12.3682],[78.1949,12.3686],[78.1953,12.3686],[78.1955,12.3684],[78.1955,12.3679],[78.1954,12.3678],[78.1952,12.3678]]]}},{"type":"Feature","properties":{"kind":"water-body","areaHa":1.27,"sourceDepartment":"AED","panchayatOrTown":"Nagojanahalli","shedId":"SBP17"},"geometry":{"type":"Polygon","coordinates":[[[78.2886,12.3687],[78.2882,12.3686],[78.2882,12.3695],[78.2884,12.3698],[78.2889,12.3698],[78.2893,12.3696],[78.2895,12.3694],[78.2896,12.3692],[78.2895,12.3691],[78.2891,12.3691],[78.2887,12.3689],[78.2886,12.3687]]]}},{"type":"Feature","properties":{"kind":"water-body","areaHa":1.96,"sourceDepartment":"AED","panchayatOrTown":"Nagojanahalli","shedId":"SBP17"},"geometry":{"type":"Polygon","coordinates":[[[78.2895,12.3736],[78.2894,12.3735],[78.2883,12.3735],[78.2881,12.3734],[78.2876,12.3734],[78.2875,12.3735],[78.288,12.3743],[78.2882,12.3745],[78.2886,12.3747],[78.2893,12.3742],[78.2895,12.3736]]]}},{"type":"Feature","properties":{"kind":"water-body","areaHa":0.58,"sourceDepartment":"AED","panchayatOrTown":"Pennaswaramadam - 2","shedId":"SBP17"},"geometry":{"type":"Polygon","coordinates":[[[78.2564,12.3815],[78.2563,12.3815],[78.2561,12.3818],[78.2562,12.3825],[78.2565,12.3825],[78.2568,12.3821],[78.2568,12.3819],[78.2564,12.3815]]]}},{"type":"Feature","properties":{"kind":"water-body","areaHa":0.46,"sourceDepartment":"AED","panchayatOrTown":"Pennaswaramadam - 2","shedId":"SBP17"},"geometry":{"type":"Polygon","coordinates":[[[78.2572,12.3842],[78.2569,12.3842],[78.2568,12.3844],[78.2568,12.385],[78.2569,12.3851],[78.2571,12.3851],[78.2573,12.3847],[78.2573,12.3844],[78.2572,12.3842]]]}},{"type":"Feature","properties":{"kind":"water-body","areaHa":2.9,"sourceDepartment":"AED","panchayatOrTown":"Nagojanahalli","shedId":"SBP17"},"geometry":{"type":"Polygon","coordinates":[[[78.2861,12.3811],[78.2858,12.3811],[78.2854,12.3815],[78.2853,12.3819],[78.2848,12.3827],[78.2848,12.3831],[78.2853,12.3831],[78.286,12.3833],[78.2862,12.3832],[78.2862,12.3829],[78.2864,12.3824],[78.2864,12.3815],[78.2861,12.3811]]]}},{"type":"Feature","properties":{"kind":"water-body","areaHa":1.76,"sourceDepartment":"AED","panchayatOrTown":"Pennaswaramadam - 2","shedId":"SBP17"},"geometry":{"type":"Polygon","coordinates":[[[78.2554,12.3841],[78.2551,12.3841],[78.2549,12.3845],[78.2546,12.3848],[78.2542,12.3854],[78.2543,12.3858],[78.2547,12.3861],[78.2552,12.3859],[78.2554,12.3847],[78.2554,12.3841]]]}},{"type":"Feature","properties":{"kind":"water-body","areaHa":1.29,"sourceDepartment":"AED","panchayatOrTown":"Bannihalli","shedId":"SBP17"},"geometry":{"type":"Polygon","coordinates":[[[78.1836,12.3902],[78.1833,12.3902],[78.1831,12.3908],[78.1831,12.3915],[78.1834,12.3916],[78.1837,12.3916],[78.1839,12.3915],[78.1841,12.391],[78.184,12.3909],[78.1839,12.3905],[78.1836,12.3902]]]}},{"type":"Feature","properties":{"kind":"water-body","areaHa":0.36,"sourceDepartment":"AED","panchayatOrTown":"Errahalli - 2","shedId":"SBP17"},"geometry":{"type":"Polygon","coordinates":[[[78.2058,12.4137],[78.2055,12.4137],[78.2053,12.4139],[78.2053,12.4141],[78.2055,12.4143],[78.2058,12.4143],[78.2059,12.4142],[78.2059,12.4139],[78.2058,12.4137]]]}},{"type":"Feature","properties":{"kind":"water-body","areaHa":0.54,"sourceDepartment":"AED","panchayatOrTown":"Mittahalli - 2","shedId":"SBP17"},"geometry":{"type":"Polygon","coordinates":[[[78.1841,12.402],[78.1838,12.402],[78.1836,12.4024],[78.1837,12.4024],[78.1838,12.4027],[78.1842,12.4028],[78.1842,12.4027],[78.1843,12.4027],[78.1844,12.4025],[78.1844,12.4023],[78.1841,12.402]]]}},{"type":"Feature","properties":{"kind":"water-body","areaHa":0.89,"sourceDepartment":"AED","panchayatOrTown":"Kothigutlapalli","shedId":"SBP17"},"geometry":{"type":"Polygon","coordinates":[[[78.2488,12.6031],[78.2486,12.6032],[78.2484,12.6038],[78.2484,12.6049],[78.2488,12.6054],[78.2488,12.6031]]]}},{"type":"Feature","properties":{"kind":"water-body","areaHa":0.41,"sourceDepartment":"AED","panchayatOrTown":"Kothigutlapalli","shedId":"SBP17"},"geometry":{"type":"Polygon","coordinates":[[[78.2437,12.6065],[78.2434,12.6065],[78.2433,12.6066],[78.2433,12.6068],[78.2436,12.6072],[78.2439,12.6072],[78.2439,12.6067],[78.2437,12.6065]]]}},{"type":"Feature","properties":{"kind":"water-body","areaHa":1.52,"sourceDepartment":"AED","panchayatOrTown":"Periyamuthur","shedId":"SBP17"},"geometry":{"type":"Polygon","coordinates":[[[78.2017,12.459],[78.2007,12.4591],[78.2006,12.4593],[78.2011,12.4598],[78.2013,12.4599],[78.202,12.4599],[78.2025,12.4597],[78.2025,12.4595],[78.2024,12.4594],[78.2017,12.459]]]}},{"type":"Feature","properties":{"kind":"water-body","areaHa":1.57,"sourceDepartment":"AED","panchayatOrTown":"Agasipalli","shedId":"SBP17"},"geometry":{"type":"Polygon","coordinates":[[[78.2478,12.4808],[78.2472,12.4805],[78.247,12.4806],[78.247,12.4808],[78.2469,12.4809],[78.2472,12.482],[78.2474,12.4822],[78.2477,12.4822],[78.248,12.4817],[78.248,12.4815],[78.2478,12.4808]]]}},{"type":"Feature","properties":{"kind":"water-body","areaHa":0.41,"sourceDepartment":"AED","panchayatOrTown":"Agasipalli","shedId":"SBP17"},"geometry":{"type":"Polygon","coordinates":[[[78.235,12.5087],[78.2347,12.5085],[78.2345,12.5086],[78.2345,12.509],[78.2347,12.5093],[78.2349,12.5093],[78.235,12.5092],[78.2351,12.5089],[78.235,12.5087]]]}},{"type":"Feature","properties":{"kind":"water-body","areaHa":3.23,"sourceDepartment":"AED","panchayatOrTown":"Krishnagiri","shedId":"SBP17"},"geometry":{"type":"Polygon","coordinates":[[[78.2349,12.5175],[78.2336,12.5175],[78.2331,12.5177],[78.2331,12.5179],[78.233,12.518],[78.2331,12.5186],[78.2338,12.5192],[78.2341,12.5192],[78.2343,12.5191],[78.2346,12.5187],[78.2347,12.5184],[78.2353,12.5179],[78.2353,12.5177],[78.2349,12.5175]]]}},{"type":"Feature","properties":{"kind":"water-body","areaHa":1.54,"sourceDepartment":"AED","panchayatOrTown":"Boganapalli","shedId":"SBP17"},"geometry":{"type":"Polygon","coordinates":[[[78.2425,12.5214],[78.2419,12.5215],[78.2416,12.5219],[78.2416,12.5222],[78.2421,12.5226],[78.2426,12.5226],[78.2429,12.5224],[78.243,12.5222],[78.2429,12.5218],[78.2425,12.5214]]]}},{"type":"Feature","properties":{"kind":"water-body","areaHa":4.01,"sourceDepartment":"AED","panchayatOrTown":"Kothapeta","shedId":"SBP17"},"geometry":{"type":"Polygon","coordinates":[[[78.2204,12.5443],[78.2199,12.5443],[78.2197,12.5444],[78.2197,12.5447],[78.2201,12.546],[78.2203,12.5463],[78.2206,12.5464],[78.2208,12.5463],[78.2208,12.5462],[78.2211,12.5461],[78.2216,12.5456],[78.222,12.545],[78.222,12.5446],[78.2215,12.5444],[78.2208,12.5444],[78.2204,12.5443]]]}},{"type":"Feature","properties":{"kind":"water-body","areaHa":0.49,"sourceDepartment":"AED","panchayatOrTown":"Kallugurikki","shedId":"SBP17"},"geometry":{"type":"Polygon","coordinates":[[[78.2084,12.5559],[78.2077,12.5559],[78.2076,12.556],[78.2077,12.5563],[78.208,12.5567],[78.2081,12.5567],[78.2084,12.5561],[78.2084,12.5559]]]}},{"type":"Feature","properties":{"kind":"water-body","areaHa":0.17,"sourceDepartment":"AED","panchayatOrTown":"Kallugurikki","shedId":"SBP17"},"geometry":{"type":"Polygon","coordinates":[[[78.2088,12.5586],[78.2085,12.5586],[78.2085,12.5587],[78.2084,12.5587],[78.2084,12.5589],[78.2085,12.5589],[78.2085,12.559],[78.2088,12.559],[78.2088,12.5586]]]}},{"type":"Feature","properties":{"kind":"water-body","areaHa":0.32,"sourceDepartment":"AED","panchayatOrTown":"Peddanapalli","shedId":"SBP17"},"geometry":{"type":"Polygon","coordinates":[[[78.2244,12.5828],[78.2244,12.5827],[78.2243,12.5828],[78.2241,12.5828],[78.2239,12.583],[78.2238,12.583],[78.2238,12.5831],[78.2239,12.5831],[78.2242,12.5834],[78.2243,12.5834],[78.2244,12.5833],[78.2245,12.5829],[78.2245,12.5828],[78.2244,12.5828]]]}},{"type":"Feature","properties":{"kind":"water-body","areaHa":0.73,"sourceDepartment":"AED","panchayatOrTown":"Peddanapalli","shedId":"SBP17"},"geometry":{"type":"Polygon","coordinates":[[[78.2257,12.5851],[78.2253,12.5851],[78.2251,12.5852],[78.2249,12.5854],[78.2249,12.5857],[78.2252,12.5859],[78.2257,12.5858],[78.2258,12.5857],[78.2258,12.5852],[78.2257,12.5851]]]}},{"type":"Feature","properties":{"kind":"water-body","areaHa":4.6,"sourceDepartment":"AED","panchayatOrTown":"Peddanapalli","shedId":"SBP17"},"geometry":{"type":"Polygon","coordinates":[[[78.2376,12.5901],[78.2366,12.5901],[78.2361,12.5902],[78.2357,12.5904],[78.2357,12.5908],[78.2359,12.5911],[78.2361,12.592],[78.2363,12.5924],[78.2366,12.5926],[78.2369,12.5926],[78.2371,12.5917],[78.2381,12.5909],[78.2382,12.5903],[78.2381,12.5902],[78.2376,12.5901]]]}},{"type":"Feature","properties":{"kind":"water-body","areaHa":0.29,"sourceDepartment":"AED","panchayatOrTown":"Hill","shedId":"SBP17"},"geometry":{"type":"Polygon","coordinates":[[[78.2077,12.5966],[78.2074,12.5966],[78.2074,12.5969],[78.2075,12.5971],[78.2076,12.5971],[78.2076,12.5972],[78.2078,12.5972],[78.2078,12.5971],[78.2079,12.5971],[78.2079,12.5968],[78.2077,12.5966]]]}},{"type":"Feature","properties":{"kind":"water-body","areaHa":0.16,"sourceDepartment":"AED","panchayatOrTown":"Naralapalli  R.F.","shedId":"SBP17"},"geometry":{"type":"Polygon","coordinates":[[[78.2286,12.6282],[78.2284,12.6282],[78.2282,12.6284],[78.2282,12.6286],[78.2285,12.6286],[78.2285,12.6285],[78.2287,12.6283],[78.2286,12.6282]]]}},{"type":"Feature","properties":{"kind":"water-body","areaHa":0.21,"sourceDepartment":"AED","panchayatOrTown":"Naralapalli  R.F.","shedId":"SBP17"},"geometry":{"type":"Polygon","coordinates":[[[78.2206,12.6291],[78.2202,12.6292],[78.2202,12.6295],[78.2204,12.6295],[78.2208,12.6293],[78.2208,12.6292],[78.2206,12.6291]]]}},{"type":"Feature","properties":{"kind":"water-body","areaHa":4.11,"sourceDepartment":"AED","panchayatOrTown":"Naralapalli  R.F.","shedId":"SBP17"},"geometry":{"type":"Polygon","coordinates":[[[78.2232,12.6456],[78.2228,12.6454],[78.2225,12.6454],[78.2222,12.6455],[78.2219,12.6458],[78.2217,12.6469],[78.2217,12.6477],[78.2219,12.6479],[78.2223,12.6479],[78.2229,12.6476],[78.2234,12.6471],[78.2234,12.6462],[78.2232,12.6456]]]}},{"type":"Feature","properties":{"kind":"water-body","areaHa":0.4,"sourceDepartment":"AED","panchayatOrTown":"Maharajagadi R.F","shedId":"SBP17"},"geometry":{"type":"Polygon","coordinates":[[[78.2651,12.6482],[78.2649,12.648],[78.2647,12.6481],[78.2645,12.6483],[78.2644,12.6486],[78.2646,12.6487],[78.2649,12.6487],[78.2651,12.6484],[78.2651,12.6482]]]}},{"type":"Feature","properties":{"kind":"water-body","areaHa":0.25,"sourceDepartment":"AED","panchayatOrTown":"Maharajagadi R.F","shedId":"SBP17"},"geometry":{"type":"Polygon","coordinates":[[[78.2471,12.6526],[78.2468,12.6527],[78.2467,12.6529],[78.2467,12.6532],[78.2468,12.6532],[78.2468,12.6533],[78.247,12.6533],[78.247,12.6531],[78.2471,12.653],[78.2471,12.6526]]]}},{"type":"Feature","properties":{"kind":"water-body","areaHa":0.35,"sourceDepartment":"AED","panchayatOrTown":"Maharajagadi R.F","shedId":"SBP17"},"geometry":{"type":"Polygon","coordinates":[[[78.2468,12.6552],[78.2464,12.6551],[78.2463,12.6552],[78.2463,12.6556],[78.2464,12.6557],[78.2467,12.6557],[78.2469,12.6555],[78.2468,12.6552]]]}},{"type":"Feature","properties":{"kind":"water-body","areaHa":0.16,"sourceDepartment":"AED","panchayatOrTown":"Naralapalli","shedId":"SBP17"},"geometry":{"type":"Polygon","coordinates":[[[78.2449,12.6618],[78.2448,12.6617],[78.2446,12.6617],[78.2446,12.6621],[78.2449,12.6622],[78.2449,12.6618]]]}},{"type":"Feature","properties":{"kind":"water-body","areaHa":4.73,"sourceDepartment":"AED","panchayatOrTown":"Naralapalli","shedId":"SBP17"},"geometry":{"type":"Polygon","coordinates":[[[78.2459,12.6895],[78.2464,12.6888],[78.2464,12.6885],[78.2462,12.6881],[78.2462,12.6877],[78.2459,12.6875],[78.244,12.6884],[78.2437,12.6889],[78.2438,12.6892],[78.2444,12.6892],[78.245,12.6894],[78.2454,12.6902],[78.2456,12.6903],[78.2458,12.6901],[78.2459,12.6895]]]}}]}