{"nvdm":"1.0","dataset":"basins/boundary","scope":{"kind":"basin","id":"kabini"},"provenance":{"sources":[{"id":"kwris-basin-geoserver","title":"Karnataka WRD basin decomposition, sub-basin C2 (KWRIS GeoServer, via the cauvery-ka atlas ingest)","publisher":"ACIWRM / Karnataka Water Resources Department","url":"https://kwris.karnataka.gov.in/","license":"public Karnataka government data; open WFS, no explicit licence stated - cited with attribution","role":"input","as_of":"2026-07"}],"method":"derived","produced_at":"2026-08-23","produced_by":"scripts/build_kabini_sources.py + scripts/ingest_basin.py (scripts/basin-sources/kabini-ingest.json)"},"type":"FeatureCollection","features":[{"type":"Feature","geometry":{"type":"MultiPolygon","coordinates":[[[[75.96788,11.94501],[75.9691,11.94455],[75.97011,11.94411],[75.97066,11.94383],[75.97121,11.94347],[75.97176,11.94299],[75.97228,11.94267],[75.97289,11.94231],[75.9734,11.94208],[75.97378,11.94183],[75.97378,11.94154],[75.97365,11.94109],[75.97346,11.94048],[75.97365,11.94008],[75.97397,11.93977],[75.97456,11.93945],[75.97549,11.93888],[75.97624,11.9384],[75.97698,11.93793],[75.97755,11.93757],[75.97841,11.93747],[75.97924,11.93751],[75.9797,11.93755],[75.98029,11.93724],[75.98092,11.93684],[75.98138,11.93654],[75.98183,11.93578],[75.98191,11.93494],[75.98207,11.93405],[75.98166,11.93432],[75.98043,11.9348],[75.9794,11.9351],[75.97902,11.93509],[75.97797,11.9347],[75.9765,11.93425],[75.97624,11.93416],[75.97596,11.93431],[75.97462,11.93504],[75.97411,11.93532],[75.97258,11.93605],[75.9719,11.93614],[75.97114,11.93637],[75.97078,11.93687],[75.97012,11.93712],[75.96846,11.93738],[75.96729,11.93768],[75.96439,11.93883],[75.96106,11.94001],[75.958,11.94143],[75.95802,11.94143],[75.95839,11.94146],[75.95879,11.94154],[75.95936,11.94164],[75.9599,11.94184],[75.96034,11.94196],[75.96077,11.94225],[75.96111,11.9425],[75.96151,11.94279],[75.96199,11.94324],[75.96201,11.94363],[75.96215,11.94398],[75.96239,11.94413],[75.96274,11.94425],[75.9631,11.9444],[75.96348,11.94459],[75.96388,11.94474],[75.96422,11.94481],[75.96454,11.94482],[75.9649,11.94479],[75.96516,11.94474],[75.96583,11.94465],[75.96649,11.94499],[75.96716,11.94522],[75.96788,11.94501]]],[[[76.51946,12.35233],[76.51972,12.35221],[76.51999,12.35223],[76.5204,12.3523],[76.5208,12.35246],[76.52132,12.35275],[76.52178,12.35308],[76.52261,12.35391],[76.52305,12.35429],[76.52399,12.35477],[76.52475,12.35509],[76.52629,12.35522],[76.52684,12.35523],[76.52723,12.35511],[76.52876,12.35418],[76.52994,12.3534],[76.53156,12.35177],[76.5325,12.35052],[76.53372,12.3488],[76.53436,12.34752],[76.53513,12.34633],[76.53558,12.34573],[76.53652,12.34493],[76.53828,12.34392],[76.53877,12.34358],[76.53904,12.34352],[76.53919,12.34348],[76.53987,12.34344],[76.54057,12.34357],[76.54095,12.34372],[76.54136,12.34398],[76.54242,12.34447],[76.54527,12.34531],[76.54602,12.34562],[76.54946,12.3473],[76.55285,12.34915],[76.5544,12.35012],[76.55552,12.35036],[76.55609,12.35043],[76.5567,12.35049],[76.55742,12.35044],[76.55821,12.35018],[76.5587,12.34995],[76.55958,12.34937],[76.56003,12.34916],[76.56075,12.34898],[76.56137,12.34898],[76.56246,12.34902],[76.56325,12.34909],[76.5636,12.34908],[76.56436,12.34895],[76.56515,12.34877],[76.56594,12.34861],[76.56719,12.3486],[76.56824,12.34856],[76.56958,12.34815],[76.57047,12.34785],[76.571,12.34745],[76.57144,12.34713],[76.5722,12.3465],[76.57269,12.34586],[76.5731,12.34522],[76.57325,12.34486],[76.57331,12.34447],[76.57332,12.344],[76.57332,12.34331],[76.57341,12.34273],[76.57362,12.34245],[76.57389,12.34234],[76.57435,12.3423],[76.57472,12.34239],[76.57505,12.34266],[76.57594,12.34373],[76.57662,12.34449],[76.57697,12.34474],[76.57739,12.34481],[76.57829,12.3448],[76.57968,12.34455],[76.58164,12.34406],[76.58376,12.34357],[76.58514,12.34313],[76.58669,12.34236],[76.58752,12.34184],[76.5883,12.34108],[76.58911,12.34013],[76.58951,12.33986],[76.59057,12.33938],[76.59143,12.33916],[76.59276,12.33911],[76.59365,12.3391],[76.59469,12.33922],[76.59624,12.33942],[76.59771,12.33957],[76.60001,12.33948],[76.60119,12.33959],[76.60202,12.33977],[76.60296,12.34012],[76.60354,12.3404],[76.60397,12.3408],[76.60427,12.34119],[76.60482,12.34187],[76.60547,12.34234],[76.60598,12.34259],[76.60653,12.34265],[76.60715,12.34258],[76.60777,12.34244],[76.60876,12.3419],[76.60986,12.3413],[76.61044,12.34113],[76.61134,12.34093],[76.61209,12.34078],[76.61363,12.34052],[76.61454,12.34036],[76.61535,12.34003],[76.61601,12.33947],[76.61646,12.33881],[76.61685,12.33795],[76.61708,12.33728],[76.61734,12.33613],[76.61747,12.33572],[76.61785,12.33535],[76.61827,12.33505],[76.61883,12.33468],[76.61929,12.33442],[76.61955,12.3342],[76.61967,12.33386],[76.61974,12.33338],[76.61978,12.33312],[76.61957,12.33228],[76.61946,12.33147],[76.61908,12.32976],[76.61931,12.32903],[76.61965,12.32852],[76.62001,12.32821],[76.62058,12.3279],[76.621,12.32756],[76.62144,12.32731],[76.62318,12.32677],[76.62567,12.32572],[76.62756,12.32509],[76.62994,12.32472],[76.63083,12.3247],[76.63204,12.32488],[76.63348,12.32529],[76.6345,12.32551],[76.63505,12.32545],[76.63564,12.3254],[76.63644,12.32513],[76.63685,12.32499],[76.63759,12.32456],[76.63834,12.32385],[76.6405,12.32248],[76.64236,12.32069],[76.64404,12.31872],[76.64546,12.31718],[76.64766,12.31625],[76.64862,12.31597],[76.65021,12.31575],[76.65305,12.31548],[76.65635,12.31483],[76.65968,12.31304],[76.66094,12.31246],[76.66104,12.31241],[76.66229,12.31226],[76.66439,12.31224],[76.66726,12.31201],[76.66961,12.31168],[76.67106,12.31162],[76.67178,12.31167],[76.67345,12.3118],[76.67515,12.31199],[76.67763,12.31282],[76.6799,12.31367],[76.68289,12.31456],[76.68379,12.31471],[76.68466,12.31467],[76.68525,12.31458],[76.68654,12.31402],[76.68729,12.31342],[76.68763,12.31298],[76.6885,12.31138],[76.68912,12.30946],[76.6898,12.30664],[76.69006,12.30601],[76.69104,12.3046],[76.6917,12.30309],[76.69253,12.30023],[76.69302,12.29938],[76.69344,12.29893],[76.69386,12.29859],[76.69423,12.29841],[76.69543,12.29823],[76.69578,12.29818],[76.69705,12.2982],[76.69819,12.29839],[76.70012,12.29913],[76.70178,12.30009],[76.70354,12.30119],[76.70432,12.30168],[76.70538,12.30213],[76.70621,12.30235],[76.70768,12.30235],[76.70815,12.30234],[76.70953,12.30241],[76.71165,12.30235],[76.71331,12.30243],[76.71484,12.30282],[76.71686,12.30369],[76.71803,12.30413],[76.7186,12.30434],[76.71983,12.30453],[76.72123,12.30464],[76.72443,12.30511],[76.72541,12.30537],[76.72615,12.30584],[76.72847,12.30741],[76.72962,12.3082],[76.73013,12.3084],[76.73048,12.30846],[76.73061,12.30848],[76.73108,12.30848],[76.73157,12.30838],[76.73269,12.30766],[76.73513,12.3053],[76.73671,12.30285],[76.73765,12.30136],[76.73829,12.30072],[76.73895,12.30041],[76.73948,12.30036],[76.74025,12.3003],[76.74064,12.30028],[76.7415,12.30022],[76.74207,12.30015],[76.74266,12.29994],[76.74374,12.29963],[76.74483,12.29954],[76.74606,12.29965],[76.7473,12.29995],[76.74868,12.30032],[76.74933,12.30046],[76.75147,12.30089],[76.75339,12.30072],[76.75484,12.3005],[76.75596,12.30065],[76.75717,12.30083],[76.75791,12.30111],[76.75827,12.30164],[76.75852,12.30207],[76.75889,12.30273],[76.75923,12.30395],[76.75936,12.30473],[76.75936,12.30474],[76.75953,12.30501],[76.75961,12.30522],[76.75961,12.30553],[76.75946,12.3061],[76.75941,12.30653],[76.75939,12.30677],[76.75944,12.30694],[76.75948,12.30703],[76.76214,12.30599],[76.76274,12.30589],[76.7636,12.30579],[76.76442,12.30559],[76.76564,12.30514],[76.76686,12.30474],[76.76828,12.30405],[76.76883,12.30353],[76.76913,12.303],[76.76933,12.30257],[76.76945,12.30176],[76.76945,12.30131],[76.76947,12.30085],[76.76956,12.30039],[76.7698,12.29988],[76.7702,12.29939],[76.77064,12.29902],[76.77112,12.2988],[76.77188,12.29862],[76.77268,12.29846],[76.77401,12.29817],[76.77465,12.29788],[76.77515,12.29758],[76.77591,12.29682],[76.77708,12.2957],[76.7776,12.29494],[76.77769,12.2943],[76.77778,12.29344],[76.7781,12.29273],[76.77857,12.29219],[76.77912,12.29196],[76.77969,12.29175],[76.78044,12.29158],[76.78187,12.29157],[76.78384,12.29158],[76.78608,12.29154],[76.78694,12.29167],[76.78745,12.29189],[76.78785,12.2927],[76.78786,12.29358],[76.78747,12.29457],[76.78727,12.2954],[76.78728,12.29619],[76.78753,12.29677],[76.78823,12.29726],[76.78903,12.2973],[76.79053,12.29705],[76.79157,12.29665],[76.79222,12.29625],[76.79456,12.29545],[76.79596,12.29523],[76.7969,12.29491],[76.79776,12.29434],[76.79945,12.29295],[76.80051,12.29205],[76.80208,12.29072],[76.80271,12.28968],[76.80421,12.28691],[76.80543,12.28387],[76.80613,12.28265],[76.80658,12.28196],[76.80733,12.2811],[76.80756,12.28094],[76.80796,12.28065],[76.80872,12.28027],[76.80918,12.28002],[76.80963,12.27977],[76.81027,12.27942],[76.81071,12.27903],[76.81106,12.27853],[76.81136,12.27787],[76.81159,12.2772],[76.8118,12.27644],[76.81228,12.2753],[76.81265,12.27482],[76.81311,12.27437],[76.81369,12.27392],[76.8151,12.27208],[76.8158,12.2713],[76.81689,12.27018],[76.81748,12.26942],[76.81775,12.26878],[76.81798,12.26801],[76.81833,12.26744],[76.81863,12.26711],[76.81897,12.26702],[76.81942,12.26694],[76.82,12.26693],[76.82071,12.26712],[76.82315,12.26792],[76.82408,12.26841],[76.8256,12.26964],[76.82652,12.27062],[76.82741,12.27189],[76.82777,12.27225],[76.82828,12.27257],[76.82895,12.27315],[76.83035,12.2744],[76.83056,12.27454],[76.83088,12.27466],[76.83116,12.2747],[76.83147,12.27471],[76.83179,12.27462],[76.83247,12.27423],[76.83357,12.27311],[76.83433,12.27195],[76.8355,12.27026],[76.8358,12.26997],[76.83604,12.26982],[76.83636,12.26978],[76.83673,12.26992],[76.83712,12.27018],[76.83837,12.27146],[76.83872,12.27163],[76.83897,12.27166],[76.83933,12.2715],[76.83937,12.27144],[76.83957,12.27119],[76.83969,12.27063],[76.83969,12.27003],[76.83937,12.26882],[76.83925,12.26856],[76.83915,12.26793],[76.83915,12.26719],[76.83938,12.26618],[76.83962,12.2656],[76.84057,12.26359],[76.84134,12.2624],[76.84252,12.26132],[76.84366,12.26027],[76.84478,12.2591],[76.84548,12.25865],[76.84624,12.25833],[76.8469,12.25813],[76.84778,12.25799],[76.84857,12.25798],[76.84941,12.2582],[76.85011,12.25857],[76.8514,12.2595],[76.85185,12.25983],[76.85275,12.26035],[76.85333,12.26064],[76.85508,12.26139],[76.85715,12.26218],[76.85867,12.26263],[76.85973,12.26288],[76.85995,12.26291],[76.86024,12.26289],[76.86065,12.2628],[76.86143,12.26246],[76.8616,12.26236],[76.86264,12.26177],[76.86444,12.26076],[76.86609,12.25977],[76.86838,12.25726],[76.8704,12.25576],[76.87131,12.2551],[76.87195,12.25483],[76.87246,12.2546],[76.87303,12.25435],[76.8736,12.25401],[76.8751,12.25286],[76.87629,12.25226],[76.87801,12.25145],[76.8783,12.25112],[76.87908,12.25039],[76.88017,12.2497],[76.88184,12.24885],[76.88315,12.24782],[76.88432,12.24645],[76.88584,12.24449],[76.88739,12.24331],[76.8902,12.24215],[76.89244,12.24124],[76.89564,12.23975],[76.89675,12.23917],[76.89767,12.23808],[76.89895,12.23638],[76.90185,12.23198],[76.90247,12.23104],[76.90516,12.22709],[76.9065,12.22474],[76.90731,12.22274],[76.90784,12.2215],[76.90809,12.22062],[76.90908,12.21906],[76.90937,12.21814],[76.90928,12.21759],[76.9089,12.21753],[76.89926,12.21634],[76.89839,12.21593],[76.89772,12.2154],[76.89655,12.21413],[76.89498,12.21187],[76.89415,12.21052],[76.89346,12.20891],[76.89294,12.20734],[76.89211,12.20583],[76.89027,12.20371],[76.89011,12.20353],[76.88899,12.20265],[76.88821,12.20192],[76.88559,12.20027],[76.88435,12.19954],[76.88175,12.197],[76.88015,12.19504],[76.87807,12.19284],[76.87632,12.19102],[76.87436,12.18853],[76.87256,12.18721],[76.87068,12.18656],[76.86914,12.18632],[76.86863,12.18585],[76.86817,12.18513],[76.86796,12.18298],[76.86754,12.18056],[76.86687,12.1784],[76.86589,12.17464],[76.86577,12.17399],[76.86568,12.17325],[76.86574,12.17265],[76.86575,12.17242],[76.86578,12.17161],[76.86584,12.17106],[76.86588,12.17044],[76.86585,12.16998],[76.86577,12.16935],[76.86569,12.16843],[76.86555,12.16813],[76.86535,12.16778],[76.86514,12.16747],[76.86482,12.16695],[76.86466,12.16649],[76.86445,12.16568],[76.86414,12.16464],[76.86386,12.16324],[76.8638,12.16269],[76.8638,12.16175],[76.86385,12.1614],[76.86393,12.16083],[76.86392,12.16068],[76.86398,12.15964],[76.86401,12.1591],[76.86414,12.15841],[76.86428,12.15778],[76.8643,12.15724],[76.86431,12.15681],[76.8644,12.15561],[76.86443,12.15492],[76.86448,12.15339],[76.86457,12.15295],[76.86473,12.15202],[76.86503,12.15139],[76.86519,12.15099],[76.86578,12.14983],[76.86616,12.14911],[76.86703,12.1477],[76.86769,12.14702],[76.86864,12.14558],[76.86918,12.14481],[76.86964,12.14419],[76.87013,12.14375],[76.87068,12.14338],[76.87122,12.14311],[76.87126,12.14281],[76.87134,12.14249],[76.87149,12.14228],[76.87186,12.14205],[76.87234,12.14185],[76.87292,12.14164],[76.87336,12.14148],[76.87365,12.14138],[76.87386,12.14132],[76.87411,12.14117],[76.87438,12.14089],[76.87452,12.14054],[76.87477,12.13988],[76.87506,12.13925],[76.87559,12.13797],[76.87601,12.13733],[76.87657,12.13627],[76.877,12.13567],[76.8775,12.13508],[76.87802,12.13451],[76.87901,12.1334],[76.87909,12.13331],[76.87905,12.13303],[76.87892,12.13266],[76.87862,12.13213],[76.87852,12.13175],[76.87814,12.13083],[76.87762,12.12996],[76.87685,12.12819],[76.87646,12.12757],[76.87582,12.12645],[76.87511,12.12583],[76.87409,12.12484],[76.87224,12.1236],[76.87051,12.12249],[76.86981,12.12187],[76.86931,12.12132],[76.86915,12.12115],[76.86886,12.12069],[76.86756,12.1199],[76.86619,12.11951],[76.86591,12.11943],[76.86456,12.11916],[76.86256,12.119],[76.86047,12.11883],[76.85805,12.11843],[76.85512,12.11777],[76.85418,12.11724],[76.85346,12.11531],[76.85326,12.11349],[76.85358,12.1107],[76.85565,12.10486],[76.85499,12.10256],[76.85377,12.09932],[76.85268,12.09782],[76.85229,12.09724],[76.85128,12.09522],[76.85111,12.09485],[76.85093,12.0942],[76.85061,12.09257],[76.85061,12.0918],[76.85049,12.08993],[76.85048,12.08971],[76.85045,12.08916],[76.85063,12.08733],[76.85096,12.08607],[76.85107,12.08541],[76.85114,12.08475],[76.85106,12.08331],[76.85103,12.08211],[76.85115,12.08126],[76.85118,12.08056],[76.85127,12.08007],[76.85152,12.07951],[76.85218,12.07866],[76.85259,12.07829],[76.85291,12.07807],[76.85323,12.07792],[76.85375,12.07785],[76.85431,12.07776],[76.85532,12.07736],[76.85628,12.07662],[76.85663,12.07638],[76.8568,12.0762],[76.85701,12.07587],[76.85738,12.07495],[76.8576,12.07445],[76.85764,12.07425],[76.85775,12.07373],[76.85772,12.07332],[76.85755,12.07285],[76.85739,12.07247],[76.85725,12.07204],[76.85717,12.07159],[76.85717,12.07113],[76.85718,12.07061],[76.85727,12.07001],[76.85743,12.06947],[76.85756,12.06901],[76.85759,12.06852],[76.85753,12.06814],[76.8573,12.06776],[76.85636,12.06652],[76.85435,12.06449],[76.85404,12.06396],[76.85275,12.06209],[76.8524,12.06136],[76.85164,12.05973],[76.85131,12.05889],[76.85086,12.05711],[76.85072,12.05674],[76.85071,12.0561],[76.85079,12.05447],[76.85077,12.05417],[76.85072,12.05358],[76.85063,12.05294],[76.8504,12.05177],[76.85021,12.05113],[76.85,12.05082],[76.84973,12.0505],[76.84935,12.05005],[76.84909,12.04976],[76.84891,12.04966],[76.84861,12.04967],[76.84822,12.04986],[76.84804,12.05006],[76.84759,12.05032],[76.84619,12.05087],[76.8446,12.05124],[76.84281,12.05144],[76.84222,12.0514],[76.84184,12.05126],[76.84159,12.05107],[76.84134,12.05073],[76.84118,12.05022],[76.84111,12.04994],[76.84102,12.04958],[76.84098,12.049],[76.84112,12.04856],[76.84127,12.04834],[76.8414,12.04781],[76.84145,12.04716],[76.84143,12.04652],[76.84143,12.04594],[76.84151,12.04529],[76.84164,12.04489],[76.84198,12.04415],[76.84322,12.04255],[76.84385,12.04162],[76.8446,12.03897],[76.84462,12.03824],[76.84458,12.03769],[76.84449,12.03738],[76.84444,12.03726],[76.84402,12.03618],[76.8432,12.0349],[76.84303,12.03458],[76.84295,12.03432],[76.84298,12.03388],[76.84409,12.03319],[76.84463,12.03297],[76.84525,12.03238],[76.84561,12.0318],[76.84602,12.03086],[76.84618,12.03022],[76.84663,12.02984],[76.84751,12.02957],[76.84902,12.02801],[76.84948,12.02771],[76.85033,12.02719],[76.85064,12.0269],[76.85075,12.02641],[76.85083,12.02605],[76.85101,12.0238],[76.85149,12.02143],[76.85188,12.02058],[76.85237,12.02005],[76.85322,12.01955],[76.85388,12.01928],[76.85465,12.0193],[76.8553,12.0195],[76.8558,12.01959],[76.85616,12.01954],[76.85659,12.0193],[76.85674,12.01902],[76.85669,12.01837],[76.85622,12.0173],[76.85567,12.01577],[76.85542,12.01528],[76.85516,12.01406],[76.85512,12.01318],[76.85506,12.01204],[76.85512,12.01075],[76.85544,12.0093],[76.85555,12.00902],[76.85626,12.00697],[76.85652,12.0064],[76.85678,12.00584],[76.85748,12.00396],[76.85774,12.00344],[76.85807,12.00275],[76.85818,12.0019],[76.85822,12.00148],[76.85827,12.0011],[76.85843,12.00052],[76.85872,11.99991],[76.8589,11.99954],[76.85912,11.99925],[76.85978,11.99842],[76.86138,11.99596],[76.86287,11.99336],[76.86494,11.99092],[76.86744,11.98848],[76.86869,11.98731],[76.87,11.98607],[76.87265,11.98373],[76.87509,11.98123],[76.87635,11.97993],[76.87733,11.97893],[76.8777,11.97851],[76.87889,11.97762],[76.88058,11.97652],[76.88109,11.97606],[76.88135,11.97566],[76.88144,11.9753],[76.88145,11.97495],[76.88145,11.97465],[76.88129,11.97424],[76.88101,11.97384],[76.88072,11.97362],[76.88007,11.97322],[76.87782,11.97182],[76.87669,11.97099],[76.87605,11.97059],[76.87556,11.97],[76.87538,11.96961],[76.8753,11.96908],[76.8752,11.9683],[76.87506,11.96748],[76.87489,11.96667],[76.87447,11.96577],[76.87401,11.96483],[76.87344,11.96415],[76.87329,11.96381],[76.87325,11.96347],[76.87318,11.96315],[76.87319,11.96236],[76.87322,11.96137],[76.87328,11.96082],[76.87322,11.96048],[76.87317,11.96035],[76.87305,11.96024],[76.87271,11.96007],[76.87238,11.9599],[76.87201,11.95977],[76.87165,11.95976],[76.8712,11.95976],[76.87056,11.9598],[76.87037,11.95976],[76.86962,11.95972],[76.86863,11.95977],[76.86807,11.95975],[76.86732,11.9596],[76.86413,11.95857],[76.86112,11.9576],[76.86065,11.95746],[76.85964,11.95726],[76.85813,11.95702],[76.85663,11.95675],[76.85608,11.95658],[76.85566,11.95634],[76.85535,11.95609],[76.85479,11.9556],[76.85452,11.9552],[76.85437,11.955],[76.85412,11.95432],[76.85409,11.95397],[76.85405,11.95359],[76.85403,11.95307],[76.85409,11.95236],[76.85415,11.9517],[76.85411,11.95121],[76.85398,11.95065],[76.85391,11.95022],[76.8538,11.94962],[76.85394,11.94889],[76.854,11.9477],[76.85391,11.94695],[76.85382,11.94622],[76.85383,11.94592],[76.85383,11.94557],[76.85387,11.94363],[76.85379,11.94298],[76.85367,11.94265],[76.85361,11.94247],[76.85346,11.94233],[76.85327,11.94223],[76.85277,11.94197],[76.85269,11.94174],[76.85258,11.94164],[76.85242,11.94162],[76.85215,11.94166],[76.85161,11.94137],[76.85095,11.94095],[76.85017,11.9406],[76.84965,11.94032],[76.84927,11.9399],[76.84887,11.93937],[76.84839,11.93845],[76.84799,11.93785],[76.84743,11.93719],[76.84673,11.93648],[76.84516,11.9338],[76.84424,11.9321],[76.84358,11.93095],[76.8434,11.93045],[76.84264,11.9281],[76.84236,11.92748],[76.84207,11.92712],[76.84165,11.92681],[76.84123,11.92652],[76.84044,11.92623],[76.84003,11.9261],[76.83986,11.92605],[76.83915,11.92598],[76.83869,11.92595],[76.83812,11.92595],[76.83668,11.92617],[76.83546,11.92636],[76.83478,11.9266],[76.83354,11.92715],[76.8327,11.9274],[76.83201,11.92751],[76.83132,11.92745],[76.83051,11.92728],[76.83039,11.92726],[76.82965,11.92711],[76.82904,11.92678],[76.82881,11.92657],[76.82855,11.9262],[76.82834,11.92563],[76.82827,11.92534],[76.82826,11.92499],[76.82824,11.92448],[76.82823,11.92369],[76.82812,11.92227],[76.8281,11.92204],[76.82803,11.92137],[76.82769,11.92056],[76.82707,11.91985],[76.82689,11.91964],[76.82632,11.91877],[76.82417,11.91693],[76.82352,11.91631],[76.82294,11.91567],[76.82211,11.91482],[76.82154,11.91445],[76.82102,11.91425],[76.81971,11.91367],[76.81906,11.91331],[76.81869,11.91291],[76.81835,11.9125],[76.81807,11.91201],[76.81787,11.91123],[76.81765,11.91036],[76.81756,11.90993],[76.81754,11.90953],[76.81792,11.90844],[76.8185,11.90692],[76.81877,11.90639],[76.81888,11.90609],[76.81891,11.90568],[76.81881,11.9053],[76.81845,11.90472],[76.81809,11.90425],[76.81785,11.90407],[76.81752,11.90391],[76.81707,11.90375],[76.81655,11.90352],[76.81603,11.90325],[76.81579,11.90302],[76.81547,11.90269],[76.81539,11.90258],[76.8151,11.90219],[76.81479,11.90167],[76.81453,11.90102],[76.81435,11.90058],[76.81419,11.89908],[76.81418,11.89839],[76.81405,11.89747],[76.81381,11.89678],[76.81378,11.89671],[76.81357,11.89636],[76.81327,11.89607],[76.81274,11.89577],[76.81226,11.89557],[76.81176,11.89542],[76.81124,11.89526],[76.81052,11.8951],[76.81,11.8949],[76.80897,11.89435],[76.80853,11.89405],[76.80826,11.89373],[76.80786,11.89329],[76.80667,11.89184],[76.80592,11.8908],[76.80567,11.89046],[76.80532,11.89002],[76.8052,11.88969],[76.80517,11.88935],[76.80517,11.88811],[76.80517,11.88791],[76.80518,11.88738],[76.8052,11.88637],[76.8052,11.88591],[76.80532,11.88534],[76.80612,11.88285],[76.80691,11.88095],[76.80769,11.87936],[76.80798,11.87878],[76.80851,11.87769],[76.8087,11.87703],[76.80879,11.8766],[76.80883,11.87585],[76.80872,11.87492],[76.80842,11.87234],[76.80828,11.87176],[76.80808,11.8707],[76.80797,11.87028],[76.80791,11.86987],[76.80787,11.86966],[76.80786,11.8694],[76.80763,11.86691],[76.80766,11.86647],[76.80775,11.86571],[76.80792,11.86517],[76.80812,11.86473],[76.80844,11.86419],[76.80909,11.86332],[76.80961,11.86275],[76.80999,11.86249],[76.81054,11.8623],[76.81087,11.86214],[76.81124,11.86202],[76.81198,11.86189],[76.81244,11.86186],[76.8134,11.86182],[76.81495,11.86192],[76.8157,11.86187],[76.81628,11.86177],[76.81715,11.8615],[76.81748,11.86131],[76.81758,11.86123],[76.81769,11.86114],[76.81791,11.86061],[76.81808,11.86009],[76.81818,11.85966],[76.81813,11.85893],[76.81804,11.85834],[76.81793,11.85766],[76.81791,11.85716],[76.81803,11.85617],[76.81835,11.85506],[76.81855,11.85465],[76.81883,11.85435],[76.81961,11.85377],[76.82052,11.85309],[76.82142,11.85245],[76.8218,11.85217],[76.82196,11.85192],[76.82203,11.85174],[76.82197,11.85109],[76.82191,11.85035],[76.8217,11.84981],[76.82147,11.84948],[76.82069,11.84836],[76.82032,11.84783],[76.81968,11.8467],[76.8191,11.84584],[76.81881,11.84557],[76.81855,11.84536],[76.81829,11.84522],[76.81777,11.84497],[76.8167,11.84444],[76.81474,11.84333],[76.81413,11.84299],[76.81363,11.84259],[76.81341,11.84229],[76.81209,11.84017],[76.81163,11.83931],[76.81115,11.83826],[76.81105,11.83796],[76.81102,11.83769],[76.81101,11.83746],[76.81105,11.83708],[76.81111,11.83648],[76.81119,11.83604],[76.81125,11.83549],[76.81127,11.83526],[76.81127,11.83509],[76.81133,11.83395],[76.81129,11.83306],[76.81138,11.83113],[76.8114,11.83063],[76.81151,11.82997],[76.81174,11.82954],[76.81199,11.82923],[76.81229,11.82905],[76.81265,11.82889],[76.81297,11.82882],[76.81342,11.82874],[76.81368,11.8287],[76.81435,11.82869],[76.81495,11.82869],[76.81588,11.82869],[76.81646,11.82872],[76.81694,11.82861],[76.81715,11.82857],[76.81739,11.82844],[76.81766,11.82828],[76.81794,11.82804],[76.81819,11.82787],[76.81831,11.82771],[76.81839,11.82754],[76.81839,11.82739],[76.81832,11.82725],[76.81817,11.82724],[76.81796,11.82722],[76.81786,11.82714],[76.81776,11.82708],[76.81762,11.82687],[76.81752,11.82671],[76.81736,11.8265],[76.8173,11.82639],[76.8172,11.82625],[76.81712,11.82621],[76.817,11.82621],[76.81685,11.82626],[76.81676,11.8263],[76.81667,11.8263],[76.81659,11.82627],[76.81656,11.82621],[76.81653,11.826],[76.81645,11.82554],[76.8162,11.82445],[76.81589,11.82377],[76.81553,11.82295],[76.81513,11.82182],[76.81474,11.82072],[76.8144,11.8189],[76.81435,11.81844],[76.81368,11.81838],[76.81343,11.81829],[76.81318,11.81811],[76.813,11.81802],[76.8124,11.81798],[76.81213,11.81802],[76.81193,11.81798],[76.81178,11.81789],[76.81165,11.81738],[76.81159,11.81687],[76.81165,11.81643],[76.81169,11.81619],[76.81181,11.81578],[76.81201,11.81537],[76.81214,11.81514],[76.81322,11.81433],[76.81401,11.81359],[76.8143,11.81333],[76.81506,11.81228],[76.81531,11.81167],[76.81546,11.81126],[76.81552,11.81087],[76.81549,11.81022],[76.81542,11.80937],[76.81526,11.80859],[76.81508,11.80813],[76.81377,11.80606],[76.8123,11.80404],[76.81191,11.80363],[76.81156,11.8032],[76.81089,11.80217],[76.81075,11.80194],[76.81069,11.8018],[76.81037,11.80008],[76.81034,11.79955],[76.8103,11.79906],[76.81029,11.799],[76.81024,11.79847],[76.80999,11.79791],[76.80976,11.79751],[76.80948,11.79716],[76.80926,11.79691],[76.80899,11.7967],[76.80859,11.79647],[76.80833,11.79639],[76.80743,11.79597],[76.80688,11.79565],[76.8065,11.79533],[76.80645,11.79533],[76.80638,11.79533],[76.80621,11.7953],[76.80605,11.79521],[76.80592,11.79507],[76.80581,11.79495],[76.80571,11.79479],[76.80498,11.7933],[76.80316,11.79004],[76.80271,11.78931],[76.80241,11.78893],[76.80188,11.78846],[76.80154,11.78824],[76.80105,11.78801],[76.80061,11.78787],[76.80009,11.7878],[76.79941,11.78781],[76.7963,11.78809],[76.79571,11.78803],[76.79327,11.7878],[76.79212,11.78733],[76.79175,11.78708],[76.79141,11.78678],[76.79102,11.78641],[76.7899,11.78512],[76.78854,11.78364],[76.78731,11.78278],[76.78666,11.78249],[76.78542,11.78211],[76.78518,11.78207],[76.78432,11.78192],[76.7823,11.78175],[76.78182,11.78152],[76.78151,11.7812],[76.78139,11.78099],[76.78133,11.78079],[76.78122,11.7803],[76.78117,11.77995],[76.78117,11.77973],[76.78115,11.77959],[76.78143,11.77908],[76.7818,11.77803],[76.78185,11.77788],[76.78252,11.77594],[76.7828,11.77518],[76.78296,11.77421],[76.783,11.77332],[76.78304,11.77284],[76.78313,11.77246],[76.78347,11.77165],[76.78367,11.7713],[76.78397,11.77078],[76.78417,11.77033],[76.78425,11.77013],[76.7843,11.76982],[76.78429,11.76962],[76.78429,11.76954],[76.78431,11.76921],[76.78433,11.76849],[76.78431,11.76762],[76.78431,11.76749],[76.78428,11.76733],[76.78423,11.76691],[76.78425,11.76605],[76.78428,11.76558],[76.78433,11.7653],[76.78478,11.76431],[76.78507,11.76374],[76.78525,11.76347],[76.78546,11.76326],[76.78578,11.76318],[76.78631,11.76327],[76.78682,11.76336],[76.78719,11.76334],[76.7874,11.76326],[76.78755,11.76313],[76.78802,11.76271],[76.78855,11.76204],[76.78899,11.76162],[76.78928,11.76149],[76.7895,11.76144],[76.78972,11.76143],[76.79025,11.76137],[76.7907,11.7613],[76.79155,11.76124],[76.79253,11.76116],[76.79332,11.76105],[76.79517,11.76045],[76.79586,11.76015],[76.79615,11.75998],[76.79632,11.7598],[76.79642,11.75948],[76.79643,11.7592],[76.79638,11.75887],[76.79634,11.75841],[76.79623,11.75793],[76.79612,11.75746],[76.79588,11.75695],[76.79565,11.75664],[76.79534,11.7562],[76.79522,11.75599],[76.79511,11.75571],[76.795,11.75522],[76.79493,11.75481],[76.79492,11.75438],[76.79489,11.75409],[76.79484,11.7539],[76.7948,11.75362],[76.79388,11.75345],[76.79345,11.75338],[76.79339,11.75332],[76.79337,11.75318],[76.79339,11.75302],[76.79342,11.75281],[76.79345,11.75258],[76.79352,11.75205],[76.7933,11.75151],[76.7933,11.74998],[76.79335,11.74855],[76.79345,11.74768],[76.79351,11.74753],[76.79385,11.74755],[76.79422,11.74763],[76.79478,11.74791],[76.79518,11.74811],[76.79555,11.74825],[76.796,11.74833],[76.79665,11.74827],[76.79729,11.74827],[76.7979,11.74827],[76.79875,11.74817],[76.79933,11.74791],[76.79979,11.74745],[76.80104,11.7458],[76.80117,11.74557],[76.80217,11.74387],[76.80292,11.7428],[76.80337,11.74235],[76.80363,11.74206],[76.8038,11.7418],[76.80403,11.74154],[76.80423,11.74091],[76.80429,11.74025],[76.80431,11.73962],[76.80422,11.73881],[76.80381,11.73772],[76.80342,11.73727],[76.80203,11.73605],[76.80126,11.73548],[76.80065,11.73514],[76.8003,11.73466],[76.8,11.73417],[76.79988,11.73377],[76.79982,11.73334],[76.79995,11.73289],[76.80027,11.7326],[76.80126,11.73225],[76.80202,11.73213],[76.80324,11.73172],[76.80449,11.73122],[76.8051,11.73082],[76.80593,11.72996],[76.80628,11.72947],[76.80645,11.72878],[76.80653,11.72807],[76.80667,11.72694],[76.80678,11.7253],[76.80679,11.72457],[76.80672,11.72417],[76.80652,11.72342],[76.80637,11.72291],[76.80636,11.72213],[76.80644,11.72084],[76.80678,11.71992],[76.80703,11.71889],[76.80719,11.71746],[76.80721,11.71619],[76.80737,11.71534],[76.80742,11.71482],[76.80751,11.71422],[76.80771,11.71364],[76.80794,11.71292],[76.80796,11.71203],[76.80793,11.71157],[76.80786,11.71094],[76.80789,11.71025],[76.808,11.70962],[76.80823,11.70884],[76.80882,11.70762],[76.80989,11.70591],[76.81087,11.70415],[76.81181,11.70221],[76.8125,11.70057],[76.8129,11.69962],[76.81322,11.69921],[76.81367,11.69865],[76.81483,11.69749],[76.81657,11.69567],[76.81805,11.69425],[76.81975,11.69308],[76.82187,11.69191],[76.82266,11.69142],[76.82317,11.69103],[76.82334,11.69074],[76.82351,11.69031],[76.82353,11.68924],[76.82338,11.6887],[76.82315,11.68824],[76.82282,11.68755],[76.82215,11.68672],[76.82162,11.68615],[76.82116,11.68591],[76.82064,11.68583],[76.82026,11.6858],[76.81999,11.68583],[76.81958,11.68586],[76.81926,11.68584],[76.819,11.68578],[76.81882,11.68564],[76.81889,11.68551],[76.81894,11.68541],[76.81929,11.68538],[76.81976,11.6854],[76.82017,11.6854],[76.82063,11.68514],[76.82104,11.68468],[76.82147,11.68381],[76.82181,11.68309],[76.8221,11.68249],[76.82229,11.68197],[76.82252,11.68178],[76.82343,11.68167],[76.82438,11.68162],[76.82494,11.68153],[76.82567,11.68121],[76.82622,11.68075],[76.82692,11.68006],[76.82736,11.67965],[76.82689,11.6793],[76.82574,11.67825],[76.82383,11.67624],[76.82241,11.67525],[76.82164,11.67474],[76.82114,11.67426],[76.82014,11.67302],[76.81883,11.67186],[76.81709,11.67065],[76.81573,11.66975],[76.81462,11.66894],[76.81247,11.66797],[76.81103,11.66705],[76.81092,11.66698],[76.80999,11.66659],[76.80907,11.6662],[76.80814,11.66593],[76.80606,11.66602],[76.80455,11.66652],[76.80323,11.66737],[76.80079,11.66926],[76.79951,11.67072],[76.7992,11.67145],[76.79902,11.67215],[76.79897,11.67285],[76.79875,11.67336],[76.79845,11.67364],[76.79789,11.67383],[76.79737,11.67386],[76.79674,11.67385],[76.79557,11.67358],[76.79356,11.67308],[76.79104,11.67244],[76.78789,11.6717],[76.78635,11.67144],[76.78536,11.67132],[76.78429,11.67145],[76.78367,11.67188],[76.78327,11.67222],[76.78259,11.67333],[76.78189,11.67488],[76.78128,11.67607],[76.78081,11.67721],[76.78038,11.67791],[76.77986,11.67847],[76.77965,11.6787],[76.77842,11.67944],[76.77768,11.67972],[76.77694,11.67984],[76.77611,11.67985],[76.77569,11.67962],[76.77495,11.67911],[76.7734,11.67794],[76.77182,11.67682],[76.77126,11.67631],[76.77072,11.67578],[76.77016,11.67533],[76.76933,11.67516],[76.76816,11.67528],[76.76714,11.67565],[76.7665,11.67608],[76.76625,11.67645],[76.76595,11.67691],[76.76583,11.67733],[76.76545,11.67802],[76.76511,11.67884],[76.76497,11.67978],[76.76506,11.68051],[76.76528,11.6809],[76.76565,11.68135],[76.76627,11.68208],[76.76659,11.68253],[76.76671,11.68283],[76.76671,11.68314],[76.76664,11.68376],[76.76618,11.68467],[76.76566,11.68543],[76.7653,11.68592],[76.76468,11.68638],[76.76416,11.6866],[76.7633,11.68666],[76.76237,11.68664],[76.76171,11.68678],[76.7606,11.68724],[76.76012,11.68755],[76.75945,11.68769],[76.75892,11.68763],[76.75834,11.68752],[76.75768,11.68713],[76.75675,11.68638],[76.75557,11.68515],[76.75485,11.68441],[76.75443,11.68387],[76.75415,11.68329],[76.75403,11.68299],[76.75388,11.68261],[76.75372,11.68218],[76.75352,11.68157],[76.75325,11.68113],[76.75276,11.68042],[76.75227,11.67975],[76.75169,11.67919],[76.75105,11.67869],[76.7502,11.67813],[76.74901,11.67768],[76.74859,11.67746],[76.74808,11.67715],[76.74707,11.67671],[76.74662,11.67648],[76.74593,11.67627],[76.74521,11.67623],[76.74442,11.67639],[76.74307,11.67689],[76.74251,11.67731],[76.74193,11.67784],[76.74138,11.6786],[76.74062,11.67915],[76.74004,11.67939],[76.73916,11.6795],[76.73837,11.67948],[76.73771,11.6794],[76.73696,11.67924],[76.7356,11.67875],[76.73388,11.67793],[76.73175,11.67695],[76.73093,11.67651],[76.72997,11.67606],[76.72843,11.67562],[76.7274,11.67542],[76.72657,11.67524],[76.72619,11.67515],[76.72586,11.67507],[76.72495,11.67473],[76.72389,11.67448],[76.72291,11.67427],[76.72217,11.6742],[76.72084,11.67421],[76.71949,11.67464],[76.71872,11.67488],[76.7183,11.67514],[76.71738,11.67554],[76.71619,11.67588],[76.71406,11.67631],[76.71344,11.67656],[76.71203,11.67711],[76.71039,11.67772],[76.70835,11.67844],[76.70677,11.67921],[76.70649,11.67932],[76.70568,11.67961],[76.70455,11.68009],[76.70399,11.68033],[76.70267,11.68109],[76.70222,11.68128],[76.70132,11.68141],[76.70053,11.68147],[76.69962,11.6815],[76.69838,11.68151],[76.69668,11.68139],[76.6952,11.68124],[76.69432,11.68106],[76.69366,11.68088],[76.69246,11.68047],[76.69123,11.68011],[76.69023,11.67983],[76.68969,11.67965],[76.68895,11.67932],[76.68834,11.67885],[76.68775,11.67836],[76.68722,11.67789],[76.68672,11.67761],[76.68587,11.67727],[76.68523,11.67689],[76.68467,11.67637],[76.68427,11.676],[76.68382,11.67577],[76.6831,11.6757],[76.6826,11.6757],[76.68195,11.67563],[76.68147,11.67579],[76.68114,11.67607],[76.68064,11.67678],[76.68019,11.67707],[76.67955,11.67739],[76.67863,11.67745],[76.67765,11.67737],[76.67704,11.67712],[76.67664,11.67683],[76.67634,11.6766],[76.67587,11.67644],[76.67526,11.6765],[76.6749,11.67671],[76.67412,11.67786],[76.67393,11.67833],[76.67375,11.67886],[76.67338,11.6792],[76.67256,11.67949],[76.67161,11.67983],[76.67092,11.6801],[76.67013,11.68016],[76.66915,11.68011],[76.66872,11.68],[76.66835,11.67991],[76.66787,11.6796],[76.66726,11.67918],[76.6666,11.67877],[76.66499,11.67728],[76.66458,11.67685],[76.66381,11.67649],[76.66307,11.67646],[76.66211,11.67667],[76.66087,11.67724],[76.65963,11.67754],[76.65816,11.67775],[76.65762,11.67775],[76.65675,11.67788],[76.6551,11.6781],[76.65307,11.67879],[76.65166,11.67932],[76.65082,11.67967],[76.65002,11.67972],[76.6492,11.67965],[76.64854,11.67947],[76.64824,11.67918],[76.6476,11.67843],[76.64717,11.67783],[76.6468,11.67744],[76.64658,11.67731],[76.6464,11.67724],[76.64571,11.67729],[76.64523,11.67743],[76.64468,11.67774],[76.64428,11.67803],[76.64359,11.67851],[76.64214,11.67899],[76.64108,11.67915],[76.63975,11.67913],[76.63872,11.67898],[76.63792,11.67867],[76.63747,11.67849],[76.63615,11.67843],[76.63448,11.6785],[76.63299,11.67863],[76.6313,11.67893],[76.63021,11.67904],[76.62923,11.67916],[76.6278,11.67922],[76.62685,11.6792],[76.626,11.67916],[76.62502,11.67904],[76.62237,11.67882],[76.6202,11.6788],[76.61866,11.67907],[76.61763,11.67936],[76.61647,11.67984],[76.61578,11.68013],[76.61557,11.68029],[76.61485,11.68101],[76.61401,11.68211],[76.61312,11.68316],[76.61264,11.68353],[76.61257,11.68358],[76.61169,11.68414],[76.61053,11.68472],[76.61042,11.68477],[76.6096,11.68527],[76.60887,11.68604],[76.60834,11.68644],[76.60797,11.68665],[76.60757,11.68681],[76.60651,11.68681],[76.60503,11.68672],[76.60397,11.68649],[76.60317,11.68623],[76.60254,11.6861],[76.60216,11.68602],[76.59911,11.68567],[76.59758,11.68531],[76.59704,11.68511],[76.59657,11.68498],[76.59585,11.68493],[76.5949,11.68501],[76.59423,11.68523],[76.59198,11.6855],[76.59071,11.68577],[76.58926,11.68627],[76.58807,11.68653],[76.58775,11.68659],[76.58661,11.68694],[76.58606,11.68726],[76.58579,11.68754],[76.58539,11.68816],[76.5851,11.68852],[76.58434,11.68947],[76.58355,11.69025],[76.583,11.69057],[76.58212,11.69107],[76.58115,11.69168],[76.58049,11.69228],[76.57954,11.69301],[76.57856,11.69442],[76.5781,11.69496],[76.57678,11.69489],[76.5756,11.6946],[76.57499,11.69434],[76.57366,11.69411],[76.57217,11.69408],[76.57024,11.69403],[76.56776,11.6942],[76.5649,11.69439],[76.56446,11.69442],[76.56225,11.69451],[76.55926,11.69465],[76.55888,11.69467],[76.55678,11.69481],[76.55523,11.6951],[76.55399,11.69531],[76.55251,11.69559],[76.55185,11.69568],[76.55067,11.6956],[76.55027,11.69563],[76.54982,11.69552],[76.54955,11.6955],[76.54801,11.69609],[76.54549,11.69739],[76.54466,11.69831],[76.54324,11.69897],[76.54232,11.69898],[76.54139,11.69882],[76.54013,11.6985],[76.53921,11.69834],[76.53812,11.69842],[76.53704,11.69892],[76.53595,11.69943],[76.53436,11.69985],[76.53336,11.69985],[76.53235,11.69944],[76.53212,11.69928],[76.53066,11.69822],[76.52991,11.69773],[76.52882,11.69757],[76.52595,11.69769],[76.52389,11.69872],[76.52084,11.7003],[76.51738,11.70209],[76.51565,11.7031],[76.51488,11.70352],[76.51331,11.70437],[76.51189,11.70518],[76.51136,11.70538],[76.5111,11.70541],[76.51082,11.70532],[76.51006,11.70482],[76.50918,11.70395],[76.50779,11.70258],[76.50628,11.70092],[76.50553,11.70016],[76.50485,11.69948],[76.50392,11.69951],[76.50318,11.69958],[76.50251,11.69958],[76.50194,11.69951],[76.50148,11.69925],[76.50112,11.69885],[76.50077,11.69843],[76.5005,11.6981],[76.50017,11.69781],[76.49986,11.69771],[76.49904,11.69755],[76.49865,11.69704],[76.49841,11.69664],[76.49804,11.69612],[76.49696,11.69495],[76.49667,11.69471],[76.49637,11.69455],[76.4962,11.6945],[76.49601,11.6945],[76.49582,11.6945],[76.49563,11.69452],[76.4953,11.69457],[76.49478,11.69452],[76.49458,11.69442],[76.49435,11.69424],[76.49418,11.69393],[76.49403,11.69364],[76.49389,11.69342],[76.49375,11.69327],[76.49363,11.69318],[76.4934,11.69316],[76.49266,11.69316],[76.49238,11.69313],[76.49203,11.69299],[76.4916,11.69276],[76.49111,11.6925],[76.4895,11.69182],[76.48896,11.69166],[76.48856,11.69163],[76.48836,11.69165],[76.48813,11.69172],[76.48788,11.69192],[76.4875,11.69217],[76.48737,11.69224],[76.48706,11.69226],[76.48673,11.69228],[76.48634,11.69229],[76.48588,11.69229],[76.48512,11.69233],[76.48477,11.69239],[76.48443,11.69247],[76.48427,11.69253],[76.48401,11.69272],[76.48366,11.69298],[76.48336,11.69314],[76.48307,11.69322],[76.48284,11.69322],[76.48265,11.69315],[76.48225,11.69291],[76.48204,11.6927],[76.48195,11.69257],[76.48195,11.6924],[76.48207,11.69195],[76.48253,11.69118],[76.48283,11.69065],[76.48295,11.69036],[76.48301,11.68996],[76.48301,11.68974],[76.48289,11.68888],[76.48273,11.68834],[76.48266,11.68809],[76.4827,11.68754],[76.48273,11.68703],[76.48263,11.68664],[76.48246,11.68628],[76.48222,11.686],[76.48177,11.68561],[76.48113,11.68519],[76.48058,11.68492],[76.48045,11.68487],[76.47964,11.68456],[76.47869,11.68424],[76.47773,11.6839],[76.47732,11.68364],[76.47683,11.68316],[76.47651,11.68288],[76.47589,11.68247],[76.47524,11.68204],[76.47475,11.68167],[76.47369,11.68077],[76.47262,11.67952],[76.47215,11.6791],[76.47141,11.67844],[76.4699,11.67735],[76.46936,11.67685],[76.4689,11.67638],[76.46868,11.67614],[76.46837,11.67563],[76.46816,11.67515],[76.46792,11.67477],[76.46723,11.67396],[76.4667,11.67342],[76.46635,11.67303],[76.46604,11.67251],[76.46578,11.67199],[76.46543,11.67149],[76.46491,11.67093],[76.46406,11.67025],[76.46282,11.66932],[76.46219,11.66902],[76.46186,11.66882],[76.46132,11.66843],[76.46046,11.66748],[76.46005,11.66702],[76.45988,11.66684],[76.45953,11.66659],[76.45948,11.66656],[76.45908,11.6664],[76.45879,11.66631],[76.45854,11.66614],[76.45843,11.66597],[76.45819,11.66537],[76.45816,11.66503],[76.45808,11.66487],[76.45803,11.66477],[76.45794,11.66471],[76.45787,11.66471],[76.45781,11.66472],[76.45771,11.66475],[76.45756,11.66482],[76.45743,11.66488],[76.45721,11.66493],[76.45704,11.66493],[76.45671,11.66493],[76.45629,11.66497],[76.45604,11.66505],[76.45581,11.66514],[76.4556,11.66529],[76.45545,11.66551],[76.45529,11.66584],[76.45515,11.66601],[76.45504,11.6661],[76.45492,11.66609],[76.45483,11.66603],[76.45468,11.66577],[76.45458,11.66558],[76.45431,11.66532],[76.45409,11.66518],[76.45367,11.66506],[76.45332,11.66501],[76.45315,11.66498],[76.45294,11.66498],[76.45279,11.665],[76.45262,11.66504],[76.45245,11.66505],[76.45225,11.66504],[76.45206,11.66501],[76.45175,11.665],[76.45145,11.66505],[76.45132,11.66505],[76.45117,11.665],[76.45102,11.66487],[76.45079,11.66465],[76.45068,11.66457],[76.45034,11.66447],[76.45022,11.66447],[76.45008,11.66453],[76.44998,11.6646],[76.44991,11.66472],[76.44982,11.66492],[76.44962,11.66541],[76.44947,11.66567],[76.44935,11.66577],[76.44921,11.66581],[76.44911,11.66584],[76.44897,11.66579],[76.44886,11.66573],[76.44872,11.66553],[76.44856,11.66518],[76.44845,11.66501],[76.44828,11.66483],[76.44815,11.66474],[76.44794,11.66469],[76.44784,11.66471],[76.4476,11.66476],[76.44737,11.66484],[76.44711,11.66489],[76.44671,11.66492],[76.4463,11.66501],[76.44607,11.66499],[76.44595,11.66494],[76.44578,11.66487],[76.44546,11.66464],[76.44501,11.66434],[76.44469,11.66418],[76.44402,11.66401],[76.4437,11.66393],[76.44343,11.6639],[76.44319,11.6639],[76.44297,11.66391],[76.44262,11.66396],[76.44227,11.66398],[76.44203,11.66404],[76.44181,11.66414],[76.44155,11.66429],[76.44136,11.6644],[76.44105,11.66453],[76.44084,11.66458],[76.44071,11.66465],[76.44066,11.66474],[76.4406,11.66489],[76.44054,11.6651],[76.44044,11.66545],[76.4404,11.66566],[76.44026,11.66584],[76.4401,11.66598],[76.44,11.66601],[76.43984,11.66602],[76.43975,11.66597],[76.43965,11.66587],[76.43952,11.66565],[76.43931,11.66531],[76.43914,11.66516],[76.43901,11.66513],[76.43882,11.66513],[76.43866,11.66516],[76.43835,11.66528],[76.43805,11.66544],[76.43775,11.66556],[76.43744,11.66564],[76.43691,11.66569],[76.43644,11.66569],[76.43623,11.66565],[76.43602,11.66561],[76.43592,11.66552],[76.43575,11.66534],[76.43563,11.66519],[76.43554,11.66511],[76.43541,11.66509],[76.43528,11.66509],[76.43518,11.6651],[76.43507,11.66516],[76.43499,11.66527],[76.43488,11.66546],[76.43473,11.66576],[76.43458,11.66594],[76.4342,11.66611],[76.43403,11.66619],[76.4339,11.66631],[76.4338,11.66646],[76.43369,11.66667],[76.43342,11.66703],[76.43327,11.66717],[76.43307,11.66721],[76.43291,11.66718],[76.43258,11.66696],[76.43217,11.66668],[76.43182,11.66657],[76.43148,11.66657],[76.43131,11.66662],[76.43097,11.66672],[76.43082,11.66678],[76.43063,11.6668],[76.43042,11.66676],[76.43006,11.66659],[76.42979,11.66645],[76.42966,11.66638],[76.42951,11.66638],[76.42937,11.66641],[76.4293,11.66648],[76.4292,11.66673],[76.42901,11.66716],[76.42893,11.66737],[76.42886,11.66764],[76.42883,11.66797],[76.42878,11.66841],[76.42878,11.66858],[76.4287,11.66882],[76.42843,11.6693],[76.42819,11.66978],[76.42797,11.67019],[76.42784,11.67035],[76.42775,11.67042],[76.42743,11.67038],[76.42719,11.67027],[76.42703,11.67023],[76.42676,11.6702],[76.42665,11.67022],[76.42653,11.67026],[76.42646,11.67037],[76.42642,11.67059],[76.42638,11.6708],[76.42625,11.67112],[76.42617,11.67127],[76.42602,11.67139],[76.42583,11.67148],[76.4253,11.67159],[76.42484,11.67163],[76.42451,11.6716],[76.42374,11.67164],[76.42344,11.67163],[76.42317,11.67159],[76.42288,11.67151],[76.42245,11.67143],[76.42225,11.67143],[76.42193,11.67152],[76.42179,11.67159],[76.42152,11.67177],[76.42139,11.67193],[76.42122,11.67214],[76.42106,11.67235],[76.42088,11.67248],[76.42066,11.67258],[76.42043,11.67255],[76.4202,11.67243],[76.41992,11.6722],[76.4196,11.67171],[76.41948,11.67141],[76.41936,11.67124],[76.41922,11.67116],[76.41901,11.67114],[76.41883,11.67114],[76.41866,11.6712],[76.41823,11.67138],[76.41774,11.67167],[76.41748,11.6718],[76.41731,11.67183],[76.41694,11.6719],[76.41667,11.67193],[76.41637,11.67214],[76.41614,11.67239],[76.416,11.67252],[76.41582,11.6727],[76.41565,11.67293],[76.41544,11.67339],[76.41542,11.67359],[76.41534,11.67385],[76.41524,11.67401],[76.41502,11.67423],[76.41473,11.67445],[76.41459,11.67468],[76.41459,11.67485],[76.41463,11.67501],[76.41474,11.6752],[76.41502,11.67541],[76.41519,11.67566],[76.41528,11.67586],[76.41532,11.67599],[76.4153,11.6761],[76.4153,11.6762],[76.41519,11.67636],[76.41482,11.67676],[76.41454,11.67705],[76.41436,11.67729],[76.41428,11.67748],[76.41423,11.67764],[76.41421,11.67787],[76.41415,11.6784],[76.41413,11.67868],[76.41411,11.67892],[76.4141,11.67904],[76.414,11.67919],[76.41385,11.67935],[76.41345,11.67966],[76.41323,11.67986],[76.41317,11.68003],[76.41317,11.68016],[76.41317,11.68025],[76.41317,11.68035],[76.41319,11.68044],[76.41322,11.68064],[76.41325,11.68075],[76.41337,11.68097],[76.4136,11.6813],[76.41367,11.6815],[76.41368,11.6817],[76.41367,11.68181],[76.41365,11.68189],[76.41357,11.682],[76.41346,11.68205],[76.41322,11.68211],[76.41294,11.68218],[76.41276,11.68223],[76.41255,11.68245],[76.41237,11.68266],[76.41227,11.68283],[76.41221,11.68329],[76.41221,11.68349],[76.41225,11.68387],[76.41231,11.68408],[76.41254,11.68459],[76.41257,11.68473],[76.41265,11.68503],[76.41267,11.68521],[76.41267,11.68561],[76.41266,11.68582],[76.41263,11.686],[76.41256,11.68623],[76.41245,11.68637],[76.41222,11.68653],[76.4121,11.6866],[76.41181,11.68664],[76.41139,11.68669],[76.41109,11.68672],[76.41089,11.68676],[76.41082,11.68681],[76.41074,11.687],[76.41074,11.68724],[76.41074,11.68742],[76.41079,11.68764],[76.41079,11.68776],[76.41079,11.68787],[76.41074,11.68801],[76.4106,11.68812],[76.41047,11.68816],[76.41034,11.68813],[76.41019,11.68808],[76.40996,11.68792],[76.40974,11.68778],[76.40953,11.68771],[76.40938,11.68771],[76.40928,11.68773],[76.4092,11.68776],[76.40905,11.68793],[76.40857,11.68884],[76.40825,11.68946],[76.40819,11.68973],[76.40815,11.68994],[76.40815,11.69004],[76.40821,11.6902],[76.40828,11.69029],[76.40843,11.69035],[76.40866,11.6904],[76.40891,11.6905],[76.40917,11.69062],[76.40946,11.69082],[76.40959,11.69095],[76.40969,11.69109],[76.40977,11.69126],[76.40978,11.69149],[76.40977,11.69168],[76.40967,11.69206],[76.40947,11.69265],[76.40939,11.69292],[76.40944,11.6931],[76.4095,11.69323],[76.4096,11.69337],[76.40974,11.69348],[76.41,11.69365],[76.41023,11.69378],[76.41029,11.69387],[76.4103,11.69392],[76.4103,11.694],[76.41028,11.69409],[76.41013,11.69418],[76.40993,11.69425],[76.40962,11.69432],[76.40948,11.69442],[76.40941,11.6945],[76.4094,11.69462],[76.40942,11.69469],[76.4095,11.69478],[76.40969,11.69484],[76.41014,11.69501],[76.4105,11.69507],[76.41084,11.69513],[76.41137,11.6951],[76.41162,11.69515],[76.41172,11.6952],[76.4118,11.69528],[76.41185,11.69537],[76.41188,11.69552],[76.41188,11.69561],[76.41186,11.69572],[76.41166,11.69607],[76.41134,11.69672],[76.41129,11.69692],[76.41124,11.69711],[76.4113,11.69775],[76.41129,11.6979],[76.41121,11.69807],[76.41116,11.69818],[76.411,11.69826],[76.41055,11.69841],[76.41008,11.69856],[76.4098,11.69863],[76.40968,11.69871],[76.40957,11.69882],[76.40949,11.69894],[76.40944,11.69912],[76.40945,11.69925],[76.40957,11.69938],[76.40991,11.69962],[76.41023,11.69988],[76.41038,11.70015],[76.41042,11.70028],[76.41042,11.70041],[76.41034,11.70055],[76.4101,11.70077],[76.40981,11.70101],[76.40954,11.70126],[76.40942,11.70145],[76.40918,11.70192],[76.40894,11.70252],[76.40874,11.70305],[76.40867,11.70334],[76.40863,11.70385],[76.40857,11.70436],[76.40862,11.70568],[76.40868,11.706],[76.40868,11.70615],[76.40854,11.70657],[76.40845,11.70673],[76.40819,11.70701],[76.40788,11.70728],[76.40768,11.70741],[76.40729,11.70749],[76.40715,11.70748],[76.40702,11.70742],[76.40695,11.70731],[76.40681,11.70699],[76.40673,11.70668],[76.40665,11.70646],[76.4066,11.70635],[76.40643,11.70624],[76.40627,11.70615],[76.40585,11.70604],[76.40539,11.70599],[76.40503,11.70602],[76.4048,11.7061],[76.40463,11.70624],[76.40395,11.70716],[76.4036,11.70749],[76.40324,11.70782],[76.40306,11.70802],[76.40301,11.70817],[76.40303,11.70834],[76.40308,11.70849],[76.40318,11.70857],[76.40341,11.70873],[76.40358,11.70884],[76.40371,11.70898],[76.40379,11.70913],[76.40384,11.7093],[76.40384,11.70941],[76.40368,11.7096],[76.40345,11.70975],[76.4032,11.70992],[76.40314,11.71007],[76.40312,11.71033],[76.40321,11.7113],[76.40326,11.71156],[76.40336,11.71173],[76.40355,11.71181],[76.40377,11.71186],[76.4045,11.7116],[76.40496,11.71148],[76.40525,11.71148],[76.40539,11.71151],[76.40561,11.71165],[76.40593,11.71201],[76.40622,11.71244],[76.40641,11.71282],[76.40658,11.71325],[76.40682,11.71384],[76.40731,11.7145],[76.40781,11.71495],[76.40798,11.71504],[76.40813,11.71512],[76.40844,11.71524],[76.40895,11.71529],[76.40944,11.71543],[76.40961,11.7155],[76.40992,11.71567],[76.41031,11.71584],[76.41116,11.71605],[76.41169,11.71609],[76.4121,11.71585],[76.41251,11.71549],[76.41266,11.71513],[76.41266,11.71487],[76.41261,11.71456],[76.41244,11.71358],[76.41242,11.71291],[76.41249,11.71227],[76.41264,11.71189],[76.41283,11.71163],[76.41307,11.71144],[76.41324,11.71134],[76.41339,11.71134],[76.4137,11.71148],[76.41402,11.71175],[76.41443,11.71209],[76.41518,11.71259],[76.41581,11.71293],[76.41605,11.71317],[76.4161,11.71362],[76.41593,11.7151],[76.41598,11.71548],[76.41617,11.71589],[76.41663,11.71659],[76.41678,11.71692],[76.41678,11.71714],[76.41678,11.71726],[76.41651,11.71769],[76.41646,11.71781],[76.41649,11.71792],[76.41668,11.71804],[76.4176,11.7185],[76.41833,11.71876],[76.41866,11.71883],[76.41956,11.71888],[76.42031,11.71895],[76.42055,11.71898],[76.4207,11.71906],[76.42106,11.71944],[76.42138,11.71989],[76.42152,11.72004],[76.42174,11.72018],[76.42281,11.72018],[76.42346,11.72025],[76.42394,11.72049],[76.42457,11.72095],[76.42474,11.72109],[76.42479,11.72121],[76.42484,11.72141],[76.42489,11.72256],[76.42494,11.72289],[76.42513,11.72325],[76.42542,11.72356],[76.42581,11.72389],[76.42605,11.72413],[76.42615,11.7243],[76.42625,11.72468],[76.42627,11.72504],[76.42641,11.7253],[76.42683,11.72578],[76.42719,11.72601],[76.42733,11.72619],[76.42731,11.72641],[76.42712,11.72662],[76.4268,11.72689],[76.42644,11.72715],[76.4262,11.72746],[76.42607,11.72772],[76.426,11.72822],[76.42583,11.72879],[76.42554,11.73048],[76.42527,11.73141],[76.42508,11.73198],[76.42455,11.73288],[76.42386,11.7341],[76.42326,11.73516],[76.42271,11.73659],[76.42227,11.73769],[76.42224,11.73779],[76.42212,11.73817],[76.42181,11.7385],[76.42069,11.73925],[76.42002,11.73971],[76.41956,11.74011],[76.41895,11.74078],[76.41859,11.74121],[76.41846,11.74164],[76.41844,11.74209],[76.41844,11.74233],[76.41837,11.7425],[76.418,11.74271],[76.41762,11.74288],[76.41691,11.74284],[76.41631,11.7426],[76.41578,11.74234],[76.41401,11.74096],[76.4134,11.74045],[76.41304,11.74034],[76.4128,11.74029],[76.41265,11.74033],[76.41236,11.74043],[76.41086,11.74172],[76.4104,11.74229],[76.41035,11.74255],[76.41035,11.74265],[76.41059,11.74277],[76.41137,11.74308],[76.41175,11.74336],[76.41204,11.74372],[76.41226,11.74426],[76.41265,11.74583],[76.41272,11.7465],[76.41267,11.74681],[76.41258,11.74715],[76.41226,11.74836],[76.41207,11.74936],[76.41208,11.75101],[76.41209,11.75152],[76.41214,11.75193],[76.41247,11.75314],[76.41285,11.75382],[76.41322,11.75414],[76.41389,11.75469],[76.41461,11.75527],[76.41491,11.75577],[76.41494,11.75661],[76.41473,11.75731],[76.41432,11.75835],[76.41414,11.7587],[76.41399,11.75898],[76.41381,11.7591],[76.41335,11.75918],[76.41098,11.75919],[76.41067,11.75919],[76.41049,11.75909],[76.4086,11.7578],[76.40769,11.75739],[76.40623,11.75703],[76.40559,11.75688],[76.40508,11.75655],[76.40354,11.75519],[76.40213,11.75398],[76.39937,11.75152],[76.39892,11.75126],[76.39837,11.75114],[76.39791,11.7512],[76.39734,11.75152],[76.39682,11.75182],[76.39645,11.75214],[76.39563,11.75277],[76.39499,11.7534],[76.3944,11.75405],[76.39401,11.75466],[76.39358,11.75549],[76.3933,11.75562],[76.39312,11.75562],[76.39097,11.75503],[76.39048,11.75483],[76.39028,11.75466],[76.38951,11.75355],[76.38879,11.75244],[76.38823,11.75152],[76.3875,11.75065],[76.38684,11.74984],[76.38598,11.74914],[76.38516,11.74892],[76.38502,11.74871],[76.38395,11.74766],[76.38359,11.74734],[76.38287,11.74722],[76.38113,11.74708],[76.38063,11.74697],[76.37995,11.74662],[76.37884,11.74578],[76.37742,11.745],[76.37659,11.74463],[76.37296,11.74636],[76.37231,11.74667],[76.36981,11.74765],[76.36849,11.74811],[76.36738,11.74827],[76.36639,11.7483],[76.36549,11.74802],[76.36492,11.74784],[76.36457,11.74784],[76.36321,11.7483],[76.36264,11.74844],[76.36228,11.74833],[76.36228,11.74833],[76.361,11.74714],[76.36018,11.74637],[76.35964,11.74557],[76.35918,11.74501],[76.35875,11.74466],[76.35814,11.74441],[76.35754,11.7442],[76.35675,11.74357],[76.355,11.7412],[76.35368,11.73972],[76.35244,11.73866],[76.35197,11.73838],[76.35165,11.73838],[76.35122,11.73863],[76.35083,11.73912],[76.35026,11.73996],[76.35001,11.74024],[76.34976,11.74031],[76.34908,11.74028],[76.34758,11.74012],[76.34671,11.74013],[76.3454,11.74015],[76.34426,11.74005],[76.34337,11.73987],[76.34237,11.73959],[76.34151,11.7392],[76.34109,11.7391],[76.34012,11.7391],[76.33948,11.73924],[76.33923,11.73943],[76.33862,11.74077],[76.33827,11.74119],[76.33784,11.7415],[76.33705,11.74182],[76.33666,11.74192],[76.33644,11.74214],[76.33523,11.74403],[76.3348,11.74473],[76.33441,11.74505],[76.33205,11.74619],[76.33073,11.74679],[76.33027,11.7471],[76.32995,11.74742],[76.32937,11.74816],[76.32877,11.74851],[76.32823,11.7487],[76.32625,11.74912],[76.32259,11.74989],[76.32031,11.75035],[76.31934,11.75067],[76.3184,11.75151],[76.3175,11.75237],[76.31715,11.75277],[76.31695,11.75318],[76.31684,11.75375],[76.31677,11.75451],[76.31659,11.75493],[76.31659,11.75493],[76.31613,11.75543],[76.31532,11.75614],[76.31496,11.7566],[76.31476,11.75703],[76.31465,11.75758],[76.31452,11.75979],[76.31448,11.76156],[76.31426,11.76255],[76.31402,11.76331],[76.31375,11.76386],[76.31346,11.76425],[76.31234,11.76551],[76.31145,11.7666],[76.31107,11.76725],[76.31083,11.76777],[76.31071,11.76851],[76.31064,11.76993],[76.3106,11.77113],[76.31051,11.77226],[76.31032,11.77291],[76.30978,11.77439],[76.30918,11.77609],[76.30903,11.77673],[76.30835,11.77929],[76.30824,11.78025],[76.30822,11.78129],[76.30818,11.78325],[76.30802,11.78413],[76.30802,11.78413],[76.30776,11.78452],[76.30691,11.78526],[76.30579,11.78608],[76.30544,11.78621],[76.30484,11.78621],[76.30333,11.78593],[76.30234,11.78575],[76.30168,11.78576],[76.3013,11.78589],[76.30079,11.78626],[76.29979,11.78711],[76.29937,11.78743],[76.29875,11.7879],[76.2966,11.78975],[76.29463,11.79166],[76.29406,11.79206],[76.29203,11.79259],[76.29085,11.79289],[76.29028,11.79318],[76.28968,11.79364],[76.28883,11.79464],[76.28729,11.79683],[76.28636,11.79819],[76.28557,11.7994],[76.28499,11.80053],[76.28424,11.80215],[76.2828,11.80561],[76.28249,11.80657],[76.28158,11.80868],[76.28115,11.80968],[76.28058,11.81122],[76.28038,11.81165],[76.28011,11.81187],[76.27874,11.81218],[76.27727,11.81242],[76.27685,11.81239],[76.27641,11.81222],[76.27502,11.81129],[76.27418,11.81087],[76.27225,11.81044],[76.26872,11.80966],[76.26694,11.80944],[76.26694,11.80944],[76.26307,11.80927],[76.26159,11.80905],[76.25863,11.80843],[76.25735,11.80798],[76.25589,11.80728],[76.25496,11.80672],[76.25225,11.80509],[76.24907,11.80366],[76.2484,11.80358],[76.24777,11.80338],[76.24646,11.80319],[76.24506,11.80328],[76.24392,11.80354],[76.24267,11.80398],[76.24207,11.80426],[76.24168,11.80431],[76.24117,11.80423],[76.24064,11.80397],[76.23969,11.80371],[76.23884,11.80367],[76.23787,11.80383],[76.23622,11.8042],[76.23442,11.80472],[76.23383,11.8049],[76.23333,11.80496],[76.23254,11.80506],[76.22992,11.80542],[76.22848,11.80589],[76.22689,11.80656],[76.22556,11.80742],[76.22389,11.80845],[76.22311,11.8091],[76.22212,11.81018],[76.22212,11.81019],[76.21965,11.81312],[76.21923,11.81351],[76.21851,11.8144],[76.21838,11.81468],[76.21832,11.81511],[76.2185,11.81696],[76.21839,11.81829],[76.21836,11.8187],[76.21838,11.81873],[76.21851,11.81905],[76.21851,11.81906],[76.21851,11.81943],[76.21838,11.81983],[76.21816,11.82034],[76.21763,11.82101],[76.217,11.82218],[76.21672,11.82243],[76.21646,11.82246],[76.21598,11.82233],[76.21578,11.82241],[76.2157,11.82271],[76.21558,11.82363],[76.2154,11.82393],[76.21522,11.82403],[76.21447,11.82391],[76.21394,11.82409],[76.21366,11.82429],[76.21348,11.82456],[76.21346,11.82496],[76.2133,11.82536],[76.21282,11.82608],[76.21231,11.82658],[76.21191,11.82676],[76.21143,11.82691],[76.21128,11.82711],[76.21122,11.82728],[76.21129,11.82784],[76.21124,11.82812],[76.21096,11.82834],[76.2106,11.82849],[76.21017,11.82859],[76.20999,11.82874],[76.20992,11.82904],[76.20997,11.82929],[76.21047,11.83076],[76.2111,11.83241],[76.21118,11.83281],[76.2111,11.83308],[76.21071,11.83379],[76.21053,11.83432],[76.21046,11.83481],[76.21046,11.83509],[76.21051,11.83539],[76.21073,11.83589],[76.21127,11.83649],[76.21159,11.83706],[76.21186,11.83797],[76.21178,11.83992],[76.21178,11.84039],[76.21186,11.84067],[76.21196,11.84082],[76.21254,11.84129],[76.21279,11.84177],[76.21287,11.84194],[76.21312,11.84262],[76.21316,11.84305],[76.21311,11.8432],[76.21293,11.8433],[76.21207,11.8433],[76.21151,11.8434],[76.21151,11.8435],[76.21174,11.84372],[76.21197,11.844],[76.21197,11.84412],[76.21184,11.84432],[76.21138,11.8445],[76.21075,11.84455],[76.21039,11.8446],[76.21032,11.8447],[76.21034,11.84482],[76.21077,11.8452],[76.21095,11.84542],[76.21095,11.84557],[76.2107,11.84564],[76.21017,11.84572],[76.21014,11.84584],[76.21014,11.84597],[76.21027,11.84624],[76.21047,11.84674],[76.21046,11.847],[76.21,11.8476],[76.20992,11.84805],[76.21002,11.84853],[76.21005,11.8488],[76.20987,11.84915],[76.20964,11.84942],[76.20944,11.84962],[76.20944,11.84987],[76.20977,11.85025],[76.2101,11.85067],[76.2101,11.85092],[76.20994,11.8512],[76.20946,11.85159],[76.20921,11.85184],[76.20917,11.85211],[76.20932,11.8524],[76.20932,11.85244],[76.20936,11.85255],[76.20957,11.85281],[76.20959,11.85325],[76.20928,11.8537],[76.20889,11.85407],[76.20875,11.85435],[76.20875,11.85463],[76.20885,11.85487],[76.20891,11.8554],[76.20884,11.85583],[76.20859,11.85615],[76.20829,11.85648],[76.20814,11.85673],[76.20806,11.85721],[76.20784,11.8589],[76.20782,11.86067],[76.20778,11.86099],[76.20767,11.86189],[76.20738,11.86227],[76.20685,11.86253],[76.20616,11.86274],[76.20527,11.8628],[76.20313,11.86277],[76.2024,11.8629],[76.20176,11.86321],[76.2011,11.86379],[76.20062,11.86446],[76.20034,11.86522],[76.19979,11.866],[76.19917,11.86664],[76.19587,11.86874],[76.19196,11.87096],[76.18967,11.87205],[76.18819,11.87244],[76.18761,11.8725],[76.18667,11.87245],[76.18534,11.87221],[76.18276,11.87134],[76.18062,11.87081],[76.17936,11.87065],[76.17874,11.87067],[76.17817,11.87084],[76.17709,11.87123],[76.17496,11.87172],[76.17392,11.8717],[76.17279,11.87151],[76.1713,11.87106],[76.17015,11.87053],[76.16992,11.87039],[76.16732,11.86877],[76.16572,11.86806],[76.16496,11.86802],[76.16433,11.86811],[76.16394,11.86823],[76.1635,11.86843],[76.16249,11.86918],[76.16054,11.87026],[76.15895,11.87071],[76.15781,11.87097],[76.15716,11.87097],[76.1565,11.87079],[76.15574,11.87051],[76.1535,11.86936],[76.15182,11.86829],[76.15181,11.86829],[76.15036,11.86731],[76.14972,11.86704],[76.14909,11.86697],[76.14867,11.86705],[76.14761,11.86741],[76.1467,11.86755],[76.14592,11.86746],[76.14549,11.86727],[76.14531,11.86711],[76.14485,11.8667],[76.14419,11.86577],[76.14346,11.86476],[76.14308,11.86437],[76.14231,11.86382],[76.14127,11.86263],[76.14057,11.8616],[76.13977,11.86085],[76.13915,11.86034],[76.13809,11.85971],[76.13684,11.8592],[76.13621,11.85884],[76.13564,11.85832],[76.13496,11.85739],[76.13385,11.85583],[76.13291,11.85479],[76.13244,11.85439],[76.13091,11.85375],[76.12942,11.85345],[76.12806,11.85337],[76.12674,11.85345],[76.12618,11.85336],[76.12527,11.85291],[76.12327,11.8518],[76.12143,11.85116],[76.12102,11.85102],[76.12013,11.85069],[76.11994,11.85062],[76.11973,11.85112],[76.1188,11.85311],[76.11847,11.85365],[76.11764,11.85437],[76.11725,11.85466],[76.11664,11.85665],[76.11685,11.85671],[76.11789,11.85723],[76.11778,11.85783],[76.11745,11.85809],[76.1168,11.85838],[76.11532,11.85869],[76.11377,11.85891],[76.11286,11.85899],[76.11283,11.85925],[76.11308,11.86082],[76.11399,11.86426],[76.11467,11.86659],[76.11476,11.86715],[76.11468,11.86811],[76.11458,11.86885],[76.11411,11.8719],[76.1139,11.8729],[76.11344,11.87572],[76.1127,11.87949],[76.11258,11.87997],[76.11244,11.8805],[76.11238,11.8816],[76.11212,11.8833],[76.11172,11.8865],[76.11165,11.88715],[76.11237,11.89079],[76.11319,11.89434],[76.11338,11.89521],[76.1134,11.89589],[76.11339,11.89819],[76.11328,11.90203],[76.11326,11.90588],[76.1133,11.90965],[76.11327,11.91342],[76.11331,11.91517],[76.11337,11.91721],[76.11303,11.92106],[76.11288,11.9249],[76.11266,11.92875],[76.11266,11.92936],[76.11263,11.9326],[76.11252,11.93644],[76.11254,11.94029],[76.11258,11.94412],[76.11257,11.94787],[76.11257,11.95119],[76.11257,11.9517],[76.11235,11.95552],[76.11228,11.95937],[76.11226,11.96322],[76.11227,11.96491],[76.11228,11.96701],[76.11225,11.9708],[76.11241,11.97442],[76.11242,11.97915],[76.11219,11.97915],[76.10989,11.97821],[76.10772,11.97731],[76.10624,11.97673],[76.10483,11.97609],[76.10166,11.97417],[76.09997,11.97317],[76.09883,11.97249],[76.0981,11.97209],[76.09632,11.97035],[76.09503,11.96943],[76.09418,11.96898],[76.09344,11.96881],[76.09173,11.96859],[76.09089,11.96843],[76.08953,11.96779],[76.08923,11.96768],[76.08883,11.96772],[76.08777,11.96792],[76.08694,11.96802],[76.08532,11.96794],[76.08488,11.96802],[76.08382,11.96842],[76.08334,11.9686],[76.08099,11.96903],[76.07947,11.9692],[76.07657,11.96911],[76.07404,11.96863],[76.07177,11.96797],[76.07066,11.9676],[76.06999,11.96728],[76.0697,11.96699],[76.0683,11.96473],[76.06762,11.96397],[76.06706,11.96343],[76.06431,11.96131],[76.06376,11.96096],[76.06233,11.9605],[76.06093,11.9599],[76.05981,11.95885],[76.05928,11.9585],[76.05806,11.95815],[76.05657,11.95696],[76.05484,11.95507],[76.05276,11.95279],[76.05204,11.95193],[76.05175,11.95181],[76.04997,11.95171],[76.04918,11.95182],[76.04855,11.95208],[76.04813,11.95216],[76.04766,11.95214],[76.04727,11.95207],[76.0455,11.95112],[76.04472,11.95069],[76.04453,11.95054],[76.04428,11.94995],[76.04375,11.94856],[76.04335,11.94771],[76.04348,11.94842],[76.04356,11.94893],[76.04411,11.95177],[76.04414,11.9519],[76.04421,11.95219],[76.04439,11.95319],[76.04459,11.95513],[76.04464,11.95574],[76.04456,11.95631],[76.04412,11.95848],[76.04392,11.959],[76.04346,11.96042],[76.04336,11.96182],[76.04347,11.96293],[76.0439,11.96404],[76.04449,11.96508],[76.04517,11.96607],[76.04575,11.96667],[76.04701,11.96763],[76.04761,11.96779],[76.04808,11.96817],[76.04967,11.96956],[76.04986,11.96973],[76.04996,11.96991],[76.05008,11.97025],[76.05048,11.9709],[76.05114,11.97206],[76.05171,11.97323],[76.05188,11.97364],[76.05227,11.97459],[76.05239,11.97484],[76.05289,11.97627],[76.053,11.97705],[76.05304,11.97736],[76.05308,11.97767],[76.05304,11.97989],[76.05307,11.98032],[76.05312,11.98066],[76.05316,11.9809],[76.05323,11.98135],[76.05317,11.98266],[76.05314,11.98392],[76.05315,11.98446],[76.05315,11.98499],[76.05319,11.98637],[76.0533,11.98712],[76.05344,11.9878],[76.05346,11.98805],[76.05348,11.98825],[76.0536,11.98952],[76.05363,11.98991],[76.05356,11.99072],[76.05355,11.99104],[76.05353,11.99138],[76.05346,11.99271],[76.05342,11.99336],[76.05296,11.99431],[76.05217,11.99564],[76.05152,11.99682],[76.05095,11.99762],[76.05025,11.99854],[76.04884,12.00004],[76.04857,12.00047],[76.04808,12.00099],[76.0478,12.00147],[76.04786,12.00169],[76.04791,12.00189],[76.04798,12.00208],[76.04822,12.00239],[76.04843,12.00269],[76.04854,12.00286],[76.04873,12.00306],[76.0491,12.00338],[76.04945,12.00373],[76.04988,12.00413],[76.05015,12.00442],[76.05049,12.00488],[76.05081,12.0053],[76.05106,12.00566],[76.05116,12.00584],[76.05135,12.00631],[76.05145,12.007],[76.05146,12.00747],[76.0514,12.00811],[76.05134,12.00847],[76.05131,12.00871],[76.0512,12.00919],[76.05107,12.00971],[76.0509,12.0103],[76.05081,12.01063],[76.05078,12.01085],[76.05071,12.01107],[76.05053,12.01139],[76.05041,12.01166],[76.05037,12.0118],[76.05029,12.01202],[76.0502,12.01226],[76.05008,12.01254],[76.0499,12.01295],[76.04966,12.01345],[76.04942,12.01394],[76.0492,12.0144],[76.04903,12.01483],[76.04894,12.01513],[76.04879,12.01559],[76.0486,12.01593],[76.0483,12.01646],[76.048,12.01691],[76.04738,12.01792],[76.04719,12.01818],[76.04673,12.01888],[76.04637,12.01944],[76.04592,12.02001],[76.04564,12.02038],[76.04537,12.02077],[76.04503,12.02109],[76.04467,12.02158],[76.04432,12.02212],[76.044,12.02256],[76.04367,12.02304],[76.04328,12.02356],[76.04316,12.02376],[76.04308,12.02394],[76.04304,12.02414],[76.04298,12.02441],[76.04293,12.02458],[76.04286,12.02471],[76.04275,12.02484],[76.04265,12.02502],[76.04256,12.02527],[76.04248,12.02559],[76.0424,12.02585],[76.04227,12.02619],[76.04208,12.02662],[76.0419,12.02715],[76.04169,12.02767],[76.04154,12.02801],[76.0413,12.0287],[76.04143,12.02882],[76.04159,12.02896],[76.04176,12.02908],[76.042,12.02926],[76.04227,12.02947],[76.04249,12.02965],[76.04265,12.02982],[76.04282,12.03],[76.0431,12.03032],[76.04352,12.03073],[76.04383,12.03104],[76.04409,12.03129],[76.04442,12.03163],[76.04468,12.03187],[76.04497,12.03214],[76.04525,12.03242],[76.04558,12.03275],[76.0458,12.03298],[76.04598,12.03324],[76.04611,12.03346],[76.04624,12.03372],[76.04637,12.03398],[76.0465,12.03435],[76.04658,12.03454],[76.04672,12.03489],[76.04684,12.03522],[76.04696,12.03557],[76.04703,12.03578],[76.04702,12.036],[76.04709,12.03644],[76.04715,12.03684],[76.04718,12.03706],[76.04726,12.03754],[76.04733,12.03781],[76.04741,12.03821],[76.04753,12.03867],[76.04766,12.03906],[76.04773,12.0394],[76.04779,12.03969],[76.04793,12.04014],[76.04807,12.04052],[76.04822,12.04082],[76.0484,12.04114],[76.04875,12.0416],[76.04904,12.04195],[76.04931,12.0423],[76.04973,12.04269],[76.05002,12.04294],[76.05036,12.04317],[76.05062,12.04334],[76.05085,12.04346],[76.05131,12.04366],[76.0518,12.04387],[76.05237,12.04417],[76.05287,12.04436],[76.05311,12.04445],[76.0534,12.04466],[76.05455,12.04572],[76.05501,12.04614],[76.05551,12.04666],[76.05586,12.04699],[76.05614,12.04734],[76.05645,12.04791],[76.0566,12.04819],[76.05711,12.04912],[76.05723,12.04933],[76.05741,12.04971],[76.05752,12.04997],[76.0577,12.05029],[76.05784,12.05053],[76.05802,12.05085],[76.05816,12.05104],[76.05832,12.05125],[76.05851,12.05145],[76.05867,12.05173],[76.05884,12.05217],[76.059,12.0525],[76.05913,12.05273],[76.05928,12.0531],[76.05935,12.0534],[76.0594,12.05376],[76.05945,12.054],[76.05957,12.05451],[76.05968,12.05499],[76.05973,12.05518],[76.05991,12.05556],[76.06017,12.05599],[76.06054,12.05641],[76.06072,12.05663],[76.06104,12.05691],[76.0614,12.05722],[76.06177,12.05753],[76.06222,12.05787],[76.06248,12.05803],[76.06287,12.05825],[76.06333,12.05849],[76.06385,12.05871],[76.0644,12.05887],[76.06489,12.059],[76.06558,12.05913],[76.06612,12.05919],[76.06655,12.05924],[76.06685,12.05926],[76.06717,12.05925],[76.06748,12.05924],[76.06789,12.05924],[76.06897,12.05924],[76.06961,12.05926],[76.0699,12.05928],[76.07007,12.05933],[76.07036,12.05948],[76.0707,12.05968],[76.07191,12.06045],[76.07235,12.06071],[76.07292,12.06106],[76.07328,12.06128],[76.07364,12.06156],[76.07394,12.06176],[76.07438,12.06216],[76.07496,12.06256],[76.07538,12.06296],[76.07567,12.06319],[76.07599,12.06342],[76.07661,12.06379],[76.07708,12.06394],[76.0776,12.06408],[76.07792,12.0641],[76.0783,12.06403],[76.07858,12.06389],[76.07889,12.06369],[76.07918,12.06352],[76.07941,12.06329],[76.0798,12.06289],[76.08013,12.06251],[76.08041,12.06219],[76.08077,12.06189],[76.08103,12.06168],[76.08119,12.06159],[76.08159,12.0615],[76.08178,12.06147],[76.08206,12.06144],[76.08228,12.06137],[76.08253,12.06133],[76.08277,12.0613],[76.08315,12.0613],[76.08344,12.06135],[76.08382,12.06141],[76.08401,12.06149],[76.08419,12.06163],[76.08446,12.06182],[76.08489,12.06209],[76.08523,12.06234],[76.08554,12.06257],[76.08595,12.06283],[76.08647,12.06312],[76.08673,12.06327],[76.08704,12.06343],[76.08732,12.06356],[76.08779,12.06376],[76.0882,12.06388],[76.08847,12.06404],[76.08896,12.0643],[76.08935,12.06454],[76.08985,12.06482],[76.09017,12.06511],[76.09028,12.06526],[76.09037,12.0655],[76.09043,12.0657],[76.09045,12.06609],[76.09047,12.06648],[76.09042,12.06693],[76.09039,12.06755],[76.09042,12.06786],[76.0905,12.06838],[76.09056,12.06895],[76.09056,12.06933],[76.09063,12.06966],[76.09082,12.07018],[76.09094,12.07044],[76.09106,12.07093],[76.09113,12.07131],[76.09116,12.0715],[76.09117,12.07176],[76.09113,12.07227],[76.0911,12.0728],[76.09103,12.0732],[76.09099,12.0737],[76.09097,12.07388],[76.09097,12.07418],[76.09095,12.07461],[76.09098,12.07504],[76.09101,12.07539],[76.09105,12.07575],[76.09109,12.07604],[76.09115,12.07634],[76.09121,12.07669],[76.09122,12.07726],[76.09122,12.0776],[76.09116,12.07798],[76.09111,12.07832],[76.09105,12.07857],[76.09101,12.07878],[76.09107,12.07906],[76.09114,12.07934],[76.0912,12.07956],[76.0913,12.07989],[76.09132,12.08014],[76.0913,12.08047],[76.09127,12.08076],[76.09122,12.08107],[76.09113,12.08137],[76.09097,12.08176],[76.09065,12.08261],[76.09051,12.08294],[76.09031,12.0835],[76.09025,12.08367],[76.09019,12.08406],[76.09009,12.08475],[76.09009,12.08498],[76.0901,12.08536],[76.09013,12.08582],[76.09018,12.08608],[76.09024,12.0863],[76.09035,12.08648],[76.09051,12.08665],[76.09079,12.08689],[76.09106,12.08707],[76.09138,12.08725],[76.09164,12.08739],[76.09193,12.08748],[76.09225,12.08754],[76.09263,12.08761],[76.09316,12.08771],[76.0938,12.08784],[76.09432,12.08794],[76.09473,12.08802],[76.09524,12.08816],[76.09566,12.0883],[76.09615,12.08846],[76.0966,12.08865],[76.09719,12.0889],[76.0979,12.0891],[76.09821,12.08921],[76.09837,12.08931],[76.09863,12.08955],[76.09899,12.08987],[76.0995,12.09038],[76.10052,12.09151],[76.10091,12.09193],[76.10136,12.09239],[76.10175,12.09283],[76.10208,12.09318],[76.10238,12.09349],[76.10266,12.09378],[76.10296,12.0941],[76.10322,12.09446],[76.1035,12.09493],[76.10371,12.09527],[76.10397,12.09579],[76.10415,12.09613],[76.10429,12.09656],[76.10443,12.09699],[76.10454,12.09728],[76.10464,12.09762],[76.10471,12.0979],[76.10479,12.09818],[76.10488,12.09849],[76.10495,12.09875],[76.10505,12.09894],[76.10518,12.09911],[76.10534,12.09927],[76.10551,12.09937],[76.1059,12.09952],[76.10603,12.09954],[76.10623,12.09956],[76.10654,12.0996],[76.10686,12.09958],[76.10716,12.09949],[76.10747,12.09935],[76.10787,12.09916],[76.10823,12.09895],[76.10861,12.09878],[76.10903,12.09865],[76.10928,12.0986],[76.10958,12.09857],[76.10993,12.09856],[76.11042,12.09854],[76.11088,12.09855],[76.11127,12.09856],[76.11159,12.09858],[76.11176,12.09864],[76.11195,12.09877],[76.11215,12.09889],[76.11264,12.09906],[76.11311,12.09918],[76.11375,12.09934],[76.11407,12.09938],[76.1145,12.0994],[76.11497,12.09939],[76.11548,12.09938],[76.11601,12.09941],[76.11659,12.09948],[76.11725,12.09955],[76.11774,12.0996],[76.11827,12.09967],[76.11864,12.09976],[76.11905,12.09988],[76.11954,12.10009],[76.12004,12.10033],[76.12056,12.10059],[76.12099,12.10084],[76.12135,12.10109],[76.12175,12.10142],[76.12206,12.10166],[76.12241,12.10199],[76.12268,12.1023],[76.12284,12.10251],[76.12305,12.10294],[76.12318,12.10322],[76.12326,12.10352],[76.12331,12.10381],[76.12339,12.104],[76.12352,12.10419],[76.12367,12.10463],[76.12401,12.10564],[76.12412,12.10599],[76.12445,12.10695],[76.12456,12.10731],[76.12477,12.10785],[76.12495,12.10832],[76.12508,12.10862],[76.12522,12.10894],[76.12537,12.10934],[76.12553,12.10972],[76.12567,12.11017],[76.12581,12.1105],[76.12591,12.11068],[76.12602,12.11088],[76.12608,12.11104],[76.12616,12.11135],[76.12624,12.11172],[76.12632,12.11201],[76.12639,12.1122],[76.12651,12.1124],[76.12666,12.11261],[76.12681,12.11288],[76.12695,12.11318],[76.12712,12.11353],[76.12731,12.11385],[76.12757,12.11414],[76.12786,12.11444],[76.12824,12.11485],[76.12852,12.11508],[76.12879,12.11526],[76.12903,12.11541],[76.12956,12.11577],[76.13014,12.11609],[76.1306,12.11632],[76.13088,12.11643],[76.1313,12.1165],[76.13171,12.11654],[76.13211,12.11653],[76.13241,12.1165],[76.13262,12.11648],[76.13306,12.11643],[76.13333,12.11641],[76.13393,12.11639],[76.1343,12.11637],[76.13462,12.11629],[76.1349,12.11621],[76.13516,12.11612],[76.13543,12.116],[76.13568,12.11587],[76.13593,12.11572],[76.13622,12.1155],[76.13643,12.11532],[76.13664,12.1151],[76.13676,12.11496],[76.13685,12.11479],[76.13696,12.11465],[76.13714,12.11447],[76.13745,12.11426],[76.13777,12.11406],[76.13822,12.11382],[76.13863,12.11354],[76.13897,12.11332],[76.13926,12.11317],[76.13951,12.11305],[76.13981,12.11292],[76.14021,12.11279],[76.1408,12.11256],[76.14103,12.11253],[76.14129,12.11256],[76.1415,12.11266],[76.14169,12.11279],[76.14185,12.11293],[76.14209,12.11316],[76.1423,12.11338],[76.14243,12.11364],[76.14256,12.11391],[76.14276,12.11426],[76.14303,12.11469],[76.14324,12.11505],[76.14338,12.11528],[76.14357,12.11564],[76.1437,12.11589],[76.14389,12.1162],[76.14414,12.11663],[76.14436,12.11703],[76.14463,12.11748],[76.14489,12.11781],[76.14511,12.1181],[76.14528,12.11833],[76.14555,12.11857],[76.1459,12.11887],[76.14625,12.11913],[76.14669,12.11941],[76.14707,12.11963],[76.14757,12.11994],[76.14796,12.12017],[76.1483,12.12035],[76.14894,12.12065],[76.14922,12.12078],[76.14956,12.12093],[76.15005,12.12116],[76.15049,12.12132],[76.15081,12.1215],[76.15113,12.12172],[76.15155,12.12197],[76.15203,12.12232],[76.15236,12.12253],[76.15256,12.12262],[76.1529,12.12274],[76.15323,12.12284],[76.1535,12.12293],[76.15383,12.12301],[76.15407,12.12305],[76.1546,12.12309],[76.15514,12.12317],[76.15558,12.12325],[76.15602,12.12337],[76.15661,12.12354],[76.15695,12.12365],[76.15739,12.12381],[76.15788,12.12397],[76.15822,12.12412],[76.15887,12.12445],[76.15936,12.12469],[76.15986,12.12496],[76.16016,12.12511],[76.16058,12.12537],[76.16097,12.12564],[76.16144,12.12598],[76.16212,12.12643],[76.16263,12.12676],[76.16315,12.12713],[76.16363,12.12746],[76.16404,12.12773],[76.16503,12.12884],[76.16523,12.12918],[76.16536,12.12991],[76.16542,12.13109],[76.16548,12.132],[76.16563,12.13312],[76.16626,12.1346],[76.16669,12.13565],[76.16762,12.13753],[76.16805,12.1385],[76.16899,12.14079],[76.16923,12.14145],[76.16932,12.14224],[76.16929,12.14309],[76.16908,12.14406],[76.16872,12.14595],[76.16869,12.14689],[76.16884,12.14822],[76.16918,12.14934],[76.16972,12.15093],[76.17006,12.15166],[76.17043,12.15209],[76.17089,12.15239],[76.17172,12.15263],[76.17246,12.15291],[76.17311,12.1533],[76.17402,12.15444],[76.17494,12.15556],[76.17642,12.15729],[76.177,12.15856],[76.17703,12.15865],[76.178,12.15966],[76.17859,12.16018],[76.17958,12.16073],[76.18087,12.16133],[76.18247,12.16194],[76.18572,12.16277],[76.18777,12.16326],[76.18816,12.16335],[76.18913,12.16386],[76.18947,12.16403],[76.19203,12.16531],[76.19514,12.16673],[76.19636,12.16775],[76.197,12.16851],[76.19737,12.16917],[76.19741,12.16947],[76.19753,12.17029],[76.19759,12.17145],[76.19803,12.17325],[76.19837,12.17385],[76.19874,12.17416],[76.19923,12.17498],[76.19945,12.17537],[76.19964,12.17537],[76.20001,12.17537],[76.20059,12.1751],[76.20127,12.17498],[76.20186,12.17498],[76.20264,12.17499],[76.20286,12.17503],[76.20311,12.17517],[76.20335,12.17543],[76.20356,12.17584],[76.2037,12.17638],[76.20382,12.17688],[76.20391,12.17815],[76.20407,12.17853],[76.20416,12.17882],[76.2046,12.17984],[76.20489,12.18036],[76.20519,12.18075],[76.20587,12.18149],[76.20622,12.18178],[76.20735,12.18206],[76.20959,12.18297],[76.21035,12.18333],[76.21127,12.18407],[76.21167,12.1845],[76.21257,12.18504],[76.21356,12.18534],[76.21464,12.18554],[76.2151,12.18561],[76.2158,12.1857],[76.21673,12.18584],[76.21768,12.18649],[76.21871,12.18732],[76.22032,12.18847],[76.22074,12.18894],[76.22111,12.18945],[76.22195,12.19107],[76.22257,12.19253],[76.22337,12.19373],[76.22414,12.19458],[76.22499,12.19521],[76.22698,12.19685],[76.22763,12.19752],[76.22832,12.19845],[76.22901,12.19939],[76.22979,12.20065],[76.23143,12.20372],[76.23263,12.20653],[76.23283,12.20685],[76.23353,12.20874],[76.23389,12.20943],[76.2344,12.21047],[76.23497,12.21097],[76.23639,12.2127],[76.23686,12.21338],[76.23731,12.21451],[76.23751,12.21502],[76.23757,12.21582],[76.23751,12.21625],[76.23753,12.21732],[76.23763,12.21775],[76.23787,12.21831],[76.23816,12.21868],[76.23857,12.21908],[76.23996,12.22038],[76.24057,12.22091],[76.24122,12.2213],[76.24313,12.22238],[76.2444,12.2231],[76.24593,12.22351],[76.24656,12.22368],[76.24824,12.22383],[76.24907,12.22377],[76.25098,12.22442],[76.25174,12.22566],[76.25233,12.22681],[76.25301,12.22817],[76.25343,12.22888],[76.25458,12.22983],[76.25532,12.23036],[76.25759,12.23143],[76.25989,12.23212],[76.2629,12.23287],[76.26449,12.23346],[76.26586,12.23411],[76.26767,12.23559],[76.26785,12.23585],[76.2683,12.2365],[76.26916,12.23806],[76.26977,12.23971],[76.27108,12.24341],[76.27253,12.24686],[76.27307,12.24836],[76.27372,12.25018],[76.27387,12.25072],[76.27425,12.25145],[76.27404,12.25341],[76.2734,12.25657],[76.27318,12.25792],[76.27318,12.25938],[76.2734,12.26052],[76.27384,12.26187],[76.27461,12.26408],[76.27511,12.26743],[76.27547,12.26862],[76.27614,12.26986],[76.27682,12.27079],[76.27772,12.27181],[76.27911,12.27367],[76.28055,12.27538],[76.28176,12.2773],[76.28232,12.27795],[76.28357,12.27882],[76.28537,12.28016],[76.28779,12.28199],[76.289,12.28242],[76.29049,12.28272],[76.29202,12.28307],[76.29492,12.28401],[76.29525,12.28407],[76.29665,12.2844],[76.2979,12.28487],[76.29867,12.28541],[76.29972,12.28626],[76.30006,12.28702],[76.30009,12.28775],[76.29995,12.28836],[76.29991,12.28898],[76.29987,12.28967],[76.29987,12.29003],[76.29998,12.2905],[76.30024,12.2909],[76.30057,12.29108],[76.30116,12.29111],[76.30201,12.29108],[76.30263,12.29075],[76.30315,12.29017],[76.30385,12.28981],[76.30459,12.28985],[76.30523,12.29045],[76.30601,12.29142],[76.30641,12.29207],[76.307,12.29244],[76.308,12.29269],[76.31109,12.2936],[76.31321,12.29459],[76.31428,12.29542],[76.31524,12.29608],[76.31593,12.29677],[76.31608,12.29691],[76.31741,12.29828],[76.31861,12.29928],[76.31968,12.29979],[76.32115,12.30044],[76.32248,12.30091],[76.32369,12.30105],[76.32513,12.30098],[76.32677,12.30038],[76.32869,12.29959],[76.32975,12.29894],[76.33082,12.29858],[76.33237,12.29876],[76.33408,12.29903],[76.33512,12.2995],[76.33633,12.30012],[76.33644,12.30021],[76.33729,12.30091],[76.33847,12.30207],[76.33887,12.30247],[76.3397,12.30321],[76.34048,12.30361],[76.34118,12.30379],[76.34214,12.30383],[76.3435,12.30383],[76.34538,12.30375],[76.3467,12.30379],[76.34853,12.30316],[76.35045,12.30261],[76.35075,12.30261],[76.3517,12.30258],[76.35288,12.30258],[76.35443,12.30308],[76.35804,12.30482],[76.35824,12.30491],[76.36133,12.3068],[76.36309,12.30797],[76.36434,12.30866],[76.36662,12.3096],[76.36839,12.31079],[76.37066,12.31139],[76.37206,12.31172],[76.37449,12.31186],[76.37854,12.31204],[76.38166,12.3121],[76.38313,12.31231],[76.38615,12.31282],[76.38779,12.31331],[76.38875,12.31367],[76.38941,12.31371],[76.38966,12.31373],[76.39026,12.31364],[76.39056,12.31331],[76.391,12.31262],[76.39144,12.31197],[76.39189,12.31139],[76.39251,12.31103],[76.39321,12.31078],[76.39386,12.31061],[76.39463,12.31076],[76.3957,12.31134],[76.39684,12.31213],[76.39835,12.31372],[76.39983,12.31528],[76.40025,12.31541],[76.40077,12.31566],[76.40104,12.31568],[76.40147,12.3157],[76.40239,12.31559],[76.40327,12.31548],[76.40438,12.31526],[76.405,12.31494],[76.40641,12.31396],[76.4081,12.31324],[76.4118,12.3126],[76.41444,12.31212],[76.41534,12.31195],[76.41739,12.31171],[76.41877,12.31164],[76.42008,12.3119],[76.42114,12.31222],[76.42243,12.31299],[76.42384,12.31421],[76.42559,12.31495],[76.42702,12.31546],[76.42813,12.31571],[76.42946,12.31589],[76.43013,12.31587],[76.43038,12.31587],[76.43196,12.31571],[76.43567,12.31461],[76.43648,12.31435],[76.43766,12.31406],[76.43814,12.31393],[76.43887,12.31374],[76.43955,12.31347],[76.43981,12.313],[76.43996,12.31198],[76.44,12.3109],[76.43985,12.3097],[76.43948,12.3084],[76.439,12.30684],[76.43865,12.3053],[76.43865,12.30411],[76.43865,12.30328],[76.43887,12.30255],[76.43897,12.30245],[76.43931,12.30208],[76.43986,12.30172],[76.44108,12.30147],[76.44233,12.30132],[76.44458,12.30168],[76.44541,12.30188],[76.44596,12.30188],[76.44663,12.30177],[76.44736,12.30145],[76.44821,12.30112],[76.4491,12.30076],[76.44994,12.30036],[76.45131,12.29993],[76.45166,12.29973],[76.45213,12.29933],[76.45239,12.29857],[76.4525,12.29734],[76.45291,12.29636],[76.45376,12.29538],[76.45486,12.29495],[76.45633,12.29455],[76.45772,12.29453],[76.45872,12.29453],[76.45875,12.29453],[76.45974,12.29468],[76.46033,12.29496],[76.46129,12.29551],[76.46184,12.29616],[76.46229,12.29811],[76.46267,12.29896],[76.46304,12.29961],[76.46363,12.30012],[76.46426,12.30041],[76.46577,12.30063],[76.46702,12.30063],[76.46883,12.30055],[76.46976,12.30061],[76.47166,12.30074],[76.47191,12.30075],[76.47312,12.30108],[76.47445,12.30151],[76.47563,12.30216],[76.47605,12.30254],[76.47705,12.30269],[76.47834,12.30269],[76.47959,12.30261],[76.48099,12.30279],[76.48261,12.30366],[76.48447,12.30527],[76.48551,12.30592],[76.48672,12.30657],[76.48831,12.30726],[76.49081,12.30853],[76.49265,12.30944],[76.49319,12.3097],[76.49437,12.31028],[76.49525,12.31119],[76.49542,12.31202],[76.49597,12.31302],[76.4963,12.31366],[76.49633,12.31374],[76.49609,12.31435],[76.49553,12.31518],[76.49502,12.31576],[76.49439,12.31656],[76.49406,12.31743],[76.49399,12.31815],[76.49399,12.3188],[76.49439,12.31956],[76.49509,12.32025],[76.49567,12.32096],[76.49626,12.32154],[76.49696,12.32237],[76.49744,12.32298],[76.49799,12.32363],[76.49873,12.32429],[76.49904,12.32482],[76.49969,12.32521],[76.50036,12.32595],[76.50082,12.32678],[76.50117,12.32763],[76.50134,12.32874],[76.50136,12.32943],[76.50116,12.33173],[76.50116,12.33286],[76.50116,12.33322],[76.50125,12.3335],[76.50148,12.33459],[76.50165,12.33501],[76.502,12.33546],[76.50252,12.33593],[76.5037,12.33698],[76.50415,12.33738],[76.50545,12.33826],[76.50582,12.33915],[76.50605,12.33951],[76.50638,12.34003],[76.50731,12.34234],[76.50753,12.34314],[76.50793,12.34448],[76.50852,12.34531],[76.50923,12.3461],[76.51013,12.34711],[76.51143,12.34839],[76.51326,12.35015],[76.51441,12.3514],[76.51568,12.35248],[76.51673,12.35294],[76.51701,12.3534],[76.51698,12.35443],[76.51695,12.35516],[76.5167,12.35601],[76.51568,12.35735],[76.51628,12.35725],[76.51651,12.35714],[76.51682,12.35683],[76.51757,12.3559],[76.51838,12.35479],[76.51919,12.35293],[76.51946,12.35233]]]]},"properties":{"name":"Kabini"}}]}