{"type":"FeatureCollection","features":[{"type":"Feature","geometry":{"type":"Point","coordinates":[76.33,12.10667]},"properties":{"name":"Hebbahalla Dam","river":"hebballa","operator":"Karnataka Water Resources Department","purpose":"I","completionYear":"1965","kind":"dam","shedId":"C2"}},{"type":"Feature","geometry":{"type":"Point","coordinates":[76.68556,11.93694]},"properties":{"name":"Kamarahalli Tank","river":"K.Hallihalla","operator":"Karnataka Water Resources Department","purpose":"I","completionYear":"1967","kind":"dam","shedId":"C2"}},{"type":"Feature","geometry":{"type":"Point","coordinates":[76.35167,11.97389]},"properties":{"name":"Kabini Dam","river":"Kabini","operator":"Karnataka Water Resources Department","purpose":"I/H","completionYear":"1974","kind":"dam","shedId":"C2"}},{"type":"Feature","geometry":{"type":"Point","coordinates":[76.44472,11.97639]},"properties":{"name":"Nugu Dam","river":"Nugu","operator":"Karnataka Water Resources Department","purpose":"I/H","completionYear":"1959","kind":"dam","shedId":"C2"}},{"type":"Feature","geometry":{"type":"Point","coordinates":[76.69028,11.74806]},"properties":{"name":"Kalikatte Tank","river":"Kalikattehalla","operator":"Karnataka Water Resources Department","purpose":"I","completionYear":"1968","kind":"dam","shedId":"C2"}},{"type":"Feature","geometry":{"type":"Point","coordinates":[76.70528,11.84083]},"properties":{"name":"Nallur Amanikere Dam","river":"Gundlu","operator":"Karnataka Water Resources Department","purpose":"I","completionYear":"1987","kind":"dam","shedId":"C2"}},{"type":"Feature","geometry":{"type":"Point","coordinates":[76.36583,12.19889]},"properties":{"name":"Karimuddenahalli Tank","river":"Lakshman Theertha","operator":"Karnataka Water Resources Department","purpose":"I","completionYear":"1972","kind":"dam","shedId":"C2"}},{"type":"Feature","geometry":{"type":"Point","coordinates":[76.25889,12.03861]},"properties":{"name":"Taraka Dam","river":"Taraka","operator":"Karnataka Water Resources Department","purpose":"I","completionYear":"1984","kind":"dam","shedId":"C2"}}]}