{"nvdm":"1.0","dataset":"basins/monitoring-points","scope":{"kind":"basin","id":"kabini"},"provenance":{"sources":[{"title":"KSPCB water-quality monitoring stations, validated and extended - Kabini review round (GeoPackages, 23 Aug 2026 delivery)","publisher":"Paani Earth Foundation","closed":true,"as_of":"2026-08","role":"input","license":"partner-supplied compilation, cited with attribution; underlying government layers as attributed per layer"}],"method":"derived","produced_at":"2026-08-26","produced_by":"scripts/build_kabini_sources.py + scripts/ingest_basin.py (scripts/basin-sources/kabini-ingest.json)"},"type":"FeatureCollection","features":[{"type":"Feature","geometry":{"type":"Point","coordinates":[76.79291,12.16676]},"properties":{"stationKey":"CPCB_41","name":"KABINI AT CAUSE WAY SATTUR","waterBody":"RIVER","frequency":"MONTHLY","agency":"KSPCB","purpose":"Water quality","shedId":"C05CAM22","hasReadings":true,"readingsFrom":"2020","readingsTo":"2024"}},{"type":"Feature","geometry":{"type":"Point","coordinates":[76.38808,12.01985]},"properties":{"stationKey":"CPCB_1197","name":"KABINI AT SARAGUR VILLAGE D/S","waterBody":"RIVER","frequency":"MONTHLY","agency":"KSPCB","purpose":"Water quality","shedId":"C05CAM17","hasReadings":true,"readingsFrom":"2020","readingsTo":"2024"}},{"type":"Feature","geometry":{"type":"Point","coordinates":[76.68374,12.12877]},"properties":{"stationKey":"CPCB_2775","name":"KABINI AT BATHING GHAT, NANJANAGUD","waterBody":"RIVER","frequency":"MONTHLY","agency":"KSPCB","purpose":"Water quality","shedId":"C05CAM21","hasReadings":true,"readingsFrom":"2020","readingsTo":"2024"}},{"type":"Feature","geometry":{"type":"Point","coordinates":[76.56352,12.34886]},"properties":{"stationKey":"CPCB_3561","name":"HUNDIKERE (KOPPAL) TANK","waterBody":"TANK","frequency":"MONTHLY","agency":"KSPCB","purpose":"Water quality","shedId":"C05CAM22"}},{"type":"Feature","geometry":{"type":"Point","coordinates":[76.62817,12.31043]},"properties":{"stationKey":"CPCB_3583","name":"KUKKARAHALLI LAKE","waterBody":"LAKE","frequency":"MONTHLY","agency":"KSPCB","purpose":"Water quality","shedId":"C05CAM22"}},{"type":"Feature","geometry":{"type":"Point","coordinates":[76.65547,12.25392]},"properties":{"stationKey":"CPCB_3584","name":"DALAVAI LAKE","waterBody":"LAKE","frequency":"MONTHLY","agency":"KSPCB","purpose":"Water quality","shedId":"C05CAM22"}},{"type":"Feature","geometry":{"type":"Point","coordinates":[76.61172,12.26955]},"properties":{"stationKey":"CPCB_3586","name":"LIMBHABUDI LAKE","waterBody":"LAKE","frequency":"MONTHLY","agency":"KSPCB","purpose":"Water quality","shedId":"C05CAM22"}},{"type":"Feature","geometry":{"type":"Point","coordinates":[76.65908,12.23833]},"properties":{"stationKey":"CPCB_3587","name":"SHETTYKERE LAKE","waterBody":"LAKE","frequency":"MONTHLY","agency":"KSPCB","purpose":"Water quality","shedId":"C05CAM22"}},{"type":"Feature","geometry":{"type":"Point","coordinates":[76.67346,12.30259]},"properties":{"stationKey":"CPCB_3588","name":"KARANJIKERE TANK","waterBody":"TANK","frequency":"MONTHLY","agency":"KSPCB","purpose":"Water quality","shedId":"C05CAM22"}},{"type":"Feature","geometry":{"type":"Point","coordinates":[76.65965,12.29991]},"properties":{"stationKey":"CPCB_3653","name":"DODDAKERE TANK","waterBody":"TANK","frequency":"MONTHLY","agency":"KSPCB","purpose":"Water quality","shedId":"C05CAM22"}},{"type":"Feature","geometry":{"type":"Point","coordinates":[76.59804,12.31599]},"properties":{"stationKey":"CPCB_3664","name":"BASAVANAHALLIKERE TANK","waterBody":"TANK","frequency":"MONTHLY","agency":"KSPCB","purpose":"Water quality","shedId":"C05CAM22"}},{"type":"Feature","geometry":{"type":"Point","coordinates":[76.64763,12.13609]},"properties":{"stationKey":"CPCB_1445","name":"KABINI AT WATER INTAKE OF KIADB AT NANJANGUD","waterBody":"RIVER","frequency":"MONTHLY","agency":"KSPCB","purpose":"Water quality","shedId":"C05CAM21","hasReadings":true,"readingsFrom":"2020","readingsTo":"2024"}},{"type":"Feature","geometry":{"type":"Point","coordinates":[76.61501,12.11766]},"properties":{"stationKey":"CPCB_3575","name":"KABINI U/S INTAKE POINT TO NANJANAGUD & GUNDLUPET AT DEBUR","waterBody":"RIVER","frequency":"MONTHLY","agency":"KSPCB","purpose":"Water quality","shedId":"C05CAM21","hasReadings":true,"readingsFrom":"2021","readingsTo":"2024"}},{"type":"Feature","geometry":{"type":"Point","coordinates":[76.90425,12.22272]},"properties":{"stationKey":"CPCB_3577","name":"KABINI AT WATER SUPPLY INTAKE POINT TO T. NARASIPURA","waterBody":"RIVER","frequency":"MONTHLY","agency":"KSPCB","purpose":"Water quality","shedId":"C05CAM22","hasReadings":true,"readingsFrom":"2021","readingsTo":"2024"}}]}