{"nvdm":"1.0","dataset":"basins/pressures-quarries","scope":{"kind":"basin","id":"kabini"},"provenance":{"sources":[{"title":"Quarry polygons - Cauvery Basin GIS package (GeoPackages, Aug 2026 delivery)","publisher":"Paani Earth Foundation","closed":true,"as_of":"2026-08","role":"input","license":"partner-supplied compilation, cited with attribution; underlying government layers as attributed per layer"},{"id":"osm-overpass","title":"Quarry polygons digitised from OpenStreetMap","publisher":"OpenStreetMap contributors","url":"https://www.openstreetmap.org/","license":"ODbL 1.0","role":"input"}],"method":"derived","produced_at":"2026-08-23","produced_by":"scripts/build_kabini_sources.py + scripts/ingest_basin.py (scripts/basin-sources/kabini-ingest.json)"},"type":"FeatureCollection","features":[{"type":"Feature","geometry":{"type":"MultiPolygon","coordinates":[[[[76.54649,12.07133],[76.54634,12.07041],[76.54611,12.06886],[76.546,12.06769],[76.54592,12.06711],[76.54799,12.06713],[76.54803,12.06696],[76.54797,12.06658],[76.54827,12.06656],[76.54871,12.06657],[76.54896,12.06665],[76.54893,12.06704],[76.54864,12.06707],[76.54866,12.06743],[76.55069,12.06744],[76.55063,12.06817],[76.55061,12.06836],[76.55088,12.06834],[76.55128,12.06834],[76.55218,12.06847],[76.55341,12.06851],[76.55396,12.06846],[76.55427,12.06846],[76.55438,12.06893],[76.5544,12.0694],[76.55428,12.06981],[76.55373,12.07031],[76.55296,12.07048],[76.55264,12.07048],[76.55222,12.07101],[76.55193,12.07119],[76.55146,12.07138],[76.55126,12.07167],[76.55179,12.07173],[76.55137,12.07234],[76.55036,12.07384],[76.55016,12.07366],[76.54943,12.07364],[76.54915,12.07358],[76.5489,12.0734],[76.54868,12.07337],[76.54868,12.07315],[76.54887,12.07279],[76.54901,12.07246],[76.54909,12.07211],[76.54909,12.07187],[76.54906,12.07179],[76.54884,12.07179],[76.54844,12.07177],[76.54844,12.0715],[76.54838,12.07125],[76.54782,12.0713],[76.54649,12.07133]]]]},"properties":{"kind":"quarry","shedId":"C05CAM21"}},{"type":"Feature","geometry":{"type":"MultiPolygon","coordinates":[[[[76.55179,12.09128],[76.55174,12.091],[76.55171,12.09071],[76.55183,12.09034],[76.55206,12.09017],[76.55226,12.08967],[76.55222,12.08939],[76.55227,12.08921],[76.55233,12.08909],[76.55246,12.08898],[76.55258,12.08894],[76.55273,12.08895],[76.5529,12.08907],[76.55299,12.08919],[76.55299,12.08935],[76.553,12.08947],[76.55342,12.08931],[76.55348,12.08936],[76.55348,12.0895],[76.55345,12.08988],[76.55346,12.09031],[76.55347,12.09067],[76.55353,12.09076],[76.55366,12.09098],[76.5537,12.09116],[76.55364,12.09123],[76.55179,12.09128]]]]},"properties":{"kind":"quarry","shedId":"C05CAM21"}},{"type":"Feature","geometry":{"type":"MultiPolygon","coordinates":[[[[76.55053,12.08968],[76.55066,12.08965],[76.55077,12.0894],[76.55087,12.08928],[76.55092,12.08909],[76.55108,12.08902],[76.55117,12.08866],[76.55122,12.08844],[76.5513,12.08816],[76.55125,12.08807],[76.55108,12.08778],[76.55092,12.08754],[76.55065,12.08739],[76.5504,12.08743],[76.55025,12.08755],[76.55003,12.08733],[76.54989,12.08748],[76.54976,12.08774],[76.54993,12.08826],[76.55039,12.08965],[76.55053,12.08968]]]]},"properties":{"kind":"quarry","shedId":"C05CAM21"}}]}