{"nvdm":"1.0","dataset":"basins/prs-drains","scope":{"kind":"basin","id":"kabini"},"provenance":{"sources":[{"title":"Polluting drain outfalls and the drains reaching them, from the October 2020 progress report - Kabini review round (GeoPackages, 23 Aug 2026 delivery)","publisher":"Paani Earth Foundation","closed":true,"as_of":"2026-08","role":"input","license":"partner-supplied compilation, cited with attribution; underlying government layers as attributed per layer"},{"id":"nmcg-ngt-mpr-listing","title":"NMCG monthly progress reports (Karnataka, Kabini stretch) - via the cauvery-ka accountability matrix","publisher":"NMCG","url":"https://nmcg.nic.in/ngtprogressreport.aspx","license":"GoI publication, cited with attribution","role":"asserts"},{"id":"kwris-basin-geoserver","title":"Karnataka WRD basin decomposition, sub-basin C2 (KWRIS GeoServer, via the cauvery-ka atlas ingest)","publisher":"ACIWRM / Karnataka Water Resources Department","url":"https://kwris.karnataka.gov.in/","license":"public Karnataka government data; open WFS, no explicit licence stated - cited with attribution","role":"input","as_of":"2026-07"}],"method":"derived","produced_at":"2026-08-23","produced_by":"scripts/build_kabini_sources.py + scripts/ingest_basin.py (scripts/basin-sources/kabini-ingest.json)"},"type":"FeatureCollection","features":[{"type":"Feature","geometry":{"type":"Point","coordinates":[76.76486,12.16068]},"properties":{"name":"Hadinaru Kallumantapa","description":"Storm water drain carrying Sewage / sullage effluent from CMC Nanjangud town leading to right bank of Kabini river near Hadinaru Kallumantapa, Nanjangud Town","kind":"drain-inlet","shedId":"C05CAM22"}},{"type":"Feature","geometry":{"type":"Point","coordinates":[76.69916,12.12068]},"properties":{"name":"Vokkalageri","description":"Storm water drain carrying Sewage / sullage effluent from CMC Nanjangud town entering into Gundlu river and finally joins to Kabini river near vokkalageri, Nanjangud Town","kind":"drain-inlet","shedId":"C05CAM21"}},{"type":"Feature","geometry":{"type":"Point","coordinates":[76.68354,12.11207]},"properties":{"name":"Rajaji colony","description":"Sewage / sullage effluent from CMC Nanjangud town entering into Gundlu river and finally joins to Kabini river at Rajaji colony,","kind":"drain-inlet","shedId":"C05CAM21"}},{"type":"Feature","geometry":{"type":"Point","coordinates":[76.68256,12.13061]},"properties":{"name":"Military camp","description":"Storm water drain leading to River Kabini behind Military camp, Nanjangud","kind":"drain-inlet","shedId":"C05CAM21"}},{"type":"Feature","geometry":{"type":"Point","coordinates":[76.64631,12.1325]},"properties":{"name":"Rameshwara Temple","description":"Storm water drain at Kabini River near Rameshwara Temple, Debur, Nanjangud","kind":"drain-inlet","shedId":"C05CAM21"}},{"type":"Feature","geometry":{"type":"Point","coordinates":[76.69809,12.12044]},"properties":{"name":"Chamarajanagar road side bridge","description":"Water sample collected from Gundlu River leading to River Kabini near Chamarajanagar road side bridge, Nanjangud","kind":"drain-inlet","shedId":"C05CAM21"}},{"type":"Feature","geometry":{"type":"MultiLineString","coordinates":[[[76.65119,12.12992],[76.65118,12.13001],[76.65118,12.13021],[76.65118,12.13043],[76.65112,12.13058],[76.65097,12.13078],[76.65087,12.13086],[76.65073,12.13088],[76.65058,12.13082],[76.65043,12.13067],[76.65027,12.13053],[76.65021,12.13054],[76.65011,12.13059],[76.65005,12.13071],[76.65007,12.13081],[76.65015,12.13089],[76.65017,12.13093],[76.65016,12.131],[76.65012,12.13101],[76.65006,12.13101],[76.64996,12.13097],[76.64991,12.13094],[76.64987,12.13096],[76.6498,12.13104],[76.64983,12.1311],[76.64988,12.13122],[76.64983,12.13128],[76.64977,12.1313],[76.64967,12.1313],[76.64958,12.13132],[76.64952,12.13138],[76.64945,12.13153],[76.64937,12.13169],[76.64928,12.13181],[76.64913,12.13197],[76.64905,12.13205],[76.64891,12.13208],[76.64868,12.13207],[76.64862,12.13207],[76.64848,12.13215],[76.64838,12.13223],[76.64829,12.13233],[76.64821,12.13241],[76.64806,12.13248],[76.64797,12.13246],[76.64792,12.13243],[76.64785,12.13233],[76.64776,12.1322],[76.64769,12.13215],[76.6476,12.13213],[76.64757,12.13214],[76.64751,12.1322],[76.64748,12.13226],[76.64743,12.13228],[76.64732,12.13228],[76.64722,12.13226],[76.64712,12.13228],[76.64702,12.13232],[76.64688,12.13234],[76.64676,12.13233],[76.64671,12.13233],[76.64656,12.13235],[76.64647,12.1324],[76.64638,12.13248],[76.64624,12.13273]]]},"properties":{"kind":"drain-line","shedId":"C05CAM21"}},{"type":"Feature","geometry":{"type":"MultiLineString","coordinates":[[[76.75553,12.17255],[76.75601,12.17224],[76.75691,12.17182],[76.75747,12.17155],[76.758,12.17135],[76.75856,12.1712],[76.75896,12.17112],[76.75928,12.17102],[76.75949,12.17092],[76.75964,12.1708],[76.75968,12.17067],[76.75968,12.1705],[76.75969,12.17029],[76.75962,12.17008],[76.75953,12.16993],[76.75945,12.16984],[76.75931,12.16974],[76.75906,12.16967],[76.75859,12.16954],[76.75835,12.16952],[76.75819,12.16951],[76.75801,12.16949],[76.75789,12.16943],[76.75775,12.16933],[76.75765,12.16924],[76.75755,12.16911],[76.75748,12.16903],[76.75744,12.16891],[76.75742,12.16879],[76.75744,12.16866],[76.75749,12.16854],[76.75758,12.16843],[76.75771,12.16824],[76.75778,12.16805],[76.75782,12.16782],[76.7579,12.16742],[76.75827,12.16639],[76.75836,12.16619],[76.75845,12.16602],[76.75855,12.16586],[76.75876,12.16568],[76.7589,12.16557],[76.75911,12.16531],[76.75926,12.16507],[76.75941,12.16481],[76.75961,12.16435],[76.75982,12.16396],[76.76004,12.16358],[76.76028,12.16342],[76.76047,12.16339],[76.76062,12.16332],[76.76075,12.16316],[76.76081,12.16295],[76.76091,12.16264],[76.761,12.16242],[76.76106,12.16232],[76.7612,12.16226],[76.76137,12.16226],[76.76154,12.1623],[76.76172,12.16236],[76.76186,12.16241],[76.76205,12.16242],[76.7622,12.16239],[76.76237,12.16236],[76.76254,12.16238],[76.76265,12.16246],[76.76271,12.16255],[76.76271,12.16273],[76.76267,12.16286],[76.76261,12.16303],[76.76265,12.16314],[76.76273,12.16324],[76.76279,12.16327],[76.76294,12.16329],[76.76312,12.16327],[76.7633,12.16321],[76.76351,12.16309],[76.76371,12.16294],[76.76381,12.16284],[76.7639,12.16269],[76.76394,12.16259],[76.76401,12.16245],[76.76409,12.16235],[76.76434,12.16207],[76.76442,12.16191],[76.76445,12.16181],[76.76448,12.16162],[76.76449,12.16147],[76.76452,12.16126],[76.76456,12.1611],[76.76459,12.161],[76.76468,12.16088],[76.76477,12.1608],[76.76492,12.16066],[76.76498,12.16059],[76.76503,12.16055],[76.76509,12.16049],[76.76521,12.16044],[76.76533,12.1604],[76.76542,12.16037],[76.76551,12.16036]]]},"properties":{"kind":"drain-line","shedId":"C05CAM22"}},{"type":"Feature","geometry":{"type":"MultiLineString","coordinates":[[[76.74883,12.18329],[76.74885,12.18326],[76.74894,12.1831],[76.74903,12.18296],[76.74914,12.18279],[76.7492,12.18264],[76.74923,12.18254],[76.74923,12.18249],[76.74917,12.18245],[76.74912,12.18243],[76.74911,12.18234],[76.74915,12.18219],[76.74924,12.18196],[76.74933,12.18161],[76.74942,12.18144],[76.74958,12.18123],[76.74978,12.18107],[76.75003,12.18092],[76.7502,12.18085],[76.75041,12.18084],[76.75056,12.18083],[76.75075,12.18078],[76.7509,12.18072],[76.75102,12.18067],[76.75107,12.18056],[76.75107,12.1804],[76.75104,12.18029],[76.75106,12.18005],[76.75105,12.17994],[76.7511,12.1798],[76.75124,12.17966],[76.75142,12.17957],[76.75171,12.17948],[76.75199,12.17944],[76.75248,12.17933],[76.75264,12.1792],[76.75275,12.17895],[76.75288,12.17868],[76.753,12.17846],[76.75309,12.17817],[76.75318,12.17766],[76.75335,12.175],[76.75357,12.17444],[76.75385,12.17399],[76.7543,12.17344],[76.75481,12.17305]]]},"properties":{"kind":"drain-line","shedId":"C05CAM22"}},{"type":"Feature","geometry":{"type":"MultiLineString","coordinates":[[[76.74157,12.18883],[76.7417,12.18863],[76.74219,12.18814],[76.7427,12.18771],[76.74306,12.18748],[76.74345,12.18726],[76.74383,12.1871],[76.74412,12.18706],[76.74448,12.18705],[76.74474,12.18703],[76.74503,12.18705],[76.74535,12.18703],[76.74549,12.18702],[76.74571,12.18696],[76.74585,12.18688],[76.74598,12.18683],[76.74618,12.1868],[76.74643,12.1868],[76.74661,12.1868],[76.7469,12.1868],[76.747,12.1868],[76.74708,12.18678]]]},"properties":{"kind":"drain-line","shedId":"C05CAM22"}},{"type":"Feature","geometry":{"type":"MultiLineString","coordinates":[[[76.73417,12.19231],[76.73435,12.1921],[76.73453,12.19194],[76.73471,12.19185],[76.7349,12.19179],[76.73521,12.19176],[76.73553,12.19172],[76.73588,12.19166],[76.73656,12.19152],[76.73674,12.19147],[76.73694,12.19137],[76.73713,12.19124],[76.73724,12.19115],[76.73734,12.19099],[76.73741,12.19084],[76.73741,12.19072],[76.73749,12.19047],[76.73773,12.19016],[76.73812,12.19],[76.7384,12.18998],[76.73877,12.19],[76.73904,12.19004],[76.73943,12.19013],[76.73972,12.19018],[76.74003,12.19021],[76.74024,12.1902],[76.74038,12.19016],[76.74055,12.19013],[76.74061,12.19011],[76.74069,12.19005],[76.74073,12.18999],[76.74075,12.1899],[76.74082,12.18974],[76.74099,12.18956],[76.74138,12.18913],[76.74157,12.18883]]]},"properties":{"kind":"drain-line","shedId":"C05CAM22"}},{"type":"Feature","geometry":{"type":"MultiLineString","coordinates":[[[76.73441,12.19779],[76.73437,12.19771],[76.73436,12.19764],[76.73436,12.19757],[76.73436,12.19752],[76.73435,12.19746],[76.73432,12.1974],[76.73426,12.19732],[76.73421,12.19726],[76.73418,12.19721],[76.73416,12.19714],[76.73416,12.19707],[76.73422,12.19694],[76.73422,12.19686],[76.73421,12.19676],[76.73418,12.19668],[76.73408,12.19641],[76.73406,12.19631],[76.73406,12.19619],[76.73406,12.19589],[76.73403,12.19573],[76.73399,12.19558],[76.73397,12.19543],[76.73398,12.19535],[76.73398,12.19526],[76.73395,12.1952],[76.73389,12.19516],[76.73383,12.19512],[76.73378,12.19504],[76.73379,12.19495],[76.73383,12.19484],[76.73387,12.19476],[76.73396,12.19471],[76.73403,12.19469],[76.73407,12.19467],[76.73409,12.19461],[76.73409,12.19455],[76.7341,12.19447],[76.73414,12.19442],[76.73426,12.19432],[76.73436,12.19418],[76.7344,12.19403],[76.7344,12.19395],[76.73437,12.1938],[76.73426,12.19372],[76.73416,12.19361],[76.7341,12.19347],[76.73409,12.19329],[76.73407,12.1931],[76.73403,12.19284],[76.73401,12.19269],[76.73402,12.19254],[76.73413,12.19235],[76.73417,12.19231]]]},"properties":{"kind":"drain-line","shedId":"C05CAM22"}},{"type":"Feature","geometry":{"type":"MultiLineString","coordinates":[[[76.73626,12.2019],[76.73618,12.20184],[76.73609,12.20177],[76.73602,12.20171],[76.736,12.20166],[76.73602,12.2016],[76.73605,12.20154],[76.73607,12.20149],[76.73606,12.20143],[76.73602,12.20138],[76.73594,12.20134],[76.73587,12.20134],[76.73582,12.20135],[76.73574,12.20136],[76.73567,12.20135],[76.7356,12.20131],[76.73557,12.20123],[76.73555,12.20112],[76.73555,12.20103],[76.73555,12.20095],[76.73552,12.20086],[76.73543,12.20082],[76.73537,12.20078],[76.73532,12.20069],[76.73526,12.20056],[76.73519,12.20046],[76.73497,12.20031],[76.73488,12.20022],[76.73483,12.20012],[76.73483,12.2],[76.73484,12.19984],[76.73488,12.19968],[76.73493,12.19942],[76.73493,12.19931],[76.73487,12.19916],[76.7348,12.19907],[76.73472,12.19897],[76.73467,12.19887],[76.73466,12.19876],[76.73473,12.19864],[76.73494,12.19843],[76.73498,12.19835],[76.73498,12.19829],[76.73496,12.19823],[76.73492,12.19818],[76.73484,12.19807],[76.73455,12.1979],[76.73445,12.19784],[76.73441,12.19779]]]},"properties":{"kind":"drain-line","shedId":"C05CAM22"}},{"type":"Feature","geometry":{"type":"MultiLineString","coordinates":[[[76.73804,12.20583],[76.73805,12.20573],[76.73815,12.20527],[76.73821,12.2051],[76.73822,12.20492],[76.73822,12.20471],[76.73805,12.20436],[76.73795,12.20419],[76.73787,12.20404],[76.73774,12.20393],[76.7376,12.2038],[76.73708,12.20336],[76.737,12.2033],[76.73688,12.20321],[76.73676,12.20314],[76.73666,12.20296],[76.73658,12.20278],[76.73654,12.2026],[76.73653,12.20246],[76.73652,12.20233],[76.73651,12.20225]]]},"properties":{"kind":"drain-line","shedId":"C05CAM22"}},{"type":"Feature","geometry":{"type":"MultiLineString","coordinates":[[[76.73772,12.21374],[76.73775,12.21358],[76.73772,12.21319],[76.73769,12.21287],[76.73764,12.21228],[76.73755,12.21192],[76.73749,12.21167],[76.73742,12.21124],[76.73742,12.21103],[76.73744,12.21085],[76.73748,12.21067],[76.73755,12.21046],[76.73767,12.21029],[76.73782,12.21],[76.73788,12.20985],[76.73794,12.20969],[76.73796,12.20954],[76.73798,12.20934],[76.73807,12.20879],[76.73807,12.20838],[76.73807,12.20816],[76.73801,12.20746],[76.73796,12.20721],[76.73795,12.20679],[76.73795,12.20656],[76.73798,12.20632],[76.73803,12.20607],[76.73804,12.20583]]]},"properties":{"kind":"drain-line","shedId":"C05CAM22"}},{"type":"Feature","geometry":{"type":"MultiLineString","coordinates":[[[76.73663,12.22546],[76.73684,12.22514],[76.73689,12.22499],[76.73697,12.2247],[76.737,12.22424],[76.737,12.22393],[76.737,12.22354],[76.73684,12.22248],[76.73673,12.22207],[76.73661,12.22166],[76.73653,12.22141],[76.73649,12.22116],[76.73649,12.2209],[76.73657,12.22064],[76.73661,12.22049],[76.73668,12.22029],[76.73685,12.21995],[76.73694,12.21978],[76.73706,12.21962],[76.73719,12.21944],[76.73719,12.21931],[76.73719,12.21917],[76.73714,12.21903],[76.73707,12.21889],[76.73698,12.21869],[76.73689,12.21853],[76.73681,12.21836],[76.73676,12.21823],[76.73676,12.21811],[76.73678,12.21799],[76.73704,12.21754],[76.73711,12.21742],[76.73719,12.21726],[76.73726,12.21715],[76.73735,12.21705],[76.73743,12.21698],[76.7375,12.21688],[76.73752,12.21677],[76.73749,12.21663],[76.73739,12.21631],[76.73737,12.21614],[76.73736,12.21597],[76.73736,12.21583],[76.73746,12.21554],[76.73757,12.21522]]]},"properties":{"kind":"drain-line","shedId":"C05CAM22"}},{"type":"Feature","geometry":{"type":"MultiLineString","coordinates":[[[76.73609,12.23289],[76.736,12.23271],[76.73596,12.23264],[76.73595,12.23252],[76.73595,12.23242],[76.73595,12.23226],[76.73594,12.232],[76.73593,12.2318],[76.73591,12.23166],[76.73585,12.23152],[76.7358,12.23141],[76.7357,12.23121],[76.73565,12.23105],[76.73565,12.23095],[76.73569,12.23085],[76.73579,12.2307],[76.73589,12.23055],[76.73597,12.23041],[76.73604,12.23027],[76.73611,12.23012],[76.73614,12.22992],[76.73607,12.22972],[76.736,12.22961],[76.73593,12.22952],[76.73585,12.22942],[76.7358,12.22932],[76.73577,12.22923],[76.73579,12.22899],[76.73579,12.22888],[76.73579,12.22878],[76.73577,12.22862],[76.73575,12.22849],[76.73574,12.22838],[76.73574,12.22826],[76.73575,12.22813],[76.73583,12.22799],[76.7359,12.2279],[76.736,12.22777],[76.73606,12.22765],[76.73607,12.22744],[76.736,12.2272],[76.73593,12.22706],[76.73591,12.22694],[76.73593,12.22679],[76.73598,12.22664],[76.73612,12.22633],[76.73628,12.22603],[76.73652,12.22561],[76.73663,12.22546]]]},"properties":{"kind":"drain-line","shedId":"C05CAM22"}},{"type":"Feature","geometry":{"type":"MultiLineString","coordinates":[[[76.73567,12.23736],[76.73566,12.23722],[76.73575,12.2369],[76.73579,12.23669],[76.7359,12.23647],[76.73605,12.23618],[76.73617,12.23598],[76.73624,12.23571],[76.73625,12.23557],[76.7362,12.23541],[76.73614,12.23524],[76.73609,12.2351],[76.73607,12.235],[76.73608,12.23489],[76.73614,12.23479],[76.73623,12.23471],[76.73629,12.23462],[76.73634,12.23452],[76.73634,12.23435],[76.73627,12.23407],[76.73619,12.23328],[76.73614,12.23303],[76.73609,12.23289]]]},"properties":{"kind":"drain-line","shedId":"C05CAM22"}},{"type":"Feature","geometry":{"type":"MultiLineString","coordinates":[[[76.68041,12.11127],[76.68047,12.11116],[76.6805,12.11098],[76.68061,12.11092],[76.6807,12.11091],[76.681,12.11093],[76.68115,12.11097],[76.68142,12.11095],[76.68156,12.1109],[76.68168,12.11082],[76.68179,12.11074],[76.68194,12.1107],[76.68205,12.11069],[76.68214,12.11073],[76.68221,12.11081],[76.68222,12.11091],[76.68221,12.11104],[76.68225,12.11117],[76.68233,12.11128],[76.68243,12.11137],[76.68255,12.11145],[76.68268,12.11154],[76.68278,12.11159],[76.68289,12.11165],[76.68301,12.11175],[76.6831,12.11188],[76.68318,12.11197],[76.68332,12.11207],[76.68344,12.11218]]]},"properties":{"kind":"drain-line","shedId":"C05CAM21"}},{"type":"Feature","geometry":{"type":"MultiLineString","coordinates":[[[76.70922,12.09061],[76.70906,12.09083],[76.70877,12.09105],[76.70857,12.09119],[76.70831,12.0913],[76.70806,12.09138],[76.7078,12.09145],[76.70753,12.09151],[76.70733,12.09159],[76.70716,12.09171],[76.70704,12.09199],[76.707,12.09229],[76.707,12.09259],[76.70691,12.09285],[76.7068,12.09305],[76.70665,12.09323],[76.70653,12.09332],[76.70628,12.09343],[76.70604,12.09353],[76.70583,12.09364],[76.70562,12.09385],[76.70544,12.09407],[76.70532,12.09425],[76.70523,12.09432],[76.70515,12.09438],[76.705,12.09443],[76.70482,12.09446],[76.70467,12.09451],[76.70449,12.09453],[76.70437,12.09457],[76.7042,12.0946],[76.704,12.09464],[76.70385,12.09468],[76.70372,12.09472],[76.70359,12.09478],[76.70344,12.09484],[76.70316,12.09494],[76.70272,12.09529],[76.70265,12.09545],[76.70257,12.09554],[76.70249,12.09562],[76.70239,12.09564],[76.70229,12.09562],[76.70209,12.0956],[76.70198,12.0956],[76.70187,12.09561],[76.70181,12.09567],[76.70177,12.09582],[76.70177,12.09595],[76.70173,12.0962],[76.70166,12.09648],[76.70162,12.09668],[76.70155,12.09677],[76.70142,12.09683],[76.70128,12.09684],[76.70109,12.09684],[76.70087,12.09684],[76.70076,12.09684],[76.7005,12.09684],[76.70039,12.09687],[76.70027,12.09694],[76.70017,12.09706],[76.70013,12.09715],[76.70011,12.09727],[76.70015,12.09741],[76.70022,12.09748],[76.70029,12.09767],[76.70021,12.09798],[76.69999,12.09869],[76.69994,12.09901],[76.69994,12.0992],[76.69997,12.09942],[76.69997,12.09961],[76.69972,12.10082],[76.69969,12.10114],[76.69975,12.1014],[76.6998,12.10167],[76.6998,12.10195],[76.6998,12.10231],[76.69969,12.10327],[76.69965,12.10346],[76.69956,12.10357],[76.69948,12.10362],[76.69933,12.10366],[76.69918,12.10368],[76.699,12.10368],[76.69883,12.10367],[76.69866,12.10367],[76.69846,12.10371],[76.69835,12.10378],[76.69828,12.10387],[76.69825,12.10398],[76.69818,12.10443],[76.69816,12.10473],[76.69816,12.10504],[76.69816,12.10531],[76.69817,12.10679],[76.69815,12.1072],[76.69815,12.10754],[76.69815,12.10779],[76.69815,12.10806],[76.69815,12.10831],[76.69791,12.10873],[76.69779,12.10898],[76.69765,12.10923],[76.69753,12.10952],[76.69737,12.10979],[76.69721,12.11009],[76.69713,12.11044],[76.6971,12.11067],[76.6971,12.11097],[76.69714,12.11121],[76.69722,12.11139],[76.69731,12.11148],[76.69748,12.11171],[76.69762,12.11186],[76.69785,12.11197],[76.69803,12.11199],[76.69822,12.11203],[76.69847,12.1121],[76.69864,12.11215],[76.69897,12.11233],[76.69912,12.11238],[76.69927,12.11245],[76.6994,12.11252],[76.69948,12.11259],[76.69953,12.11271],[76.69956,12.11288],[76.69953,12.113],[76.69944,12.11312],[76.69934,12.11321],[76.69928,12.11328],[76.69921,12.11342],[76.69913,12.11384],[76.69912,12.11407],[76.69914,12.11428],[76.69916,12.1145],[76.69918,12.11489],[76.6991,12.11583],[76.6991,12.1161],[76.6991,12.11639],[76.69905,12.11661],[76.69901,12.11679],[76.699,12.11697],[76.699,12.1172],[76.69905,12.11734],[76.69916,12.11749],[76.69925,12.1176],[76.69934,12.1177],[76.69953,12.11801],[76.6997,12.11834],[76.69982,12.1186],[76.69989,12.11878],[76.69993,12.11895],[76.69993,12.11909],[76.69993,12.11924],[76.69985,12.11932],[76.69979,12.11937],[76.69966,12.1194],[76.69955,12.11939],[76.6994,12.11935],[76.6991,12.11932],[76.6989,12.11933],[76.6987,12.11938],[76.69851,12.11947],[76.6983,12.1196],[76.69815,12.11975],[76.69809,12.11995],[76.69811,12.12018],[76.69809,12.1205]]]},"properties":{"kind":"drain-line","shedId":"C05CAM21"}},{"type":"Feature","geometry":{"type":"MultiLineString","coordinates":[[[76.66485,12.12692],[76.66566,12.12638],[76.66603,12.12628],[76.66637,12.12628],[76.6667,12.12626],[76.66702,12.12626],[76.66734,12.12625],[76.66779,12.12624],[76.6683,12.12622],[76.66865,12.12622],[76.66901,12.12621],[76.66943,12.12619],[76.6697,12.12619],[76.67005,12.12608],[76.67042,12.12594],[76.67095,12.12561],[76.67117,12.12554],[76.6716,12.12544],[76.672,12.12533],[76.67279,12.12519],[76.67325,12.1251],[76.6736,12.1251],[76.67384,12.1251],[76.6741,12.1251],[76.67506,12.12535],[76.67596,12.12573],[76.67639,12.12599],[76.67668,12.12617],[76.67702,12.12644],[76.6773,12.1267],[76.6776,12.12692],[76.67818,12.1272],[76.6785,12.12738],[76.67883,12.12755],[76.67915,12.12768],[76.67941,12.12776],[76.67962,12.12785],[76.67981,12.12795],[76.67997,12.12802],[76.68014,12.12812],[76.68027,12.12819],[76.68036,12.12827],[76.68048,12.12836],[76.68055,12.12847],[76.68059,12.12866],[76.6806,12.1288],[76.68056,12.12898],[76.68043,12.12932],[76.68043,12.12956],[76.6806,12.12993],[76.68081,12.13014],[76.68113,12.13037],[76.68138,12.1305],[76.68154,12.13058],[76.68178,12.13064],[76.68193,12.13064],[76.68233,12.13068],[76.68279,12.13062]]]},"properties":{"kind":"drain-line","shedId":"C05CAM21"}},{"type":"Feature","geometry":{"type":"MultiLineString","coordinates":[[[76.66485,12.12692],[76.66566,12.12638],[76.66603,12.12628],[76.66637,12.12628],[76.6667,12.12626],[76.66702,12.12626],[76.66734,12.12625],[76.66779,12.12624],[76.6683,12.12622],[76.66865,12.12622],[76.66901,12.12621],[76.66943,12.12619],[76.6697,12.12619],[76.67005,12.12608],[76.67042,12.12594],[76.67095,12.12561],[76.67117,12.12554],[76.6716,12.12544],[76.672,12.12533],[76.67279,12.12519],[76.67325,12.1251],[76.6736,12.1251],[76.67384,12.1251],[76.6741,12.1251],[76.67506,12.12535],[76.67596,12.12573],[76.67639,12.12599],[76.67668,12.12617],[76.67702,12.12644],[76.6773,12.1267],[76.6776,12.12692],[76.67818,12.1272],[76.6785,12.12738],[76.67883,12.12755],[76.67915,12.12768],[76.67941,12.12776],[76.67962,12.12785],[76.67981,12.12795],[76.67997,12.12802],[76.68014,12.12812],[76.68027,12.12819],[76.68036,12.12827],[76.68048,12.12836],[76.68055,12.12847],[76.68059,12.12866],[76.6806,12.1288],[76.68056,12.12898],[76.68043,12.12932],[76.68043,12.12956],[76.6806,12.12993],[76.68081,12.13014],[76.68113,12.13037],[76.68138,12.1305],[76.68154,12.13058],[76.68178,12.13064],[76.68193,12.13064],[76.68233,12.13068],[76.68279,12.13062]]]},"properties":{"kind":"drain-line","shedId":"C05CAM21"}},{"type":"Feature","geometry":{"type":"MultiLineString","coordinates":[[[76.66485,12.12692],[76.66566,12.12638],[76.66603,12.12628],[76.66637,12.12628],[76.6667,12.12626],[76.66702,12.12626],[76.66734,12.12625],[76.66779,12.12624],[76.6683,12.12622],[76.66865,12.12622],[76.66901,12.12621],[76.66943,12.12619],[76.6697,12.12619],[76.67005,12.12608],[76.67042,12.12594],[76.67095,12.12561],[76.67117,12.12554],[76.6716,12.12544],[76.672,12.12533],[76.67279,12.12519],[76.67325,12.1251],[76.6736,12.1251],[76.67384,12.1251],[76.6741,12.1251],[76.67506,12.12535],[76.67596,12.12573],[76.67639,12.12599],[76.67668,12.12617],[76.67702,12.12644],[76.6773,12.1267],[76.6776,12.12692],[76.67818,12.1272],[76.6785,12.12738],[76.67883,12.12755],[76.67915,12.12768],[76.67941,12.12776],[76.67962,12.12785],[76.67981,12.12795],[76.67997,12.12802],[76.68014,12.12812],[76.68027,12.12819],[76.68036,12.12827],[76.68048,12.12836],[76.68055,12.12847],[76.68059,12.12866],[76.6806,12.1288],[76.68056,12.12898],[76.68043,12.12932],[76.68043,12.12956],[76.6806,12.12993],[76.68081,12.13014],[76.68113,12.13037],[76.68138,12.1305],[76.68154,12.13058],[76.68178,12.13064],[76.68193,12.13064],[76.68233,12.13068],[76.68279,12.13062]]]},"properties":{"kind":"drain-line","shedId":"C05CAM21"}},{"type":"Feature","geometry":{"type":"MultiLineString","coordinates":[[[76.75481,12.17305],[76.75515,12.17279],[76.75553,12.17255]]]},"properties":{"kind":"drain-line","shedId":"C05CAM22"}},{"type":"Feature","geometry":{"type":"MultiLineString","coordinates":[[[76.74708,12.18678],[76.74719,12.18674],[76.74736,12.18664],[76.7474,12.18658],[76.74743,12.18637],[76.74746,12.18541],[76.74757,12.18506],[76.74797,12.1842],[76.74807,12.18402],[76.74815,12.18385],[76.74823,12.18374],[76.74832,12.18367],[76.74841,12.18363],[76.74855,12.18355],[76.74869,12.18346],[76.74878,12.18337],[76.74883,12.18329]]]},"properties":{"kind":"drain-line","shedId":"C05CAM22"}}]}