{"nvdm":"1.0","dataset":"basins/prs","scope":{"kind":"basin","id":"kabini"},"provenance":{"sources":[{"title":"CPCB polluted river stretches, digitised (PRS_Stretches_Since_1993) - Cauvery Basin GIS package (GeoPackages, Aug 2026 delivery)","publisher":"Paani Earth Foundation","closed":true,"as_of":"2026-08","role":"input","license":"partner-supplied compilation, cited with attribution; underlying government layers as attributed per layer"},{"title":"The 2018 stretch, redrawn against the monitoring station locations - Kabini review round (GeoPackages, 23 Aug 2026 delivery)","publisher":"Paani Earth Foundation","closed":true,"as_of":"2026-08","role":"input","license":"partner-supplied compilation, cited with attribution; underlying government layers as attributed per layer"},{"id":"cpcb-prs-report","title":"Polluted River Stretches for Restoration of Water Quality 2025 (updated version) - Karnataka list p.15, station BOD pp.48 and 144, stretch maxima p.77, improvement-since-2018 annexure p.108","publisher":"Central Pollution Control Board","url":"https://cpcb.gov.in/polluted-river-stretches/","license":"restrictive, permission required: the CPCB website policy permits material to be 'downloaded to file or printer without requiring specific prior permission', and 'Any other proposed use of the material is subject to the approval of competent authority of CPCB' - no redistribution without approval","role":"asserts","as_of":"2025-10"},{"id":"kwris-basin-geoserver","title":"Karnataka WRD basin decomposition, sub-basin C2 (KWRIS GeoServer, via the cauvery-ka atlas ingest)","publisher":"ACIWRM / Karnataka Water Resources Department","url":"https://kwris.karnataka.gov.in/","license":"public Karnataka government data; open WFS, no explicit licence stated - cited with attribution","role":"input","as_of":"2026-07"}],"method":"derived","produced_at":"2026-08-26","produced_by":"scripts/build_kabini_sources.py + scripts/ingest_basin.py (scripts/basin-sources/kabini-ingest.json)"},"type":"FeatureCollection","features":[{"type":"Feature","geometry":{"type":"MultiLineString","coordinates":[[[76.39319,11.9961],[76.39327,11.99627],[76.39351,11.99713],[76.39352,11.99735],[76.39339,11.99772],[76.39321,11.998],[76.39301,11.99825],[76.39265,11.99856],[76.39217,11.99879],[76.39137,11.99912],[76.39079,11.99932],[76.39023,11.99955],[76.38962,11.99986],[76.38806,12.00055],[76.38768,12.00091],[76.38737,12.00125],[76.38724,12.00142],[76.38711,12.00156],[76.38702,12.00167],[76.38647,12.00222],[76.38598,12.00272],[76.38574,12.00292],[76.38557,12.00307],[76.38539,12.00321],[76.38494,12.00345],[76.38437,12.00363],[76.38267,12.00441],[76.38172,12.00467],[76.38064,12.00487],[76.38023,12.00495],[76.37926,12.00501],[76.37875,12.00501],[76.37833,12.00501],[76.37802,12.00495],[76.37747,12.00481],[76.37676,12.0046],[76.37623,12.00445],[76.37563,12.00436],[76.37518,12.00436],[76.37463,12.00446],[76.37417,12.00462],[76.3736,12.00488],[76.37297,12.00526],[76.37244,12.00571],[76.37217,12.00603],[76.37202,12.00638],[76.3719,12.00669],[76.37181,12.00707],[76.3718,12.0075],[76.37184,12.00821],[76.37186,12.00909],[76.37204,12.00992],[76.37208,12.01012],[76.37239,12.01098],[76.37269,12.01137],[76.37302,12.01181],[76.37361,12.0122],[76.37433,12.01278],[76.37551,12.01366],[76.37686,12.01446],[76.37771,12.0149],[76.37843,12.01544],[76.37891,12.01593],[76.37924,12.01625],[76.38,12.01729],[76.3804,12.01784],[76.38155,12.01926],[76.38221,12.01993],[76.38234,12.02005],[76.38274,12.02044],[76.38308,12.02065],[76.3833,12.02079],[76.38344,12.02086],[76.38361,12.02094],[76.38381,12.02098],[76.38401,12.02098],[76.38414,12.02098],[76.38432,12.02095],[76.38463,12.02085],[76.3853,12.02073],[76.38621,12.02066],[76.38755,12.02053],[76.38823,12.02047],[76.38939,12.0203],[76.39,12.02028],[76.39031,12.02028],[76.39052,12.02028],[76.39101,12.02035],[76.39145,12.02036],[76.39171,12.02032],[76.39193,12.02024],[76.39213,12.02015],[76.39218,12.02014],[76.39234,12.02006],[76.3926,12.01986],[76.39293,12.0194],[76.39361,12.01821],[76.39489,12.01634],[76.39555,12.01534],[76.39584,12.01487],[76.39598,12.01452],[76.39625,12.01341],[76.39662,12.01153],[76.39713,12.00963],[76.39801,12.00637],[76.39842,12.00536],[76.39883,12.00473],[76.39914,12.00449],[76.39945,12.00428],[76.3997,12.00417],[76.40008,12.00412],[76.40036,12.00412],[76.40078,12.00422],[76.40112,12.0044],[76.40138,12.00471],[76.402,12.00569],[76.40263,12.00651],[76.40348,12.00709],[76.40423,12.00743],[76.40488,12.00753],[76.40533,12.00753],[76.40573,12.00749],[76.40601,12.00738],[76.40639,12.00714],[76.40731,12.00612],[76.40851,12.00454],[76.40988,12.00304],[76.4108,12.00241],[76.41132,12.00216],[76.41311,12.0016],[76.41443,12.00136],[76.4153,12.00135],[76.41562,12.00135],[76.41673,12.00135],[76.41729,12.00145],[76.41768,12.00157],[76.4182,12.00176],[76.41848,12.0019],[76.41869,12.00205],[76.4189,12.00224],[76.419,12.00241],[76.41903,12.00248],[76.41914,12.00275],[76.41923,12.00301],[76.41939,12.00336],[76.41951,12.00356],[76.41965,12.00373],[76.41978,12.00389],[76.42002,12.00409],[76.42022,12.00438],[76.42031,12.00466],[76.42034,12.00493],[76.42034,12.00511],[76.42024,12.00543],[76.41999,12.00579],[76.41974,12.00612],[76.4194,12.00673],[76.41904,12.00743],[76.41885,12.00799],[76.41865,12.00842],[76.41796,12.00941],[76.41738,12.01025],[76.41735,12.0103],[76.41668,12.01132],[76.41576,12.01291],[76.41485,12.01446],[76.41461,12.01483],[76.41432,12.01512],[76.41413,12.01526],[76.41381,12.01542],[76.41335,12.01577],[76.41296,12.01615],[76.4125,12.01659],[76.41222,12.01687],[76.41196,12.01712],[76.41172,12.01734],[76.41157,12.01745],[76.41099,12.01781],[76.4105,12.01812],[76.4103,12.01828],[76.40974,12.0188],[76.40901,12.01953],[76.40854,12.02012],[76.40814,12.02069],[76.40794,12.02112],[76.40786,12.02155],[76.40782,12.02189],[76.40786,12.02233],[76.40803,12.02299],[76.40842,12.02499],[76.40846,12.02629],[76.40842,12.02675],[76.40829,12.02727],[76.40812,12.02776],[76.40788,12.02827],[76.40735,12.02908],[76.40649,12.03006],[76.40631,12.03028],[76.40551,12.03123],[76.4047,12.03234],[76.40434,12.03288],[76.40414,12.0332],[76.40369,12.03409],[76.40334,12.035],[76.40302,12.03625],[76.40284,12.03734],[76.40283,12.03745],[76.40281,12.0383],[76.40291,12.03909],[76.40307,12.03974],[76.4033,12.04025],[76.40355,12.04062],[76.40423,12.04126],[76.40582,12.04241],[76.40686,12.04323],[76.40728,12.04354],[76.40751,12.04376],[76.40766,12.04405],[76.4078,12.04438],[76.40787,12.0447],[76.40787,12.04481],[76.40789,12.04522],[76.40766,12.04637],[76.40744,12.04674],[76.40737,12.04685],[76.40721,12.04702],[76.40708,12.04708],[76.40688,12.04714],[76.40661,12.04713],[76.40625,12.04705],[76.40551,12.04702],[76.40505,12.04705],[76.40461,12.04725],[76.40436,12.0475],[76.40419,12.04778],[76.40404,12.04815],[76.40394,12.04842],[76.4039,12.0486],[76.40382,12.04888],[76.4037,12.04915],[76.40358,12.04935],[76.40345,12.04952],[76.4033,12.04966],[76.40298,12.04998],[76.40293,12.05002],[76.40252,12.05047],[76.40234,12.05068],[76.40215,12.05087],[76.40201,12.05106],[76.40188,12.05125],[76.40179,12.05143],[76.4017,12.05181],[76.4017,12.05235],[76.40175,12.05471],[76.40174,12.05482],[76.40163,12.05609],[76.4014,12.05698],[76.40089,12.05829],[76.40023,12.05941],[76.39936,12.06067],[76.39858,12.06175],[76.39845,12.06196],[76.39797,12.06236],[76.39776,12.06253],[76.39669,12.06337],[76.39593,12.06398],[76.3958,12.06409],[76.39563,12.06425],[76.395,12.06489],[76.3947,12.06518],[76.39444,12.06539],[76.39426,12.06555],[76.39374,12.0662],[76.39322,12.06706],[76.39266,12.06858],[76.39235,12.06933],[76.39215,12.07018],[76.39196,12.07119],[76.39183,12.07238],[76.39176,12.073],[76.39168,12.07335],[76.3915,12.07387],[76.3913,12.07428],[76.39115,12.0745],[76.39096,12.07474],[76.39076,12.0749],[76.39041,12.0751],[76.38992,12.07529],[76.38856,12.07559],[76.38734,12.07584],[76.38552,12.07619],[76.38473,12.07632],[76.3842,12.0763],[76.38372,12.07636],[76.38348,12.07641],[76.38325,12.07649],[76.38304,12.07657],[76.38287,12.07664],[76.38268,12.07674],[76.38245,12.07693],[76.38198,12.07746],[76.38173,12.07789],[76.38161,12.0783],[76.3816,12.07862],[76.38161,12.07913],[76.38167,12.07975],[76.38194,12.08064],[76.38241,12.08155],[76.38305,12.08257],[76.38372,12.08344],[76.38415,12.08401],[76.38453,12.08432],[76.38483,12.0845],[76.38555,12.08473],[76.38606,12.08484],[76.38634,12.08491],[76.38669,12.08494],[76.38704,12.08494],[76.38731,12.08494],[76.38765,12.08492],[76.38796,12.08489],[76.38829,12.08483],[76.38956,12.08473],[76.39029,12.08476],[76.39102,12.08489],[76.39142,12.08495],[76.39191,12.08497],[76.39252,12.08495],[76.393,12.08495],[76.39337,12.08492],[76.39376,12.08485],[76.39422,12.08474],[76.39466,12.08459],[76.39518,12.08443],[76.39596,12.08421],[76.39681,12.08414],[76.39734,12.08419],[76.39811,12.08429],[76.39886,12.08446],[76.39954,12.08471],[76.40059,12.08516],[76.40115,12.08565],[76.40142,12.08591],[76.40197,12.08668],[76.40223,12.08721],[76.40238,12.0877],[76.40245,12.08842],[76.40233,12.08884],[76.40197,12.08925],[76.4018,12.08943],[76.40161,12.08961],[76.4014,12.08976],[76.4012,12.08987],[76.40081,12.09003],[76.40016,12.09011],[76.39975,12.09019],[76.39958,12.09027],[76.39937,12.09037],[76.39924,12.09044],[76.39909,12.09053],[76.39893,12.09066],[76.39882,12.09077],[76.39828,12.0913],[76.39817,12.09143],[76.39803,12.09153],[76.39779,12.09165],[76.39765,12.09172],[76.39748,12.0918],[76.39726,12.0919],[76.39705,12.09205],[76.39674,12.09231],[76.39652,12.09272],[76.39598,12.09388],[76.39565,12.09456],[76.39542,12.09504],[76.39527,12.09545],[76.39515,12.09589],[76.39507,12.09648],[76.39513,12.09712],[76.39522,12.09745],[76.39533,12.09777],[76.39542,12.09791],[76.39556,12.09808],[76.39571,12.09823],[76.39587,12.09835],[76.39603,12.09843],[76.39622,12.09852],[76.39629,12.09852],[76.3966,12.09856],[76.39696,12.09858],[76.39846,12.09856],[76.40117,12.09872],[76.40453,12.09924],[76.40548,12.09934],[76.40655,12.09935],[76.40833,12.09922],[76.41037,12.09885],[76.413,12.09817],[76.41423,12.09791],[76.41494,12.09784],[76.4155,12.0979],[76.41616,12.09814],[76.417,12.09858],[76.41783,12.09924],[76.4184,12.09991],[76.41878,12.10057],[76.41884,12.10091],[76.41881,12.10113],[76.41876,12.10133],[76.41874,12.10168],[76.41874,12.10185],[76.41874,12.10205],[76.41887,12.10246],[76.41897,12.10264],[76.419,12.10279],[76.419,12.10295],[76.41895,12.10308],[76.41889,12.10318],[76.41824,12.10362],[76.41809,12.10374],[76.418,12.10385],[76.41783,12.10404],[76.41772,12.10419],[76.41754,12.10445],[76.41676,12.10574],[76.41663,12.10589],[76.41649,12.10607],[76.41613,12.10638],[76.41599,12.1065],[76.41587,12.10671],[76.41579,12.10696],[76.41568,12.10738],[76.41558,12.10805],[76.41554,12.10878],[76.41557,12.10917],[76.41569,12.10957],[76.41597,12.11032],[76.41619,12.11058],[76.41652,12.11087],[76.41681,12.11109],[76.41703,12.11122],[76.4174,12.11141],[76.41761,12.1115],[76.41782,12.11157],[76.41946,12.11185],[76.42057,12.11198],[76.42106,12.11199],[76.42139,12.11198],[76.42158,12.11196],[76.42184,12.11189],[76.42211,12.11181],[76.42237,12.11176],[76.42265,12.11174],[76.42305,12.11173],[76.42396,12.11177],[76.4243,12.11179],[76.42478,12.11191],[76.42515,12.11206],[76.4256,12.11232],[76.42641,12.11274],[76.42694,12.11321],[76.42724,12.1136],[76.4278,12.11411],[76.42829,12.11451],[76.42885,12.1149],[76.42987,12.11551],[76.43017,12.11569],[76.43222,12.11678],[76.43362,12.11749],[76.4354,12.11835],[76.43577,12.11848],[76.43666,12.11877],[76.43819,12.11909],[76.44091,12.11954],[76.44111,12.11958],[76.44122,12.11957],[76.44136,12.11949],[76.44146,12.11942],[76.44162,12.11936],[76.44184,12.11933],[76.44215,12.1193],[76.44234,12.1193],[76.44255,12.1193],[76.44279,12.1193],[76.44307,12.1193],[76.44335,12.11927],[76.44392,12.1191],[76.44442,12.11891],[76.44483,12.11873],[76.44508,12.11861],[76.44566,12.11836],[76.44651,12.11812],[76.44698,12.11802],[76.44743,12.11788],[76.44778,12.11777],[76.44823,12.11757],[76.44939,12.11708],[76.45003,12.11691],[76.45053,12.11686],[76.45091,12.11683],[76.45114,12.11683],[76.45129,12.11682],[76.45138,12.11682],[76.45173,12.11683],[76.4522,12.11685],[76.45248,12.11684],[76.45285,12.11677],[76.45315,12.11665],[76.45351,12.1164],[76.45457,12.11605],[76.45513,12.11584],[76.45575,12.11564],[76.45611,12.11554],[76.45716,12.1153],[76.45803,12.11514],[76.45857,12.11511],[76.45921,12.11507],[76.45948,12.11503],[76.46029,12.1149],[76.46171,12.1145],[76.46373,12.11375],[76.46447,12.11344],[76.46481,12.1133],[76.4654,12.11296],[76.4662,12.11215],[76.46698,12.111],[76.46723,12.11058],[76.46739,12.11009],[76.46746,12.10967],[76.4675,12.10935],[76.46752,12.109],[76.46756,12.10854],[76.46756,12.10814],[76.46757,12.10793],[76.46768,12.10757],[76.46783,12.10704],[76.46813,12.10638],[76.46829,12.10611],[76.46846,12.10587],[76.46867,12.10559],[76.46968,12.10433],[76.47047,12.10339],[76.47064,12.10317],[76.47085,12.10288],[76.47093,12.10273],[76.47133,12.10194],[76.47153,12.10131],[76.47158,12.10097],[76.47159,12.10047],[76.47155,12.10001],[76.47148,12.09964],[76.47137,12.09923],[76.47127,12.09895],[76.47102,12.09828],[76.47093,12.09798],[76.4709,12.09777],[76.4709,12.09757],[76.47093,12.09737],[76.47099,12.0971],[76.47135,12.09659],[76.47177,12.09627],[76.47254,12.09599],[76.47331,12.09582],[76.475,12.09545],[76.47697,12.09537],[76.4777,12.09545],[76.47853,12.09555],[76.47991,12.09572],[76.48152,12.09574],[76.48241,12.09587],[76.48421,12.09638],[76.48706,12.09783],[76.48953,12.09967],[76.49191,12.10179],[76.49379,12.10335],[76.49415,12.10354],[76.49492,12.10395],[76.49532,12.10416],[76.49585,12.10446],[76.49659,12.10478],[76.49749,12.10502],[76.49834,12.10517],[76.49903,12.10517],[76.49998,12.10515],[76.50285,12.10503],[76.50538,12.10466],[76.50543,12.10466],[76.50947,12.10356],[76.51048,12.10308],[76.51147,12.10262],[76.5125,12.1023],[76.51322,12.10224],[76.51385,12.10228],[76.51446,12.10242],[76.51497,12.10263],[76.51647,12.10385],[76.51707,12.10436],[76.51773,12.10467],[76.51854,12.10486],[76.51875,12.10491],[76.51931,12.10494],[76.51984,12.10491],[76.52044,12.10478],[76.52109,12.10456],[76.52152,12.10431],[76.52237,12.10381],[76.52292,12.10345],[76.52528,12.10144],[76.52644,12.10051],[76.52697,12.1002],[76.52713,12.10013],[76.5275,12.09998],[76.528,12.09994],[76.52819,12.09999],[76.52878,12.10014],[76.52938,12.10066],[76.53019,12.10198],[76.53029,12.1022],[76.53111,12.10394],[76.53192,12.10576],[76.53251,12.10644],[76.53333,12.10698],[76.53398,12.10738],[76.53496,12.10786],[76.53553,12.1081],[76.53598,12.10835],[76.5373,12.10939],[76.5382,12.11011],[76.53901,12.11047],[76.53985,12.11081],[76.54017,12.11096],[76.54062,12.11111],[76.54111,12.11121],[76.54164,12.11135],[76.54211,12.11142],[76.54259,12.11145],[76.54336,12.11131],[76.54361,12.11124],[76.54397,12.11114],[76.5443,12.11097],[76.54458,12.11068],[76.54476,12.11044],[76.54502,12.11012],[76.54527,12.10987],[76.54592,12.10942],[76.54663,12.10905],[76.54779,12.10838],[76.5486,12.10778],[76.54883,12.10762],[76.54887,12.10759],[76.54921,12.10732],[76.54952,12.10715],[76.54996,12.10691],[76.55017,12.10677],[76.55026,12.10667],[76.55037,12.10642],[76.55048,12.10598],[76.55053,12.10549],[76.55055,12.10511],[76.55064,12.10469],[76.55075,12.10431],[76.55082,12.10413],[76.55086,12.10401],[76.55108,12.10368],[76.55154,12.10324],[76.55223,12.10276],[76.55307,12.1023],[76.55426,12.10203],[76.55587,12.10199],[76.55799,12.10205],[76.56075,12.10178],[76.56216,12.10178],[76.56288,12.10191],[76.56339,12.1021],[76.56386,12.10258],[76.56417,12.1031],[76.56439,12.10376],[76.56444,12.10489],[76.56434,12.10626],[76.56456,12.10755],[76.56468,12.1087],[76.56473,12.10956],[76.56466,12.1105],[76.5645,12.11115],[76.56435,12.11172],[76.56425,12.11314],[76.5643,12.11399],[76.56448,12.11466],[76.5647,12.1153],[76.5649,12.11569],[76.56571,12.11677],[76.56712,12.11791],[76.56885,12.11884],[76.56942,12.11906],[76.5716,12.1199],[76.57415,12.12053],[76.57547,12.12068],[76.57649,12.12065],[76.5774,12.12044],[76.57843,12.11999],[76.58065,12.11825],[76.58109,12.11786],[76.5827,12.11646],[76.58292,12.11634],[76.58339,12.11607],[76.58458,12.11574],[76.58671,12.11538],[76.58881,12.11519],[76.58942,12.1151],[76.59093,12.11487],[76.593,12.11487],[76.59415,12.11518],[76.59557,12.116],[76.59637,12.11663],[76.59665,12.11696],[76.59749,12.11793],[76.5988,12.11911],[76.59955,12.11953],[76.60054,12.11981],[76.60174,12.11997],[76.60441,12.11995],[76.60552,12.1199],[76.60718,12.11982],[76.60869,12.11971],[76.60937,12.11967],[76.60986,12.11961],[76.61047,12.1195],[76.61081,12.11934],[76.61147,12.11895],[76.61211,12.11854],[76.61262,12.11832],[76.61313,12.11817],[76.61373,12.11809],[76.61432,12.11801],[76.61497,12.11794],[76.61612,12.11797],[76.61627,12.11802],[76.61663,12.11814],[76.6172,12.11843],[76.61785,12.11885],[76.61858,12.11959],[76.61935,12.12044],[76.62007,12.12099],[76.62093,12.12154],[76.62199,12.12191],[76.62384,12.12241],[76.62438,12.12256],[76.6247,12.12261],[76.62777,12.12309],[76.62881,12.12329],[76.62909,12.12334],[76.63005,12.12373],[76.63156,12.12454],[76.63346,12.12586],[76.63379,12.12599],[76.63522,12.12658],[76.63893,12.12775],[76.63946,12.12798],[76.64229,12.12922],[76.64389,12.12991],[76.64447,12.13032],[76.64542,12.13136],[76.64624,12.13273],[76.6464,12.13298],[76.64719,12.13488],[76.64753,12.13657],[76.6477,12.13797],[76.64783,12.14067],[76.64812,12.14196],[76.64845,12.14266],[76.64876,12.14328],[76.64905,12.14387],[76.65027,12.14532],[76.65164,12.14682],[76.6545,12.1485],[76.65489,12.14876],[76.65688,12.1501],[76.65844,12.15116],[76.6594,12.15148],[76.66103,12.15172],[76.66431,12.15214],[76.66753,12.15254],[76.66876,12.15295],[76.66984,12.15356],[76.67041,12.15387],[76.67075,12.15403],[76.6713,12.15423],[76.67152,12.15427],[76.67217,12.15437],[76.67284,12.15424],[76.67308,12.15418],[76.67375,12.15401],[76.67486,12.15358],[76.67609,12.15299],[76.67828,12.1517],[76.6794,12.151],[76.67958,12.15088],[76.67992,12.15065],[76.6802,12.15035],[76.68035,12.15001],[76.68045,12.1491],[76.68047,12.14851],[76.68047,12.14821],[76.68042,12.14799],[76.68032,12.14775],[76.68021,12.14745],[76.68001,12.14707],[76.67964,12.14676],[76.67861,12.14611],[76.67718,12.14521],[76.67617,12.14467],[76.67574,12.14431],[76.67532,12.14374],[76.67508,12.14323],[76.67507,12.14282],[76.67533,12.14207],[76.67563,12.14076],[76.67587,12.13974],[76.67592,12.13955],[76.67609,12.13888],[76.67654,12.13774],[76.67729,12.13655],[76.67817,12.13525],[76.67891,12.13436],[76.67943,12.13375],[76.68125,12.13193],[76.68251,12.13084],[76.68279,12.13062],[76.68306,12.1304],[76.68346,12.13014],[76.68374,12.13004],[76.68403,12.12997],[76.68426,12.12994],[76.68474,12.12992],[76.68512,12.12996],[76.68545,12.12996],[76.68573,12.12993],[76.68594,12.12991],[76.68618,12.12984],[76.68682,12.12952],[76.68747,12.12913],[76.68823,12.12847],[76.6887,12.128],[76.68933,12.12708],[76.69007,12.12603],[76.69047,12.1256],[76.69106,12.12496],[76.69201,12.12397],[76.69336,12.12286],[76.69429,12.12231],[76.69487,12.12202],[76.69584,12.12161],[76.69657,12.12141],[76.6977,12.12122],[76.69861,12.12102],[76.69869,12.121],[76.69934,12.12092],[76.69979,12.12089],[76.70037,12.12089],[76.70082,12.12093],[76.70124,12.12108],[76.7017,12.12132],[76.70239,12.12193],[76.70264,12.12213],[76.70291,12.12229],[76.70316,12.1224],[76.70347,12.1225],[76.70374,12.12261],[76.70403,12.12271],[76.70429,12.12282],[76.70451,12.12294],[76.70628,12.12419],[76.70731,12.12494],[76.7082,12.12567],[76.70899,12.1265],[76.70933,12.1268],[76.70947,12.12696],[76.70957,12.1271],[76.70969,12.12755],[76.70971,12.12785],[76.70985,12.12877],[76.70994,12.12906],[76.71006,12.12944],[76.71013,12.12966],[76.71018,12.12993],[76.71047,12.13129],[76.71054,12.13192],[76.71055,12.13239],[76.71057,12.13289],[76.71061,12.13352],[76.71062,12.13371],[76.71082,12.13468],[76.71106,12.13542],[76.71128,12.13594],[76.71162,12.13637],[76.71242,12.13699],[76.71351,12.13782],[76.71432,12.13839],[76.71525,12.13904],[76.71652,12.14004],[76.71734,12.14076],[76.71842,12.14196],[76.71931,12.1432],[76.72015,12.1444],[76.72119,12.14566],[76.72147,12.14601],[76.72164,12.14638],[76.72178,12.14678],[76.72187,12.14742],[76.72192,12.1479],[76.7219,12.14831],[76.7218,12.14901],[76.72176,12.14941],[76.72181,12.14992],[76.72199,12.15055],[76.72223,12.1509],[76.72244,12.15109],[76.72284,12.15129],[76.72335,12.1514],[76.72364,12.15147],[76.72438,12.15151],[76.72536,12.1516],[76.72606,12.15155],[76.72706,12.15138],[76.72801,12.15109],[76.72885,12.1507],[76.73001,12.14988],[76.73086,12.14899],[76.73135,12.14819],[76.73156,12.14786],[76.73166,12.14766],[76.7318,12.14722],[76.73184,12.14701],[76.73184,12.14673],[76.7318,12.1465],[76.73177,12.14632],[76.73173,12.14612],[76.7317,12.146],[76.73167,12.14584],[76.73165,12.14573],[76.73165,12.14554],[76.73173,12.14515],[76.73192,12.14468],[76.73221,12.144],[76.7327,12.14262],[76.73325,12.14134],[76.73359,12.14081],[76.73401,12.14036],[76.73455,12.13993],[76.73523,12.13958],[76.7362,12.13907],[76.73816,12.13801],[76.73897,12.13748],[76.7394,12.13718],[76.73973,12.13701],[76.74003,12.13686],[76.74027,12.13678],[76.74048,12.13675],[76.74077,12.13674],[76.74098,12.13673],[76.74162,12.1368],[76.74181,12.13685],[76.74248,12.13702],[76.74322,12.13731],[76.74374,12.13756],[76.74389,12.13773],[76.74403,12.13791],[76.74411,12.13811],[76.74418,12.13834],[76.74432,12.13889],[76.74455,12.13984],[76.74507,12.14113],[76.74551,12.14199],[76.74558,12.14223],[76.74561,12.14251],[76.74562,12.14303],[76.74567,12.14424],[76.74573,12.14491],[76.74579,12.14556],[76.746,12.14617],[76.74633,12.14687],[76.7467,12.1474],[76.74776,12.14894],[76.74971,12.1512],[76.75074,12.15223],[76.7508,12.15228],[76.75148,12.15279],[76.75182,12.15309],[76.75199,12.15323],[76.7522,12.15341],[76.75236,12.15353],[76.75255,12.15362],[76.75283,12.15369],[76.75308,12.15369],[76.75331,12.15363],[76.75369,12.15348],[76.7541,12.1533],[76.75466,12.15306],[76.75503,12.15293],[76.7557,12.15286],[76.75619,12.15288],[76.75685,12.15294],[76.75824,12.15318],[76.75941,12.15351],[76.76048,12.15401],[76.76186,12.1549],[76.76228,12.15528],[76.76325,12.15615],[76.76354,12.1565],[76.76374,12.15683],[76.76376,12.15689],[76.76391,12.15729],[76.76401,12.15762],[76.76409,12.15797],[76.76421,12.15849],[76.76434,12.15883],[76.76452,12.1593],[76.76465,12.15954],[76.76482,12.15974],[76.76499,12.15996],[76.76542,12.16031],[76.76551,12.16036],[76.76592,12.16057],[76.76654,12.16072],[76.7673,12.16095],[76.7679,12.16116],[76.76868,12.16139],[76.76938,12.16155],[76.76995,12.1616],[76.77039,12.16159],[76.77075,12.16158],[76.77117,12.16157],[76.7714,12.16155],[76.7719,12.16152],[76.77332,12.16127],[76.77364,12.16126],[76.77411,12.16126],[76.77442,12.16132],[76.77482,12.16144],[76.7752,12.16158],[76.77546,12.16172],[76.77584,12.16198],[76.7762,12.16233],[76.77649,12.16267],[76.77694,12.16325],[76.77706,12.16362],[76.77715,12.16404],[76.77715,12.16428],[76.77716,12.1647],[76.77714,12.16531],[76.77717,12.16551],[76.77725,12.16625],[76.77733,12.16672],[76.77747,12.16711],[76.77769,12.16733],[76.77801,12.16755],[76.77824,12.16765],[76.77849,12.16771],[76.77867,12.16775],[76.77922,12.16784],[76.77971,12.16792],[76.78141,12.16819],[76.78183,12.16822],[76.78206,12.16822],[76.78245,12.16817],[76.78281,12.16814],[76.78318,12.16807],[76.78339,12.16796],[76.7837,12.16767],[76.78394,12.16729],[76.78434,12.16655],[76.78483,12.16569],[76.78521,12.16522],[76.78549,12.16496],[76.78573,12.16483],[76.78594,12.16477],[76.78623,12.16477],[76.78646,12.16484],[76.78678,12.16503],[76.78713,12.16524],[76.78761,12.1655],[76.78788,12.1656],[76.78825,12.16567],[76.78853,12.16569],[76.78896,12.16568],[76.78934,12.16567],[76.79013,12.16571],[76.79058,12.16575],[76.79102,12.16589],[76.79133,12.16605],[76.79177,12.16632],[76.79201,12.16659],[76.79229,12.16691],[76.79258,12.16738],[76.7927,12.1677],[76.7928,12.16827],[76.79291,12.16877],[76.79316,12.16935],[76.79339,12.17],[76.79355,12.17043],[76.7939,12.17182],[76.79422,12.17318],[76.79441,12.17367],[76.79465,12.1741],[76.79502,12.1745],[76.79573,12.17522],[76.79691,12.17642],[76.7975,12.17687],[76.79787,12.17709],[76.79833,12.17734],[76.79902,12.17759],[76.8003,12.1778],[76.80239,12.17806],[76.80361,12.17828],[76.80455,12.17861],[76.80502,12.17885],[76.80619,12.17961],[76.80654,12.17998],[76.80681,12.18044],[76.80689,12.18064],[76.807,12.18094],[76.80708,12.18136],[76.80708,12.1816],[76.80708,12.18185],[76.8068,12.18256],[76.80662,12.1829],[76.80651,12.18306],[76.80638,12.1832],[76.80629,12.18331],[76.80609,12.18368],[76.80597,12.18402],[76.80589,12.1844],[76.80585,12.18537],[76.80598,12.18625],[76.80611,12.18719],[76.80642,12.18825],[76.80667,12.18881],[76.80707,12.18938],[76.80767,12.19006],[76.80858,12.19095],[76.80897,12.1912],[76.80908,12.19128],[76.81035,12.19206],[76.81174,12.19287],[76.8126,12.19325],[76.81332,12.19342],[76.81428,12.19363],[76.81482,12.19375],[76.81523,12.19384],[76.81555,12.19388],[76.81588,12.19394],[76.81673,12.19422],[76.81736,12.19455],[76.81787,12.19482],[76.8191,12.19561],[76.82012,12.1966],[76.82029,12.19677],[76.82178,12.19844],[76.82228,12.19914],[76.8229,12.20016],[76.82365,12.20123],[76.82408,12.20186],[76.82461,12.20258],[76.82475,12.20278],[76.82483,12.2029],[76.82503,12.20318],[76.82523,12.20352],[76.82575,12.20434],[76.82594,12.20463],[76.82609,12.20487],[76.8263,12.20512],[76.82671,12.20542],[76.82701,12.20557],[76.82729,12.20571],[76.82759,12.20583],[76.82965,12.2064],[76.83048,12.20672],[76.83073,12.20685],[76.83107,12.207],[76.83136,12.20717],[76.83149,12.20724],[76.83201,12.20755],[76.83252,12.20798],[76.83281,12.20832],[76.83307,12.20876],[76.83335,12.20959],[76.83361,12.21064],[76.83391,12.21153],[76.83446,12.2131],[76.83451,12.21323],[76.83455,12.21336],[76.8349,12.21447],[76.83537,12.21567],[76.83547,12.21611],[76.83555,12.21663],[76.83556,12.21705],[76.83556,12.21734],[76.8355,12.21762],[76.83536,12.21817],[76.83515,12.21925],[76.83485,12.22169],[76.83465,12.22266],[76.8345,12.22326],[76.83419,12.22414],[76.83408,12.22452],[76.83395,12.22536],[76.83387,12.22596],[76.83383,12.22629],[76.83382,12.22681],[76.83386,12.22743],[76.834,12.22841],[76.83415,12.22947],[76.83434,12.23028],[76.83523,12.23232],[76.83566,12.23319],[76.83593,12.23352],[76.83646,12.23399],[76.83651,12.23403],[76.83676,12.23419],[76.83708,12.23435],[76.83737,12.23444],[76.83768,12.23451],[76.83797,12.23453],[76.83826,12.23453],[76.83854,12.23449],[76.83897,12.23438],[76.83947,12.23417],[76.84005,12.23392],[76.84118,12.23344],[76.84259,12.23306],[76.84419,12.23246],[76.84458,12.2323],[76.845,12.23207],[76.84562,12.23173],[76.8457,12.23168],[76.8472,12.23074],[76.8477,12.23053],[76.84844,12.23041],[76.84928,12.23039],[76.84943,12.23042],[76.85012,12.23052],[76.85126,12.23082],[76.85316,12.23141],[76.8543,12.23193],[76.85566,12.23267],[76.85664,12.23311],[76.85694,12.23324],[76.85797,12.23364],[76.85896,12.23392],[76.85943,12.23402],[76.8595,12.23404],[76.86053,12.23419],[76.86089,12.23424],[76.86305,12.23457],[76.86573,12.23498],[76.86663,12.23492],[76.86717,12.23484],[76.86891,12.23458],[76.86999,12.23444],[76.87133,12.23427],[76.87306,12.23404],[76.87362,12.23396],[76.87414,12.23392],[76.87483,12.23388],[76.87593,12.2338],[76.8779,12.23371],[76.88033,12.23348],[76.88052,12.23346],[76.88504,12.23292],[76.88733,12.23264],[76.88766,12.2326],[76.88793,12.23256],[76.89044,12.23204],[76.89206,12.23155],[76.89233,12.23143],[76.89341,12.23095],[76.89533,12.22964],[76.89759,12.22805],[76.89787,12.22785],[76.90031,12.2262],[76.90097,12.22567],[76.90119,12.2255],[76.90283,12.22402],[76.90483,12.22212]]]},"properties":{"kind":"prs","year":2025,"priority":"V","length_km":104.3,"river":"Kabini","label":"Polluted stretch 2025 (104.3 km, Priority V)","source":"Paani Earth, digitised from CPCB's October 2025 polluted-river-stretch classification","shedId":"C05CAM21"}},{"type":"Feature","geometry":{"type":"MultiLineString","coordinates":[[[76.61497,12.11794],[76.61612,12.11797],[76.61627,12.11802],[76.61663,12.11814],[76.6172,12.11843],[76.61785,12.11885],[76.61858,12.11959],[76.61935,12.12044],[76.62007,12.12099],[76.62093,12.12154],[76.62199,12.12191],[76.62384,12.12241],[76.62438,12.12256],[76.6247,12.12261],[76.62777,12.12309],[76.62881,12.12329],[76.62909,12.12334],[76.63005,12.12373],[76.63156,12.12454],[76.63346,12.12586],[76.63379,12.12599],[76.63522,12.12658],[76.63893,12.12775],[76.63946,12.12798],[76.64229,12.12922],[76.64389,12.12991],[76.64447,12.13032],[76.64542,12.13136],[76.64624,12.13273],[76.6464,12.13298],[76.64719,12.13488],[76.64753,12.13657],[76.6477,12.13797],[76.64783,12.14067],[76.64812,12.14196],[76.64845,12.14266],[76.64876,12.14328],[76.64905,12.14387],[76.65027,12.14532],[76.65164,12.14682],[76.6545,12.1485],[76.65489,12.14876],[76.65688,12.1501],[76.65844,12.15116],[76.6594,12.15148],[76.66103,12.15172],[76.66431,12.15214],[76.66753,12.15254],[76.66876,12.15295],[76.66984,12.15356],[76.67041,12.15387],[76.67075,12.15403],[76.6713,12.15423],[76.67152,12.15427],[76.67217,12.15437],[76.67284,12.15424],[76.67308,12.15418],[76.67375,12.15401],[76.67486,12.15358],[76.67609,12.15299],[76.67828,12.1517],[76.6794,12.151],[76.67958,12.15088],[76.67992,12.15065],[76.6802,12.15035],[76.68035,12.15001],[76.68045,12.1491],[76.68047,12.14851],[76.68047,12.14821],[76.68042,12.14799],[76.68032,12.14775],[76.68021,12.14745],[76.68001,12.14707],[76.67964,12.14676],[76.67861,12.14611],[76.67718,12.14521],[76.67617,12.14467],[76.67574,12.14431],[76.67532,12.14374],[76.67508,12.14323],[76.67507,12.14282],[76.67533,12.14207],[76.67563,12.14076],[76.67587,12.13974],[76.67592,12.13955],[76.67609,12.13888],[76.67654,12.13774],[76.67729,12.13655],[76.67817,12.13525],[76.67891,12.13436],[76.67943,12.13375],[76.68125,12.13193],[76.68251,12.13084],[76.68279,12.13062],[76.68306,12.1304],[76.68346,12.13014],[76.68374,12.13004],[76.68403,12.12997],[76.68426,12.12994],[76.68474,12.12992],[76.68512,12.12996]]]},"properties":{"kind":"prs","year":2018,"priority":"IV","length_km":12.2,"river":"Kabini","label":"Polluted stretch 2018 (12.2 km, Priority IV)","source":"Paani Earth, redrawn from the CPCB stretch and the monitoring station locations (review round, 23 August 2026)","shedId":"C05CAM21"}}]}