{"nvdm":"1.0","dataset":"basins/admin-gp","scope":{"kind":"basin","id":"erode-rivers"},"provenance":{"sources":[{"id":"tngis-open-geoserver","title":"TNGIS open GeoServer (WFS): district, taluk, block and village panchayat boundaries, TN WRD sub-basins and reservoirs, micro-watershed atlas, all-water-bodies register, named tanks, mine leases, industry register matched to land parcels","publisher":"Tamil Nadu e-Governance Agency (TNGIS)","license":"Tamil Nadu government data on an open GeoServer (WFS, no login); published with TNGIS's permission and with attribution.","role":"input","url":"https://tngis.tn.gov.in/tngismaps/ows"}],"method":"derived","produced_at":"2026-09-18","produced_by":"scripts/build_erode_rivers_basin.py","internal_inputs":["public/data/basins/erode-rivers/sub-hydrosheds.geojson","public/data/atlas/tn/erode/briefs/6460.json","public/data/atlas/tn/erode/briefs/6461.json","public/data/atlas/tn/erode/briefs/6462.json","public/data/atlas/tn/erode/briefs/6463.json","public/data/atlas/tn/erode/briefs/6464.json","public/data/atlas/tn/erode/briefs/6466.json","public/data/atlas/tn/erode/briefs/6467.json","public/data/atlas/tn/erode/briefs/6469.json","public/data/atlas/tn/erode/briefs/6471.json","public/data/atlas/tn/erode/briefs/6473.json","public/data/atlas/tn/erode/briefs/6474.json","public/data/atlas/tn/erode/briefs/6475.json","public/data/atlas/tn/erode/briefs/6476.json","public/data/atlas/tn/erode/briefs/6477.json","public/data/atlas/tn/erode/census-2011/6460.json","public/data/atlas/tn/erode/census-2011/6461.json","public/data/atlas/tn/erode/census-2011/6462.json","public/data/atlas/tn/erode/census-2011/6463.json","public/data/atlas/tn/erode/census-2011/6464.json","public/data/atlas/tn/erode/census-2011/6466.json","public/data/atlas/tn/erode/census-2011/6467.json","public/data/atlas/tn/erode/census-2011/6469.json","public/data/atlas/tn/erode/census-2011/6471.json","public/data/atlas/tn/erode/census-2011/6473.json","public/data/atlas/tn/erode/census-2011/6474.json","public/data/atlas/tn/erode/census-2011/6475.json","public/data/atlas/tn/erode/census-2011/6476.json","public/data/atlas/tn/erode/census-2011/6477.json"],"note":"Erode district's rivers, groundwater and industry (scope erode-rivers; the district's own scope id is tn-erode). The district boundary is the frame and TN WRD's sub-basins, clipped to it, are the catchments (shedId). The industry register holds only units TNGIS matched to a land parcel, so every count is a lower bound; sector comes from the reviewed TNPCB type-code lookup pipeline-inputs/basins/erode-rivers/tnpcb-type-sectors.json."},"type":"FeatureCollection","features":[{"type":"Feature","properties":{"name":"Periyakallipatti","level":"village panchayat","parentBlock":"Bhavanisagar","parentDistrict":"Erode","lgdGramPanchayatCode":"223612","householdsWithTapConnection":"100% (1,101 of 1,101 households, across 9 habitations; Jal Jeevan Mission)","populationCensus2011":3352,"householdsCensus2011":1010,"pagePath":"/atlas/tn/erode/panchayats/223612","pageLabel":"Open this panchayat's water page","shedId":"SB114"},"geometry":{"type":"MultiPolygon","coordinates":[[[[77.1137,11.4076],[77.1152,11.4062],[77.1166,11.4073],[77.1183,11.4074],[77.1192,11.4065],[77.1225,11.405],[77.1228,11.4006],[77.1237,11.3981],[77.1251,11.3972],[77.1244,11.3955],[77.1247,11.3941],[77.1261,11.392],[77.1265,11.3893],[77.1262,11.3873],[77.1273,11.385],[77.1296,11.384],[77.1304,11.3811],[77.1278,11.3791],[77.1187,11.3786],[77.1148,11.3792],[77.1136,11.3804],[77.1132,11.384],[77.1117,11.3868],[77.112,11.3907],[77.1105,11.3966],[77.1103,11.3993],[77.1105,11.4056],[77.1101,11.4062],[77.1085,11.4065],[77.103,11.4047],[77.1076,11.4098],[77.1075,11.4142],[77.1134,11.4174],[77.1138,11.4174],[77.1141,11.4161],[77.1106,11.408],[77.1137,11.4076]]],[[[77.0878,11.4085],[77.0907,11.4059],[77.0919,11.4031],[77.0909,11.4031],[77.091,11.4025],[77.0934,11.3993],[77.0934,11.3989],[77.0906,11.3987],[77.0902,11.3979],[77.0883,11.3978],[77.0895,11.3945],[77.089,11.3923],[77.0861,11.3918],[77.0815,11.3879],[77.0803,11.3878],[77.0795,11.3881],[77.0787,11.3897],[77.0771,11.3912],[77.0747,11.3915],[77.0758,11.3891],[77.0743,11.3885],[77.073,11.3958],[77.0767,11.4074],[77.0776,11.407],[77.0841,11.4085],[77.0878,11.4085]]]]}}]}