{"nvdm":"1.0","dataset":"atlas/boundaries","scope":{"kind":"district","id":"mh-kolhapur"},"provenance":{"sources":[{"id":"datameet-village-boundaries-mh","title":"DataMeet indian_village_boundaries, Maharashtra (mh2.geojson with the mh.csv 2001-to-2011 crosswalk)","publisher":"DataMeet community","license":"ODbL 1.0","role":"input","url":"https://github.com/datameet/indian_village_boundaries","as_of":"2001","retrieved":"2026-09-02"}],"method":"derived","produced_at":"2026-09-02","produced_by":"scripts/atlas-boundaries-lgd-district.ts","internal_inputs":["public/data/atlas/mh/kolhapur/directory.json"],"note":"Gram Panchayat polygons for 24 Panchayats in Gaganbawada taluka: each is the MultiPolygon of its LGD-listed member villages as DataMeet drew them from the 2001 Census village map, joined to the 2011 codes through DataMeet's own crosswalk, simplified to about 20 m (source polygons kept where simplification moved the area by more than a percent). Member villages the source did not draw are named on the feature. Indicative, not survey grade.","conventions":{"license":"ODbL 1.0; DataMeet, indian_village_boundaries (github.com/datameet/indian_village_boundaries), ODbL 1.0. Derived polygons are share-alike under the same licence.","geometry":"MultiPolygon of member villages, never dissolved, so the source parts stay auditable","vintage":"the 2001 Census village map; boundaries changed since are not reflected"}},"type":"FeatureCollection","features":[{"type":"Feature","properties":{"lgdCode":"178275","name":"Anadur","blockCode":"4288","blockName":"Gaganbawada","areaHectares":1237.7927,"memberVillagesDrawn":["567529"],"memberVillagesNotDrawn":[]},"geometry":{"type":"MultiPolygon","coordinates":[[[[73.93755,16.63255],[73.93782,16.63282],[73.93977,16.6318],[73.94051,16.63179],[73.94065,16.63107],[73.94001,16.62838],[73.94071,16.62737],[73.94218,16.62537],[73.94297,16.62484],[73.94378,16.62459],[73.94461,16.6248],[73.94524,16.62405],[73.94621,16.62149],[73.94724,16.62058],[73.94757,16.61957],[73.94867,16.61833],[73.95034,16.61835],[73.95124,16.61747],[73.95145,16.61529],[73.95313,16.61372],[73.94741,16.60705],[73.94588,16.60226],[73.94556,16.60008],[73.94178,16.59887],[73.93932,16.59627],[73.93939,16.59518],[73.93842,16.59236],[73.93652,16.58956],[73.93354,16.58843],[73.92925,16.58599],[73.92783,16.58583],[73.92714,16.58506],[73.92629,16.58477],[73.92421,16.58631],[73.92358,16.58781],[73.92041,16.59076],[73.91879,16.59495],[73.9174,16.5996],[73.91753,16.60081],[73.9188,16.60359],[73.91872,16.60486],[73.91672,16.60864],[73.91688,16.60937],[73.91815,16.61199],[73.9186,16.61396],[73.91964,16.61473],[73.92,16.61548],[73.91992,16.61716],[73.9207,16.61858],[73.92332,16.61948],[73.92441,16.6213],[73.92445,16.62282],[73.92346,16.62422],[73.92384,16.62582],[73.9236,16.62683],[73.92611,16.62809],[73.92802,16.62804],[73.92962,16.62988],[73.93048,16.63002],[73.93222,16.62909],[73.93426,16.62925],[73.93755,16.63255]]]]}},{"type":"Feature","properties":{"lgdCode":"178276","name":"Asalaj","blockCode":"4288","blockName":"Gaganbawada","areaHectares":975.04,"memberVillagesDrawn":["567535"],"memberVillagesNotDrawn":[]},"geometry":{"type":"MultiPolygon","coordinates":[[[[73.88411,16.58667],[73.88367,16.58617],[73.8829,16.58602],[73.88291,16.58523],[73.88203,16.58401],[73.88205,16.58198],[73.88028,16.58136],[73.87816,16.57996],[73.87289,16.57998],[73.86834,16.57961],[73.86321,16.57603],[73.86067,16.57813],[73.85734,16.57911],[73.85478,16.5782],[73.85233,16.57799],[73.84666,16.57519],[73.84507,16.57702],[73.84476,16.58296],[73.84267,16.58371],[73.84103,16.58576],[73.84212,16.58888],[73.84332,16.59021],[73.84737,16.59268],[73.8476,16.59617],[73.84842,16.59601],[73.84951,16.59659],[73.84951,16.59697],[73.85325,16.6015],[73.85805,16.60289],[73.85933,16.60381],[73.86057,16.60724],[73.86211,16.61001],[73.86238,16.61209],[73.86737,16.60889],[73.87238,16.60221],[73.87031,16.59876],[73.87309,16.59568],[73.87424,16.59362],[73.8752,16.59281],[73.87587,16.59269],[73.87628,16.59192],[73.87751,16.59131],[73.87822,16.59044],[73.87889,16.59039],[73.87913,16.58991],[73.88223,16.58866],[73.88326,16.58758],[73.88357,16.58666],[73.88411,16.58667]]]]}},{"type":"Feature","properties":{"lgdCode":"178277","name":"Asandoli","blockCode":"4288","blockName":"Gaganbawada","areaHectares":863.5453,"memberVillagesDrawn":["567509"],"memberVillagesNotDrawn":[]},"geometry":{"type":"MultiPolygon","coordinates":[[[[73.93709,16.68111],[73.94223,16.68417],[73.94389,16.68576],[73.94452,16.68338],[73.94383,16.67963],[73.9444,16.67594],[73.9462,16.67154],[73.93855,16.66965],[73.93722,16.67677],[73.93737,16.68028],[73.93709,16.68111]]],[[[73.92096,16.67845],[73.92669,16.68044],[73.92848,16.67985],[73.93316,16.67928],[73.9347,16.67951],[73.93626,16.68021],[73.93709,16.68111],[73.93737,16.68028],[73.93722,16.67677],[73.93855,16.66965],[73.9462,16.67154],[73.94617,16.67015],[73.94785,16.66706],[73.94847,16.66619],[73.94987,16.66573],[73.95077,16.66336],[73.95133,16.65971],[73.95387,16.65547],[73.95351,16.6549],[73.95234,16.65386],[73.95078,16.6531],[73.94535,16.64852],[73.94147,16.64771],[73.93315,16.64496],[73.93167,16.64551],[73.92886,16.65095],[73.92929,16.65304],[73.93005,16.65436],[73.92983,16.65545],[73.93039,16.65603],[73.92978,16.65632],[73.92929,16.65772],[73.92872,16.66261],[73.9285,16.66264],[73.92635,16.66843],[73.92096,16.67845]]]]}},{"type":"Feature","properties":{"lgdCode":"178278","name":"Baveli","blockCode":"4288","blockName":"Gaganbawada","areaHectares":976.1392,"memberVillagesDrawn":["567541"],"memberVillagesNotDrawn":[]},"geometry":{"type":"MultiPolygon","coordinates":[[[[73.93011,16.52836],[73.93141,16.52806],[73.93255,16.52687],[73.93478,16.52558],[73.93781,16.52601],[73.93894,16.52689],[73.94311,16.52832],[73.94518,16.52865],[73.95256,16.52832],[73.95658,16.52715],[73.95848,16.52712],[73.96113,16.52645],[73.96107,16.52443],[73.95954,16.52045],[73.95976,16.51886],[73.95908,16.51578],[73.95854,16.51541],[73.95938,16.50417],[73.95786,16.49915],[73.95598,16.49963],[73.95204,16.4998],[73.94998,16.50203],[73.94754,16.50113],[73.94446,16.50275],[73.94387,16.50207],[73.93904,16.50234],[73.9344,16.50387],[73.93356,16.50531],[73.92872,16.5072],[73.92538,16.51029],[73.92497,16.51104],[73.92373,16.51121],[73.9243,16.51234],[73.92442,16.51416],[73.92278,16.51591],[73.92281,16.51701],[73.92336,16.51792],[73.92689,16.52056],[73.92967,16.52188],[73.92972,16.52357],[73.92897,16.52553],[73.93011,16.52836]]]]}},{"type":"Feature","properties":{"lgdCode":"178279","name":"Borbet","blockCode":"4288","blockName":"Gaganbawada","areaHectares":1606.5659,"memberVillagesDrawn":["567543"],"memberVillagesNotDrawn":[]},"geometry":{"type":"MultiPolygon","coordinates":[[[[73.90144,16.5447],[73.90339,16.54268],[73.90869,16.53949],[73.90964,16.53921],[73.91012,16.53862],[73.91356,16.53805],[73.90844,16.51532],[73.90789,16.50984],[73.90821,16.5087],[73.90576,16.50376],[73.9031,16.50129],[73.90107,16.4958],[73.89623,16.49051],[73.88782,16.48405],[73.88464,16.48228],[73.8829,16.48347],[73.88298,16.4855],[73.87879,16.49112],[73.88034,16.4984],[73.87812,16.50526],[73.87763,16.51214],[73.87829,16.51513],[73.87847,16.51573],[73.88192,16.51956],[73.88408,16.52273],[73.88598,16.52884],[73.88806,16.53779],[73.88995,16.53856],[73.89303,16.53885],[73.89652,16.53704],[73.89801,16.54083],[73.89916,16.54263],[73.90144,16.5447]]]]}},{"type":"Feature","properties":{"lgdCode":"178282","name":"Jargi","blockCode":"4288","blockName":"Gaganbawada","areaHectares":970.8507,"memberVillagesDrawn":["567539"],"memberVillagesNotDrawn":[]},"geometry":{"type":"MultiPolygon","coordinates":[[[[73.91726,16.56832],[73.92003,16.56634],[73.92286,16.56535],[73.92788,16.56266],[73.93116,16.55788],[73.93198,16.55771],[73.93378,16.55882],[73.9349,16.55827],[73.93489,16.55758],[73.93646,16.55431],[73.93667,16.55296],[73.93787,16.55196],[73.93813,16.55228],[73.93886,16.55199],[73.93976,16.5508],[73.93958,16.5472],[73.93897,16.54571],[73.93735,16.54491],[73.93629,16.54383],[73.9362,16.54103],[73.93466,16.53784],[73.93167,16.5353],[73.93121,16.53368],[73.92876,16.53403],[73.92817,16.53498],[73.92417,16.53532],[73.92225,16.53611],[73.92041,16.53517],[73.91666,16.5355],[73.91356,16.53805],[73.91012,16.53862],[73.90964,16.53921],[73.90869,16.53949],[73.90339,16.54268],[73.90144,16.5447],[73.90365,16.54802],[73.90535,16.55381],[73.91012,16.55777],[73.91331,16.56448],[73.9144,16.56555],[73.91516,16.56711],[73.91616,16.56726],[73.91726,16.56832]]]]}},{"type":"Feature","properties":{"lgdCode":"178283","name":"Kadave","blockCode":"4288","blockName":"Gaganbawada","areaHectares":363.7895,"memberVillagesDrawn":["567540"],"memberVillagesNotDrawn":[]},"geometry":{"type":"MultiPolygon","coordinates":[[[[73.93897,16.54571],[73.94013,16.54527],[73.94169,16.54525],[73.94196,16.54394],[73.94247,16.5437],[73.94357,16.54165],[73.94507,16.54119],[73.94628,16.5404],[73.94765,16.53877],[73.95007,16.53807],[73.95088,16.53691],[73.95254,16.53542],[73.95342,16.53378],[73.95625,16.53046],[73.96113,16.52645],[73.95848,16.52712],[73.95658,16.52715],[73.95256,16.52832],[73.94518,16.52865],[73.94311,16.52832],[73.93894,16.52689],[73.93781,16.52601],[73.93478,16.52558],[73.93255,16.52687],[73.93141,16.52806],[73.93011,16.52836],[73.93167,16.5353],[73.93466,16.53784],[73.9362,16.54103],[73.93629,16.54383],[73.93735,16.54491],[73.93897,16.54571]]]]}},{"type":"Feature","properties":{"lgdCode":"178284","name":"Katali / Lakhamapur","blockCode":"4288","blockName":"Gaganbawada","areaHectares":991.5355,"memberVillagesDrawn":["567549"],"memberVillagesNotDrawn":[]},"geometry":{"type":"MultiPolygon","coordinates":[[[[73.87774,16.51057],[73.87812,16.50526],[73.88034,16.4984],[73.87879,16.49112],[73.88298,16.4855],[73.8829,16.48347],[73.88464,16.48228],[73.88355,16.4762],[73.88754,16.46329],[73.88639,16.45068],[73.88057,16.45324],[73.88334,16.47011],[73.87377,16.4729],[73.86102,16.47601],[73.8613,16.48161],[73.85817,16.485],[73.85658,16.486],[73.85751,16.49022],[73.85746,16.49279],[73.85705,16.49395],[73.85775,16.49544],[73.8592,16.49641],[73.85829,16.49763],[73.85802,16.49903],[73.86053,16.49951],[73.86061,16.50009],[73.8598,16.50225],[73.85972,16.50328],[73.86099,16.50423],[73.86062,16.5047],[73.86098,16.5055],[73.86052,16.50604],[73.86066,16.50654],[73.86161,16.50698],[73.86233,16.50666],[73.8626,16.5058],[73.8633,16.50555],[73.86381,16.50442],[73.86492,16.50476],[73.86663,16.50475],[73.86689,16.50521],[73.86807,16.50471],[73.8714,16.50702],[73.87191,16.50808],[73.87283,16.50878],[73.87323,16.50986],[73.87774,16.51057]]]]}},{"type":"Feature","properties":{"lgdCode":"178285","name":"Kheriwade","blockCode":"4288","blockName":"Gaganbawada","areaHectares":389.0368,"memberVillagesDrawn":["567532"],"memberVillagesNotDrawn":[]},"geometry":{"type":"MultiPolygon","coordinates":[[[[73.92595,16.58501],[73.92629,16.58477],[73.92714,16.58506],[73.92783,16.58583],[73.92925,16.58599],[73.93401,16.58329],[73.93395,16.58297],[73.93513,16.58216],[73.93737,16.58162],[73.93786,16.58037],[73.93994,16.58007],[73.94011,16.57973],[73.94453,16.5807],[73.94905,16.58109],[73.94956,16.57971],[73.94943,16.57561],[73.9506,16.57416],[73.9518,16.57351],[73.95559,16.57185],[73.9569,16.57161],[73.95646,16.56803],[73.95391,16.56548],[73.95064,16.56424],[73.94963,16.56428],[73.94902,16.56477],[73.94937,16.56513],[73.94856,16.56615],[73.94281,16.5701],[73.93826,16.57025],[73.93212,16.57357],[73.92972,16.57425],[73.92465,16.57744],[73.92324,16.57777],[73.92381,16.57993],[73.92456,16.58055],[73.92461,16.58388],[73.92486,16.58437],[73.92544,16.58445],[73.92595,16.58501]]]]}},{"type":"Feature","properties":{"lgdCode":"178286","name":"Khokurle","blockCode":"4288","blockName":"Gaganbawada","areaHectares":778.5531,"memberVillagesDrawn":["567528"],"memberVillagesNotDrawn":[]},"geometry":{"type":"MultiPolygon","coordinates":[[[[73.89615,16.62824],[73.89685,16.62839],[73.89751,16.62952],[73.90019,16.62964],[73.90232,16.63052],[73.90501,16.6335],[73.90639,16.63354],[73.90733,16.63319],[73.91016,16.63397],[73.91122,16.63114],[73.9117,16.62799],[73.91218,16.62704],[73.91448,16.62698],[73.91529,16.62529],[73.91633,16.6245],[73.91708,16.62446],[73.91786,16.62155],[73.92066,16.61851],[73.91992,16.61716],[73.92,16.61548],[73.91964,16.61473],[73.9186,16.61396],[73.91815,16.61199],[73.91672,16.60864],[73.91872,16.60486],[73.9188,16.60359],[73.91753,16.60081],[73.9174,16.5996],[73.91606,16.60001],[73.91328,16.60022],[73.91225,16.60158],[73.90898,16.6043],[73.90808,16.6042],[73.90801,16.60378],[73.90594,16.60342],[73.90201,16.60337],[73.90161,16.60405],[73.90072,16.60434],[73.89892,16.60798],[73.89816,16.6089],[73.89762,16.60835],[73.8973,16.6084],[73.89721,16.60982],[73.89642,16.61029],[73.8957,16.60991],[73.89494,16.61354],[73.89432,16.61349],[73.89376,16.6149],[73.89402,16.61557],[73.89325,16.61877],[73.89279,16.61865],[73.89244,16.61893],[73.89069,16.62276],[73.89009,16.62312],[73.88817,16.6292],[73.89137,16.62781],[73.89243,16.6277],[73.89347,16.62846],[73.89427,16.62794],[73.89615,16.62824]]]]}},{"type":"Feature","properties":{"lgdCode":"178287","name":"Kirave","blockCode":"4288","blockName":"Gaganbawada","areaHectares":283.3402,"memberVillagesDrawn":["567515"],"memberVillagesNotDrawn":[]},"geometry":{"type":"MultiPolygon","coordinates":[[[[74.00328,16.7018],[74.00419,16.69706],[74.00411,16.69462],[74.00463,16.69349],[74.00604,16.69276],[74.00894,16.69035],[74.01028,16.68956],[74.011,16.68962],[74.01211,16.68689],[74.01126,16.68603],[74.01011,16.68618],[74.0096,16.68715],[74.00852,16.68735],[74.00263,16.68421],[73.99989,16.68494],[73.996,16.68295],[73.99493,16.68323],[73.99357,16.68443],[73.99435,16.68499],[73.99405,16.68582],[73.99423,16.6862],[73.99386,16.68635],[73.9938,16.6874],[73.9933,16.68826],[73.99324,16.68876],[73.99358,16.68905],[73.99337,16.68969],[73.99299,16.68983],[73.99347,16.69153],[73.99302,16.69267],[73.99282,16.69484],[73.99438,16.69843],[73.99494,16.70132],[73.99528,16.70379],[73.99514,16.7069],[73.99753,16.70613],[73.99914,16.70467],[74.00019,16.70247],[74.00098,16.70174],[74.00233,16.70129],[74.00328,16.7018]]]]}},{"type":"Feature","properties":{"lgdCode":"178288","name":"Kode","blockCode":"4288","blockName":"Gaganbawada","areaHectares":657.4313,"memberVillagesDrawn":["567506"],"memberVillagesNotDrawn":[]},"geometry":{"type":"MultiPolygon","coordinates":[[[[73.89979,16.66725],[73.90584,16.65692],[73.90926,16.6545],[73.90936,16.65379],[73.91152,16.65298],[73.91207,16.65234],[73.91216,16.65018],[73.91267,16.64807],[73.91403,16.64624],[73.91594,16.642],[73.91811,16.64077],[73.91915,16.63903],[73.92024,16.63849],[73.92074,16.63746],[73.91774,16.63605],[73.91209,16.63474],[73.90857,16.63344],[73.90733,16.63319],[73.90639,16.63354],[73.90501,16.6335],[73.90232,16.63052],[73.90019,16.62964],[73.89751,16.62952],[73.89685,16.62839],[73.89615,16.62824],[73.89593,16.63287],[73.89651,16.63889],[73.89616,16.63981],[73.89479,16.64041],[73.89433,16.64163],[73.89495,16.64738],[73.89455,16.64963],[73.89486,16.65027],[73.89458,16.65063],[73.89503,16.65084],[73.89474,16.65225],[73.89464,16.66069],[73.89357,16.66565],[73.89466,16.66633],[73.89587,16.66636],[73.89742,16.66722],[73.89979,16.66725]]]]}},{"type":"Feature","properties":{"lgdCode":"178289","name":"Longhe","blockCode":"4288","blockName":"Gaganbawada","areaHectares":177.5974,"memberVillagesDrawn":["567518"],"memberVillagesNotDrawn":[]},"geometry":{"type":"MultiPolygon","coordinates":[[[[74.00328,16.7018],[74.00452,16.7023],[74.00494,16.70217],[74.00769,16.70065],[74.00818,16.69996],[74.01007,16.69968],[74.01237,16.69813],[74.01291,16.6952],[74.01384,16.69378],[74.0153,16.69303],[74.01668,16.69342],[74.01695,16.6938],[74.01812,16.69396],[74.01988,16.69304],[74.02151,16.69331],[74.02164,16.69294],[74.02233,16.69274],[74.02261,16.69297],[74.02271,16.69175],[74.0217,16.68968],[74.02163,16.6872],[74.02033,16.68544],[74.0175,16.68568],[74.01307,16.6875],[74.01211,16.68689],[74.011,16.68962],[74.01028,16.68956],[74.00894,16.69035],[74.00604,16.69276],[74.00463,16.69349],[74.00411,16.69462],[74.00419,16.69706],[74.00328,16.7018]]]]}},{"type":"Feature","properties":{"lgdCode":"178292","name":"Margewadi","blockCode":"4288","blockName":"Gaganbawada","areaHectares":165.7695,"memberVillagesDrawn":["567510"],"memberVillagesNotDrawn":[]},"geometry":{"type":"MultiPolygon","coordinates":[[[[73.96914,16.66858],[73.97004,16.66711],[73.97208,16.66632],[73.97185,16.66463],[73.97235,16.66429],[73.9737,16.66418],[73.97412,16.66352],[73.96987,16.6604],[73.96787,16.65844],[73.96564,16.65756],[73.96471,16.65889],[73.96367,16.65911],[73.96259,16.65864],[73.96159,16.65711],[73.95907,16.65523],[73.95949,16.65426],[73.96133,16.6539],[73.96133,16.6534],[73.96089,16.65177],[73.96121,16.6512],[73.96091,16.65004],[73.95872,16.64793],[73.9565,16.64973],[73.95605,16.65114],[73.95234,16.65386],[73.95387,16.65547],[73.95396,16.65658],[73.95491,16.65686],[73.95623,16.65807],[73.95964,16.66009],[73.96213,16.66327],[73.96663,16.66627],[73.96914,16.66858]]]]}},{"type":"Feature","properties":{"lgdCode":"178293","name":"Mutakeshwar / Khadule","blockCode":"4288","blockName":"Gaganbawada","areaHectares":295.1917,"memberVillagesDrawn":["567517"],"memberVillagesNotDrawn":[]},"geometry":{"type":"MultiPolygon","coordinates":[[[[74.02169,16.70549],[74.02202,16.70419],[74.02197,16.70217],[74.02247,16.70104],[74.02407,16.7005],[74.02353,16.7],[74.0206,16.69986],[74.01857,16.70067],[74.01816,16.70056],[74.01721,16.7021],[74.01685,16.70194],[74.0166,16.70241],[74.01151,16.7017],[74.01059,16.70094],[74.0091,16.70099],[74.00507,16.70286],[74.00438,16.70265],[74.00452,16.7023],[74.00402,16.702],[74.00233,16.70129],[74.00098,16.70174],[74.00019,16.70247],[73.99914,16.70467],[73.99753,16.70613],[73.99514,16.7069],[73.99326,16.70872],[73.9956,16.71106],[73.99665,16.71435],[73.99759,16.7153],[73.99798,16.71526],[73.99787,16.71576],[73.99852,16.71621],[74.00186,16.71564],[74.00382,16.71389],[74.0098,16.71133],[74.01152,16.71102],[74.01298,16.71009],[74.01418,16.70853],[74.01553,16.70846],[74.0158,16.70782],[74.01664,16.70778],[74.01699,16.70724],[74.01827,16.70731],[74.01925,16.70613],[74.02169,16.70549]]]]}},{"type":"Feature","properties":{"lgdCode":"178294","name":"Nivade","blockCode":"4288","blockName":"Gaganbawada","areaHectares":469.11,"memberVillagesDrawn":["567512"],"memberVillagesNotDrawn":[]},"geometry":{"type":"MultiPolygon","coordinates":[[[[73.96509,16.69984],[73.96523,16.69868],[73.96491,16.69611],[73.96632,16.69382],[73.97225,16.68639],[73.97246,16.68463],[73.97069,16.68588],[73.96906,16.68614],[73.96592,16.68536],[73.96342,16.68526],[73.96028,16.68134],[73.96035,16.68476],[73.95662,16.68455],[73.95293,16.68689],[73.95122,16.68908],[73.95771,16.69194],[73.96509,16.69984]]],[[[73.95662,16.68455],[73.96035,16.68476],[73.96028,16.68134],[73.96342,16.68526],[73.96592,16.68536],[73.96906,16.68614],[73.97069,16.68588],[73.97246,16.68463],[73.97225,16.68639],[73.97266,16.68505],[73.97313,16.68452],[73.97363,16.68455],[73.9739,16.68129],[73.97434,16.68078],[73.97451,16.67916],[73.97538,16.67764],[73.97485,16.67726],[73.97617,16.67571],[73.97633,16.67483],[73.97487,16.67448],[73.97317,16.67263],[73.9718,16.67017],[73.96866,16.66825],[73.96663,16.66627],[73.96526,16.66549],[73.96187,16.66917],[73.96123,16.66945],[73.9609,16.67065],[73.96149,16.67103],[73.96165,16.67192],[73.96143,16.67205],[73.96145,16.67409],[73.96036,16.67562],[73.95963,16.6755],[73.95925,16.67576],[73.95901,16.67947],[73.95833,16.68052],[73.95856,16.6808],[73.95819,16.68174],[73.95662,16.68455]]]]}},{"type":"Feature","properties":{"lgdCode":"178295","name":"Sakhari Mhalunge","blockCode":"4288","blockName":"Gaganbawada","areaHectares":172.1847,"memberVillagesDrawn":["567514"],"memberVillagesNotDrawn":[]},"geometry":{"type":"MultiPolygon","coordinates":[[[[73.99326,16.70872],[73.99514,16.7069],[73.99528,16.70379],[73.99438,16.69843],[73.99282,16.69484],[73.99302,16.69267],[73.99347,16.69153],[73.99299,16.68983],[73.99337,16.68969],[73.99358,16.68905],[73.99324,16.68876],[73.9933,16.68826],[73.9938,16.6874],[73.99386,16.68635],[73.99423,16.6862],[73.99405,16.68582],[73.99435,16.68499],[73.99357,16.68443],[73.99493,16.68323],[73.99283,16.68288],[73.99121,16.68666],[73.98938,16.68825],[73.98778,16.69139],[73.98617,16.69887],[73.98728,16.70334],[73.9864,16.70646],[73.98922,16.70674],[73.99326,16.70872]]]]}},{"type":"Feature","properties":{"lgdCode":"178296","name":"Salwan","blockCode":"4288","blockName":"Gaganbawada","areaHectares":31.8994,"memberVillagesDrawn":["567521"],"memberVillagesNotDrawn":[]},"geometry":{"type":"MultiPolygon","coordinates":[[[[73.97633,16.67483],[73.97665,16.67477],[73.97784,16.67428],[73.97742,16.67389],[73.97695,16.67328],[73.97583,16.67261],[73.97529,16.67219],[73.97506,16.67154],[73.97438,16.67034],[73.97452,16.6699],[73.97507,16.66936],[73.97558,16.66812],[73.97538,16.66778],[73.97463,16.66775],[73.9739,16.66805],[73.97333,16.66805],[73.9727,16.66764],[73.97233,16.66661],[73.97208,16.66632],[73.97158,16.6664],[73.97004,16.66711],[73.96915,16.66827],[73.96914,16.66858],[73.97019,16.66925],[73.9718,16.67017],[73.9727,16.6716],[73.97317,16.67263],[73.9744,16.67385],[73.97487,16.67448],[73.9754,16.67467],[73.97633,16.67483]]]]}},{"type":"Feature","properties":{"lgdCode":"178297","name":"Saitawade / Sangashi","blockCode":"4288","blockName":"Gaganbawada","areaHectares":1667.5806,"memberVillagesDrawn":["567538"],"memberVillagesNotDrawn":[]},"geometry":{"type":"MultiPolygon","coordinates":[[[[73.87816,16.57996],[73.88104,16.57948],[73.88136,16.57851],[73.88209,16.57768],[73.88371,16.57723],[73.88438,16.57553],[73.88712,16.57457],[73.88747,16.5736],[73.88788,16.5734],[73.88778,16.57466],[73.88727,16.57532],[73.88767,16.57641],[73.88951,16.57743],[73.89128,16.57711],[73.90394,16.5654],[73.90686,16.56517],[73.9125,16.56274],[73.91012,16.55777],[73.90535,16.55381],[73.90365,16.54802],[73.90144,16.5447],[73.89916,16.54263],[73.89801,16.54083],[73.89652,16.53704],[73.89303,16.53885],[73.88995,16.53856],[73.88806,16.53779],[73.87685,16.53745],[73.86652,16.53768],[73.8669,16.54082],[73.86745,16.54191],[73.86764,16.54322],[73.86824,16.54377],[73.86822,16.54436],[73.86656,16.54633],[73.86676,16.54864],[73.86647,16.54904],[73.86749,16.55103],[73.86852,16.55159],[73.8693,16.55121],[73.8703,16.55175],[73.87103,16.55306],[73.8715,16.55311],[73.87208,16.5538],[73.87135,16.55586],[73.87124,16.55882],[73.87155,16.56146],[73.87109,16.56257],[73.86844,16.56306],[73.86694,16.56505],[73.86605,16.56969],[73.86321,16.57603],[73.86834,16.57961],[73.87289,16.57998],[73.87816,16.57996]]]]}},{"type":"Feature","properties":{"lgdCode":"178298","name":"Sheloshi","blockCode":"4288","blockName":"Gaganbawada","areaHectares":464.586,"memberVillagesDrawn":["567533"],"memberVillagesNotDrawn":[]},"geometry":{"type":"MultiPolygon","coordinates":[[[[73.92324,16.57777],[73.92465,16.57744],[73.92972,16.57425],[73.93212,16.57357],[73.93826,16.57025],[73.94281,16.5701],[73.94856,16.56615],[73.94937,16.56513],[73.94902,16.56477],[73.94963,16.56428],[73.95064,16.56424],[73.9473,16.56296],[73.94726,16.56098],[73.9478,16.55947],[73.94743,16.55865],[73.94599,16.55776],[73.94559,16.55709],[73.94537,16.55504],[73.94465,16.55469],[73.94367,16.55508],[73.94171,16.55516],[73.9411,16.55474],[73.93999,16.55286],[73.93976,16.5508],[73.93886,16.55199],[73.93813,16.55228],[73.93787,16.55196],[73.93667,16.55296],[73.93646,16.55431],[73.93489,16.55758],[73.9349,16.55827],[73.93378,16.55882],[73.93198,16.55771],[73.93116,16.55788],[73.92788,16.56266],[73.92286,16.56535],[73.92003,16.56634],[73.91726,16.56832],[73.92052,16.57148],[73.92071,16.57282],[73.92324,16.57777]]]]}},{"type":"Feature","properties":{"lgdCode":"178299","name":"Shenawade","blockCode":"4288","blockName":"Gaganbawada","areaHectares":409.1789,"memberVillagesDrawn":["567508"],"memberVillagesNotDrawn":[]},"geometry":{"type":"MultiPolygon","coordinates":[[[[73.93517,16.64564],[73.93631,16.64349],[73.93673,16.64172],[73.93528,16.63651],[73.93612,16.63505],[73.93654,16.63322],[73.93755,16.63255],[73.93426,16.62925],[73.93222,16.62909],[73.93048,16.63002],[73.92962,16.62988],[73.92802,16.62804],[73.92611,16.62809],[73.9236,16.62683],[73.92384,16.62582],[73.92346,16.62422],[73.92445,16.62282],[73.92441,16.6213],[73.92332,16.61948],[73.92066,16.61851],[73.91786,16.62155],[73.91708,16.62446],[73.91633,16.6245],[73.91529,16.62529],[73.91448,16.62698],[73.91218,16.62704],[73.9117,16.62799],[73.91122,16.63114],[73.91016,16.63397],[73.91629,16.63591],[73.91774,16.63605],[73.92374,16.63864],[73.92591,16.639],[73.92638,16.64074],[73.92799,16.64323],[73.93517,16.64564]]]]}},{"type":"Feature","properties":{"lgdCode":"178300","name":"Taliye Budruk","blockCode":"4288","blockName":"Gaganbawada","areaHectares":891.7987,"memberVillagesDrawn":["567507"],"memberVillagesNotDrawn":[]},"geometry":{"type":"MultiPolygon","coordinates":[[[[73.91706,16.67883],[73.91814,16.67715],[73.92096,16.67845],[73.92635,16.66843],[73.9285,16.66264],[73.92872,16.66261],[73.92929,16.65772],[73.92978,16.65632],[73.93039,16.65603],[73.92983,16.65545],[73.93005,16.65436],[73.92929,16.65304],[73.92886,16.65095],[73.93167,16.64551],[73.93315,16.64496],[73.92799,16.64323],[73.92638,16.64074],[73.92591,16.639],[73.92374,16.63864],[73.92074,16.63746],[73.92024,16.63849],[73.91915,16.63903],[73.91811,16.64077],[73.91594,16.642],[73.91403,16.64624],[73.91267,16.64807],[73.91216,16.65018],[73.91207,16.65234],[73.91152,16.65298],[73.90936,16.65379],[73.90926,16.6545],[73.90584,16.65692],[73.89979,16.66725],[73.90045,16.66726],[73.9027,16.66909],[73.90715,16.67393],[73.9115,16.67698],[73.91297,16.67853],[73.91706,16.67883]]]]}},{"type":"Feature","properties":{"lgdCode":"178302","name":"Vetawade","blockCode":"4288","blockName":"Gaganbawada","areaHectares":370.1625,"memberVillagesDrawn":["567522"],"memberVillagesNotDrawn":[]},"geometry":{"type":"MultiPolygon","coordinates":[[[[73.97784,16.67428],[73.97876,16.67469],[73.97957,16.67458],[73.98156,16.67138],[73.98233,16.6714],[73.98256,16.67193],[73.98362,16.6722],[73.98505,16.67328],[73.98658,16.67352],[73.98936,16.66965],[73.9905,16.66766],[73.99041,16.66701],[73.99079,16.66648],[73.99308,16.66488],[73.99506,16.66258],[73.99444,16.66141],[73.99337,16.65745],[73.99177,16.65465],[73.98956,16.65309],[73.98609,16.65193],[73.98607,16.65139],[73.98523,16.65263],[73.98356,16.65288],[73.98231,16.65403],[73.98136,16.65596],[73.97987,16.65764],[73.97726,16.65969],[73.9764,16.65976],[73.97607,16.661],[73.97385,16.66257],[73.97373,16.66299],[73.97412,16.66352],[73.9737,16.66418],[73.97235,16.66429],[73.97185,16.66463],[73.97208,16.66632],[73.9727,16.66764],[73.97333,16.66805],[73.97538,16.66778],[73.97558,16.66812],[73.97438,16.67034],[73.97529,16.67219],[73.97695,16.67328],[73.97784,16.67428]]]]}},{"type":"Feature","properties":{"lgdCode":"178303","name":"Vesarde","blockCode":"4288","blockName":"Gaganbawada","areaHectares":473.8273,"memberVillagesDrawn":["567511"],"memberVillagesNotDrawn":[]},"geometry":{"type":"MultiPolygon","coordinates":[[[[73.95122,16.68908],[73.95293,16.68689],[73.95662,16.68455],[73.95709,16.68378],[73.95901,16.67947],[73.95925,16.67576],[73.95963,16.6755],[73.96036,16.67562],[73.96145,16.67409],[73.96143,16.67205],[73.96165,16.67192],[73.96149,16.67103],[73.9609,16.67065],[73.96123,16.66945],[73.96187,16.66917],[73.96526,16.66549],[73.96213,16.66327],[73.95964,16.66009],[73.95623,16.65807],[73.95491,16.65686],[73.95396,16.65658],[73.95387,16.65547],[73.95133,16.65971],[73.95077,16.66336],[73.94987,16.66573],[73.94847,16.66619],[73.94617,16.67015],[73.94627,16.67134],[73.9444,16.67594],[73.94383,16.67963],[73.94452,16.68338],[73.94389,16.68576],[73.94456,16.68695],[73.94435,16.6874],[73.94504,16.68803],[73.94521,16.68774],[73.94724,16.68847],[73.95122,16.68908]]]]}}],"ext":{"atlas":{"schemaVersion":1,"planId":"mh-kolhapur-v1","blockCode":"4288","blockName":"Gaganbawada","acquiredAt":"2026-09-02","sourceSha256":"244b872927b2d5fd2e8817c98c3e375b43d387cfe209f7a23d86a10f46469775","featureCount":24,"rights":{"status":"share-alike","license":"ODbL 1.0","attribution":"DataMeet, indian_village_boundaries (github.com/datameet/indian_village_boundaries), ODbL 1.0"}}}}
