{"type":"FeatureCollection","features":[{"type":"Feature","geometry":{"type":"Point","coordinates":[78.11975,11.96078]},"properties":{"name":"Thoppaiyar","district":"Salem","wrdBasin":"Cauvery","subBasin":"123"}},{"type":"Feature","geometry":{"type":"Point","coordinates":[77.65465,10.91696]},"properties":{"name":"Vattamalaikarai Odai","district":"Tiruppur","wrdBasin":"Cauvery","subBasin":"113"}},{"type":"Feature","geometry":{"type":"Point","coordinates":[77.56108,11.67935]},"properties":{"name":"Varattupallam","district":"Erode","wrdBasin":"Cauvery","subBasin":"120"}},{"type":"Feature","geometry":{"type":"Point","coordinates":[77.80449,11.89756]},"properties":{"name":"Mettur","district":"Salem","wrdBasin":"Cauvery","subBasin":"123"}},{"type":"Feature","geometry":{"type":"Point","coordinates":[77.05191,11.41301]},"properties":{"name":"Bhavani","district":"Erode","wrdBasin":"Cauvery","subBasin":"114"}},{"type":"Feature","geometry":{"type":"Point","coordinates":[77.37183,10.38181]},"properties":{"name":"Kuthiraiyar","district":"Dindigul","wrdBasin":"Cauvery","subBasin":"113"}},{"type":"Feature","geometry":{"type":"Point","coordinates":[77.91806,12.49902]},"properties":{"name":"Chinnar","district":"Dharmapuri","wrdBasin":"Cauvery","subBasin":"115"}},{"type":"Feature","geometry":{"type":"Point","coordinates":[77.94211,12.31389]},"properties":{"name":"Kesarigullihalla","district":"Dharmapuri","wrdBasin":"Cauvery","subBasin":"115"}},{"type":"Feature","geometry":{"type":"Point","coordinates":[78.0356,12.06649]},"properties":{"name":"Nagavathi","district":"Dharmapuri","wrdBasin":"Cauvery","subBasin":"123"}},{"type":"Feature","geometry":{"type":"Point","coordinates":[77.48926,10.36885]},"properties":{"name":"Palar Poranthalar","district":"Dindigul","wrdBasin":"Cauvery","subBasin":"113"}},{"type":"Feature","geometry":{"type":"Point","coordinates":[77.68678,10.42829]},"properties":{"name":"Parappalar","district":"Dindigul","wrdBasin":"Cauvery","subBasin":"113"}},{"type":"Feature","geometry":{"type":"Point","coordinates":[77.97035,10.581]},"properties":{"name":"Kodaganar","district":"Dindigul","wrdBasin":"Cauvery","subBasin":"113"}},{"type":"Feature","geometry":{"type":"Point","coordinates":[77.60628,10.70405]},"properties":{"name":"Nallathangal Odai","district":"Tiruppur","wrdBasin":"Cauvery","subBasin":"113"}},{"type":"Feature","geometry":{"type":"Point","coordinates":[77.82742,10.59425]},"properties":{"name":"Nanganjiar","district":"Dindigul","wrdBasin":"Cauvery","subBasin":"113"}},{"type":"Feature","geometry":{"type":"Point","coordinates":[77.52246,11.10817]},"properties":{"name":"Noyyal Orathupalayam","district":"Erode","wrdBasin":"Cauvery","subBasin":"126"}},{"type":"Feature","geometry":{"type":"Point","coordinates":[77.40286,10.78362]},"properties":{"name":"Uppar(Erode)","district":"Tiruppur","wrdBasin":"Cauvery","subBasin":"113"}},{"type":"Feature","geometry":{"type":"Point","coordinates":[79.30412,11.07713]},"properties":{"name":"Siddhamalli","district":"Ariyalur","wrdBasin":"Cauvery","subBasin":"121"}},{"type":"Feature","geometry":{"type":"Point","coordinates":[78.25333,10.57862]},"properties":{"name":"Ponnaniyar","district":"Karur","wrdBasin":"Cauvery","subBasin":"119"}},{"type":"Feature","geometry":{"type":"Point","coordinates":[77.37221,11.56604]},"properties":{"name":"Gunderipallam","district":"Erode","wrdBasin":"Cauvery","subBasin":"120"}},{"type":"Feature","geometry":{"type":"Point","coordinates":[77.81373,11.02937]},"properties":{"name":"Noyyal Athupalayam","district":"Karur","wrdBasin":"Cauvery","subBasin":"126"}},{"type":"Feature","geometry":{"type":"Point","coordinates":[77.25246,10.40134]},"properties":{"name":"Amaravathi","district":"Tiruppur","wrdBasin":"Cauvery","subBasin":"113"}},{"type":"Feature","geometry":{"type":"Point","coordinates":[77.30674,11.56337]},"properties":{"name":"Perumpallam","district":"Erode","wrdBasin":"Cauvery","subBasin":"120"}},{"type":"Feature","geometry":{"type":"Point","coordinates":[78.69273,10.99119]},"properties":{"name":"Uppar_Trichy","district":"Tiruchirapalli","wrdBasin":"Cauvery","subBasin":"125"}},{"type":"Feature","geometry":{"type":"Point","coordinates":[77.55496,10.38252]},"properties":{"name":"Varadhamanadhi","district":"Dindigul","wrdBasin":"Cauvery","subBasin":"113"}},{"type":"Feature","geometry":{"type":"Point","coordinates":[79.52779,11.33437]},"properties":{"name":"Veeranam","district":"Cuddalore","wrdBasin":"Cauvery","subBasin":"121"}}]}