{"nvdm":"1.0","dataset":"basins/paddy","scope":{"kind":"basin","id":"palakkad-rivers"},"provenance":{"sources":[{"id":"ksrec-open-geoserver","title":"KSREC GeoServer (WFS): local-body boundaries, watershed atlas, wetlands, paddy, notified wetland parcels, flood extents and quarries of Kerala","publisher":"Kerala State Remote Sensing and Environment Centre (KSREC)","license":"No licence or terms are stated on the GeoServer (WFS capabilities: AccessConstraints NONE). Served with attribution to KSREC by the maintainer's decision; layers KSREC derived from OpenStreetMap (quarries, waterbodies) carry ODbL 1.0.","role":"input","url":"http://ksrec.in:9090/geoserver/ows"}],"method":"derived","produced_at":"2026-09-29","produced_by":"scripts/build_palakkad_rivers_basin.py","note":"Palakkad district's rivers, reservoirs, wetlands and groundwater (scope palakkad-rivers; the district's own scope id is kl-palakkad). The district is the union of its local bodies in KSREC's layer and the catchments (shedId) are the river basins of KSREC's watershed atlas cut to it. KSREC publishes no licence and its layers are served with attribution; its quarry layer is OpenStreetMap's (ODbL)."},"type":"FeatureCollection","features":[{"type":"Feature","properties":{"kind":"Puncha","areaHa":1.52,"shedId":"RB19"},"geometry":{"type":"MultiPolygon","coordinates":[[[[76.07,10.7318],[76.0706,10.7315],[76.0695,10.7314],[76.069,10.7329],[76.0699,10.733],[76.07,10.7318]]],[[[76.0698,10.7332],[76.0698,10.7333],[76.0699,10.7331],[76.0698,10.7332]]],[[[76.0696,10.7333],[76.06924,10.73362],[76.0694,10.7337],[76.0696,10.7333]]]]}},{"type":"Feature","properties":{"kind":"Reclaimed","areaHa":2.49,"shedId":"RB19"},"geometry":{"type":"MultiPolygon","coordinates":[[[[76.046,10.7937],[76.0451,10.7947],[76.0451,10.7952],[76.0465,10.7954],[76.0464,10.7947],[76.0468,10.7945],[76.0472,10.7951],[76.047,10.7944],[76.0464,10.7946],[76.0461,10.7949],[76.0458,10.7947],[76.0459,10.7943],[76.0463,10.7943],[76.046,10.7937]]],[[[76.0471,10.7951],[76.0465,10.7952],[76.047,10.7953],[76.04682,10.79578],[76.0471,10.7951]]],[[[76.0445,10.7968],[76.0437,10.7961],[76.0434,10.7964],[76.0434,10.79717],[76.0445,10.7968]]]]}},{"type":"Feature","properties":{"kind":"Puncha","areaHa":2.82,"shedId":"RB19"},"geometry":{"type":"Polygon","coordinates":[[[76.0418,10.7825],[76.0419,10.7801],[76.0407,10.7758],[76.0405,10.7763],[76.0413,10.778],[76.0414,10.7796],[76.0417,10.7801],[76.0414,10.783],[76.0416,10.7839],[76.0419,10.784],[76.0423,10.7838],[76.0418,10.7825]]]}},{"type":"Feature","properties":{"kind":"Puncha","areaHa":5.84,"shedId":"RB19"},"geometry":{"type":"Polygon","coordinates":[[[76.0397,10.7678],[76.0396,10.7682],[76.0403,10.7691],[76.0404,10.7723],[76.04,10.7728],[76.0407,10.7741],[76.0405,10.7752],[76.0408,10.7756],[76.0412,10.7722],[76.0409,10.7694],[76.0412,10.7691],[76.0397,10.7678]]]}},{"type":"Feature","properties":{"kind":"Paddy","areaHa":15.29,"shedId":"RB19"},"geometry":{"type":"Polygon","coordinates":[[[76.0931,10.7831],[76.0927,10.7832],[76.0927,10.7828],[76.0939,10.783],[76.094,10.7836],[76.0959,10.7838],[76.0939,10.7822],[76.0936,10.7823],[76.0938,10.7815],[76.0961,10.7787],[76.0959,10.7781],[76.0948,10.7782],[76.0936,10.779],[76.0932,10.7804],[76.0913,10.7841],[76.0903,10.7843],[76.0901,10.785],[76.0896,10.7848],[76.0892,10.7853],[76.0899,10.7856],[76.0907,10.7854],[76.0906,10.785],[76.0909,10.7847],[76.0913,10.7845],[76.0915,10.7848],[76.0919,10.7846],[76.0919,10.7842],[76.0924,10.784],[76.0925,10.7843],[76.0937,10.7835],[76.0933,10.7836],[76.0931,10.7831]],[[76.0906,10.7844],[76.0905,10.7845],[76.0905,10.7844],[76.0906,10.7844]]]}},{"type":"Feature","properties":{"kind":"Paddy","areaHa":6.15,"shedId":"RB19"},"geometry":{"type":"MultiPolygon","coordinates":[[[[76.1346,10.7543],[76.1351,10.7538],[76.1356,10.749],[76.1345,10.7487],[76.1346,10.7494],[76.1342,10.7502],[76.1347,10.7505],[76.1345,10.7508],[76.1348,10.7508],[76.1348,10.7518],[76.1344,10.7525],[76.1346,10.7537],[76.1342,10.7542],[76.1346,10.7543]]],[[[76.1351,10.7542],[76.1351,10.7541],[76.135,10.7541],[76.1351,10.7542]]],[[[76.135,10.7543],[76.1344,10.7549],[76.1341,10.7548],[76.134,10.7551],[76.1346,10.7555],[76.1353,10.7551],[76.1355,10.7545],[76.135,10.7543]]]]}},{"type":"Feature","properties":{"kind":"Paddy","areaHa":2.49,"shedId":"RB19"},"geometry":{"type":"Polygon","coordinates":[[[76.1354,10.7507],[76.1351,10.7542],[76.1358,10.7544],[76.1362,10.7535],[76.1356,10.7527],[76.1354,10.7516],[76.1361,10.7514],[76.1362,10.751],[76.1354,10.7507]]]}},{"type":"Feature","properties":{"kind":"Paddy","areaHa":29.85,"shedId":"RB19"},"geometry":{"type":"MultiPolygon","coordinates":[[[[76.1166,10.7362],[76.1165,10.7362],[76.1168,10.7364],[76.1166,10.7362]]],[[[76.1169,10.7366],[76.1168,10.737],[76.12,10.7378],[76.1206,10.7392],[76.1206,10.7403],[76.1203,10.7404],[76.1204,10.7412],[76.1197,10.742],[76.1188,10.7418],[76.1194,10.7421],[76.1184,10.7426],[76.1186,10.7434],[76.1181,10.7435],[76.1181,10.7439],[76.1188,10.7438],[76.1189,10.7441],[76.1186,10.7445],[76.1187,10.745],[76.118,10.7451],[76.1173,10.7474],[76.1177,10.7504],[76.1166,10.7525],[76.1176,10.7524],[76.1199,10.7535],[76.1217,10.7535],[76.1237,10.754],[76.1239,10.7528],[76.1205,10.7529],[76.1189,10.752],[76.1191,10.7517],[76.1182,10.7503],[76.1177,10.7479],[76.1186,10.7472],[76.1184,10.7457],[76.119,10.7458],[76.1211,10.7441],[76.1212,10.7423],[76.1204,10.7415],[76.1212,10.7385],[76.1207,10.737],[76.1208,10.7364],[76.1182,10.7364],[76.118,10.737],[76.1169,10.7366]],[[76.1191,10.7445],[76.1191,10.7448],[76.1188,10.7447],[76.1188,10.7445],[76.1191,10.7445]],[[76.1182,10.7468],[76.118,10.7467],[76.1181,10.7465],[76.1182,10.7465],[76.1182,10.7468]]],[[[76.1187,10.746],[76.1187,10.7459],[76.1186,10.7461],[76.1187,10.746]]]]}},{"type":"Feature","properties":{"kind":"Paddy","areaHa":52.02,"shedId":"RB19"},"geometry":{"type":"MultiPolygon","coordinates":[[[[76.1342,10.7467],[76.1339,10.7483],[76.1345,10.7484],[76.1347,10.7489],[76.1356,10.7489],[76.1354,10.7471],[76.1368,10.7467],[76.1377,10.7469],[76.138,10.7473],[76.1385,10.7471],[76.1396,10.7482],[76.1415,10.7487],[76.1424,10.7507],[76.1425,10.7517],[76.1422,10.7522],[76.1427,10.7523],[76.1434,10.7533],[76.1441,10.7533],[76.1441,10.7524],[76.1452,10.7518],[76.1464,10.7517],[76.1468,10.7524],[76.1476,10.7527],[76.1495,10.7521],[76.1471,10.7517],[76.1467,10.751],[76.1473,10.751],[76.1477,10.7504],[76.1491,10.75],[76.149,10.7496],[76.1497,10.7478],[76.1505,10.7469],[76.1492,10.7473],[76.1486,10.7495],[76.148,10.75],[76.1467,10.7502],[76.1459,10.7498],[76.146,10.7501],[76.1453,10.7506],[76.1435,10.7506],[76.143,10.7501],[76.1429,10.7494],[76.1424,10.7491],[76.1427,10.7489],[76.1425,10.7483],[76.1418,10.7477],[76.1404,10.747],[76.1399,10.7474],[76.1382,10.7463],[76.1379,10.7458],[76.1378,10.746],[76.1363,10.7451],[76.1375,10.7445],[76.1372,10.7432],[76.1376,10.7419],[76.1384,10.742],[76.1385,10.7417],[76.1383,10.7414],[76.1372,10.7419],[76.1371,10.7416],[76.1379,10.741],[76.1377,10.7405],[76.1389,10.7395],[76.139,10.7392],[76.1387,10.7391],[76.1387,10.7394],[76.1381,10.7394],[76.1374,10.7407],[76.1369,10.7409],[76.1364,10.7431],[76.1357,10.7434],[76.1342,10.7462],[76.1334,10.7457],[76.1331,10.7449],[76.1317,10.744],[76.1316,10.7435],[76.1304,10.7429],[76.1304,10.7416],[76.1295,10.7411],[76.1289,10.7414],[76.1289,10.742],[76.1286,10.7421],[76.1288,10.7424],[76.1282,10.7427],[76.1287,10.7428],[76.1286,10.7434],[76.1301,10.7443],[76.1307,10.7443],[76.1317,10.7454],[76.1324,10.7456],[76.1334,10.7468],[76.1336,10.7465],[76.1342,10.7467]],[[76.1343,10.7464],[76.1344,10.7464],[76.1342,10.7465],[76.1343,10.7464]],[[76.1344,10.7464],[76.1346,10.7462],[76.1345,10.7464],[76.1344,10.7464]],[[76.1346,10.7462],[76.1346,10.746],[76.1347,10.746],[76.1346,10.7462]],[[76.1348,10.746],[76.135,10.7459],[76.135,10.746],[76.1348,10.746]],[[76.1351,10.746],[76.1352,10.746],[76.1351,10.7461],[76.1351,10.746]],[[76.1354,10.7459],[76.1355,10.746],[76.1352,10.746],[76.1354,10.7459]],[[76.1361,10.7451],[76.1363,10.745],[76.1361,10.7452],[76.1361,10.7451]],[[76.1363,10.7449],[76.1364,10.745],[76.1363,10.745],[76.1363,10.7449]],[[76.1351,10.7456],[76.1353,10.7453],[76.1354,10.7453],[76.1351,10.7456]],[[76.1354,10.7452],[76.1356,10.7451],[76.1358,10.7452],[76.1354,10.7452]],[[76.1429,10.7522],[76.1428,10.7523],[76.1428,10.7521],[76.1429,10.7522]]],[[[76.136,10.7492],[76.1355,10.7492],[76.1355,10.75],[76.136,10.7492]]]]}},{"type":"Feature","properties":{"kind":"Paddy","areaHa":25.18,"shedId":"RB19"},"geometry":{"type":"MultiPolygon","coordinates":[[[[76.1378,10.746],[76.1373,10.745],[76.1376,10.7445],[76.1391,10.7438],[76.14,10.743],[76.1412,10.7426],[76.1412,10.7421],[76.1426,10.7415],[76.143,10.7408],[76.1438,10.7413],[76.1435,10.7409],[76.1437,10.7407],[76.1449,10.7402],[76.1445,10.7405],[76.1445,10.7414],[76.1453,10.7418],[76.1448,10.7409],[76.1453,10.7405],[76.1458,10.7406],[76.146,10.7398],[76.1486,10.7393],[76.1488,10.7398],[76.1483,10.7401],[76.1489,10.7401],[76.1496,10.7389],[76.1499,10.7389],[76.1494,10.7385],[76.1501,10.7384],[76.1501,10.7379],[76.1498,10.7378],[76.1477,10.739],[76.1435,10.739],[76.1408,10.741],[76.1401,10.742],[76.139,10.7417],[76.1384,10.742],[76.1376,10.7419],[76.1372,10.7432],[76.1375,10.7445],[76.1363,10.7451],[76.1378,10.746]],[[76.1407,10.7423],[76.1409,10.7424],[76.1407,10.7425],[76.1407,10.7423]]],[[[76.1499,10.7386],[76.1498,10.7386],[76.1499,10.7387],[76.1499,10.7386]]],[[[76.139,10.7392],[76.1389,10.7395],[76.1392,10.7388],[76.139,10.7384],[76.1392,10.7375],[76.1396,10.7369],[76.1394,10.7366],[76.1399,10.7366],[76.1397,10.7362],[76.1393,10.7362],[76.1389,10.7367],[76.1388,10.7383],[76.1385,10.7387],[76.1388,10.7387],[76.1387,10.7391],[76.139,10.7392]]]]}},{"type":"Feature","properties":{"kind":"Paddy","areaHa":30.92,"shedId":"RB19"},"geometry":{"type":"Polygon","coordinates":[[[76.1225,10.7425],[76.1223,10.739],[76.1218,10.7379],[76.1219,10.7364],[76.1208,10.7364],[76.1212,10.7391],[76.1205,10.7418],[76.1212,10.7422],[76.1212,10.7439],[76.1204,10.7449],[76.1195,10.7454],[76.1214,10.7448],[76.1217,10.744],[76.123,10.7441],[76.1233,10.7435],[76.1237,10.7443],[76.1236,10.7434],[76.125,10.7444],[76.1269,10.7441],[76.1274,10.7445],[76.1279,10.7439],[76.1288,10.7438],[76.1311,10.7459],[76.1321,10.7473],[76.1338,10.7483],[76.1341,10.7467],[76.1336,10.7465],[76.1334,10.7469],[76.1328,10.7465],[76.1327,10.746],[76.1312,10.7451],[76.1308,10.7445],[76.1286,10.7435],[76.1286,10.7428],[76.1272,10.7429],[76.1247,10.7422],[76.1225,10.7425]]]}},{"type":"Feature","properties":{"kind":"Paddy","areaHa":3.42,"shedId":"RB19"},"geometry":{"type":"MultiPolygon","coordinates":[[[[76.1106,10.7464],[76.1097,10.745],[76.1099,10.7446],[76.1093,10.7446],[76.1091,10.7435],[76.1086,10.7435],[76.1085,10.7431],[76.1078,10.7432],[76.108,10.744],[76.1089,10.7446],[76.1103,10.7464],[76.1106,10.7464]]],[[[76.1075,10.7415],[76.1074,10.7421],[76.1081,10.7426],[76.1084,10.7418],[76.1075,10.7415]]]]}},{"type":"Feature","properties":{"kind":"Paddy","areaHa":23.96,"shedId":"RB19"},"geometry":{"type":"Polygon","coordinates":[[[76.1093,10.7419],[76.1098,10.7408],[76.1113,10.7413],[76.1115,10.7422],[76.1109,10.7425],[76.1108,10.743],[76.111,10.7432],[76.1114,10.7429],[76.1118,10.7432],[76.1114,10.7441],[76.1116,10.7446],[76.1127,10.7443],[76.1129,10.7449],[76.1131,10.7446],[76.1133,10.7448],[76.1134,10.7442],[76.1144,10.7439],[76.1143,10.7429],[76.1098,10.7402],[76.1108,10.7379],[76.1123,10.7372],[76.1136,10.7359],[76.1137,10.7352],[76.113,10.7349],[76.1131,10.7347],[76.1118,10.736],[76.1109,10.736],[76.1108,10.7365],[76.1099,10.7371],[76.1093,10.7404],[76.1076,10.7415],[76.1084,10.7418],[76.1081,10.7432],[76.1085,10.7431],[76.1086,10.7435],[76.1091,10.7435],[76.1093,10.7446],[76.1099,10.7446],[76.1097,10.745],[76.1105,10.7461],[76.1108,10.7458],[76.1104,10.7453],[76.1105,10.7435],[76.1099,10.7436],[76.1103,10.7442],[76.1098,10.7443],[76.1093,10.7431],[76.1087,10.743],[76.109,10.7423],[76.1094,10.7424],[76.1093,10.7419]]]}},{"type":"Feature","properties":{"kind":"Paddy","areaHa":44.9,"shedId":"RB19"},"geometry":{"type":"MultiPolygon","coordinates":[[[[76.0944,10.7281],[76.095,10.7289],[76.0952,10.73],[76.095,10.73],[76.0965,10.7314],[76.0962,10.7315],[76.096,10.7326],[76.0952,10.7337],[76.0957,10.7352],[76.0948,10.7356],[76.0956,10.7362],[76.096,10.7401],[76.0968,10.7414],[76.0975,10.7411],[76.0967,10.7405],[76.0962,10.738],[76.0965,10.737],[76.0964,10.7338],[76.0969,10.7334],[76.0984,10.7332],[76.1005,10.7339],[76.1016,10.7361],[76.1038,10.7368],[76.1039,10.7373],[76.1049,10.7371],[76.1047,10.7355],[76.1074,10.7358],[76.1072,10.7354],[76.1059,10.7353],[76.1048,10.7346],[76.1042,10.7349],[76.1041,10.7356],[76.1026,10.7353],[76.1023,10.7347],[76.1026,10.7346],[76.1021,10.7338],[76.0999,10.732],[76.1001,10.7309],[76.0986,10.7306],[76.0984,10.7291],[76.097,10.729],[76.0967,10.7282],[76.0956,10.7281],[76.0952,10.7284],[76.0948,10.728],[76.0944,10.7281]],[[76.1023,10.7346],[76.1016,10.7347],[76.1016,10.7346],[76.1023,10.7346]],[[76.1016,10.7345],[76.1015,10.7345],[76.1012,10.7343],[76.1016,10.7345]],[[76.1011,10.7342],[76.1012,10.7342],[76.1012,10.7343],[76.1011,10.7342]],[[76.101,10.7342],[76.1004,10.7337],[76.1004,10.733],[76.0999,10.7328],[76.0999,10.7324],[76.0991,10.7323],[76.0999,10.7322],[76.1001,10.7328],[76.1006,10.733],[76.1005,10.7336],[76.101,10.7342]],[[76.0989,10.7321],[76.0988,10.7323],[76.0985,10.7323],[76.0989,10.7321]],[[76.0983,10.7315],[76.0983,10.7323],[76.0982,10.7321],[76.0982,10.7316],[76.0976,10.7309],[76.098,10.7304],[76.0977,10.7309],[76.0983,10.7315]],[[76.098,10.7303],[76.0974,10.7301],[76.0974,10.73],[76.098,10.7303]]],[[[76.0935,10.7276],[76.0938,10.7281],[76.0944,10.7281],[76.094,10.7276],[76.0935,10.7276]]],[[[76.0967,10.728],[76.1008,10.7273],[76.1008,10.727],[76.1005,10.7265],[76.0997,10.7265],[76.099,10.7269],[76.0971,10.7269],[76.0972,10.7276],[76.0967,10.7278],[76.0967,10.728]]]]}},{"type":"Feature","properties":{"kind":"Paddy","areaHa":50.92,"shedId":"RB19"},"geometry":{"type":"Polygon","coordinates":[[[76.1107,10.736],[76.1086,10.7351],[76.1084,10.7341],[76.108,10.7337],[76.1081,10.7332],[76.1075,10.733],[76.1075,10.7327],[76.1078,10.7328],[76.108,10.7325],[76.1077,10.7321],[76.1079,10.7296],[76.1081,10.7288],[76.109,10.7274],[76.1097,10.7269],[76.1103,10.7257],[76.1139,10.7259],[76.1148,10.7266],[76.1151,10.7261],[76.1156,10.7264],[76.116,10.7257],[76.1158,10.7252],[76.1146,10.7249],[76.114,10.7239],[76.1143,10.7233],[76.1141,10.722],[76.1145,10.7205],[76.114,10.7205],[76.1136,10.7209],[76.1132,10.722],[76.1135,10.7235],[76.1129,10.7251],[76.1124,10.7247],[76.1123,10.7231],[76.1124,10.7223],[76.1132,10.7214],[76.113,10.7208],[76.1127,10.7208],[76.1112,10.7218],[76.1108,10.7232],[76.1101,10.7239],[76.1086,10.7251],[76.1067,10.7256],[76.1064,10.726],[76.1065,10.7265],[76.1075,10.7274],[76.1076,10.7282],[76.1075,10.7288],[76.1065,10.7297],[76.1065,10.7303],[76.1061,10.7306],[76.1064,10.7321],[76.1062,10.7332],[76.1055,10.7339],[76.1038,10.7347],[76.1032,10.7354],[76.1042,10.7355],[76.104,10.735],[76.1049,10.7345],[76.106,10.7353],[76.1072,10.7353],[76.1076,10.7361],[76.1099,10.737],[76.1107,10.7365],[76.1107,10.736]]]}},{"type":"Feature","properties":{"kind":"Paddy","areaHa":9.57,"shedId":"RB19"},"geometry":{"type":"MultiPolygon","coordinates":[[[[76.119,10.7364],[76.119,10.7363],[76.1189,10.7363],[76.119,10.7364]]],[[[76.1188,10.7362],[76.1177,10.7357],[76.1175,10.7353],[76.117,10.7352],[76.1169,10.7356],[76.1154,10.735],[76.1155,10.734],[76.1162,10.7331],[76.1148,10.7328],[76.1141,10.733],[76.1142,10.7336],[76.1119,10.7342],[76.1118,10.7345],[76.1123,10.7349],[76.1114,10.7355],[76.1118,10.7358],[76.1127,10.7347],[76.1141,10.7345],[76.1147,10.7347],[76.1156,10.7359],[76.1165,10.736],[76.1175,10.7368],[76.118,10.7369],[76.1181,10.7364],[76.1186,10.7365],[76.1188,10.7362]]]]}},{"type":"Feature","properties":{"kind":"Paddy","areaHa":8.18,"shedId":"RB19"},"geometry":{"type":"Polygon","coordinates":[[[76.1296,10.7341],[76.1267,10.7343],[76.126,10.7347],[76.1257,10.7353],[76.1245,10.7348],[76.1236,10.7351],[76.126,10.7357],[76.1276,10.7353],[76.1281,10.7356],[76.1281,10.7366],[76.1298,10.7361],[76.1295,10.7359],[76.1299,10.7355],[76.1294,10.7346],[76.1296,10.7341]]]}},{"type":"Feature","properties":{"kind":"Paddy","areaHa":26.88,"shedId":"RB19"},"geometry":{"type":"MultiPolygon","coordinates":[[[[76.121,10.7321],[76.1211,10.7321],[76.1209,10.732],[76.121,10.7321]]],[[[76.1208,10.732],[76.1197,10.7319],[76.1208,10.7338],[76.1208,10.7349],[76.1203,10.7361],[76.1206,10.7364],[76.1229,10.7365],[76.1232,10.7359],[76.1231,10.7352],[76.1241,10.7347],[76.1259,10.7351],[76.126,10.7346],[76.1253,10.7344],[76.1247,10.7334],[76.1236,10.7331],[76.1232,10.7336],[76.1231,10.7332],[76.1221,10.7333],[76.1218,10.7328],[76.1221,10.7323],[76.122,10.7313],[76.1228,10.7302],[76.1237,10.7305],[76.1237,10.7302],[76.1257,10.7302],[76.1264,10.7297],[76.1265,10.729],[76.1269,10.7287],[76.1267,10.7284],[76.1267,10.728],[76.127,10.7279],[76.1269,10.7273],[76.1262,10.7275],[76.1255,10.7269],[76.125,10.7272],[76.1249,10.7277],[76.124,10.7283],[76.1241,10.729],[76.1217,10.7306],[76.1217,10.7321],[76.1208,10.7323],[76.1208,10.732]],[[76.1221,10.7343],[76.1226,10.7345],[76.1228,10.7349],[76.1218,10.7347],[76.1221,10.7343]]]]}},{"type":"Feature","properties":{"kind":"Paddy","areaHa":5.27,"shedId":"RB19"},"geometry":{"type":"Polygon","coordinates":[[[76.1396,10.7311],[76.1387,10.7308],[76.1383,10.7315],[76.1363,10.7314],[76.1362,10.7307],[76.1355,10.7304],[76.1334,10.7314],[76.1348,10.7313],[76.1354,10.7317],[76.1378,10.7318],[76.1396,10.7326],[76.1396,10.7311]]]}},{"type":"Feature","properties":{"kind":"Paddy","areaHa":79.36,"shedId":"RB19"},"geometry":{"type":"MultiPolygon","coordinates":[[[[76.1407,10.7307],[76.1401,10.7306],[76.1401,10.7311],[76.1397,10.7311],[76.1396,10.7326],[76.1402,10.7323],[76.1406,10.7324],[76.1408,10.7329],[76.1433,10.7333],[76.144,10.7336],[76.1449,10.7347],[76.1472,10.7335],[76.1485,10.7335],[76.1488,10.7328],[76.1484,10.7323],[76.1489,10.7321],[76.1506,10.7321],[76.1509,10.7326],[76.1514,10.7327],[76.152,10.7325],[76.152,10.7322],[76.151,10.7323],[76.1508,10.7319],[76.151,10.7314],[76.1507,10.7311],[76.1495,10.7312],[76.1484,10.7309],[76.1473,10.7304],[76.1474,10.73],[76.1479,10.7295],[76.1499,10.7291],[76.151,10.7294],[76.1511,10.7298],[76.1518,10.7298],[76.1522,10.7291],[76.1522,10.7279],[76.153,10.727],[76.1522,10.7257],[76.1528,10.7255],[76.1533,10.7247],[76.156,10.7233],[76.1569,10.7236],[76.1594,10.7233],[76.1595,10.7224],[76.1603,10.7217],[76.1597,10.7211],[76.1597,10.7202],[76.1594,10.7202],[76.1595,10.7206],[76.1592,10.7207],[76.1587,10.7199],[76.158,10.7201],[76.1578,10.7212],[76.1569,10.7217],[76.1572,10.7225],[76.1569,10.723],[76.156,10.7228],[76.1533,10.7238],[76.1515,10.724],[76.1493,10.7259],[76.1485,10.7272],[76.1487,10.7279],[76.1479,10.728],[76.1475,10.7275],[76.1473,10.728],[76.1459,10.7286],[76.1454,10.7279],[76.145,10.728],[76.1446,10.7293],[76.1418,10.7303],[76.1417,10.7306],[76.141,10.7306],[76.1408,10.731],[76.1407,10.7307]],[[76.1489,10.7321],[76.1485,10.732],[76.1484,10.7319],[76.1487,10.7317],[76.1489,10.7321]],[[76.1474,10.7324],[76.1474,10.7314],[76.1477,10.7314],[76.1477,10.7322],[76.148,10.732],[76.1481,10.7323],[76.1474,10.7324]],[[76.1454,10.7317],[76.1461,10.7319],[76.1461,10.7323],[76.1451,10.7325],[76.1455,10.7323],[76.1454,10.7317]],[[76.1457,10.7314],[76.145,10.7316],[76.1448,10.7309],[76.145,10.7308],[76.1451,10.7313],[76.1453,10.7314],[76.1454,10.731],[76.1457,10.7314]],[[76.1444,10.7318],[76.1447,10.7321],[76.1445,10.7325],[76.1441,10.7321],[76.1444,10.7318]],[[76.1434,10.7318],[76.1436,10.7319],[76.1439,10.7317],[76.1436,10.732],[76.1434,10.7318]],[[76.1436,10.7317],[76.1436,10.7315],[76.1438,10.7315],[76.1436,10.7317]],[[76.144,10.7317],[76.1442,10.7316],[76.1442,10.7317],[76.144,10.7317]]],[[[76.151,10.7317],[76.1513,10.7318],[76.1514,10.7317],[76.151,10.7317]]]]}},{"type":"Feature","properties":{"kind":"Paddy","areaHa":24.47,"shedId":"RB19"},"geometry":{"type":"Polygon","coordinates":[[[76.1301,10.7334],[76.1314,10.7328],[76.1319,10.7316],[76.1335,10.7313],[76.1354,10.7304],[76.1363,10.7307],[76.1363,10.7313],[76.1383,10.7314],[76.1386,10.7308],[76.1394,10.731],[76.1392,10.7303],[76.1381,10.7296],[76.1381,10.7286],[76.1378,10.7285],[76.1381,10.7278],[76.1376,10.7276],[76.1381,10.7272],[76.1369,10.7271],[76.1366,10.7276],[76.1371,10.7278],[76.1371,10.7282],[76.136,10.728],[76.1356,10.7287],[76.1357,10.7294],[76.1347,10.7288],[76.134,10.7291],[76.1341,10.7299],[76.1327,10.73],[76.1323,10.7308],[76.1314,10.7301],[76.131,10.7302],[76.1305,10.7311],[76.1306,10.7318],[76.1298,10.7323],[76.1299,10.7326],[76.1293,10.7333],[76.1289,10.7333],[76.128,10.7341],[76.1282,10.7343],[76.1297,10.734],[76.1301,10.7334]],[[76.1363,10.7307],[76.1364,10.7305],[76.1365,10.7305],[76.1363,10.7307]],[[76.137,10.7304],[76.137,10.7305],[76.1369,10.7305],[76.137,10.7304]],[[76.137,10.7304],[76.1372,10.7303],[76.1372,10.7304],[76.137,10.7304]],[[76.1374,10.7302],[76.1374,10.7303],[76.1373,10.7303],[76.1374,10.7302]]]}},{"type":"Feature","properties":{"kind":"Paddy","areaHa":16.33,"shedId":"RB19"},"geometry":{"type":"Polygon","coordinates":[[[76.1174,10.7177],[76.1193,10.7182],[76.1202,10.7178],[76.1202,10.7171],[76.1196,10.717],[76.119,10.716],[76.1186,10.7161],[76.1182,10.7156],[76.1172,10.7157],[76.1158,10.7168],[76.1148,10.716],[76.1146,10.717],[76.1138,10.7176],[76.1134,10.7198],[76.1146,10.7199],[76.1159,10.7182],[76.1174,10.7177]]]}},{"type":"Feature","properties":{"kind":"Paddy","areaHa":15.05,"shedId":"RB19"},"geometry":{"type":"Polygon","coordinates":[[[76.1216,10.7113],[76.1215,10.7126],[76.122,10.7137],[76.1235,10.7146],[76.1239,10.7162],[76.1244,10.7168],[76.1263,10.718],[76.1266,10.7177],[76.1283,10.7184],[76.1286,10.718],[76.1255,10.7153],[76.1249,10.7138],[76.1229,10.7132],[76.1221,10.7121],[76.12207,10.711],[76.1216,10.7113]],[[76.1269,10.717],[76.1268,10.7172],[76.1265,10.7171],[76.1265,10.7169],[76.1269,10.717]]]}},{"type":"Feature","properties":{"kind":"Paddy","areaHa":1.51,"shedId":"RB19"},"geometry":{"type":"Polygon","coordinates":[[[76.0533,10.8153],[76.0528,10.8138],[76.0525,10.8137],[76.0518,10.8145],[76.0524,10.8147],[76.0525,10.8152],[76.0529,10.8154],[76.0533,10.8153]]]}},{"type":"Feature","properties":{"kind":"Paddy","areaHa":1.61,"shedId":"RB19"},"geometry":{"type":"MultiPolygon","coordinates":[[[[76.0565,10.8075],[76.0586,10.8057],[76.0584,10.8054],[76.0563,10.8072],[76.0565,10.8075]]],[[[76.0587,10.8053],[76.0588,10.8056],[76.0592,10.8053],[76.0589,10.8046],[76.0584,10.8054],[76.0587,10.8053]]]]}},{"type":"Feature","properties":{"kind":"Paddy","areaHa":3.2,"shedId":"RB19"},"geometry":{"type":"Polygon","coordinates":[[[76.0601,10.804],[76.0604,10.8044],[76.061,10.8036],[76.0623,10.8037],[76.0632,10.8034],[76.062,10.803],[76.061,10.8031],[76.0608,10.8028],[76.0607,10.8032],[76.0589,10.8046],[76.0595,10.8054],[76.0599,10.805],[76.0598,10.8042],[76.0601,10.804]]]}},{"type":"Feature","properties":{"kind":"Paddy","areaHa":1.52,"shedId":"RB19"},"geometry":{"type":"Polygon","coordinates":[[[76.0611,10.8027],[76.061,10.8021],[76.0603,10.8022],[76.0603,10.8027],[76.0597,10.8028],[76.0594,10.8042],[76.0604,10.8033],[76.0605,10.8028],[76.0611,10.8027]]]}},{"type":"Feature","properties":{"kind":"Paddy","areaHa":3.99,"shedId":"RB19"},"geometry":{"type":"Polygon","coordinates":[[[76.048,10.8103],[76.0495,10.8098],[76.0495,10.8093],[76.0493,10.809],[76.0487,10.809],[76.0486,10.8077],[76.0481,10.8077],[76.0485,10.807],[76.0477,10.8071],[76.0479,10.8091],[76.0477,10.8096],[76.0474,10.8096],[76.048,10.8103]]]}},{"type":"Feature","properties":{"kind":"Paddy","areaHa":3.14,"shedId":"RB19"},"geometry":{"type":"MultiPolygon","coordinates":[[[[76.0502,10.8088],[76.0492,10.8071],[76.0492,10.806],[76.0491,10.8064],[76.0484,10.8062],[76.0489,10.8065],[76.049,10.8068],[76.0486,10.8068],[76.0487,10.8079],[76.049,10.808],[76.0489,10.8083],[76.0495,10.8092],[76.0502,10.8088]],[[76.0492,10.8073],[76.0493,10.8076],[76.0489,10.8076],[76.0489,10.8074],[76.0492,10.8073]]],[[[76.049,10.8055],[76.0479,10.8044],[76.0476,10.8046],[76.048,10.805],[76.0483,10.8049],[76.0481,10.8051],[76.0484,10.8057],[76.049,10.8055]]],[[[76.047,10.8032],[76.0468,10.803],[76.0465,10.8032],[76.0466,10.8034],[76.047,10.8032]]]]}},{"type":"Feature","properties":{"kind":"Paddy","areaHa":11.43,"shedId":"RB19"},"geometry":{"type":"Polygon","coordinates":[[[76.0475,10.8024],[76.0468,10.803],[76.0481,10.8038],[76.0481,10.8044],[76.0485,10.8046],[76.0483,10.8048],[76.0495,10.8058],[76.0496,10.8061],[76.0499,10.8074],[76.0496,10.8074],[76.0493,10.8066],[76.0496,10.8062],[76.0494,10.8058],[76.0492,10.8071],[76.0502,10.8088],[76.0505,10.8087],[76.0505,10.8075],[76.0511,10.8076],[76.0512,10.8073],[76.0508,10.807],[76.0502,10.8053],[76.0509,10.8052],[76.0508,10.8047],[76.05,10.8049],[76.0507,10.8043],[76.05,10.8041],[76.0498,10.8044],[76.0496,10.804],[76.0497,10.8036],[76.0498,10.8038],[76.0503,10.8035],[76.0502,10.8029],[76.0496,10.8035],[76.0491,10.8024],[76.0482,10.8028],[76.048,10.8022],[76.0473,10.8022],[76.0475,10.8024]],[[76.0486,10.8045],[76.0486,10.8046],[76.0485,10.8046],[76.0486,10.8045]],[[76.0494,10.8033],[76.0492,10.8037],[76.0489,10.8032],[76.0494,10.8033]],[[76.0498,10.805],[76.0497,10.8053],[76.0495,10.8052],[76.0495,10.8049],[76.0498,10.805]]]}},{"type":"Feature","properties":{"kind":"Paddy","areaHa":1.41,"shedId":"RB19"},"geometry":{"type":"Polygon","coordinates":[[[76.0467,10.8043],[76.0467,10.8047],[76.0472,10.8054],[76.0475,10.8053],[76.0477,10.806],[76.0483,10.8059],[76.0481,10.8052],[76.0476,10.8052],[76.0477,10.8048],[76.0473,10.8044],[76.0467,10.8043]]]}},{"type":"Feature","properties":{"kind":"Paddy","areaHa":10.86,"shedId":"RB19"},"geometry":{"type":"MultiPolygon","coordinates":[[[[76.0541,10.8135],[76.0547,10.8128],[76.0545,10.812],[76.0538,10.8121],[76.0536,10.8134],[76.0533,10.8134],[76.0541,10.8135]]],[[[76.0508,10.8096],[76.0503,10.81],[76.0504,10.8107],[76.0509,10.8112],[76.0507,10.8117],[76.0509,10.8119],[76.0515,10.8114],[76.0518,10.8116],[76.0513,10.8123],[76.0516,10.8126],[76.0521,10.8124],[76.0523,10.8126],[76.0521,10.8133],[76.0524,10.8136],[76.0528,10.8135],[76.0524,10.8121],[76.0544,10.8116],[76.0543,10.8103],[76.0537,10.8097],[76.0537,10.81],[76.0531,10.8099],[76.0517,10.8105],[76.0513,10.8098],[76.0508,10.8096]]]]}},{"type":"Feature","properties":{"kind":"Paddy","areaHa":8.01,"shedId":"RB19"},"geometry":{"type":"MultiPolygon","coordinates":[[[[76.0528,10.8135],[76.0536,10.8134],[76.0538,10.8121],[76.0541,10.812],[76.0545,10.812],[76.0547,10.8126],[76.0553,10.8124],[76.0554,10.8127],[76.0559,10.8126],[76.0559,10.8119],[76.0549,10.8123],[76.0544,10.8103],[76.0542,10.8104],[76.0544,10.8116],[76.0524,10.8121],[76.0528,10.8135]]],[[[76.055,10.8125],[76.0541,10.8132],[76.0541,10.8135],[76.0551,10.8128],[76.055,10.8125]]],[[[76.0524,10.8094],[76.0506,10.8097],[76.0513,10.8098],[76.0517,10.8105],[76.0531,10.8099],[76.0537,10.81],[76.0536,10.8093],[76.0538,10.8091],[76.0538,10.809],[76.0538,10.8089],[76.0538,10.8088],[76.0538,10.8086],[76.0543,10.8084],[76.0533,10.8082],[76.0532,10.8078],[76.0522,10.8079],[76.0523,10.8082],[76.0531,10.8082],[76.0532,10.8088],[76.0525,10.8088],[76.0524,10.8094]],[[76.0538,10.8088],[76.0535,10.8087],[76.0537,10.8086],[76.0538,10.8088]]]]}},{"type":"Feature","properties":{"kind":"Paddy","areaHa":1.66,"shedId":"RB19"},"geometry":{"type":"Polygon","coordinates":[[[76.0421,10.8152],[76.0426,10.8149],[76.0431,10.8152],[76.0427,10.8148],[76.0432,10.8142],[76.0427,10.8137],[76.0415,10.815],[76.0416,10.8154],[76.0421,10.8156],[76.0421,10.8152]]]}},{"type":"Feature","properties":{"kind":"Fallow","areaHa":2.7,"shedId":"RB19"},"geometry":{"type":"MultiPolygon","coordinates":[[[[76.0539,10.8138],[76.0531,10.8143],[76.0534,10.815],[76.0539,10.8152],[76.054,10.8156],[76.0536,10.8158],[76.0549,10.8156],[76.0549,10.8153],[76.0553,10.8152],[76.0552,10.8148],[76.0542,10.8143],[76.0539,10.8138]]],[[[76.0539,10.8138],[76.0539,10.8136],[76.0537,10.8136],[76.0539,10.8138]]]]}},{"type":"Feature","properties":{"kind":"Paddy","areaHa":180.48,"shedId":"RB19"},"geometry":{"type":"MultiPolygon","coordinates":[[[[76.0741,10.7582],[76.0743,10.7586],[76.0752,10.7589],[76.0755,10.7584],[76.0753,10.757],[76.0758,10.7563],[76.0757,10.7559],[76.0762,10.756],[76.077,10.7549],[76.0791,10.755],[76.0798,10.7558],[76.0801,10.7567],[76.0799,10.7575],[76.0802,10.7576],[76.0798,10.7589],[76.0803,10.7593],[76.0802,10.7597],[76.0798,10.7596],[76.0795,10.7615],[76.0786,10.7628],[76.0785,10.7638],[76.0788,10.7643],[76.0784,10.7641],[76.078,10.7643],[76.0777,10.7646],[76.0779,10.765],[76.0777,10.7655],[76.0774,10.7653],[76.0771,10.7656],[76.0772,10.7664],[76.0762,10.7679],[76.0764,10.7689],[76.0761,10.769],[76.0766,10.7695],[76.0763,10.7699],[76.0767,10.7704],[76.078,10.7706],[76.0793,10.77],[76.0791,10.7688],[76.0795,10.7688],[76.08,10.7706],[76.0807,10.7702],[76.0812,10.7704],[76.0809,10.7707],[76.0811,10.7714],[76.0803,10.7711],[76.0807,10.7715],[76.0808,10.7729],[76.0816,10.773],[76.082,10.7724],[76.0819,10.7718],[76.0811,10.7715],[76.0828,10.7717],[76.0828,10.772],[76.0833,10.772],[76.0835,10.7715],[76.083,10.7711],[76.0817,10.7709],[76.0812,10.7703],[76.0814,10.7681],[76.0808,10.7682],[76.0809,10.7679],[76.0816,10.7677],[76.0816,10.7674],[76.0809,10.7671],[76.0816,10.7668],[76.0816,10.7656],[76.0811,10.7637],[76.0805,10.7634],[76.0807,10.7623],[76.0804,10.7619],[76.0813,10.7615],[76.081,10.7613],[76.0816,10.7605],[76.0811,10.7598],[76.0812,10.7594],[76.0815,10.7595],[76.0818,10.7588],[76.0823,10.7588],[76.0824,10.7581],[76.0816,10.7558],[76.0817,10.7548],[76.0814,10.7548],[76.0811,10.7541],[76.0815,10.749],[76.0811,10.7462],[76.0823,10.7461],[76.0823,10.7457],[76.0834,10.7454],[76.0834,10.7458],[76.0844,10.7463],[76.0851,10.7477],[76.0863,10.7491],[76.0861,10.749],[76.0857,10.7497],[76.0863,10.751],[76.0864,10.7523],[76.0857,10.7541],[76.0856,10.7551],[76.0859,10.7554],[76.0854,10.7575],[76.0862,10.7583],[76.0868,10.7581],[76.0869,10.7587],[76.0865,10.7589],[76.0865,10.7595],[76.0879,10.7606],[76.0877,10.7612],[76.0884,10.7621],[76.0886,10.7618],[76.0881,10.7602],[76.0887,10.7599],[76.089,10.7608],[76.0887,10.7625],[76.089,10.7626],[76.0886,10.7627],[76.0883,10.7635],[76.0889,10.764],[76.089,10.7647],[76.0886,10.7652],[76.0888,10.7656],[76.0886,10.7664],[76.0888,10.7668],[76.0894,10.7665],[76.0894,10.7668],[76.0903,10.7669],[76.0905,10.7668],[76.0903,10.7664],[76.091,10.7659],[76.0906,10.7658],[76.0905,10.7653],[76.0908,10.7651],[76.0901,10.7645],[76.09,10.7639],[76.0896,10.7641],[76.0893,10.7636],[76.0894,10.7636],[76.0896,10.7635],[76.0895,10.7633],[76.0902,10.7627],[76.0895,10.762],[76.0894,10.7612],[76.09,10.7605],[76.0902,10.7595],[76.0912,10.7589],[76.0909,10.7588],[76.0913,10.7584],[76.0911,10.7576],[76.0906,10.7575],[76.0904,10.7569],[76.0897,10.7569],[76.0898,10.7579],[76.0895,10.7585],[76.0892,10.7585],[76.0892,10.758],[76.0886,10.7576],[76.0887,10.7573],[76.0891,10.7573],[76.0892,10.7558],[76.088,10.7561],[76.0884,10.7558],[76.0883,10.755],[76.0885,10.7549],[76.0888,10.7554],[76.0889,10.7546],[76.089,10.7555],[76.0893,10.7551],[76.0896,10.7554],[76.0899,10.7567],[76.0906,10.7565],[76.0893,10.7529],[76.0894,10.7516],[76.0901,10.7497],[76.0886,10.7492],[76.0891,10.749],[76.089,10.7485],[76.0882,10.7486],[76.0868,10.748],[76.0864,10.7481],[76.0857,10.7467],[76.0839,10.745],[76.0827,10.7449],[76.0814,10.7455],[76.0811,10.7451],[76.0811,10.7429],[76.0804,10.7423],[76.0802,10.7405],[76.0779,10.7391],[76.0771,10.7392],[76.0771,10.74],[76.0778,10.7398],[76.0786,10.7402],[76.0785,10.7406],[76.0792,10.7408],[76.0793,10.7435],[76.0799,10.7443],[76.08,10.7451],[76.0803,10.7451],[76.08,10.7452],[76.0799,10.746],[76.0782,10.7474],[76.0783,10.7479],[76.0797,10.7475],[76.0793,10.7489],[76.0785,10.7493],[76.0783,10.7515],[76.0773,10.7529],[76.076,10.7537],[76.0762,10.7539],[76.076,10.7542],[76.0757,10.7541],[76.0748,10.7549],[76.0742,10.7546],[76.0736,10.7553],[76.0737,10.7559],[76.0731,10.7564],[76.0731,10.7568],[76.0734,10.7569],[76.0729,10.758],[76.0741,10.7582]],[[76.08,10.7697],[76.0801,10.7697],[76.0799,10.7698],[76.08,10.7697]],[[76.0801,10.7696],[76.0802,10.7696],[76.0801,10.7697],[76.0801,10.7696]],[[76.0807,10.7683],[76.0806,10.7683],[76.0808,10.7682],[76.0807,10.7683]],[[76.0805,10.7684],[76.0804,10.7684],[76.0806,10.7683],[76.0805,10.7684]],[[76.0891,10.7607],[76.0891,10.7608],[76.089,10.7608],[76.0891,10.7607]],[[76.089,10.7607],[76.089,10.7606],[76.0891,10.7607],[76.089,10.7607]],[[76.08925,10.76415],[76.0891,10.7643],[76.0893,10.7649],[76.089,10.7643],[76.08925,10.76415]],[[76.09,10.7668],[76.0898,10.7663],[76.0897,10.7658],[76.09,10.7668]],[[76.0893,10.7635],[76.0893,10.7634],[76.0894,10.7636],[76.0893,10.7635]],[[76.0892,10.7632],[76.0892,10.7631],[76.0893,10.7634],[76.0892,10.7632]],[[76.088,10.7562],[76.0879,10.7566],[76.0883,10.7566],[76.0884,10.757],[76.0882,10.7574],[76.0873,10.7569],[76.0876,10.7563],[76.0879,10.7565],[76.088,10.7562]],[[76.0865,10.7481],[76.0866,10.7483],[76.0866,10.7484],[76.0865,10.7481]],[[76.0807,10.7461],[76.0806,10.7461],[76.0807,10.746],[76.0807,10.7461]],[[76.0808,10.7461],[76.0808,10.7462],[76.0807,10.7461],[76.0808,10.7461]],[[76.0803,10.7484],[76.0803,10.7485],[76.0802,10.7483],[76.0803,10.7484]],[[76.0803,10.7485],[76.0802,10.7488],[76.0801,10.7488],[76.0803,10.7485]],[[76.0802,10.749],[76.0801,10.7489],[76.0801,10.7488],[76.0802,10.749]],[[76.0795,10.751],[76.0794,10.7511],[76.0795,10.7509],[76.0795,10.751]],[[76.0794,10.7511],[76.0796,10.7513],[76.0794,10.7514],[76.0794,10.7511]],[[76.0794,10.7514],[76.0793,10.752],[76.0792,10.7521],[76.0794,10.7514]],[[76.08,10.7514],[76.08,10.7515],[76.0799,10.7513],[76.08,10.7514]],[[76.08,10.7515],[76.0801,10.7517],[76.0801,10.7519],[76.08,10.7515]],[[76.0801,10.7524],[76.0802,10.7527],[76.0801,10.7527],[76.0801,10.7524]],[[76.0801,10.7528],[76.08,10.7528],[76.0801,10.7527],[76.0801,10.7528]],[[76.0802,10.7528],[76.0802,10.753],[76.0801,10.7531],[76.0801,10.7528],[76.0802,10.7528]],[[76.0802,10.7533],[76.0802,10.7534],[76.0801,10.7533],[76.0802,10.7533]],[[76.0802,10.7535],[76.0803,10.7535],[76.0803,10.7536],[76.0802,10.7535]],[[76.0804,10.754],[76.0804,10.7542],[76.0803,10.7542],[76.0804,10.754]],[[76.0805,10.7543],[76.0804,10.7543],[76.0804,10.7542],[76.0805,10.7543]],[[76.0809,10.757],[76.081,10.7572],[76.081,10.7573],[76.0809,10.757]],[[76.081,10.7573],[76.0811,10.7576],[76.081,10.7578],[76.081,10.7573]],[[76.0809,10.7591],[76.081,10.7594],[76.0808,10.7596],[76.0809,10.7591]],[[76.0807,10.7597],[76.0807,10.7596],[76.0808,10.7596],[76.0807,10.7597]],[[76.0807,10.7598],[76.0806,10.7598],[76.0807,10.7597],[76.0807,10.7598]],[[76.0806,10.7599],[76.0805,10.7601],[76.0806,10.7598],[76.0806,10.7599]],[[76.0805,10.7605],[76.0805,10.7608],[76.0804,10.761],[76.0805,10.7605]],[[76.0804,10.7611],[76.0803,10.7613],[76.0803,10.7614],[76.0802,10.7613],[76.0804,10.7611]],[[76.0803,10.7614],[76.0803,10.7617],[76.0802,10.7619],[76.0803,10.7614]],[[76.0802,10.7619],[76.0802,10.7626],[76.08,10.7627],[76.0802,10.7619]],[[76.0798,10.7628],[76.0798,10.7627],[76.0799,10.7627],[76.0798,10.7628]],[[76.0798,10.7629],[76.0797,10.763],[76.0798,10.7628],[76.0798,10.7629]],[[76.0798,10.7633],[76.0797,10.7634],[76.0797,10.7632],[76.0798,10.7633]],[[76.0797,10.7635],[76.0796,10.7636],[76.0797,10.7634],[76.0797,10.7635]],[[76.0796,10.7638],[76.0795,10.7639],[76.0796,10.7637],[76.0796,10.7638]],[[76.0794,10.764],[76.0794,10.7639],[76.0795,10.7639],[76.0794,10.764]],[[76.0793,10.764],[76.0792,10.7642],[76.0791,10.7642],[76.0793,10.764]],[[76.0791,10.7643],[76.079,10.7644],[76.0791,10.7642],[76.0791,10.7643]],[[76.079,10.7644],[76.0788,10.7647],[76.0787,10.7647],[76.079,10.7644]],[[76.0787,10.7648],[76.0784,10.7651],[76.0783,10.7653],[76.0783,10.7651],[76.0787,10.7648]],[[76.0782,10.7655],[76.0782,10.7654],[76.0783,10.7653],[76.0782,10.7655]],[[76.0783,10.7657],[76.0782,10.7659],[76.0782,10.7655],[76.0783,10.7657]],[[76.0782,10.7681],[76.0781,10.7681],[76.0781,10.768],[76.0782,10.7681]],[[76.0782,10.7681],[76.0784,10.768],[76.0785,10.768],[76.0782,10.7681]],[[76.0785,10.7679],[76.0786,10.7678],[76.0785,10.768],[76.0785,10.7679]],[[76.0788,10.7681],[76.079,10.7681],[76.079,10.7682],[76.0788,10.7681]],[[76.0791,10.7682],[76.0792,10.7683],[76.079,10.7682],[76.0791,10.7682]],[[76.0881,10.7583],[76.088,10.7597],[76.0874,10.7598],[76.0875,10.7592],[76.0871,10.7589],[76.0873,10.7584],[76.0869,10.7585],[76.0869,10.7581],[76.0875,10.758],[76.0874,10.7579],[76.0873,10.7576],[76.0868,10.7576],[76.0868,10.7573],[76.0873,10.7575],[76.0876,10.7581],[76.0881,10.7583]],[[76.0885,10.7582],[76.0883,10.7583],[76.0881,10.7583],[76.0885,10.7582]],[[76.0869,10.7561],[76.0869,10.7558],[76.0872,10.7557],[76.0869,10.7561]],[[76.0872,10.7557],[76.0873,10.7555],[76.0874,10.7556],[76.0872,10.7557]],[[76.0872,10.755],[76.087,10.7545],[76.0863,10.7547],[76.0864,10.7543],[76.0868,10.7544],[76.0871,10.754],[76.0878,10.7542],[76.0878,10.7546],[76.0872,10.755]],[[76.0866,10.7542],[76.0866,10.7538],[76.0867,10.7537],[76.0866,10.7542]],[[76.0865,10.7493],[76.0863,10.7492],[76.0866,10.7492],[76.0865,10.7493]],[[76.0867,10.7491],[76.0867,10.7492],[76.0866,10.7492],[76.0867,10.7491]],[[76.0867,10.749],[76.0868,10.749],[76.0867,10.7491],[76.0867,10.749]],[[76.0869,10.7488],[76.0868,10.7488],[76.0867,10.7487],[76.0869,10.7488]],[[76.0866,10.7487],[76.0866,10.7486],[76.0867,10.7487],[76.0866,10.7487]],[[76.0882,10.7492],[76.0879,10.7491],[76.0877,10.749],[76.0879,10.749],[76.0882,10.7492]],[[76.0875,10.749],[76.0873,10.7489],[76.0877,10.749],[76.0875,10.749]],[[76.0891,10.763],[76.0891,10.7629],[76.0892,10.763],[76.0891,10.763]],[[76.089,10.7627],[76.0891,10.7626],[76.0891,10.7629],[76.089,10.7627]],[[76.0802,10.7696],[76.0803,10.7694],[76.0804,10.7694],[76.0802,10.7696]],[[76.0804,10.7693],[76.0805,10.7693],[76.0804,10.7694],[76.0804,10.7693]],[[76.0793,10.7524],[76.0793,10.7525],[76.0792,10.7523],[76.0793,10.7524]],[[76.0793,10.7525],[76.0792,10.7526],[76.0792,10.7525],[76.0793,10.7525]],[[76.0807,10.7452],[76.0807,10.7454],[76.0807,10.7456],[76.0806,10.7455],[76.0807,10.7452]],[[76.0808,10.7463],[76.0808,10.7465],[76.0807,10.7466],[76.0808,10.7463]],[[76.0807,10.7469],[76.0806,10.747],[76.0807,10.7467],[76.0807,10.7469]],[[76.0807,10.7472],[76.0806,10.7474],[76.0806,10.7471],[76.0807,10.7472]],[[76.0804,10.7474],[76.0804,10.7473],[76.0805,10.7474],[76.0804,10.7474]],[[76.0804,10.7475],[76.0804,10.7477],[76.0803,10.7478],[76.0804,10.7475]],[[76.0801,10.7491],[76.0798,10.7496],[76.0797,10.7496],[76.0798,10.7492],[76.0801,10.7491]],[[76.0796,10.7499],[76.0795,10.7499],[76.0797,10.7498],[76.0796,10.7499]],[[76.0795,10.7503],[76.0796,10.7503],[76.0796,10.7504],[76.0795,10.7503]],[[76.0797,10.7506],[76.0796,10.7507],[76.0796,10.7505],[76.0797,10.7506]],[[76.08,10.752],[76.0801,10.7522],[76.0801,10.7523],[76.08,10.752]],[[76.0803,10.7537],[76.0804,10.7538],[76.0803,10.7538],[76.0803,10.7537]],[[76.0805,10.7545],[76.0804,10.7545],[76.0805,10.7544],[76.0805,10.7545]],[[76.0806,10.7546],[76.0806,10.7547],[76.0805,10.7546],[76.0806,10.7546]],[[76.0807,10.7551],[76.0806,10.7551],[76.0806,10.7549],[76.0807,10.7551]],[[76.0807,10.7554],[76.0808,10.7556],[76.0808,10.7557],[76.0807,10.7554]],[[76.0808,10.7559],[76.0809,10.7561],[76.0809,10.7563],[76.0808,10.7559]],[[76.081,10.7567],[76.081,10.7569],[76.0809,10.7565],[76.081,10.7567]],[[76.081,10.7582],[76.081,10.7586],[76.0809,10.7587],[76.081,10.7582]],[[76.0809,10.759],[76.0808,10.759],[76.0809,10.7589],[76.0809,10.759]],[[76.0782,10.7669],[76.0781,10.7669],[76.0782,10.7668],[76.0782,10.7669]],[[76.0782,10.767],[76.0782,10.7673],[76.0781,10.7673],[76.0782,10.767]],[[76.078,10.7675],[76.078,10.7674],[76.0781,10.7674],[76.078,10.7675]],[[76.0781,10.7678],[76.078,10.7677],[76.078,10.7676],[76.0781,10.7678]],[[76.0798,10.7682],[76.0799,10.7683],[76.0796,10.7683],[76.0798,10.7682]],[[76.0799,10.7685],[76.0801,10.7684],[76.0801,10.7685],[76.0799,10.7685]],[[76.089,10.7601],[76.0891,10.76],[76.089,10.7602],[76.089,10.7601]],[[76.089,10.7597],[76.089,10.7596],[76.0891,10.7598],[76.089,10.7597]],[[76.0888,10.7594],[76.0888,10.7593],[76.0889,10.7594],[76.0888,10.7594]],[[76.0884,10.7592],[76.0881,10.7592],[76.0881,10.7591],[76.0884,10.7592]],[[76.0867,10.7571],[76.0868,10.7569],[76.0868,10.7572],[76.0867,10.7571]],[[76.0868,10.7566],[76.0869,10.7564],[76.0868,10.7567],[76.0868,10.7566]],[[76.0867,10.7535],[76.0867,10.7533],[76.0869,10.7532],[76.0867,10.7535]],[[76.087,10.7522],[76.0871,10.7523],[76.087,10.7524],[76.087,10.7522]],[[76.087,10.7518],[76.087,10.7514],[76.0871,10.7515],[76.087,10.7518]],[[76.0869,10.7511],[76.087,10.7511],[76.087,10.7512],[76.0869,10.7511]],[[76.0867,10.7508],[76.0868,10.7506],[76.0868,10.751],[76.0867,10.7508]],[[76.0868,10.7504],[76.0869,10.7502],[76.0869,10.7504],[76.0868,10.7504]],[[76.0866,10.7498],[76.0867,10.7497],[76.0867,10.75],[76.0866,10.7498]],[[76.0865,10.7496],[76.0865,10.7495],[76.0866,10.7496],[76.0865,10.7496]],[[76.0895,10.7652],[76.0895,10.7651],[76.0896,10.7655],[76.0895,10.7652]],[[76.0805,10.7692],[76.0805,10.769],[76.0806,10.7691],[76.0805,10.7692]],[[76.0804,10.7688],[76.0805,10.7688],[76.0805,10.7689],[76.0804,10.7688]],[[76.0889,10.763],[76.089,10.7635],[76.0888,10.7635],[76.0889,10.763]],[[76.0757,10.7556],[76.0753,10.7549],[76.0763,10.7545],[76.0763,10.755],[76.0757,10.7556]]],[[[76.0818,10.7727],[76.082,10.7727],[76.082,10.7726],[76.0818,10.7727]]],[[[76.0894,10.7674],[76.089,10.7678],[76.0892,10.7686],[76.0896,10.7684],[76.0894,10.7674]]]]}},{"type":"Feature","properties":{"kind":"Paddy","areaHa":12.89,"shedId":"RB19"},"geometry":{"type":"Polygon","coordinates":[[[76.09,10.7673],[76.0894,10.7674],[76.0896,10.7684],[76.0892,10.7686],[76.0893,10.769],[76.0903,10.7692],[76.0904,10.7697],[76.0911,10.7695],[76.0914,10.7704],[76.0936,10.7703],[76.0939,10.7699],[76.0939,10.7691],[76.0934,10.769],[76.0935,10.7687],[76.0914,10.7672],[76.0912,10.7664],[76.0906,10.7661],[76.0903,10.7664],[76.0905,10.7668],[76.0901,10.7669],[76.09,10.7673]],[[76.0914,10.7697],[76.0914,10.7698],[76.0913,10.7698],[76.0914,10.7697]],[[76.0915,10.7697],[76.0914,10.7692],[76.0915,10.7691],[76.0915,10.7697]],[[76.0916,10.769],[76.0914,10.7689],[76.091,10.7687],[76.0916,10.769]],[[76.091,10.7687],[76.0906,10.7683],[76.09052,10.76798],[76.091,10.7687]],[[76.0902,10.7675],[76.0902,10.76745],[76.09035,10.7677],[76.0902,10.7675]]]}},{"type":"Feature","properties":{"kind":"Paddy","areaHa":126.24,"shedId":"RB19"},"geometry":{"type":"MultiPolygon","coordinates":[[[[76.0554,10.7527],[76.0541,10.7514],[76.0532,10.7523],[76.0536,10.7534],[76.0539,10.7529],[76.0542,10.7531],[76.0537,10.7536],[76.0539,10.7541],[76.0557,10.7557],[76.0564,10.7571],[76.0571,10.7571],[76.0576,10.7566],[76.0576,10.7571],[76.059,10.7578],[76.0602,10.7557],[76.0631,10.7551],[76.0643,10.7553],[76.0652,10.7562],[76.0654,10.7579],[76.0649,10.7582],[76.065,10.7589],[76.0658,10.7592],[76.0658,10.7596],[76.0652,10.7609],[76.0654,10.7616],[76.0649,10.7624],[76.0652,10.7631],[76.0648,10.7641],[76.066,10.7641],[76.0658,10.7644],[76.0643,10.7643],[76.0641,10.7648],[76.0634,10.7645],[76.0642,10.7655],[76.0641,10.7665],[76.0649,10.7676],[76.0643,10.7682],[76.0647,10.7686],[76.0646,10.7689],[76.0636,10.7691],[76.063,10.7699],[76.0653,10.7699],[76.0659,10.7702],[76.0662,10.7696],[76.0673,10.7693],[76.0675,10.7703],[76.0687,10.7705],[76.0691,10.7702],[76.0692,10.7708],[76.0696,10.7703],[76.0708,10.7707],[76.0709,10.7704],[76.0713,10.7704],[76.0713,10.7707],[76.0718,10.7705],[76.0719,10.77],[76.0713,10.7701],[76.0714,10.7696],[76.07,10.7692],[76.0696,10.7684],[76.069,10.7681],[76.0683,10.7671],[76.0681,10.7673],[76.068,10.7672],[76.0682,10.7668],[76.068,10.7662],[76.0677,10.7659],[76.0673,10.766],[76.0675,10.7657],[76.067,10.7651],[76.068,10.7628],[76.0677,10.7623],[76.0668,10.7625],[76.0668,10.7618],[76.0673,10.7613],[76.0675,10.7599],[76.0679,10.7597],[76.0676,10.759],[76.0683,10.7589],[76.0685,10.7584],[76.0688,10.7584],[76.0687,10.7572],[76.068,10.7566],[76.068,10.7557],[76.0685,10.7555],[76.0684,10.7552],[76.0681,10.7551],[76.0681,10.7546],[76.067,10.7543],[76.0675,10.7531],[76.0672,10.7528],[76.0657,10.7528],[76.0654,10.7531],[76.0655,10.7523],[76.0651,10.7523],[76.0645,10.7533],[76.0643,10.7527],[76.0639,10.7526],[76.0639,10.7521],[76.0645,10.7518],[76.0649,10.7505],[76.0656,10.7501],[76.0653,10.749],[76.0655,10.7481],[76.0653,10.747],[76.0652,10.7473],[76.065,10.747],[76.064,10.7472],[76.0634,10.745],[76.0651,10.7438],[76.0651,10.7435],[76.0661,10.7433],[76.0663,10.7426],[76.0661,10.7424],[76.0656,10.7429],[76.0658,10.7423],[76.0651,10.7423],[76.0642,10.7436],[76.0635,10.7437],[76.0634,10.7432],[76.0632,10.7431],[76.0631,10.7435],[76.0624,10.7439],[76.0624,10.7436],[76.0617,10.7434],[76.0618,10.7426],[76.0614,10.7426],[76.0616,10.7429],[76.0612,10.743],[76.0613,10.7432],[76.0608,10.7431],[76.0598,10.7441],[76.0597,10.7446],[76.06,10.7449],[76.0616,10.7452],[76.062,10.7462],[76.0635,10.7463],[76.0635,10.7466],[76.0627,10.7468],[76.063,10.7473],[76.0627,10.7479],[76.063,10.7483],[76.063,10.7495],[76.0623,10.7507],[76.0625,10.751],[76.0621,10.7514],[76.062,10.7528],[76.061,10.7544],[76.0597,10.7552],[76.0594,10.755],[76.0591,10.7556],[76.0587,10.7555],[76.0578,10.7561],[76.056,10.7543],[76.0554,10.7527]],[[76.0633,10.7434],[76.0633,10.7433],[76.0634,10.7433],[76.0633,10.7434]],[[76.0633,10.7434],[76.0633,10.7436],[76.0632,10.7435],[76.0633,10.7434]],[[76.0599,10.7444],[76.0611,10.744],[76.0615,10.7443],[76.0613,10.7446],[76.0599,10.7444]],[[76.0633,10.7444],[76.0632,10.7445],[76.0633,10.7443],[76.0633,10.7444]],[[76.0632,10.7445],[76.0633,10.7447],[76.0631,10.745],[76.0632,10.7445]],[[76.0632,10.7451],[76.0631,10.7452],[76.0631,10.745],[76.0632,10.7451]],[[76.0639,10.7479],[76.064,10.7481],[76.064,10.7482],[76.0639,10.7479]],[[76.064,10.7482],[76.0641,10.7486],[76.064,10.7488],[76.0639,10.7485],[76.064,10.7482]],[[76.064,10.7489],[76.06395,10.7489],[76.064,10.7488],[76.064,10.7489]],[[76.0636,10.7497],[76.0636,10.7496],[76.0637,10.7496],[76.0636,10.7497]],[[76.0637,10.7497],[76.0637,10.7498],[76.0637,10.7499],[76.0636,10.7498],[76.0636,10.7497],[76.0637,10.7497]],[[76.0637,10.75],[76.0636,10.75],[76.0637,10.7499],[76.0637,10.75]],[[76.0636,10.7501],[76.0635,10.7502],[76.0636,10.75],[76.0636,10.7501]],[[76.0635,10.7502],[76.0636,10.7503],[76.0635,10.7503],[76.0635,10.7502]],[[76.0637,10.7503],[76.0637,10.7504],[76.0636,10.7503],[76.0637,10.7503]],[[76.0637,10.7506],[76.0636,10.7506],[76.0637,10.7505],[76.0637,10.7506]],[[76.0636,10.7507],[76.0635,10.7508],[76.0636,10.7506],[76.0636,10.7507]],[[76.0634,10.7508],[76.0635,10.7513],[76.0634,10.7514],[76.0634,10.7508]],[[76.0632,10.7518],[76.0632,10.7517],[76.0633,10.7517],[76.0632,10.7518]],[[76.0632,10.7518],[76.0632,10.752],[76.0631,10.752],[76.0632,10.7518]],[[76.0632,10.7521],[76.0635,10.7521],[76.0636,10.7522],[76.0632,10.7521]],[[76.0636,10.7522],[76.0637,10.7526],[76.0638,10.7528],[76.0636,10.7526],[76.0636,10.7522]],[[76.0637,10.753],[76.0638,10.753],[76.0638,10.7531],[76.0637,10.753]],[[76.0639,10.7532],[76.0639,10.7533],[76.0638,10.7532],[76.0639,10.7532]],[[76.064,10.7535],[76.0639,10.7536],[76.0639,10.7533],[76.064,10.7535]],[[76.0639,10.7536],[76.0639,10.7538],[76.0638,10.7536],[76.0639,10.7536]],[[76.065,10.7544],[76.0651,10.7545],[76.0649,10.7544],[76.065,10.7544]],[[76.0652,10.7545],[76.0653,10.7546],[76.0651,10.7545],[76.0652,10.7545]],[[76.0653,10.7546],[76.0656,10.7548],[76.0656,10.7549],[76.0653,10.7546]],[[76.0658,10.7551],[76.0658,10.7552],[76.0657,10.755],[76.0658,10.7551]],[[76.0658,10.7552],[76.066,10.7554],[76.066,10.7555],[76.0658,10.7552]],[[76.0661,10.7584],[76.0662,10.7585],[76.0661,10.7585],[76.0661,10.7584]],[[76.0662,10.7585],[76.0663,10.7587],[76.0663,10.7592],[76.0662,10.7585]],[[76.0664,10.7592],[76.0664,10.7593],[76.0663,10.7592],[76.0664,10.7592]],[[76.0665,10.7593],[76.0665,10.7594],[76.0664,10.7593],[76.0665,10.7593]],[[76.0665,10.7594],[76.0665,10.7599],[76.0664,10.7602],[76.0665,10.7594]],[[76.0661,10.7639],[76.066,10.7639],[76.0661,10.7638],[76.0661,10.7639]],[[76.0662,10.7639],[76.0662,10.764],[76.0661,10.764],[76.0661,10.7639],[76.0662,10.7639]],[[76.0662,10.764],[76.0663,10.7641],[76.0663,10.7646],[76.0662,10.764]],[[76.0664,10.7653],[76.0664,10.7656],[76.0663,10.765],[76.0664,10.7653]],[[76.0665,10.7657],[76.0665,10.7658],[76.0664,10.7656],[76.0665,10.7657]],[[76.0665,10.7658],[76.0666,10.7661],[76.0665,10.7662],[76.0665,10.7658]],[[76.067,10.7669],[76.0672,10.7668],[76.0672,10.767],[76.067,10.7669]],[[76.0673,10.7672],[76.0673,10.7673],[76.0672,10.767],[76.0673,10.7672]],[[76.0673,10.7673],[76.0674,10.7675],[76.0674,10.7676],[76.0673,10.7673]],[[76.0675,10.7677],[76.0675,10.7678],[76.0674,10.7677],[76.0675,10.7677]],[[76.0676,10.7679],[76.0675,10.7679],[76.0675,10.7678],[76.0676,10.7679]],[[76.0677,10.768],[76.0676,10.768],[76.0676,10.7679],[76.0677,10.768]],[[76.068,10.7686],[76.0682,10.7688],[76.0682,10.7689],[76.068,10.7686]],[[76.0683,10.7689],[76.0683,10.769],[76.0682,10.7689],[76.0683,10.7689]],[[76.0688,10.7691],[76.0692,10.7693],[76.0692,10.7694],[76.0689,10.7693],[76.0688,10.7691]],[[76.0693,10.7694],[76.0694,10.7695],[76.0692,10.7694],[76.0693,10.7694]],[[76.0633,10.7438],[76.0634,10.7442],[76.0633,10.7442],[76.0633,10.7438]],[[76.0631,10.7455],[76.063,10.7455],[76.0631,10.7454],[76.0631,10.7455]],[[76.0629,10.7457],[76.0628,10.7456],[76.0629,10.7456],[76.0629,10.7457]],[[76.063,10.7458],[76.0632,10.7459],[76.0633,10.746],[76.0632,10.746],[76.063,10.7458]],[[76.0634,10.746],[76.0635,10.7461],[76.0634,10.7461],[76.0634,10.746]],[[76.0645,10.7474],[76.0644,10.7474],[76.0644,10.7473],[76.0645,10.7474]],[[76.0644,10.7477],[76.0643,10.7477],[76.0644,10.7476],[76.0644,10.7477]],[[76.0642,10.754],[76.0642,10.7541],[76.0641,10.7539],[76.0642,10.754]],[[76.0646,10.7544],[76.0648,10.7544],[76.0646,10.7545],[76.0646,10.7544]],[[76.066,10.7557],[76.0661,10.7557],[76.0661,10.7558],[76.066,10.7557]],[[76.0662,10.7561],[76.0661,10.7561],[76.0661,10.756],[76.0662,10.7561]],[[76.0662,10.7562],[76.0662,10.7564],[76.0661,10.7563],[76.0662,10.7562]],[[76.0663,10.757],[76.0663,10.7571],[76.0662,10.757],[76.0663,10.757]],[[76.0663,10.7573],[76.0663,10.7578],[76.0661,10.7579],[76.0663,10.7573]],[[76.0661,10.7581],[76.0661,10.7583],[76.066,10.7582],[76.0661,10.7581]],[[76.0663,10.7613],[76.0662,10.7615],[76.0663,10.7612],[76.0663,10.7613]],[[76.0662,10.7615],[76.0662,10.762],[76.0661,10.7621],[76.0662,10.7615]],[[76.0663,10.7629],[76.0662,10.7631],[76.0662,10.7629],[76.0663,10.7629]],[[76.0663,10.7633],[76.0662,10.7634],[76.0662,10.7632],[76.0663,10.7633]],[[76.0666,10.7665],[76.0666,10.7666],[76.0665,10.7664],[76.0666,10.7665]],[[76.0678,10.7681],[76.0678,10.7682],[76.0677,10.7681],[76.0678,10.7681]],[[76.0696,10.7695],[76.0697,10.7696],[76.0695,10.7695],[76.0696,10.7695]],[[76.0654,10.7545],[76.0656,10.7544],[76.0657,10.7546],[76.0654,10.7545]]],[[[76.0632,10.7696],[76.0629,10.7696],[76.063,10.7697],[76.0632,10.7696]]]]}},{"type":"Feature","properties":{"kind":"Paddy","areaHa":2.81,"shedId":"RB19"},"geometry":{"type":"MultiPolygon","coordinates":[[[[76.06892,10.7366],[76.0689,10.7369],[76.0695,10.73728],[76.0691,10.737],[76.06892,10.7366]]],[[[76.0695,10.7354],[76.069,10.7354],[76.0695,10.7355],[76.0695,10.7354]]],[[[76.06933,10.73777],[76.0692,10.7379],[76.0695,10.7376],[76.06933,10.73777]]],[[[76.0691,10.7381],[76.0691,10.738],[76.069,10.7381],[76.0691,10.7381]]],[[[76.0678,10.7381],[76.0678,10.7386],[76.0671,10.7386],[76.0668,10.7394],[76.0664,10.7395],[76.0666,10.74],[76.0672,10.7393],[76.069,10.7385],[76.069,10.7381],[76.0678,10.7381]]],[[[76.066,10.7417],[76.0663,10.7401],[76.0659,10.7411],[76.06536,10.74126],[76.0651,10.7423],[76.0658,10.7423],[76.0655,10.742],[76.0656,10.7415],[76.066,10.7417]]]]}},{"type":"Feature","properties":{"kind":"Paddy","areaHa":41.35,"shedId":"RB19"},"geometry":{"type":"Polygon","coordinates":[[[76.0452,10.7667],[76.0446,10.7665],[76.0445,10.7679],[76.0455,10.7689],[76.0462,10.7686],[76.0463,10.7681],[76.0468,10.7683],[76.047,10.7675],[76.0478,10.7671],[76.0477,10.7668],[76.048,10.7666],[76.0482,10.767],[76.0495,10.7676],[76.0495,10.7687],[76.0498,10.7688],[76.05,10.7697],[76.0504,10.7698],[76.0501,10.77],[76.0504,10.7706],[76.0512,10.7699],[76.0513,10.7704],[76.0523,10.771],[76.0523,10.7714],[76.0534,10.7715],[76.0537,10.771],[76.0549,10.7712],[76.0547,10.7694],[76.0534,10.769],[76.0525,10.7671],[76.0529,10.7651],[76.0525,10.7646],[76.0526,10.764],[76.0529,10.7635],[76.0533,10.7635],[76.0535,10.7629],[76.0538,10.7629],[76.0543,10.762],[76.0542,10.7614],[76.0546,10.7611],[76.0539,10.7604],[76.0535,10.7607],[76.0533,10.7602],[76.0528,10.7604],[76.0528,10.762],[76.0516,10.7647],[76.0519,10.7651],[76.0515,10.7656],[76.0506,10.7653],[76.0494,10.7659],[76.0488,10.7658],[76.0488,10.7655],[76.0478,10.7663],[76.0475,10.7662],[76.0475,10.7658],[76.0461,10.7661],[76.0461,10.7664],[76.0452,10.7667]],[[76.0542,10.7701],[76.0539,10.77],[76.0535,10.7697],[76.0542,10.7701]],[[76.0535,10.7697],[76.0529,10.7694],[76.0529,10.7693],[76.0535,10.7697]],[[76.0521,10.769],[76.0518,10.7689],[76.0518,10.7688],[76.0521,10.769]],[[76.0517,10.7688],[76.0516,10.7687],[76.0518,10.7687],[76.0517,10.7688]],[[76.0516,10.7687],[76.0514,10.7686],[76.0513,10.7685],[76.0516,10.7687]],[[76.0507,10.7683],[76.0505,10.7682],[76.0506,10.768],[76.0507,10.7683]],[[76.0506,10.7679],[76.0507,10.7679],[76.0506,10.768],[76.0506,10.7679]],[[76.0505,10.7679],[76.0503,10.7677],[76.0506,10.7679],[76.0505,10.7679]],[[76.0503,10.7676],[76.0502,10.7676],[76.0502,10.7675],[76.0503,10.7676]],[[76.05,10.7674],[76.0501,10.7674],[76.0502,10.7675],[76.05,10.7674]],[[76.0475,10.7666],[76.0472,10.7666],[76.0471,10.7665],[76.0475,10.7666]],[[76.047,10.7665],[76.0468,10.7666],[76.0465,10.7667],[76.047,10.7665]],[[76.0546,10.7705],[76.0545,10.7703],[76.0547,10.7705],[76.0546,10.7705]],[[76.0527,10.7691],[76.0528,10.7691],[76.0528,10.7692],[76.0527,10.7691]],[[76.0522,10.769],[76.0523,10.769],[76.0524,10.7691],[76.0522,10.769]],[[76.0509,10.7683],[76.051,10.7683],[76.051,10.7684],[76.0509,10.7683]],[[76.0497,10.7673],[76.0498,10.7673],[76.0499,10.7674],[76.0497,10.7673]],[[76.0497,10.7672],[76.0493,10.7671],[76.0493,10.767],[76.0497,10.767],[76.0497,10.7672]],[[76.0489,10.7668],[76.0486,10.7667],[76.0486,10.7666],[76.0488,10.7666],[76.0489,10.7668]],[[76.0464,10.7669],[76.0463,10.7668],[76.0465,10.7668],[76.0464,10.7669]],[[76.0462,10.7668],[76.046,10.7669],[76.046,10.7668],[76.0462,10.7668]],[[76.0454,10.767],[76.0453,10.7669],[76.0453,10.7667],[76.0454,10.767]],[[76.0486,10.7659],[76.0487,10.7658],[76.0487,10.7659],[76.0486,10.7659]]]}},{"type":"Feature","properties":{"kind":"Paddy","areaHa":45.9,"shedId":"RB19"},"geometry":{"type":"Polygon","coordinates":[[[76.0503,10.7857],[76.0515,10.7857],[76.0517,10.7854],[76.052,10.7856],[76.0517,10.7852],[76.052,10.7844],[76.0527,10.7846],[76.0538,10.7842],[76.0536,10.7837],[76.053,10.7839],[76.0528,10.7836],[76.0529,10.7827],[76.0535,10.7825],[76.0536,10.7817],[76.0533,10.7814],[76.0544,10.7798],[76.0542,10.7794],[76.0544,10.7787],[76.054,10.7786],[76.0537,10.7795],[76.0524,10.7798],[76.0514,10.7783],[76.0508,10.7782],[76.0513,10.7766],[76.0517,10.7762],[76.0515,10.776],[76.0526,10.7757],[76.0525,10.7749],[76.0511,10.775],[76.0509,10.7746],[76.0498,10.7746],[76.0497,10.7755],[76.0506,10.7757],[76.0505,10.776],[76.0501,10.776],[76.0499,10.7767],[76.0506,10.7783],[76.0505,10.7789],[76.0508,10.7788],[76.0509,10.7791],[76.0505,10.7792],[76.0505,10.7795],[76.051,10.7804],[76.0504,10.7806],[76.0504,10.7816],[76.0496,10.7823],[76.0492,10.782],[76.0484,10.7822],[76.0471,10.7815],[76.0474,10.7827],[76.0471,10.7827],[76.0471,10.783],[76.0474,10.783],[76.0471,10.7839],[76.0467,10.7832],[76.0455,10.7835],[76.0449,10.7833],[76.044,10.7838],[76.0429,10.7833],[76.0429,10.7826],[76.0424,10.7827],[76.0425,10.7811],[76.0414,10.7778],[76.0419,10.78],[76.0419,10.7826],[76.0424,10.784],[76.0423,10.7852],[76.042,10.7855],[76.0423,10.7875],[76.0426,10.7874],[76.0427,10.7852],[76.0435,10.7849],[76.0466,10.7849],[76.048,10.7854],[76.0488,10.7853],[76.0489,10.7857],[76.0493,10.7857],[76.0494,10.7853],[76.05,10.7856],[76.0502,10.7851],[76.0505,10.7852],[76.0503,10.7857]],[[76.0515,10.7848],[76.051,10.7847],[76.0509,10.7835],[76.0514,10.784],[76.0512,10.7846],[76.0515,10.7848]],[[76.0522,10.7843],[76.0525,10.7838],[76.0524,10.7844],[76.0522,10.7843]],[[76.052,10.7836],[76.0519,10.7841],[76.0516,10.7838],[76.052,10.7836]],[[76.0516,10.7823],[76.0515,10.7824],[76.0515,10.7823],[76.0516,10.7823]],[[76.0485,10.7825],[76.0486,10.783],[76.0499,10.7826],[76.0506,10.7827],[76.0504,10.7832],[76.0506,10.7843],[76.05,10.7846],[76.0509,10.7849],[76.0472,10.7849],[76.0477,10.7832],[76.0475,10.7826],[76.0485,10.7825]]]}},{"type":"Feature","properties":{"kind":"Paddy","areaHa":45.11,"shedId":"RB19"},"geometry":{"type":"MultiPolygon","coordinates":[[[[76.0547,10.7852],[76.0541,10.7851],[76.0541,10.7857],[76.0548,10.786],[76.0559,10.7857],[76.0563,10.7863],[76.0567,10.7861],[76.0573,10.7848],[76.0573,10.7855],[76.0584,10.7855],[76.0583,10.7859],[76.0594,10.7865],[76.0613,10.7865],[76.0613,10.7833],[76.0618,10.7827],[76.0617,10.7821],[76.0613,10.7821],[76.0612,10.7817],[76.062,10.7814],[76.0619,10.7819],[76.0623,10.7818],[76.0626,10.7823],[76.0623,10.7828],[76.0634,10.7824],[76.0634,10.7819],[76.0635,10.7822],[76.0639,10.782],[76.0639,10.7817],[76.0634,10.7815],[76.0644,10.7814],[76.0644,10.7818],[76.0652,10.7819],[76.066,10.7809],[76.0659,10.7804],[76.0666,10.7803],[76.0665,10.7799],[76.0669,10.7797],[76.0676,10.7782],[76.0674,10.7779],[76.0679,10.7778],[76.068,10.7773],[76.0675,10.7771],[76.0677,10.7767],[76.0658,10.7761],[76.0662,10.7774],[76.0666,10.7775],[76.0659,10.778],[76.066,10.7789],[76.0655,10.78],[76.0644,10.7809],[76.0624,10.7809],[76.0614,10.7802],[76.0614,10.7806],[76.0607,10.781],[76.0602,10.7802],[76.061,10.7798],[76.0604,10.7799],[76.0597,10.7795],[76.059,10.7798],[76.0589,10.7812],[76.0572,10.7815],[76.0569,10.7837],[76.0556,10.7849],[76.0553,10.7849],[76.055,10.7852],[76.0547,10.7852]],[[76.0645,10.7813],[76.0646,10.7813],[76.0644,10.7814],[76.0645,10.7813]],[[76.0561,10.7846],[76.0563,10.7845],[76.0565,10.7845],[76.0561,10.7846]],[[76.0565,10.7845],[76.0566,10.7843],[76.0567,10.7843],[76.0565,10.7845]],[[76.0553,10.785],[76.0555,10.7851],[76.0553,10.7851],[76.0553,10.785]],[[76.0573,10.784],[76.0575,10.784],[76.0575,10.7841],[76.0573,10.784]],[[76.0575,10.784],[76.0577,10.7839],[76.0577,10.784],[76.0575,10.784]],[[76.0586,10.7836],[76.0585,10.7837],[76.0585,10.7836],[76.0586,10.7836]],[[76.0586,10.7835],[76.0587,10.7835],[76.0586,10.7836],[76.0586,10.7835]],[[76.0586,10.7825],[76.0587,10.7825],[76.0586,10.7826],[76.0586,10.7825]],[[76.0587,10.7825],[76.0591,10.7823],[76.0592,10.7823],[76.0587,10.7825]],[[76.0592,10.7823],[76.0595,10.7822],[76.0597,10.7822],[76.0592,10.7823]],[[76.0598,10.7821],[76.0599,10.7821],[76.0597,10.7822],[76.0598,10.7821]],[[76.0599,10.7822],[76.061,10.7817],[76.0612,10.7824],[76.0602,10.7829],[76.0599,10.7822]],[[76.0647,10.7812],[76.0648,10.7811],[76.0647,10.7813],[76.0647,10.7812]],[[76.0648,10.7811],[76.0656,10.7803],[76.0658,10.7802],[76.0648,10.7811]],[[76.066,10.78],[76.0659,10.7802],[76.0658,10.7802],[76.066,10.78]],[[76.0661,10.7798],[76.0662,10.7798],[76.066,10.78],[76.0661,10.7798]],[[76.0663,10.7796],[76.0663,10.7797],[76.0662,10.7798],[76.0663,10.7796]],[[76.0664,10.7793],[76.0665,10.7791],[76.0664,10.7794],[76.0664,10.7793]],[[76.0666,10.7788],[76.06667,10.77867],[76.0665,10.7791],[76.0666,10.7788]],[[76.0667,10.7783],[76.0668,10.7783],[76.0668,10.7784],[76.0667,10.7783]],[[76.0666,10.7782],[76.0667,10.7782],[76.0667,10.7783],[76.0666,10.7782]],[[76.0666,10.7782],[76.0665,10.7781],[76.0666,10.778],[76.0666,10.7782]],[[76.0569,10.7842],[76.057,10.7843],[76.0569,10.7843],[76.0569,10.7842]],[[76.0571,10.7841],[76.0572,10.784],[76.0572,10.7841],[76.0571,10.7841]],[[76.0587,10.7831],[76.0588,10.783],[76.0588,10.7832],[76.0587,10.7831]],[[76.0586,10.7828],[76.0586,10.7827],[76.0587,10.7829],[76.0586,10.7828]],[[76.0627,10.7815],[76.0626,10.7814],[76.0628,10.7815],[76.0627,10.7815]],[[76.0625,10.7814],[76.0623,10.7814],[76.0624,10.7813],[76.0625,10.7814]],[[76.0667,10.7778],[76.0667,10.7779],[76.06665,10.7779],[76.0667,10.7778]],[[76.0668,10.7776],[76.0668,10.7777],[76.06675,10.7777],[76.0668,10.7776]],[[76.0561,10.7848],[76.056,10.785],[76.0559,10.785],[76.0561,10.7848]],[[76.0558,10.7851],[76.0557,10.7851],[76.0558,10.785],[76.0558,10.7851]],[[76.0586,10.783],[76.0585,10.783],[76.0586,10.7829],[76.0586,10.783]]],[[[76.0546,10.7851],[76.0551,10.7851],[76.0551,10.7849],[76.0545,10.7848],[76.0546,10.7851]]],[[[76.0668,10.78],[76.0669,10.7799],[76.0668,10.7799],[76.0668,10.78]]]]}},{"type":"Feature","properties":{"kind":"Paddy","areaHa":23.14,"shedId":"RB19"},"geometry":{"type":"Polygon","coordinates":[[[76.0605,10.8008],[76.0611,10.8006],[76.0611,10.7995],[76.0607,10.7997],[76.0606,10.799],[76.0611,10.7984],[76.0613,10.7973],[76.062,10.7969],[76.0618,10.7966],[76.0626,10.7958],[76.0649,10.7943],[76.0651,10.7936],[76.0646,10.7935],[76.0644,10.7929],[76.065,10.7926],[76.0648,10.7935],[76.0652,10.7935],[76.065,10.7908],[76.0659,10.791],[76.066,10.792],[76.0682,10.7921],[76.0681,10.7915],[76.0662,10.791],[76.0659,10.7884],[76.0652,10.788],[76.0649,10.7882],[76.0645,10.7876],[76.0638,10.7879],[76.0637,10.7885],[76.0629,10.7885],[76.0625,10.789],[76.0626,10.7901],[76.0638,10.791],[76.064,10.7922],[76.0633,10.7948],[76.0612,10.7966],[76.0603,10.798],[76.0605,10.7986],[76.0604,10.799],[76.0601,10.799],[76.0601,10.7995],[76.0602,10.7999],[76.0607,10.7999],[76.0605,10.8008]],[[76.0643,10.7927],[76.0644,10.7927],[76.0644,10.7929],[76.0643,10.7927]]]}},{"type":"Feature","properties":{"kind":"Paddy","areaHa":1.17,"shedId":"RB19"},"geometry":{"type":"Polygon","coordinates":[[[76.0608,10.8008],[76.0602,10.8008],[76.06,10.8018],[76.0605,10.8019],[76.0603,10.8021],[76.061,10.8021],[76.0608,10.8008]]]}},{"type":"Feature","properties":{"kind":"Paddy","areaHa":6.27,"shedId":"RB19"},"geometry":{"type":"MultiPolygon","coordinates":[[[[76.0452,10.7946],[76.045,10.7939],[76.0439,10.7934],[76.0429,10.7892],[76.0432,10.7892],[76.0431,10.7886],[76.0427,10.7884],[76.0426,10.7878],[76.0421,10.7876],[76.0425,10.7891],[76.0426,10.7916],[76.0431,10.7923],[76.0437,10.7948],[76.0452,10.7946]]],[[[76.0427,10.7925],[76.0428,10.7926],[76.0428,10.7924],[76.0427,10.7925]]]]}},{"type":"Feature","properties":{"kind":"Paddy","areaHa":3.1,"shedId":"RB19"},"geometry":{"type":"Polygon","coordinates":[[[76.0496,10.7926],[76.0505,10.7919],[76.0512,10.792],[76.0513,10.7915],[76.0497,10.7916],[76.0493,10.7911],[76.0491,10.7912],[76.0494,10.7914],[76.0493,10.7918],[76.0487,10.7915],[76.049,10.7912],[76.0486,10.7913],[76.0484,10.7906],[76.0478,10.7908],[76.0484,10.7917],[76.0483,10.7921],[76.0487,10.7924],[76.0496,10.7926]]]}},{"type":"Feature","properties":{"kind":"Paddy","areaHa":5.57,"shedId":"RB19"},"geometry":{"type":"Polygon","coordinates":[[[76.0557,10.7926],[76.057,10.7917],[76.0567,10.7911],[76.0553,10.7907],[76.0547,10.7909],[76.0546,10.7913],[76.0543,10.7909],[76.0535,10.7914],[76.0534,10.791],[76.0528,10.7911],[76.0526,10.7917],[76.0546,10.7923],[76.0555,10.792],[76.0557,10.7926]],[[76.055,10.7919],[76.0547,10.792],[76.0547,10.7918],[76.055,10.7919]]]}},{"type":"Feature","properties":{"kind":"Paddy","areaHa":2.99,"shedId":"RB19"},"geometry":{"type":"Polygon","coordinates":[[[76.101,10.7815],[76.1003,10.7816],[76.1003,10.7811],[76.0996,10.7811],[76.0991,10.782],[76.0974,10.7831],[76.1011,10.7821],[76.101,10.7815]]]}},{"type":"Feature","properties":{"kind":"Reclaimed","areaHa":2.06,"shedId":"RB19"},"geometry":{"type":"Polygon","coordinates":[[[76.0907,10.7741],[76.0915,10.7738],[76.0915,10.7731],[76.0921,10.773],[76.0921,10.7725],[76.0914,10.7727],[76.0917,10.7718],[76.091,10.7726],[76.091,10.773],[76.0905,10.7731],[76.0902,10.7736],[76.0907,10.7741]]]}},{"type":"Feature","properties":{"kind":"Paddy","areaHa":24.05,"shedId":"RB19"},"geometry":{"type":"Polygon","coordinates":[[[76.0461,10.7589],[76.047,10.7589],[76.0468,10.7583],[76.0471,10.7582],[76.0479,10.7589],[76.0482,10.7579],[76.0487,10.7588],[76.0492,10.7587],[76.0491,10.7579],[76.0496,10.7565],[76.049,10.7562],[76.0496,10.7563],[76.05,10.755],[76.0495,10.755],[76.0495,10.7545],[76.0491,10.7541],[76.0494,10.7536],[76.049,10.7526],[76.0484,10.7523],[76.048,10.7527],[76.0478,10.7525],[76.0466,10.753],[76.0467,10.7547],[76.0458,10.7548],[76.0466,10.755],[76.0462,10.7556],[76.0466,10.7558],[76.0464,10.7569],[76.0459,10.7573],[76.0461,10.7577],[76.0448,10.7585],[76.0447,10.7601],[76.0455,10.7597],[76.0461,10.7589]],[[76.0467,10.7583],[76.0465,10.7582],[76.0464,10.7579],[76.0467,10.758],[76.0467,10.7583]]]}},{"type":"Feature","properties":{"kind":"Paddy","areaHa":22.19,"shedId":"RB19"},"geometry":{"type":"Polygon","coordinates":[[[76.0474,10.7431],[76.0479,10.7436],[76.0478,10.7446],[76.0483,10.7447],[76.0483,10.7453],[76.0474,10.7453],[76.0473,10.7465],[76.0478,10.7468],[76.0476,10.7477],[76.048,10.7482],[76.0479,10.7487],[76.0484,10.7491],[76.0484,10.751],[76.0489,10.7517],[76.0489,10.7514],[76.0497,10.7512],[76.0499,10.7507],[76.0499,10.7503],[76.0495,10.7502],[76.0492,10.7496],[76.0492,10.7493],[76.0498,10.749],[76.0498,10.7483],[76.0492,10.7471],[76.049,10.7445],[76.0493,10.744],[76.0506,10.7433],[76.051,10.7426],[76.0516,10.7427],[76.0524,10.7423],[76.0523,10.7419],[76.0514,10.7417],[76.0513,10.7413],[76.05277,10.7411],[76.0514,10.7408],[76.0503,10.7412],[76.0494,10.7411],[76.0492,10.7412],[76.0494,10.7418],[76.049,10.742],[76.0494,10.7423],[76.0489,10.7423],[76.0489,10.7432],[76.0487,10.7433],[76.0485,10.7429],[76.0485,10.7423],[76.0474,10.7431]]]}},{"type":"Feature","properties":{"kind":"Paddy","areaHa":7.56,"shedId":"RB19"},"geometry":{"type":"Polygon","coordinates":[[[76.0541,10.7497],[76.0539,10.7497],[76.0541,10.7498],[76.0544,10.7497],[76.0548,10.7489],[76.0552,10.7489],[76.056,10.7479],[76.0557,10.7474],[76.0562,10.7468],[76.0565,10.7455],[76.0561,10.7449],[76.0556,10.7448],[76.0552,10.7452],[76.0553,10.7458],[76.0548,10.7459],[76.055,10.7465],[76.0539,10.748],[76.0541,10.7485],[76.0538,10.7491],[76.0541,10.7497]]]}},{"type":"Feature","properties":{"kind":"Paddy","areaHa":9.61,"shedId":"RB19"},"geometry":{"type":"Polygon","coordinates":[[[76.1129,10.7531],[76.113,10.7525],[76.1134,10.7522],[76.1133,10.7519],[76.1128,10.7519],[76.1131,10.7513],[76.1122,10.75],[76.1126,10.7493],[76.1115,10.7479],[76.1114,10.7468],[76.1111,10.7466],[76.1107,10.7491],[76.1111,10.7502],[76.1118,10.7504],[76.1114,10.7519],[76.1121,10.7531],[76.1121,10.7543],[76.1127,10.7542],[76.1126,10.7531],[76.1129,10.7531]]]}},{"type":"Feature","properties":{"kind":"Paddy","areaHa":103.32,"shedId":"RB19"},"geometry":{"type":"MultiPolygon","coordinates":[[[[76.0929,10.7276],[76.0915,10.7274],[76.091,10.7279],[76.0897,10.7271],[76.0867,10.7273],[76.0849,10.7282],[76.0848,10.7274],[76.0831,10.7269],[76.0827,10.7274],[76.082,10.7272],[76.0807,10.7276],[76.0787,10.7274],[76.0757,10.7277],[76.0757,10.7282],[76.0749,10.7291],[76.0753,10.7288],[76.0767,10.7287],[76.0771,10.7287],[76.0776,10.7293],[76.0786,10.7287],[76.0833,10.729],[76.084,10.7281],[76.0844,10.7282],[76.0864,10.7304],[76.0873,10.732],[76.0879,10.732],[76.0879,10.7307],[76.0896,10.7318],[76.0897,10.7329],[76.0893,10.7329],[76.0892,10.7321],[76.0885,10.7323],[76.0887,10.7332],[76.0884,10.7334],[76.0894,10.7349],[76.0899,10.7349],[76.0905,10.7346],[76.0905,10.7328],[76.091,10.7319],[76.0911,10.7308],[76.0907,10.7303],[76.0895,10.7299],[76.0878,10.7301],[76.087,10.7292],[76.0894,10.7286],[76.0924,10.7285],[76.0928,10.7282],[76.0929,10.7276]]],[[[76.0723,10.7298],[76.0706,10.7295],[76.0701,10.7301],[76.0693,10.73],[76.0697,10.731],[76.0694,10.7314],[76.0707,10.7315],[76.0706,10.7319],[76.07,10.7319],[76.0699,10.733],[76.0707,10.7322],[76.0726,10.7321],[76.0742,10.7336],[76.0739,10.7345],[76.0743,10.7362],[76.0747,10.7365],[76.0737,10.7411],[76.0733,10.7414],[76.0738,10.7416],[76.0734,10.7419],[76.0735,10.7427],[76.0742,10.7428],[76.0745,10.7424],[76.0751,10.7425],[76.0752,10.7429],[76.0755,10.7428],[76.0761,10.7412],[76.0765,10.741],[76.0764,10.7396],[76.0755,10.7395],[76.0751,10.7385],[76.0752,10.7377],[76.0752,10.7386],[76.0756,10.7385],[76.0757,10.7388],[76.0761,10.7381],[76.0757,10.7356],[76.0781,10.7356],[76.0791,10.7359],[76.0805,10.7357],[76.0814,10.7363],[76.0823,10.7364],[76.0827,10.737],[76.0831,10.7367],[76.0834,10.738],[76.0828,10.7403],[76.0825,10.7403],[76.083,10.7412],[76.0825,10.7415],[76.0834,10.7426],[76.0843,10.7429],[76.0845,10.7425],[76.0847,10.7427],[76.0846,10.7422],[76.0849,10.7419],[76.0837,10.7409],[76.0836,10.7403],[76.0849,10.739],[76.0849,10.7385],[76.0844,10.7379],[76.0844,10.7373],[76.0852,10.736],[76.0848,10.735],[76.0838,10.7347],[76.0815,10.735],[76.0811,10.7346],[76.08,10.7348],[76.0788,10.7344],[76.0787,10.7347],[76.0782,10.7347],[76.0782,10.7343],[76.0778,10.7342],[76.0758,10.7344],[76.0752,10.7338],[76.0752,10.7333],[76.0743,10.7332],[76.0738,10.7311],[76.0721,10.7307],[76.072,10.7302],[76.0723,10.7298]],[[76.0754,10.7423],[76.0754,10.7422],[76.0755,10.7423],[76.0754,10.7423]],[[76.0752,10.7374],[76.0752,10.7369],[76.0752,10.7364],[76.0753,10.7366],[76.0752,10.7374]],[[76.0752,10.7364],[76.0753,10.736],[76.0753,10.7358],[76.0752,10.7364]],[[76.0751,10.7353],[76.075,10.7349],[76.0753,10.7357],[76.0751,10.7353]],[[76.07493,10.73453],[76.075,10.7346],[76.075,10.7347],[76.07493,10.73453]],[[76.0749,10.73445],[76.0747,10.734],[76.0746,10.7335],[76.0749,10.73445]]],[[[76.0779,10.7358],[76.0782,10.7359],[76.0782,10.7358],[76.0779,10.7358]]],[[[76.0847,10.7428],[76.0846,10.7433],[76.0852,10.7434],[76.0852,10.7431],[76.0864,10.7428],[76.0864,10.7422],[76.0851,10.7429],[76.0847,10.7428]]],[[[76.0864,10.7422],[76.0878,10.742],[76.0878,10.7417],[76.0875,10.7417],[76.0875,10.7413],[76.087,10.7413],[76.0871,10.7418],[76.0864,10.7422]]],[[[76.0746,10.7295],[76.0738,10.7299],[76.0736,10.7299],[76.074,10.73],[76.0744,10.7299],[76.0746,10.7295]]]]}},{"type":"Feature","properties":{"kind":"Paddy","areaHa":9.37,"shedId":"RB19"},"geometry":{"type":"Polygon","coordinates":[[[76.1556,10.7328],[76.1575,10.7328],[76.1581,10.7331],[76.1582,10.7328],[76.1578,10.7324],[76.1583,10.7321],[76.1582,10.7317],[76.157,10.7315],[76.1569,10.7307],[76.1563,10.7307],[76.1559,10.7312],[76.1556,10.7305],[76.1553,10.7309],[76.1554,10.7313],[76.1558,10.7313],[76.1556,10.7316],[76.1548,10.7318],[76.1547,10.7312],[76.1542,10.7312],[76.154,10.7318],[76.1525,10.7321],[76.1525,10.7326],[76.1533,10.7329],[76.1547,10.7327],[76.155,10.7331],[76.1556,10.7328]]]}},{"type":"Feature","properties":{"kind":"Reclaimed","areaHa":2.22,"shedId":"RB19"},"geometry":{"type":"Polygon","coordinates":[[[76.1168,10.7369],[76.1169,10.7365],[76.1165,10.7361],[76.1156,10.736],[76.1145,10.7348],[76.1144,10.7354],[76.1149,10.7362],[76.1164,10.737],[76.1168,10.7369]]]}},{"type":"Feature","properties":{"kind":"Paddy","areaHa":3.43,"shedId":"RB19"},"geometry":{"type":"Polygon","coordinates":[[[76.0694,10.7394],[76.0682,10.7402],[76.0679,10.7409],[76.0679,10.7413],[76.0685,10.7418],[76.0697,10.741],[76.0698,10.7401],[76.0694,10.7394]]]}},{"type":"Feature","properties":{"kind":"Reclaimed","areaHa":6.57,"shedId":"RB19"},"geometry":{"type":"Polygon","coordinates":[[[76.0664,10.7415],[76.0667,10.7411],[76.0676,10.7412],[76.0676,10.7418],[76.0671,10.7417],[76.0671,10.742],[76.0677,10.7422],[76.0681,10.7416],[76.0679,10.7409],[76.0682,10.7402],[76.0695,10.7394],[76.0696,10.7391],[76.0691,10.7388],[76.0697,10.7384],[76.069,10.7381],[76.069,10.7385],[76.0672,10.7393],[76.0664,10.7402],[76.0661,10.7412],[76.0664,10.7415]]]}},{"type":"Feature","properties":{"kind":"Paddy","areaHa":2.05,"shedId":"RB19"},"geometry":{"type":"Polygon","coordinates":[[[76.0464,10.7795],[76.0461,10.7796],[76.0452,10.7778],[76.0449,10.7778],[76.0453,10.7796],[76.0457,10.7796],[76.0461,10.7804],[76.0467,10.7806],[76.0469,10.7805],[76.0464,10.7795]]]}},{"type":"Feature","properties":{"kind":"Paddy","areaHa":50.76,"shedId":"RB19"},"geometry":{"type":"Polygon","coordinates":[[[76.0899,10.7484],[76.0913,10.7484],[76.091,10.7487],[76.0913,10.7494],[76.0922,10.7492],[76.0929,10.7505],[76.093,10.7522],[76.0925,10.7539],[76.0928,10.7542],[76.0932,10.7543],[76.0936,10.7534],[76.0941,10.7532],[76.0945,10.7536],[76.0943,10.7539],[76.0948,10.7557],[76.0955,10.7554],[76.0959,10.7557],[76.0963,10.7553],[76.0956,10.7542],[76.0949,10.752],[76.0953,10.7518],[76.0957,10.7509],[76.0963,10.751],[76.0965,10.7504],[76.0971,10.7502],[76.0974,10.7497],[76.0993,10.7499],[76.0994,10.7496],[76.0996,10.7501],[76.1012,10.7509],[76.1017,10.7514],[76.1018,10.7525],[76.1024,10.7529],[76.1026,10.7544],[76.1035,10.7555],[76.1042,10.7553],[76.1043,10.754],[76.1052,10.7551],[76.106,10.7544],[76.106,10.7534],[76.1056,10.7527],[76.1047,10.7526],[76.1036,10.7514],[76.1028,10.7515],[76.1021,10.7512],[76.1018,10.7506],[76.1024,10.7506],[76.1021,10.75],[76.1009,10.7489],[76.1007,10.7482],[76.1,10.7479],[76.0996,10.7483],[76.0993,10.7481],[76.0994,10.7478],[76.099,10.7477],[76.0983,10.7483],[76.0973,10.7483],[76.0965,10.7491],[76.0962,10.7487],[76.0953,10.7494],[76.0932,10.7491],[76.0938,10.7489],[76.0937,10.7488],[76.0938,10.7484],[76.0948,10.7487],[76.0949,10.748],[76.0933,10.7479],[76.0921,10.7474],[76.0908,10.7479],[76.0901,10.7478],[76.0898,10.748],[76.0899,10.7484]],[[76.0953,10.7517],[76.0951,10.7517],[76.0951,10.7516],[76.0953,10.7517]],[[76.093,10.7486],[76.0929,10.7486],[76.0931,10.7485],[76.093,10.7486]],[[76.0926,10.7486],[76.0925,10.7486],[76.0926,10.7485],[76.0926,10.7486]],[[76.092,10.7486],[76.092,10.7485],[76.0921,10.7486],[76.092,10.7486]],[[76.0919,10.7485],[76.0917,10.7485],[76.0917,10.7484],[76.0919,10.7485]],[[76.1017,10.7504],[76.1013,10.7502],[76.1013,10.7501],[76.1017,10.7504]],[[76.1012,10.7501],[76.1009,10.75],[76.1008,10.7499],[76.1012,10.7501]],[[76.1004,10.7498],[76.1003,10.7497],[76.1005,10.7498],[76.1004,10.7498]],[[76.1,10.7496],[76.0998,10.7495],[76.0996,10.7493],[76.1,10.7496]],[[76.0993,10.7492],[76.0989,10.7491],[76.0987,10.749],[76.099,10.749],[76.0993,10.7492]],[[76.0984,10.749],[76.0981,10.7492],[76.0979,10.7492],[76.0984,10.749]],[[76.0971,10.7492],[76.097,10.7492],[76.097,10.7491],[76.0971,10.7492]],[[76.0969,10.7489],[76.097,10.7489],[76.097,10.749],[76.0969,10.7489]],[[76.0931,10.7541],[76.093,10.7542],[76.093,10.7541],[76.0931,10.7541]]]}},{"type":"Feature","properties":{"kind":"Paddy","areaHa":1.55,"shedId":"RB19"},"geometry":{"type":"Polygon","coordinates":[[[76.1195,10.7301],[76.1184,10.7301],[76.1184,10.7307],[76.1193,10.7316],[76.1196,10.7312],[76.1195,10.7301]]]}},{"type":"Feature","properties":{"kind":"Fallow","areaHa":1.84,"shedId":"RB19"},"geometry":{"type":"Polygon","coordinates":[[[76.1547,10.7399],[76.1551,10.7393],[76.1537,10.7388],[76.1527,10.7379],[76.1526,10.7383],[76.1538,10.7396],[76.1547,10.7399]]]}},{"type":"Feature","properties":{"kind":"Paddy","areaHa":55.97,"shedId":"RB19"},"geometry":{"type":"MultiPolygon","coordinates":[[[[76.0902,10.7839],[76.0912,10.7841],[76.0932,10.7801],[76.0932,10.7793],[76.0934,10.7795],[76.0937,10.7788],[76.0948,10.7782],[76.0943,10.7777],[76.0944,10.7774],[76.0949,10.7778],[76.0952,10.7773],[76.0957,10.7773],[76.096,10.7768],[76.0963,10.777],[76.0967,10.7765],[76.0967,10.7773],[76.0972,10.7767],[76.0974,10.7769],[76.097,10.7772],[76.0975,10.7776],[76.098,10.7764],[76.0985,10.7765],[76.0993,10.7756],[76.0987,10.7749],[76.0985,10.7737],[76.0974,10.7748],[76.0967,10.7748],[76.0964,10.7743],[76.0977,10.7732],[76.0988,10.7732],[76.0989,10.7729],[76.0983,10.7727],[76.0987,10.7717],[76.0982,10.771],[76.0985,10.771],[76.0988,10.7716],[76.0995,10.7708],[76.1015,10.771],[76.1017,10.7703],[76.1025,10.7706],[76.1026,10.7698],[76.1014,10.7685],[76.1002,10.7694],[76.0988,10.7693],[76.0969,10.7698],[76.0951,10.7711],[76.0953,10.7715],[76.0947,10.7716],[76.0948,10.7721],[76.0942,10.7722],[76.0936,10.774],[76.093,10.7747],[76.0926,10.7746],[76.0923,10.7752],[76.0924,10.7763],[76.0927,10.7764],[76.0922,10.7767],[76.0914,10.7766],[76.0913,10.7773],[76.0922,10.7775],[76.0921,10.7781],[76.0911,10.7781],[76.0918,10.7807],[76.0914,10.7814],[76.0915,10.7822],[76.0906,10.7838],[76.0902,10.7839]],[[76.0932,10.7792],[76.093,10.7792],[76.093,10.779],[76.0932,10.7792]],[[76.0929,10.7788],[76.0929,10.7787],[76.093,10.779],[76.0929,10.7788]],[[76.0929,10.7787],[76.0928,10.7786],[76.0929,10.7784],[76.0929,10.7787]],[[76.0929,10.7784],[76.0932,10.7775],[76.0934,10.7768],[76.0929,10.7784]],[[76.0934,10.7768],[76.0935,10.7761],[76.0936,10.7757],[76.0934,10.7768]],[[76.0936,10.7757],[76.0939,10.7751],[76.094,10.7748],[76.0936,10.7757]],[[76.0941,10.7749],[76.0948,10.7735],[76.0952,10.7735],[76.0957,10.7728],[76.0956,10.7724],[76.0975,10.7715],[76.0976,10.7718],[76.0961,10.7729],[76.0964,10.773],[76.0962,10.7733],[76.0964,10.7736],[76.096,10.7739],[76.0953,10.7736],[76.0949,10.7744],[76.0955,10.7743],[76.0958,10.7756],[76.0951,10.7767],[76.0944,10.7758],[76.0941,10.7759],[76.0943,10.7749],[76.0941,10.7749]],[[76.0961,10.7767],[76.0961,10.7768],[76.096,10.7768],[76.0961,10.7767]],[[76.0963,10.7761],[76.0965,10.7761],[76.0966,10.7762],[76.0963,10.7761]],[[76.0967,10.7762],[76.0968,10.7763],[76.0966,10.7762],[76.0967,10.7762]],[[76.0971,10.7763],[76.0971,10.7764],[76.097,10.7763],[76.0971,10.7763]],[[76.0978,10.7751],[76.0979,10.7752],[76.0978,10.7752],[76.0978,10.7751]]],[[[76.0899,10.7849],[76.0902,10.7843],[76.0905,10.7842],[76.0897,10.7843],[76.0899,10.7849]]]]}},{"type":"Feature","properties":{"kind":"Fallow","areaHa":0.87,"shedId":"RB19"},"geometry":{"type":"MultiPolygon","coordinates":[[[[76.0716,10.765],[76.0708,10.7633],[76.0698,10.763],[76.0709,10.764],[76.0711,10.7648],[76.0716,10.765]]],[[[76.0714,10.7642],[76.0715,10.7642],[76.0714,10.764],[76.0714,10.7642]]]]}}]}