{"nvdm":"1.0","dataset":"basins/paddy","scope":{"kind":"basin","id":"palakkad-rivers"},"provenance":{"sources":[{"id":"ksrec-open-geoserver","title":"KSREC GeoServer (WFS): local-body boundaries, watershed atlas, wetlands, paddy, notified wetland parcels, flood extents and quarries of Kerala","publisher":"Kerala State Remote Sensing and Environment Centre (KSREC)","license":"No licence or terms are stated on the GeoServer (WFS capabilities: AccessConstraints NONE). Served with attribution to KSREC by the maintainer's decision; layers KSREC derived from OpenStreetMap (quarries, waterbodies) carry ODbL 1.0.","role":"input","url":"http://ksrec.in:9090/geoserver/ows"}],"method":"derived","produced_at":"2026-09-29","produced_by":"scripts/build_palakkad_rivers_basin.py","note":"Palakkad district's rivers, reservoirs, wetlands and groundwater (scope palakkad-rivers; the district's own scope id is kl-palakkad). The district is the union of its local bodies in KSREC's layer and the catchments (shedId) are the river basins of KSREC's watershed atlas cut to it. KSREC publishes no licence and its layers are served with attribution; its quarry layer is OpenStreetMap's (ODbL)."},"type":"FeatureCollection","features":[{"type":"Feature","properties":{"kind":"Fallow","areaHa":12.61,"shedId":"RB22"},"geometry":{"type":"Polygon","coordinates":[[[76.7066,11.0771],[76.7059,11.0771],[76.705,11.0762],[76.7035,11.0761],[76.7026,11.0754],[76.7022,11.0775],[76.7029,11.0781],[76.704,11.0783],[76.7041,11.0788],[76.7059,11.0794],[76.7067,11.0793],[76.7066,11.0771]]]}},{"type":"Feature","properties":{"kind":"Fallow","areaHa":2.39,"shedId":"RB22"},"geometry":{"type":"Polygon","coordinates":[[[76.615,11.119],[76.614,11.1182],[76.6132,11.119],[76.6132,11.1194],[76.6142,11.1202],[76.615,11.119]],[[76.6136,11.119],[76.6138,11.1191],[76.6136,11.1192],[76.6136,11.119]]]}},{"type":"Feature","properties":{"kind":"Fallow","areaHa":1.22,"shedId":"RB22"},"geometry":{"type":"Polygon","coordinates":[[[76.5883,11.1044],[76.5895,11.1045],[76.5896,11.1041],[76.5891,11.1037],[76.5897,11.1038],[76.5898,11.1033],[76.5886,11.1037],[76.5883,11.1044]]]}},{"type":"Feature","properties":{"kind":"Reclaimed","areaHa":1.41,"shedId":"RB22"},"geometry":{"type":"Polygon","coordinates":[[[76.5721,11.0823],[76.5715,11.0816],[76.5709,11.0817],[76.5708,11.0822],[76.5701,11.0824],[76.5713,11.0828],[76.5721,11.0823]],[[76.5711,11.0823],[76.5714,11.0823],[76.5713,11.0825],[76.5711,11.0823]]]}},{"type":"Feature","properties":{"kind":"Fallow","areaHa":6.2,"shedId":"RB22"},"geometry":{"type":"Polygon","coordinates":[[[76.5526,11.0719],[76.5526,11.073],[76.5537,11.0736],[76.5532,11.0748],[76.5538,11.0752],[76.5544,11.0746],[76.5545,11.0751],[76.555,11.0742],[76.5554,11.0741],[76.5554,11.0731],[76.5544,11.0723],[76.5537,11.0724],[76.5526,11.0719]],[[76.5529,11.0723],[76.5532,11.0723],[76.5532,11.0725],[76.553,11.0726],[76.5529,11.0723]],[[76.5542,11.0735],[76.5541,11.0733],[76.5542,11.0732],[76.5542,11.0735]],[[76.5537,11.0738],[76.554,11.0738],[76.5538,11.0739],[76.5537,11.0738]]]}},{"type":"Feature","properties":{"kind":"Fallow","areaHa":2.37,"shedId":"RB22"},"geometry":{"type":"Polygon","coordinates":[[[76.5811,11.0781],[76.5809,11.0789],[76.5792,11.0815],[76.5798,11.0819],[76.581,11.0799],[76.5811,11.0781]]]}},{"type":"Feature","properties":{"kind":"Fallow","areaHa":0.9,"shedId":"RB22"},"geometry":{"type":"Polygon","coordinates":[[[76.5824,11.1085],[76.5837,11.1085],[76.5836,11.1078],[76.5826,11.1079],[76.5824,11.1085]]]}},{"type":"Feature","properties":{"kind":"Fallow","areaHa":1.93,"shedId":"RB22"},"geometry":{"type":"Polygon","coordinates":[[[76.6032,11.1149],[76.6046,11.1149],[76.6041,11.1146],[76.6043,11.1133],[76.6029,11.1132],[76.6029,11.1136],[76.6035,11.1135],[76.6032,11.1149]]]}},{"type":"Feature","properties":{"kind":"Fallow","areaHa":1.49,"shedId":"RB22"},"geometry":{"type":"Polygon","coordinates":[[[76.6064,11.1168],[76.6047,11.1156],[76.6039,11.1166],[76.6047,11.1164],[76.6048,11.1167],[76.6064,11.1168]]]}},{"type":"Feature","properties":{"kind":"Fallow","areaHa":2.33,"shedId":"RB22"},"geometry":{"type":"Polygon","coordinates":[[[76.6062,11.1182],[76.606,11.1169],[76.6046,11.1168],[76.6045,11.118],[76.6062,11.1182]]]}},{"type":"Feature","properties":{"kind":"Fallow","areaHa":4.24,"shedId":"RB22"},"geometry":{"type":"Polygon","coordinates":[[[76.6131,11.1182],[76.6139,11.1177],[76.6141,11.1171],[76.6126,11.1174],[76.6115,11.1166],[76.6115,11.1157],[76.611,11.1155],[76.6108,11.1167],[76.6124,11.118],[76.6119,11.1187],[76.6131,11.1191],[76.6131,11.1182]]]}},{"type":"Feature","properties":{"kind":"Fallow","areaHa":1.66,"shedId":"RB22"},"geometry":{"type":"Polygon","coordinates":[[[76.6142,11.1213],[76.6148,11.1213],[76.6152,11.1207],[76.6141,11.1203],[76.6135,11.1212],[76.6143,11.1219],[76.6146,11.1214],[76.6142,11.1213]]]}},{"type":"Feature","properties":{"kind":"Fallow","areaHa":3.11,"shedId":"RB22"},"geometry":{"type":"Polygon","coordinates":[[[76.6201,11.1243],[76.6192,11.1241],[76.6191,11.1244],[76.618,11.124],[76.618,11.1245],[76.6186,11.1249],[76.6183,11.1258],[76.6194,11.1261],[76.6201,11.1243]]]}},{"type":"Feature","properties":{"kind":"Fallow","areaHa":1.88,"shedId":"RB22"},"geometry":{"type":"Polygon","coordinates":[[[76.6198,11.1227],[76.6196,11.1218],[76.6192,11.122],[76.6194,11.1221],[76.619,11.1221],[76.6192,11.1218],[76.619,11.1218],[76.6185,11.1227],[76.6185,11.1235],[76.6188,11.1236],[76.6189,11.1228],[76.62,11.1234],[76.6201,11.1227],[76.6198,11.1227]]]}},{"type":"Feature","properties":{"kind":"Fallow","areaHa":3.17,"shedId":"RB22"},"geometry":{"type":"Polygon","coordinates":[[[76.6265,11.1253],[76.6259,11.1257],[76.6271,11.1276],[76.6273,11.1273],[76.628,11.1275],[76.6284,11.1262],[76.6273,11.1263],[76.6269,11.1258],[76.6265,11.1258],[76.6268,11.1254],[76.6274,11.126],[76.6276,11.1256],[76.6265,11.1253]],[[76.6269,11.1265],[76.6266,11.1262],[76.6264,11.1258],[76.627,11.1263],[76.6269,11.1265]]]}},{"type":"Feature","properties":{"kind":"Reclaimed","areaHa":2.23,"shedId":"RB22"},"geometry":{"type":"Polygon","coordinates":[[[76.628,11.1275],[76.6273,11.1273],[76.6272,11.128],[76.6278,11.1283],[76.6292,11.1283],[76.6287,11.127],[76.6281,11.1269],[76.628,11.1275]]]}},{"type":"Feature","properties":{"kind":"Reclaimed","areaHa":1.52,"shedId":"RB22"},"geometry":{"type":"Polygon","coordinates":[[[76.6256,11.1216],[76.6265,11.1219],[76.6273,11.1212],[76.6264,11.1206],[76.6261,11.1209],[76.6259,11.1207],[76.6261,11.121],[76.6257,11.121],[76.6256,11.1216]]]}},{"type":"Feature","properties":{"kind":"Fallow","areaHa":1.03,"shedId":"RB22"},"geometry":{"type":"Polygon","coordinates":[[[76.5935,11.097],[76.5929,11.0984],[76.5938,11.0985],[76.5941,11.0978],[76.5936,11.0976],[76.5935,11.097]]]}},{"type":"Feature","properties":{"kind":"Fallow","areaHa":2.57,"shedId":"RB22"},"geometry":{"type":"Polygon","coordinates":[[[76.5952,11.0981],[76.5957,11.0982],[76.5964,11.0973],[76.5961,11.097],[76.5957,11.0978],[76.5953,11.0978],[76.5953,11.0975],[76.5959,11.0969],[76.5954,11.0969],[76.5949,11.0974],[76.5944,11.0973],[76.5939,11.0985],[76.5949,11.0988],[76.5952,11.0981]]]}},{"type":"Feature","properties":{"kind":"Fallow","areaHa":1.73,"shedId":"RB22"},"geometry":{"type":"Polygon","coordinates":[[[76.6142,11.1202],[76.6157,11.1204],[76.6156,11.1201],[76.6159,11.12],[76.6158,11.1194],[76.615,11.119],[76.6142,11.1202]]]}},{"type":"Feature","properties":{"kind":"Fallow","areaHa":3.06,"shedId":"RB22"},"geometry":{"type":"Polygon","coordinates":[[[76.6225,11.1048],[76.6239,11.1046],[76.6239,11.1041],[76.6245,11.1041],[76.6246,11.1038],[76.6245,11.1034],[76.6239,11.1035],[76.6235,11.1028],[76.6226,11.103],[76.6228,11.1036],[76.6225,11.1048]]]}},{"type":"Feature","properties":{"kind":"Fallow","areaHa":1.09,"shedId":"RB22"},"geometry":{"type":"Polygon","coordinates":[[[76.6239,11.1017],[76.6236,11.1007],[76.6236,11.1013],[76.6234,11.1012],[76.6225,11.1023],[76.623,11.1025],[76.6239,11.1017]]]}},{"type":"Feature","properties":{"kind":"Fallow","areaHa":2.52,"shedId":"RB22"},"geometry":{"type":"Polygon","coordinates":[[[76.6277,11.102],[76.6272,11.1015],[76.6269,11.1016],[76.6269,11.102],[76.6264,11.1016],[76.6265,11.1011],[76.6253,11.1007],[76.6249,11.1013],[76.6275,11.1027],[76.6277,11.102]]]}},{"type":"Feature","properties":{"kind":"Fallow","areaHa":1.69,"shedId":"RB22"},"geometry":{"type":"Polygon","coordinates":[[[76.6405,11.1104],[76.6416,11.1095],[76.6415,11.1091],[76.6411,11.1094],[76.6411,11.1086],[76.6414,11.1087],[76.6415,11.1079],[76.6402,11.1091],[76.6408,11.1094],[76.6403,11.1102],[76.6405,11.1104]]]}},{"type":"Feature","properties":{"kind":"Reclaimed","areaHa":3.49,"shedId":"RB22"},"geometry":{"type":"Polygon","coordinates":[[[76.6866,11.1732],[76.6873,11.1714],[76.6869,11.1708],[76.6857,11.1711],[76.6854,11.1714],[76.6855,11.172],[76.6848,11.1722],[76.6849,11.1724],[76.6864,11.1719],[76.6856,11.1724],[76.6866,11.1732]]]}},{"type":"Feature","properties":{"kind":"Fallow","areaHa":1.25,"shedId":"RB22"},"geometry":{"type":"Polygon","coordinates":[[[76.6508,11.1618],[76.6498,11.1618],[76.6499,11.1633],[76.6504,11.1631],[76.6508,11.1618]]]}},{"type":"Feature","properties":{"kind":"Fallow","areaHa":1.29,"shedId":"RB22"},"geometry":{"type":"Polygon","coordinates":[[[76.6495,11.1623],[76.649,11.1626],[76.649,11.163],[76.6502,11.1652],[76.6495,11.1623]]]}},{"type":"Feature","properties":{"kind":"Fallow","areaHa":2.83,"shedId":"RB22"},"geometry":{"type":"Polygon","coordinates":[[[76.6488,11.171],[76.6496,11.1697],[76.6495,11.1678],[76.649,11.1682],[76.6489,11.1694],[76.6483,11.1705],[76.6486,11.1719],[76.6489,11.1719],[76.6488,11.171]]]}},{"type":"Feature","properties":{"kind":"Fallow","areaHa":1.9,"shedId":"RB22"},"geometry":{"type":"Polygon","coordinates":[[[76.647,11.1736],[76.6487,11.1736],[76.6493,11.1722],[76.6486,11.1719],[76.648,11.1731],[76.647,11.1736]]]}},{"type":"Feature","properties":{"kind":"Reclaimed","areaHa":1.27,"shedId":"RB22"},"geometry":{"type":"Polygon","coordinates":[[[76.6818,11.1824],[76.6816,11.1828],[76.6822,11.1839],[76.6828,11.1841],[76.6827,11.1831],[76.6818,11.1824]]]}},{"type":"Feature","properties":{"kind":"Reclaimed","areaHa":13.41,"shedId":"RB22"},"geometry":{"type":"Polygon","coordinates":[[[76.6897,11.1706],[76.6923,11.17],[76.6925,11.1691],[76.6921,11.1672],[76.691,11.1672],[76.6902,11.1666],[76.6895,11.1674],[76.6899,11.168],[76.6893,11.1687],[76.6883,11.1679],[76.6883,11.1675],[76.6881,11.1679],[76.6883,11.1681],[76.6876,11.169],[76.6883,11.1704],[76.6903,11.1691],[76.6904,11.1699],[76.6899,11.1701],[76.6897,11.1706]]]}},{"type":"Feature","properties":{"kind":"Reclaimed","areaHa":1.48,"shedId":"RB22"},"geometry":{"type":"Polygon","coordinates":[[[76.691,11.1655],[76.6913,11.1648],[76.6908,11.1643],[76.691,11.1639],[76.6905,11.1638],[76.6903,11.1643],[76.6906,11.1645],[76.6905,11.165],[76.6899,11.165],[76.69,11.1655],[76.691,11.1655]]]}},{"type":"Feature","properties":{"kind":"Fallow","areaHa":10.54,"shedId":"RB22"},"geometry":{"type":"Polygon","coordinates":[[[76.6809,11.1608],[76.678,11.1596],[76.6781,11.1593],[76.6776,11.1589],[76.677,11.1589],[76.6769,11.1583],[76.6763,11.1585],[76.6762,11.1589],[76.6769,11.1601],[76.6782,11.1615],[76.6787,11.1612],[76.6784,11.1609],[76.6786,11.1606],[76.6782,11.1604],[76.6788,11.1603],[76.68,11.1612],[76.6798,11.1617],[76.6809,11.1618],[76.681,11.1626],[76.6819,11.1625],[76.682,11.1621],[76.6833,11.1622],[76.6823,11.1605],[76.6809,11.1608]]]}},{"type":"Feature","properties":{"kind":"Reclaimed","areaHa":1.63,"shedId":"RB22"},"geometry":{"type":"Polygon","coordinates":[[[76.6854,11.1627],[76.685,11.161],[76.6837,11.1611],[76.6846,11.1612],[76.684,11.1615],[76.6841,11.162],[76.6847,11.162],[76.6849,11.1628],[76.6854,11.1627]]]}},{"type":"Feature","properties":{"kind":"Fallow","areaHa":1.64,"shedId":"RB22"},"geometry":{"type":"Polygon","coordinates":[[[76.7167,11.1878],[76.7163,11.1868],[76.7152,11.1873],[76.7158,11.1883],[76.7164,11.1882],[76.7167,11.1878]]]}},{"type":"Feature","properties":{"kind":"Reclaimed","areaHa":1.02,"shedId":"RB22"},"geometry":{"type":"Polygon","coordinates":[[[76.7145,11.1889],[76.7143,11.1886],[76.7151,11.1878],[76.7148,11.1876],[76.7134,11.1891],[76.7142,11.1892],[76.7145,11.1889]]]}},{"type":"Feature","properties":{"kind":"Reclaimed","areaHa":1.29,"shedId":"RB22"},"geometry":{"type":"MultiPolygon","coordinates":[[[[76.7088,11.1861],[76.7091,11.1852],[76.7088,11.1851],[76.7088,11.1861]]],[[[76.7087,11.1862],[76.7082,11.1867],[76.709,11.1878],[76.7094,11.187],[76.7087,11.1862]]]]}},{"type":"Feature","properties":{"kind":"Reclaimed","areaHa":2.61,"shedId":"RB22"},"geometry":{"type":"Polygon","coordinates":[[[76.6858,11.1635],[76.6839,11.1646],[76.6849,11.1665],[76.6849,11.165],[76.6856,11.1649],[76.6858,11.1635]]]}},{"type":"Feature","properties":{"kind":"Fallow","areaHa":6.85,"shedId":"RB22"},"geometry":{"type":"Polygon","coordinates":[[[76.6921,11.17],[76.6906,11.1702],[76.6912,11.1709],[76.6904,11.171],[76.6909,11.1716],[76.6913,11.1716],[76.6914,11.1724],[76.6906,11.1723],[76.6904,11.1727],[76.6914,11.1734],[76.6915,11.1729],[76.6923,11.1726],[76.6924,11.173],[76.6918,11.1732],[76.6921,11.1733],[76.6919,11.1737],[76.6929,11.1737],[76.6931,11.1727],[76.6926,11.1721],[76.6925,11.1706],[76.6921,11.17]]]}},{"type":"Feature","properties":{"kind":"Reclaimed","areaHa":3.23,"shedId":"RB22"},"geometry":{"type":"Polygon","coordinates":[[[76.6978,11.1793],[76.6995,11.1792],[76.6997,11.1778],[76.6981,11.1774],[76.6979,11.1779],[76.6976,11.1779],[76.6985,11.1785],[76.6978,11.1785],[76.6981,11.1787],[76.6978,11.1793]]]}},{"type":"Feature","properties":{"kind":"Reclaimed","areaHa":4.03,"shedId":"RB22"},"geometry":{"type":"Polygon","coordinates":[[[76.6975,11.1775],[76.6984,11.1755],[76.6958,11.1752],[76.6962,11.1766],[76.6966,11.1765],[76.6967,11.177],[76.6972,11.177],[76.6971,11.1773],[76.6975,11.1775]]]}},{"type":"Feature","properties":{"kind":"Reclaimed","areaHa":2.53,"shedId":"RB22"},"geometry":{"type":"Polygon","coordinates":[[[76.7059,11.1824],[76.7051,11.1835],[76.7056,11.1838],[76.7052,11.1846],[76.7054,11.185],[76.706,11.1847],[76.7066,11.1826],[76.7059,11.1824]]]}},{"type":"Feature","properties":{"kind":"Reclaimed","areaHa":2.03,"shedId":"RB22"},"geometry":{"type":"Polygon","coordinates":[[[76.707,11.1852],[76.7075,11.1844],[76.7083,11.1846],[76.7087,11.184],[76.708,11.1838],[76.7081,11.1835],[76.7071,11.1836],[76.707,11.1844],[76.7063,11.1851],[76.707,11.1852]]]}},{"type":"Feature","properties":{"kind":"Fallow","areaHa":4.09,"shedId":"RB22"},"geometry":{"type":"Polygon","coordinates":[[[76.7097,11.1887],[76.7084,11.1883],[76.7086,11.1879],[76.7083,11.1876],[76.7078,11.1875],[76.706,11.186],[76.7047,11.1855],[76.7049,11.1862],[76.7059,11.1864],[76.7083,11.189],[76.7092,11.1891],[76.7097,11.1887]]]}},{"type":"Feature","properties":{"kind":"Fallow","areaHa":6.18,"shedId":"RB22"},"geometry":{"type":"Polygon","coordinates":[[[76.7173,11.1918],[76.7164,11.1899],[76.7153,11.1893],[76.7149,11.1904],[76.7145,11.1903],[76.7142,11.1906],[76.7156,11.1922],[76.7171,11.1922],[76.7173,11.1918]]]}},{"type":"Feature","properties":{"kind":"Fallow","areaHa":2.0,"shedId":"RB22"},"geometry":{"type":"Polygon","coordinates":[[[76.6706,11.1696],[76.6697,11.1698],[76.6699,11.1717],[76.6709,11.1716],[76.6705,11.1705],[76.6706,11.1696]]]}},{"type":"Feature","properties":{"kind":"Reclaimed","areaHa":3.67,"shedId":"RB22"},"geometry":{"type":"Polygon","coordinates":[[[76.5893,11.1215],[76.5896,11.1215],[76.5897,11.121],[76.5886,11.121],[76.5885,11.1214],[76.5877,11.1215],[76.5874,11.1214],[76.5872,11.1205],[76.586,11.1209],[76.5865,11.1216],[76.5885,11.1219],[76.5884,11.1226],[76.5888,11.1227],[76.5893,11.1227],[76.5893,11.1215]]]}},{"type":"Feature","properties":{"kind":"Fallow","areaHa":1.71,"shedId":"RB22"},"geometry":{"type":"Polygon","coordinates":[[[76.6862,11.1609],[76.6851,11.161],[76.6854,11.1626],[76.6863,11.162],[76.6862,11.1609]]]}},{"type":"Feature","properties":{"kind":"Reclaimed","areaHa":1.5,"shedId":"RB22"},"geometry":{"type":"Polygon","coordinates":[[[76.6808,11.1597],[76.6805,11.1606],[76.6809,11.1607],[76.6824,11.1604],[76.6823,11.16],[76.6808,11.1597]]]}},{"type":"Feature","properties":{"kind":"Reclaimed","areaHa":2.0,"shedId":"RB22"},"geometry":{"type":"Polygon","coordinates":[[[76.6815,11.1632],[76.6809,11.1618],[76.6802,11.1618],[76.6803,11.1624],[76.68,11.1627],[76.6793,11.1622],[76.679,11.1623],[76.6793,11.1628],[76.6815,11.1632]]]}},{"type":"Feature","properties":{"kind":"Reclaimed","areaHa":2.98,"shedId":"RB22"},"geometry":{"type":"Polygon","coordinates":[[[76.6805,11.1602],[76.6808,11.1597],[76.6798,11.1595],[76.6774,11.1576],[76.6785,11.1598],[76.6788,11.1598],[76.6785,11.1594],[76.6788,11.1595],[76.6791,11.1602],[76.6795,11.1603],[76.6798,11.1603],[76.6797,11.1598],[76.6805,11.1602]]]}},{"type":"Feature","properties":{"kind":"Fallow","areaHa":1.99,"shedId":"RB22"},"geometry":{"type":"Polygon","coordinates":[[[76.6738,11.1561],[76.6745,11.1555],[76.6736,11.1552],[76.6738,11.1546],[76.6731,11.1536],[76.6727,11.1536],[76.6725,11.1542],[76.6735,11.1547],[76.673,11.1553],[76.6738,11.1561]]]}},{"type":"Feature","properties":{"kind":"Fallow","areaHa":1.03,"shedId":"RB22"},"geometry":{"type":"Polygon","coordinates":[[[76.6752,11.1574],[76.6749,11.1567],[76.6741,11.1562],[76.674,11.1566],[76.6738,11.1562],[76.6735,11.1567],[76.6752,11.1574]]]}},{"type":"Feature","properties":{"kind":"Fallow","areaHa":7.71,"shedId":"RB22"},"geometry":{"type":"Polygon","coordinates":[[[76.6693,11.1615],[76.6701,11.1607],[76.6701,11.161],[76.6705,11.161],[76.6705,11.1606],[76.6708,11.1606],[76.6707,11.1598],[76.6684,11.1592],[76.6679,11.1595],[76.668,11.1585],[76.667,11.1581],[76.6666,11.1589],[76.6675,11.1595],[76.6672,11.1604],[76.6676,11.1607],[76.6672,11.1613],[76.668,11.1613],[76.6681,11.1609],[76.6693,11.1615]],[[76.6687,11.1609],[76.6686,11.1603],[76.6691,11.1598],[76.6692,11.1604],[76.6689,11.1608],[76.6697,11.161],[76.6687,11.1609]]]}},{"type":"Feature","properties":{"kind":"Fallow","areaHa":1.3,"shedId":"RB22"},"geometry":{"type":"Polygon","coordinates":[[[76.6761,11.1606],[76.6752,11.1615],[76.6755,11.1622],[76.6767,11.1611],[76.6761,11.1606]]]}},{"type":"Feature","properties":{"kind":"Fallow","areaHa":10.02,"shedId":"RB22"},"geometry":{"type":"Polygon","coordinates":[[[76.645,11.1541],[76.6457,11.1547],[76.6459,11.1546],[76.6454,11.1541],[76.6456,11.1539],[76.6468,11.155],[76.6464,11.1554],[76.6461,11.1551],[76.6453,11.1553],[76.6451,11.1559],[76.6463,11.1558],[76.6455,11.1562],[76.6455,11.1567],[76.6445,11.1569],[76.6447,11.1574],[76.6459,11.1568],[76.6466,11.1575],[76.6472,11.1571],[76.6477,11.1576],[76.6486,11.1573],[76.648,11.1554],[76.6463,11.1536],[76.6455,11.153],[76.645,11.1541]]]}},{"type":"Feature","properties":{"kind":"Fallow","areaHa":1.05,"shedId":"RB22"},"geometry":{"type":"Polygon","coordinates":[[[76.6449,11.1556],[76.6446,11.1552],[76.645,11.1548],[76.6448,11.1543],[76.6445,11.1549],[76.6441,11.1548],[76.6439,11.1554],[76.6445,11.156],[76.6449,11.1556]]]}},{"type":"Feature","properties":{"kind":"Reclaimed","areaHa":1.97,"shedId":"RB22"},"geometry":{"type":"Polygon","coordinates":[[[76.6459,11.155],[76.6464,11.1554],[76.6468,11.1549],[76.6456,11.1539],[76.6454,11.1541],[76.6459,11.1547],[76.6454,11.1547],[76.645,11.1541],[76.6448,11.1543],[76.6451,11.1548],[76.6446,11.155],[76.645,11.1556],[76.6459,11.155]]]}},{"type":"Feature","properties":{"kind":"Fallow","areaHa":1.67,"shedId":"RB22"},"geometry":{"type":"Polygon","coordinates":[[[76.6518,11.1495],[76.6523,11.1499],[76.6513,11.15],[76.6516,11.1503],[76.6534,11.1499],[76.654,11.1494],[76.6522,11.1495],[76.6523,11.149],[76.6518,11.1488],[76.6518,11.1495]]]}},{"type":"Feature","properties":{"kind":"Fallow","areaHa":4.15,"shedId":"RB22"},"geometry":{"type":"Polygon","coordinates":[[[76.6517,11.1495],[76.6506,11.1493],[76.6503,11.1486],[76.6494,11.1485],[76.6491,11.1486],[76.649,11.1492],[76.6484,11.1492],[76.6484,11.1495],[76.6491,11.1497],[76.649,11.1499],[76.6478,11.1499],[76.6476,11.1495],[76.6471,11.1498],[76.6486,11.1503],[76.6494,11.1503],[76.6506,11.1496],[76.6517,11.15],[76.6517,11.1495]]]}},{"type":"Feature","properties":{"kind":"Reclaimed","areaHa":1.26,"shedId":"RB22"},"geometry":{"type":"Polygon","coordinates":[[[76.6527,11.1456],[76.6528,11.1448],[76.6521,11.1445],[76.6515,11.1454],[76.6524,11.1458],[76.6527,11.1456]]]}},{"type":"Feature","properties":{"kind":"Fallow","areaHa":1.33,"shedId":"RB22"},"geometry":{"type":"Polygon","coordinates":[[[76.6432,11.1321],[76.6424,11.1331],[76.6433,11.1338],[76.6437,11.1332],[76.6432,11.1321]]]}},{"type":"Feature","properties":{"kind":"Reclaimed","areaHa":0.94,"shedId":"RB22"},"geometry":{"type":"Polygon","coordinates":[[[76.6439,11.1336],[76.6435,11.1336],[76.6427,11.1347],[76.6428,11.1355],[76.6432,11.1353],[76.6432,11.1346],[76.6439,11.1336]]]}},{"type":"Feature","properties":{"kind":"Fallow","areaHa":5.39,"shedId":"RB22"},"geometry":{"type":"Polygon","coordinates":[[[76.6571,11.1484],[76.657,11.1489],[76.6561,11.149],[76.6567,11.1492],[76.6566,11.1495],[76.6557,11.15],[76.6559,11.1515],[76.6578,11.1511],[76.6578,11.1487],[76.6571,11.1484]]]}},{"type":"Feature","properties":{"kind":"Reclaimed","areaHa":10.04,"shedId":"RB22"},"geometry":{"type":"Polygon","coordinates":[[[76.6614,11.151],[76.6623,11.1511],[76.663,11.15],[76.662,11.15],[76.6608,11.1508],[76.6605,11.1502],[76.6591,11.1496],[76.6584,11.1486],[76.6579,11.1487],[76.6579,11.1506],[76.659,11.1509],[76.6619,11.153],[76.6623,11.153],[76.6625,11.152],[76.661,11.1513],[76.6614,11.151]]]}},{"type":"Feature","properties":{"kind":"Fallow","areaHa":2.69,"shedId":"RB22"},"geometry":{"type":"Polygon","coordinates":[[[76.66,11.1532],[76.6603,11.152],[76.6588,11.151],[76.6583,11.1516],[76.6589,11.152],[76.6595,11.1534],[76.66,11.1532]]]}},{"type":"Feature","properties":{"kind":"Fallow","areaHa":2.31,"shedId":"RB22"},"geometry":{"type":"Polygon","coordinates":[[[76.6649,11.1544],[76.6636,11.1546],[76.6621,11.154],[76.6619,11.1548],[76.6631,11.1549],[76.6642,11.1556],[76.6649,11.1544]]]}},{"type":"Feature","properties":{"kind":"Reclaimed","areaHa":1.08,"shedId":"RB22"},"geometry":{"type":"Polygon","coordinates":[[[76.6574,11.1574],[76.6569,11.1586],[76.6577,11.1589],[76.6579,11.1585],[76.6581,11.1586],[76.6581,11.1577],[76.6578,11.1581],[76.6575,11.158],[76.6574,11.1574]]]}},{"type":"Feature","properties":{"kind":"Reclaimed","areaHa":12.93,"shedId":"RB22"},"geometry":{"type":"Polygon","coordinates":[[[76.6574,11.1577],[76.6578,11.1581],[76.6581,11.1577],[76.6583,11.16],[76.6585,11.1604],[76.6589,11.1603],[76.6593,11.1592],[76.6602,11.1587],[76.6605,11.1581],[76.6602,11.157],[76.6596,11.1567],[76.6598,11.156],[76.6604,11.1558],[76.6605,11.1552],[76.6603,11.1547],[76.6598,11.1546],[76.6598,11.1538],[76.6589,11.1537],[76.6584,11.1548],[76.6597,11.1551],[76.6596,11.156],[76.6579,11.1557],[76.6574,11.1577]]]}},{"type":"Feature","properties":{"kind":"Fallow","areaHa":24.5,"shedId":"RB22"},"geometry":{"type":"Polygon","coordinates":[[[76.6637,11.1594],[76.6634,11.1603],[76.6649,11.1597],[76.6651,11.1593],[76.6635,11.1581],[76.6637,11.158],[76.6634,11.1577],[76.6629,11.158],[76.6624,11.1576],[76.6625,11.1572],[76.6619,11.1569],[76.6621,11.1566],[76.6628,11.1568],[76.6631,11.1566],[76.6621,11.156],[76.6623,11.1558],[76.6632,11.1564],[76.6644,11.1562],[76.6638,11.1567],[76.664,11.1573],[76.6654,11.1581],[76.6652,11.1584],[76.6654,11.1584],[76.6664,11.1581],[76.6665,11.1576],[76.6661,11.1568],[76.6654,11.1563],[76.666,11.1551],[76.6655,11.1548],[76.6648,11.1558],[76.6644,11.1555],[76.6645,11.1552],[76.6642,11.1557],[76.6628,11.1549],[76.6621,11.155],[76.6618,11.1541],[76.6609,11.1543],[76.6598,11.1538],[76.6598,11.1545],[76.6604,11.1546],[76.6605,11.1558],[76.6598,11.1561],[76.6597,11.1567],[76.6602,11.1569],[76.6606,11.1581],[76.6593,11.1593],[76.6593,11.1595],[76.6599,11.1592],[76.6605,11.1597],[76.6611,11.1596],[76.6621,11.1578],[76.6632,11.1586],[76.6631,11.1593],[76.6637,11.1594]]]}},{"type":"Feature","properties":{"kind":"Reclaimed","areaHa":9.82,"shedId":"RB22"},"geometry":{"type":"Polygon","coordinates":[[[76.6541,11.1542],[76.6534,11.1538],[76.6528,11.1543],[76.6523,11.1538],[76.6529,11.153],[76.6535,11.1531],[76.6529,11.1529],[76.6534,11.1527],[76.6535,11.1519],[76.6545,11.152],[76.6544,11.1509],[76.6518,11.1509],[76.6514,11.1519],[76.6519,11.1525],[76.6515,11.1526],[76.6512,11.1537],[76.6522,11.1539],[76.6517,11.1547],[76.6536,11.1554],[76.6541,11.1542]]]}},{"type":"Feature","properties":{"kind":"Fallow","areaHa":1.92,"shedId":"RB22"},"geometry":{"type":"Polygon","coordinates":[[[76.6467,11.1526],[76.6478,11.1538],[76.6483,11.1532],[76.6489,11.1532],[76.6489,11.1527],[76.6481,11.1528],[76.6477,11.1523],[76.6469,11.1524],[76.6467,11.1526]]]}},{"type":"Feature","properties":{"kind":"Fallow","areaHa":2.55,"shedId":"RB22"},"geometry":{"type":"Polygon","coordinates":[[[76.6468,11.1517],[76.6491,11.1517],[76.6492,11.151],[76.6481,11.1505],[76.6471,11.1509],[76.6465,11.1507],[76.6466,11.1512],[76.6477,11.1511],[76.6477,11.1514],[76.6467,11.1515],[76.6468,11.1517]]]}},{"type":"Feature","properties":{"kind":"Fallow","areaHa":1.49,"shedId":"RB22"},"geometry":{"type":"Polygon","coordinates":[[[76.639,11.1563],[76.6379,11.1562],[76.6373,11.1569],[76.6389,11.1573],[76.639,11.1563]]]}},{"type":"Feature","properties":{"kind":"Reclaimed","areaHa":2.18,"shedId":"RB22"},"geometry":{"type":"Polygon","coordinates":[[[76.6261,11.1507],[76.6252,11.1507],[76.6231,11.1514],[76.6233,11.1518],[76.6256,11.1514],[76.626,11.1513],[76.6261,11.1507]]]}},{"type":"Feature","properties":{"kind":"Reclaimed","areaHa":2.08,"shedId":"RB22"},"geometry":{"type":"Polygon","coordinates":[[[76.623,11.1507],[76.6238,11.1506],[76.6237,11.1495],[76.6224,11.1501],[76.622,11.1507],[76.6223,11.1512],[76.6228,11.1513],[76.623,11.1507]]]}},{"type":"Feature","properties":{"kind":"Reclaimed","areaHa":1.97,"shedId":"RB22"},"geometry":{"type":"Polygon","coordinates":[[[76.624,11.1546],[76.625,11.1545],[76.6249,11.1539],[76.6257,11.1533],[76.6249,11.1534],[76.6249,11.1528],[76.6241,11.153],[76.624,11.1546]]]}},{"type":"Feature","properties":{"kind":"Fallow","areaHa":3.47,"shedId":"RB22"},"geometry":{"type":"Polygon","coordinates":[[[76.6211,11.1547],[76.6225,11.1544],[76.6224,11.1532],[76.6232,11.1529],[76.6237,11.1531],[76.6228,11.1521],[76.6223,11.1523],[76.6222,11.1533],[76.6215,11.1536],[76.6212,11.1529],[76.6207,11.1533],[76.6211,11.1547]]]}},{"type":"Feature","properties":{"kind":"Fallow","areaHa":5.2,"shedId":"RB22"},"geometry":{"type":"Polygon","coordinates":[[[76.6234,11.156],[76.6218,11.155],[76.6214,11.155],[76.6212,11.1555],[76.6207,11.1554],[76.6204,11.1552],[76.6202,11.1541],[76.6195,11.1542],[76.6198,11.1561],[76.6213,11.1563],[76.6215,11.1558],[76.6234,11.1571],[76.6234,11.156]]]}},{"type":"Feature","properties":{"kind":"Reclaimed","areaHa":4.25,"shedId":"RB22"},"geometry":{"type":"Polygon","coordinates":[[[76.6198,11.1561],[76.6193,11.1537],[76.6188,11.1535],[76.6179,11.1542],[76.6185,11.1545],[76.6183,11.1557],[76.6178,11.1555],[76.6181,11.1548],[76.6177,11.1551],[76.617,11.1547],[76.6164,11.1549],[76.6167,11.155],[76.6164,11.1554],[76.6171,11.1557],[76.6173,11.1554],[76.6177,11.1556],[76.6176,11.1561],[76.6183,11.1559],[76.6188,11.1564],[76.6185,11.1556],[76.619,11.1554],[76.6198,11.1561]],[[76.6191,11.1548],[76.6193,11.1552],[76.6186,11.1552],[76.6187,11.155],[76.6191,11.1548]]]}},{"type":"Feature","properties":{"kind":"Reclaimed","areaHa":2.45,"shedId":"RB22"},"geometry":{"type":"MultiPolygon","coordinates":[[[[76.6071,11.1536],[76.6085,11.1524],[76.6081,11.1523],[76.6083,11.152],[76.6071,11.1522],[76.6067,11.1526],[76.606,11.1524],[76.6064,11.1533],[76.6071,11.1536]]],[[[76.6085,11.1524],[76.6087,11.1523],[76.6086,11.1522],[76.6085,11.1524]]]]}},{"type":"Feature","properties":{"kind":"Reclaimed","areaHa":1.52,"shedId":"RB22"},"geometry":{"type":"Polygon","coordinates":[[[76.6739,11.1191],[76.6736,11.1192],[76.673,11.1209],[76.6739,11.1214],[76.6739,11.1191]]]}},{"type":"Feature","properties":{"kind":"Reclaimed","areaHa":6.22,"shedId":"RB22"},"geometry":{"type":"Polygon","coordinates":[[[76.6803,11.1239],[76.6804,11.1266],[76.6812,11.1269],[76.681,11.1274],[76.6821,11.1276],[76.6827,11.1249],[76.6824,11.1247],[76.6821,11.126],[76.6817,11.1259],[76.6815,11.1249],[76.6817,11.1243],[76.6803,11.1239]],[[76.6807,11.1256],[76.6808,11.1254],[76.681,11.1255],[76.6809,11.1255],[76.6807,11.1256]]]}},{"type":"Feature","properties":{"kind":"Reclaimed","areaHa":10.2,"shedId":"RB22"},"geometry":{"type":"Polygon","coordinates":[[[76.6843,11.1289],[76.6852,11.1278],[76.6861,11.1277],[76.6863,11.1269],[76.6861,11.1267],[76.6859,11.1272],[76.6841,11.1264],[76.6845,11.1256],[76.684,11.125],[76.6848,11.1246],[76.6836,11.1239],[76.6832,11.1244],[76.6826,11.1276],[76.6828,11.1281],[76.6843,11.1289]],[[76.684,11.1269],[76.6857,11.1273],[76.6858,11.1274],[76.684,11.1269]]]}},{"type":"Feature","properties":{"kind":"Reclaimed","areaHa":7.22,"shedId":"RB22"},"geometry":{"type":"MultiPolygon","coordinates":[[[[76.6868,11.127],[76.6869,11.1268],[76.6867,11.127],[76.6868,11.127]]],[[[76.6867,11.1271],[76.6866,11.1271],[76.6866,11.1272],[76.6867,11.1271]]],[[[76.687,11.1268],[76.6873,11.1266],[76.6887,11.1269],[76.6888,11.1261],[76.6893,11.126],[76.689,11.1253],[76.6881,11.1253],[76.6886,11.1249],[76.6887,11.1231],[76.6883,11.1231],[76.6874,11.1239],[76.6875,11.1248],[76.687,11.1248],[76.6863,11.1264],[76.687,11.1268]]]]}},{"type":"Feature","properties":{"kind":"Fallow","areaHa":2.72,"shedId":"RB22"},"geometry":{"type":"Polygon","coordinates":[[[76.7043,11.1401],[76.706,11.1399],[76.7062,11.1391],[76.7056,11.1386],[76.7046,11.1385],[76.7043,11.1401]]]}},{"type":"Feature","properties":{"kind":"Reclaimed","areaHa":1.04,"shedId":"RB22"},"geometry":{"type":"Polygon","coordinates":[[[76.7041,11.1414],[76.7043,11.14],[76.7035,11.1399],[76.703,11.1405],[76.7038,11.1403],[76.7037,11.1413],[76.7041,11.1414]]]}},{"type":"Feature","properties":{"kind":"Reclaimed","areaHa":4.04,"shedId":"RB22"},"geometry":{"type":"Polygon","coordinates":[[[76.6997,11.1471],[76.6998,11.1462],[76.6994,11.1454],[76.6998,11.1455],[76.7003,11.1448],[76.6998,11.1443],[76.6989,11.1442],[76.6992,11.1449],[76.6989,11.145],[76.6984,11.1476],[76.6991,11.1477],[76.6992,11.147],[76.6997,11.1471]]]}},{"type":"Feature","properties":{"kind":"Reclaimed","areaHa":1.33,"shedId":"RB22"},"geometry":{"type":"Polygon","coordinates":[[[76.6932,11.1499],[76.6936,11.15],[76.6939,11.1493],[76.6936,11.1486],[76.6932,11.1496],[76.6929,11.1492],[76.6924,11.1494],[76.6927,11.1497],[76.6926,11.1502],[76.693,11.1504],[76.6932,11.1499]]]}},{"type":"Feature","properties":{"kind":"Reclaimed","areaHa":1.09,"shedId":"RB22"},"geometry":{"type":"Polygon","coordinates":[[[76.6875,11.1551],[76.6878,11.154],[76.6869,11.1534],[76.6868,11.1537],[76.6873,11.1542],[76.6868,11.1551],[76.6875,11.1551]]]}},{"type":"Feature","properties":{"kind":"Reclaimed","areaHa":2.63,"shedId":"RB22"},"geometry":{"type":"Polygon","coordinates":[[[76.6861,11.1571],[76.6867,11.1564],[76.6869,11.1553],[76.6864,11.1557],[76.6853,11.1552],[76.6842,11.1553],[76.6858,11.1565],[76.6861,11.1571]]]}},{"type":"Feature","properties":{"kind":"Reclaimed","areaHa":3.27,"shedId":"RB22"},"geometry":{"type":"Polygon","coordinates":[[[76.6626,11.1464],[76.6624,11.1461],[76.6628,11.1452],[76.6614,11.1452],[76.6602,11.1457],[76.661,11.1468],[76.6618,11.1464],[76.6623,11.1467],[76.6626,11.1464]]]}},{"type":"Feature","properties":{"kind":"Reclaimed","areaHa":3.92,"shedId":"RB22"},"geometry":{"type":"Polygon","coordinates":[[[76.626,11.1243],[76.6246,11.1231],[76.6217,11.1216],[76.6225,11.1224],[76.6223,11.1225],[76.6239,11.1238],[76.6245,11.1241],[76.6245,11.1236],[76.6248,11.1235],[76.6247,11.1243],[76.6257,11.125],[76.626,11.1243]]]}},{"type":"Feature","properties":{"kind":"Fallow","areaHa":1.85,"shedId":"RB22"},"geometry":{"type":"Polygon","coordinates":[[[76.6229,11.1271],[76.6226,11.126],[76.6219,11.1257],[76.6212,11.1271],[76.6229,11.1271]]]}},{"type":"Feature","properties":{"kind":"Reclaimed","areaHa":2.71,"shedId":"RB22"},"geometry":{"type":"Polygon","coordinates":[[[76.6248,11.1326],[76.6237,11.1322],[76.6233,11.1329],[76.6241,11.1339],[76.6248,11.134],[76.6254,11.1338],[76.6254,11.1333],[76.6248,11.1331],[76.6248,11.1326]]]}},{"type":"Feature","properties":{"kind":"Reclaimed","areaHa":2.06,"shedId":"RB22"},"geometry":{"type":"Polygon","coordinates":[[[76.6247,11.1351],[76.6255,11.1348],[76.6254,11.1339],[76.624,11.134],[76.6233,11.1344],[76.6247,11.1351]]]}},{"type":"Feature","properties":{"kind":"Reclaimed","areaHa":1.14,"shedId":"RB22"},"geometry":{"type":"Polygon","coordinates":[[[76.6271,11.1336],[76.6261,11.134],[76.6263,11.1355],[76.6266,11.1354],[76.6267,11.1342],[76.6271,11.1342],[76.6271,11.1336]]]}},{"type":"Feature","properties":{"kind":"Fallow","areaHa":1.32,"shedId":"RB22"},"geometry":{"type":"Polygon","coordinates":[[[76.6271,11.1336],[76.6271,11.1342],[76.6267,11.1342],[76.6266,11.1345],[76.6266,11.1354],[76.6263,11.1355],[76.6263,11.1367],[76.6271,11.1357],[76.6268,11.1352],[76.6272,11.1344],[76.6271,11.1336]]]}},{"type":"Feature","properties":{"kind":"Reclaimed","areaHa":2.21,"shedId":"RB22"},"geometry":{"type":"Polygon","coordinates":[[[76.6958,11.1535],[76.6952,11.1519],[76.6946,11.1516],[76.6947,11.1521],[76.6943,11.1529],[76.6936,11.1532],[76.6942,11.1534],[76.6944,11.153],[76.6948,11.1531],[76.6949,11.1526],[76.6952,11.1527],[76.6947,11.1536],[76.6954,11.1539],[76.6958,11.1535]]]}},{"type":"Feature","properties":{"kind":"Reclaimed","areaHa":1.67,"shedId":"RB22"},"geometry":{"type":"Polygon","coordinates":[[[76.6824,11.1469],[76.6826,11.1463],[76.6813,11.1459],[76.6809,11.1462],[76.6811,11.1463],[76.6808,11.1468],[76.6813,11.147],[76.6814,11.1465],[76.6816,11.1466],[76.6814,11.147],[76.682,11.1473],[76.6822,11.147],[76.6816,11.1467],[76.6824,11.1469]]]}},{"type":"Feature","properties":{"kind":"Reclaimed","areaHa":4.02,"shedId":"RB22"},"geometry":{"type":"Polygon","coordinates":[[[76.6864,11.1509],[76.6867,11.1495],[76.686,11.1493],[76.6858,11.1487],[76.6854,11.1489],[76.6847,11.1483],[76.6839,11.1498],[76.6843,11.1502],[76.6847,11.1497],[76.685,11.1503],[76.6856,11.15],[76.6864,11.1509]]]}},{"type":"Feature","properties":{"kind":"Reclaimed","areaHa":1.18,"shedId":"RB22"},"geometry":{"type":"Polygon","coordinates":[[[76.6888,11.1494],[76.6879,11.1496],[76.6885,11.1505],[76.6894,11.1491],[76.6882,11.1489],[76.6888,11.1494]],[[76.689,11.1494],[76.6889,11.1492],[76.6891,11.1493],[76.689,11.1494]]]}},{"type":"Feature","properties":{"kind":"Reclaimed","areaHa":2.72,"shedId":"RB22"},"geometry":{"type":"Polygon","coordinates":[[[76.6884,11.1507],[76.6874,11.1494],[76.6869,11.1498],[76.6866,11.151],[76.6868,11.1513],[76.6881,11.1513],[76.6884,11.1507]]]}},{"type":"Feature","properties":{"kind":"Reclaimed","areaHa":44.68,"shedId":"RB22"},"geometry":{"type":"Polygon","coordinates":[[[76.7107,11.126],[76.7132,11.1264],[76.7134,11.1259],[76.7145,11.1266],[76.7161,11.1271],[76.7167,11.1261],[76.7178,11.127],[76.7176,11.1276],[76.7179,11.1279],[76.7191,11.1283],[76.7194,11.1272],[76.7191,11.127],[76.7193,11.1265],[76.7196,11.1265],[76.7206,11.1273],[76.7224,11.1278],[76.7222,11.1283],[76.7213,11.128],[76.7211,11.1286],[76.7234,11.1303],[76.7244,11.1301],[76.7248,11.1291],[76.7243,11.1288],[76.7241,11.1281],[76.7225,11.1271],[76.7228,11.1263],[76.7243,11.1269],[76.7244,11.1264],[76.7248,11.1263],[76.7265,11.1268],[76.7268,11.1262],[76.7268,11.1246],[76.7265,11.1245],[76.728,11.1234],[76.7274,11.123],[76.7261,11.123],[76.7256,11.1253],[76.7249,11.1252],[76.7246,11.1257],[76.7224,11.1241],[76.7205,11.1236],[76.7202,11.1248],[76.7197,11.1246],[76.7197,11.125],[76.7203,11.1254],[76.7203,11.1257],[76.7198,11.1258],[76.7203,11.1261],[76.7202,11.1263],[76.7194,11.1263],[76.7194,11.1255],[76.719,11.1254],[76.7191,11.1261],[76.7167,11.1259],[76.7161,11.125],[76.716,11.1253],[76.7163,11.1254],[76.716,11.1255],[76.7165,11.1261],[76.7156,11.1259],[76.7155,11.1252],[76.7152,11.1258],[76.7124,11.1253],[76.7129,11.1223],[76.7111,11.1218],[76.7109,11.1234],[76.7114,11.1236],[76.7117,11.1242],[76.7114,11.1251],[76.7116,11.1254],[76.7109,11.1254],[76.7107,11.126]],[[76.723,11.1296],[76.7229,11.1296],[76.723,11.1295],[76.723,11.1296]],[[76.7206,11.1259],[76.7209,11.1248],[76.7213,11.1249],[76.7212,11.1255],[76.7216,11.1256],[76.7213,11.1263],[76.7206,11.1259]],[[76.7148,11.1265],[76.7146,11.1266],[76.7146,11.1265],[76.7148,11.1265]],[[76.7138,11.126],[76.7135,11.1259],[76.7138,11.1259],[76.7138,11.126]]]}},{"type":"Feature","properties":{"kind":"Reclaimed","areaHa":4.5,"shedId":"RB22"},"geometry":{"type":"MultiPolygon","coordinates":[[[[76.7186,11.1248],[76.7183,11.1247],[76.7184,11.1242],[76.7189,11.1243],[76.7185,11.1241],[76.7187,11.1236],[76.7172,11.1233],[76.7171,11.1235],[76.718,11.1238],[76.7181,11.1242],[76.7177,11.1243],[76.7177,11.1247],[76.7169,11.1246],[76.717,11.1243],[76.7166,11.124],[76.7155,11.1238],[76.7174,11.1254],[76.7187,11.1256],[76.7181,11.1253],[76.7186,11.1248]]],[[[76.7187,11.1236],[76.7193,11.1227],[76.7189,11.1219],[76.7186,11.1223],[76.7182,11.1221],[76.7183,11.1226],[76.718,11.1227],[76.7187,11.1236]]]]}},{"type":"Feature","properties":{"kind":"Reclaimed","areaHa":1.31,"shedId":"RB22"},"geometry":{"type":"Polygon","coordinates":[[[76.716,11.1239],[76.716,11.123],[76.7163,11.1232],[76.7165,11.123],[76.7164,11.1226],[76.7159,11.1225],[76.7154,11.1228],[76.7151,11.1236],[76.716,11.1239]]]}},{"type":"Feature","properties":{"kind":"Fallow","areaHa":7.52,"shedId":"RB22"},"geometry":{"type":"Polygon","coordinates":[[[76.7165,11.1261],[76.7155,11.1251],[76.7157,11.1248],[76.7167,11.1256],[76.7167,11.1259],[76.7191,11.1261],[76.7186,11.125],[76.7183,11.1249],[76.7181,11.1253],[76.7187,11.1256],[76.7178,11.1255],[76.7155,11.124],[76.7153,11.1245],[76.715,11.1243],[76.7152,11.1237],[76.7141,11.1234],[76.7141,11.1224],[76.7137,11.1254],[76.7152,11.1258],[76.7155,11.1252],[76.7156,11.1259],[76.7165,11.1261]],[[76.7147,11.1253],[76.7147,11.1252],[76.7148,11.1252],[76.7147,11.1253]]]}},{"type":"Feature","properties":{"kind":"Reclaimed","areaHa":2.82,"shedId":"RB22"},"geometry":{"type":"Polygon","coordinates":[[[76.7289,11.1271],[76.7299,11.1273],[76.7297,11.1279],[76.7302,11.1283],[76.7309,11.1284],[76.731,11.1272],[76.7314,11.1277],[76.7318,11.1276],[76.7315,11.1264],[76.7303,11.1272],[76.7289,11.1268],[76.7289,11.1271]]]}},{"type":"Feature","properties":{"kind":"Reclaimed","areaHa":2.87,"shedId":"RB22"},"geometry":{"type":"Polygon","coordinates":[[[76.7417,11.1287],[76.7425,11.1286],[76.7425,11.1282],[76.7428,11.1286],[76.7435,11.1286],[76.7437,11.1279],[76.7434,11.1279],[76.7433,11.1274],[76.7412,11.1275],[76.7417,11.1287]]]}},{"type":"Feature","properties":{"kind":"Reclaimed","areaHa":1.81,"shedId":"RB22"},"geometry":{"type":"Polygon","coordinates":[[[76.6656,11.1589],[76.6658,11.159],[76.6659,11.1586],[76.6646,11.1587],[76.6647,11.1583],[76.6635,11.1575],[76.6636,11.1581],[76.6651,11.1593],[76.6649,11.1598],[76.6655,11.1597],[76.6656,11.1589]]]}},{"type":"Feature","properties":{"kind":"Reclaimed","areaHa":1.79,"shedId":"RB22"},"geometry":{"type":"Polygon","coordinates":[[[76.7024,11.1362],[76.7021,11.1362],[76.7019,11.1355],[76.7013,11.1352],[76.7011,11.1366],[76.7027,11.137],[76.7024,11.1362]]]}},{"type":"Feature","properties":{"kind":"Reclaimed","areaHa":5.09,"shedId":"RB22"},"geometry":{"type":"Polygon","coordinates":[[[76.7016,11.1398],[76.7012,11.1396],[76.7012,11.139],[76.6998,11.1383],[76.7003,11.1374],[76.7008,11.1375],[76.7008,11.1364],[76.7004,11.1364],[76.7001,11.1359],[76.6996,11.1378],[76.6998,11.138],[76.6994,11.138],[76.6992,11.1386],[76.6996,11.139],[76.6994,11.1395],[76.7002,11.1401],[76.7005,11.1395],[76.7007,11.1401],[76.7011,11.1399],[76.7012,11.1404],[76.7018,11.1405],[76.7016,11.1398]]]}},{"type":"Feature","properties":{"kind":"Reclaimed","areaHa":0.81,"shedId":"RB22"},"geometry":{"type":"MultiPolygon","coordinates":[[[[76.6892,11.1352],[76.6895,11.136],[76.6902,11.136],[76.69,11.1354],[76.6892,11.1352]]],[[[76.6893,11.135],[76.6897,11.1349],[76.6898,11.1347],[76.6891,11.1346],[76.6893,11.135]]],[[[76.6894,11.136],[76.6893,11.136],[76.6896,11.1361],[76.6894,11.136]]]]}},{"type":"Feature","properties":{"kind":"Reclaimed","areaHa":1.44,"shedId":"RB22"},"geometry":{"type":"Polygon","coordinates":[[[76.6899,11.139],[76.6902,11.1379],[76.6899,11.1379],[76.69,11.1375],[76.6887,11.1371],[76.6885,11.1375],[76.6896,11.1378],[76.6894,11.1388],[76.6899,11.139]]]}},{"type":"Feature","properties":{"kind":"Reclaimed","areaHa":2.49,"shedId":"RB22"},"geometry":{"type":"Polygon","coordinates":[[[76.6902,11.1427],[76.6899,11.1426],[76.6895,11.1433],[76.6898,11.1424],[76.6894,11.1428],[76.6889,11.1425],[76.6883,11.1435],[76.6883,11.1441],[76.6893,11.1443],[76.6902,11.1427]]]}},{"type":"Feature","properties":{"kind":"Reclaimed","areaHa":2.02,"shedId":"RB22"},"geometry":{"type":"MultiPolygon","coordinates":[[[[76.6928,11.1438],[76.6921,11.1438],[76.6931,11.1442],[76.6935,11.1434],[76.694,11.1437],[76.6945,11.1431],[76.6937,11.1432],[76.6935,11.1429],[76.6937,11.1425],[76.693,11.1425],[76.6927,11.1422],[76.6924,11.143],[76.6931,11.1433],[76.6929,11.1438],[76.6928,11.1438]]],[[[76.6929,11.1434],[76.6926,11.1436],[76.6928,11.1438],[76.6929,11.1434]]]]}},{"type":"Feature","properties":{"kind":"Reclaimed","areaHa":2.54,"shedId":"RB22"},"geometry":{"type":"Polygon","coordinates":[[[76.6961,11.1386],[76.695,11.1379],[76.6945,11.1379],[76.6941,11.1386],[76.6947,11.1394],[76.6956,11.1395],[76.6961,11.1386]]]}},{"type":"Feature","properties":{"kind":"Fallow","areaHa":3.74,"shedId":"RB22"},"geometry":{"type":"Polygon","coordinates":[[[76.7146,11.1448],[76.715,11.145],[76.7152,11.1442],[76.7159,11.1443],[76.7161,11.1439],[76.7163,11.144],[76.7157,11.1456],[76.7173,11.1461],[76.7175,11.1459],[76.7163,11.1436],[76.7154,11.1433],[76.7146,11.1448]]]}},{"type":"Feature","properties":{"kind":"Reclaimed","areaHa":1.67,"shedId":"RB22"},"geometry":{"type":"Polygon","coordinates":[[[76.7144,11.1451],[76.7157,11.1456],[76.7163,11.144],[76.7161,11.1439],[76.7159,11.1443],[76.7152,11.1442],[76.715,11.145],[76.7145,11.1448],[76.7144,11.1451]]]}},{"type":"Feature","properties":{"kind":"Reclaimed","areaHa":1.51,"shedId":"RB22"},"geometry":{"type":"Polygon","coordinates":[[[76.7174,11.1383],[76.7173,11.139],[76.7176,11.1395],[76.7187,11.1393],[76.7188,11.1387],[76.7174,11.1383]]]}},{"type":"Feature","properties":{"kind":"Reclaimed","areaHa":2.32,"shedId":"RB22"},"geometry":{"type":"Polygon","coordinates":[[[76.7124,11.1457],[76.7118,11.147],[76.713,11.1475],[76.7136,11.146],[76.7124,11.1457]]]}},{"type":"Feature","properties":{"kind":"Fallow","areaHa":1.38,"shedId":"RB22"},"geometry":{"type":"Polygon","coordinates":[[[76.6983,11.1486],[76.6976,11.1474],[76.6975,11.1479],[76.697,11.1479],[76.6972,11.1482],[76.6968,11.1485],[76.6971,11.1489],[76.6976,11.1489],[76.6983,11.1486]]]}},{"type":"Feature","properties":{"kind":"Reclaimed","areaHa":1.01,"shedId":"RB22"},"geometry":{"type":"Polygon","coordinates":[[[76.6862,11.1406],[76.6855,11.1402],[76.6852,11.1406],[76.6848,11.1404],[76.6845,11.1407],[76.6859,11.1412],[76.6862,11.1406]]]}},{"type":"Feature","properties":{"kind":"Reclaimed","areaHa":4.13,"shedId":"RB22"},"geometry":{"type":"Polygon","coordinates":[[[76.6101,11.1185],[76.6108,11.1192],[76.6108,11.1197],[76.6123,11.1182],[76.6108,11.1168],[76.6109,11.1154],[76.6101,11.1185]]]}},{"type":"Feature","properties":{"kind":"Fallow","areaHa":1.21,"shedId":"RB22"},"geometry":{"type":"MultiPolygon","coordinates":[[[[76.6891,11.1398],[76.689,11.1402],[76.6893,11.1402],[76.6896,11.1396],[76.6885,11.139],[76.6881,11.1391],[76.688,11.1398],[76.6885,11.1399],[76.6887,11.1396],[76.6891,11.1398]]],[[[76.6888,11.1401],[76.6889,11.1401],[76.689,11.1398],[76.6888,11.1401]]]]}},{"type":"Feature","properties":{"kind":"Reclaimed","areaHa":1.81,"shedId":"RB22"},"geometry":{"type":"Polygon","coordinates":[[[76.61,11.1151],[76.6085,11.1137],[76.6078,11.1138],[76.6082,11.1146],[76.6085,11.1145],[76.6092,11.1151],[76.6093,11.1157],[76.61,11.1151]]]}},{"type":"Feature","properties":{"kind":"Reclaimed","areaHa":0.95,"shedId":"RB22"},"geometry":{"type":"Polygon","coordinates":[[[76.5884,11.1053],[76.5883,11.1063],[76.5893,11.106],[76.5894,11.1054],[76.5884,11.1053]]]}},{"type":"Feature","properties":{"kind":"Reclaimed","areaHa":1.14,"shedId":"RB22"},"geometry":{"type":"Polygon","coordinates":[[[76.6593,11.1162],[76.6591,11.1157],[76.6581,11.1163],[76.659,11.1174],[76.6592,11.1171],[76.6589,11.1168],[76.6593,11.1162]]]}},{"type":"Feature","properties":{"kind":"Reclaimed","areaHa":1.09,"shedId":"RB22"},"geometry":{"type":"Polygon","coordinates":[[[76.6519,11.1162],[76.6533,11.1161],[76.6534,11.1154],[76.6524,11.1151],[76.6526,11.1155],[76.6519,11.1162]]]}},{"type":"Feature","properties":{"kind":"Reclaimed","areaHa":1.04,"shedId":"RB22"},"geometry":{"type":"Polygon","coordinates":[[[76.6519,11.1087],[76.6508,11.1082],[76.6493,11.1081],[76.6493,11.1085],[76.6508,11.1085],[76.6518,11.109],[76.6519,11.1087]]]}},{"type":"Feature","properties":{"kind":"Reclaimed","areaHa":1.21,"shedId":"RB22"},"geometry":{"type":"Polygon","coordinates":[[[76.6495,11.11],[76.6499,11.1091],[76.6495,11.1088],[76.649,11.1092],[76.649,11.1089],[76.6485,11.1097],[76.6492,11.11],[76.649,11.1101],[76.6495,11.11]]]}},{"type":"Feature","properties":{"kind":"Fallow","areaHa":2.31,"shedId":"RB22"},"geometry":{"type":"Polygon","coordinates":[[[76.6508,11.1096],[76.6504,11.1093],[76.65,11.1099],[76.6494,11.1101],[76.65,11.1103],[76.6498,11.1105],[76.6502,11.1106],[76.6507,11.1118],[76.6517,11.1112],[76.6505,11.1101],[76.6508,11.1096]]]}},{"type":"Feature","properties":{"kind":"Fallow","areaHa":8.42,"shedId":"RB22"},"geometry":{"type":"Polygon","coordinates":[[[76.7366,11.1027],[76.7373,11.1018],[76.7379,11.1022],[76.7379,11.1019],[76.7358,11.101],[76.732,11.1002],[76.7315,11.0999],[76.7317,11.099],[76.731,11.0981],[76.7295,11.0981],[76.7316,11.1011],[76.7317,11.1007],[76.7327,11.1005],[76.7329,11.1008],[76.7345,11.101],[76.7343,11.1017],[76.7356,11.1019],[76.7366,11.1027]]]}},{"type":"Feature","properties":{"kind":"Reclaimed","areaHa":2.33,"shedId":"RB22"},"geometry":{"type":"Polygon","coordinates":[[[76.7319,11.1014],[76.7343,11.1017],[76.7345,11.101],[76.7324,11.1006],[76.7318,11.1011],[76.7319,11.1014]]]}},{"type":"Feature","properties":{"kind":"Reclaimed","areaHa":1.35,"shedId":"RB22"},"geometry":{"type":"Polygon","coordinates":[[[76.7346,11.098],[76.7351,11.0981],[76.7366,11.0979],[76.7364,11.0974],[76.7345,11.0975],[76.7346,11.098]]]}},{"type":"Feature","properties":{"kind":"Reclaimed","areaHa":0.8,"shedId":"RB22"},"geometry":{"type":"Polygon","coordinates":[[[76.7294,11.096],[76.729,11.096],[76.7285,11.0967],[76.7291,11.0974],[76.7294,11.096]]]}},{"type":"Feature","properties":{"kind":"Reclaimed","areaHa":1.79,"shedId":"RB22"},"geometry":{"type":"Polygon","coordinates":[[[76.7001,11.0898],[76.7,11.0885],[76.6994,11.0881],[76.6992,11.0884],[76.6989,11.0883],[76.6988,11.0886],[76.6992,11.0887],[76.6991,11.0899],[76.7001,11.0898]]]}},{"type":"Feature","properties":{"kind":"Reclaimed","areaHa":2.61,"shedId":"RB22"},"geometry":{"type":"Polygon","coordinates":[[[76.7014,11.0834],[76.7017,11.0822],[76.7007,11.0814],[76.701,11.0825],[76.6999,11.0826],[76.6998,11.0834],[76.7004,11.0834],[76.7005,11.0838],[76.7014,11.0834]]]}},{"type":"Feature","properties":{"kind":"Reclaimed","areaHa":1.34,"shedId":"RB22"},"geometry":{"type":"Polygon","coordinates":[[[76.7331,11.1032],[76.7319,11.1033],[76.7319,11.1041],[76.7333,11.1041],[76.7331,11.1032]]]}},{"type":"Feature","properties":{"kind":"Reclaimed","areaHa":2.33,"shedId":"RB22"},"geometry":{"type":"Polygon","coordinates":[[[76.7328,11.1312],[76.7319,11.1306],[76.7326,11.1291],[76.7318,11.1295],[76.7318,11.1298],[76.7313,11.1293],[76.7303,11.1291],[76.7309,11.1295],[76.7304,11.1303],[76.731,11.1306],[76.7312,11.1296],[76.7313,11.13],[76.7319,11.1301],[76.7313,11.1306],[76.7318,11.1309],[76.7317,11.1311],[76.7328,11.1312]]]}},{"type":"Feature","properties":{"kind":"Reclaimed","areaHa":1.32,"shedId":"RB22"},"geometry":{"type":"Polygon","coordinates":[[[76.7136,11.12],[76.7127,11.1195],[76.7122,11.1207],[76.7124,11.1208],[76.713,11.12],[76.7127,11.1208],[76.7132,11.121],[76.7136,11.12]]]}},{"type":"Feature","properties":{"kind":"Reclaimed","areaHa":2.98,"shedId":"RB22"},"geometry":{"type":"Polygon","coordinates":[[[76.7034,11.131],[76.7044,11.1315],[76.7043,11.1305],[76.705,11.1303],[76.7052,11.1292],[76.7049,11.1291],[76.7048,11.1298],[76.7043,11.1297],[76.704,11.1301],[76.7036,11.1296],[76.7039,11.1284],[76.7033,11.129],[76.7031,11.13],[76.7035,11.1302],[76.7034,11.131]]]}},{"type":"Feature","properties":{"kind":"Reclaimed","areaHa":4.23,"shedId":"RB22"},"geometry":{"type":"Polygon","coordinates":[[[76.6847,11.1366],[76.6844,11.1352],[76.684,11.1356],[76.6837,11.1351],[76.6829,11.1354],[76.6826,11.1346],[76.6824,11.1349],[76.6821,11.1344],[76.6818,11.1333],[76.6813,11.1341],[76.6823,11.1355],[76.6824,11.1361],[76.6832,11.1361],[76.6841,11.1368],[76.6847,11.1366]]]}},{"type":"Feature","properties":{"kind":"Reclaimed","areaHa":1.11,"shedId":"RB22"},"geometry":{"type":"Polygon","coordinates":[[[76.6692,11.1186],[76.6691,11.1177],[76.6695,11.1183],[76.6697,11.1178],[76.6688,11.1172],[76.6689,11.1168],[76.6686,11.1167],[76.6685,11.1175],[76.6689,11.1178],[76.6687,11.1185],[76.6692,11.1186]]]}},{"type":"Feature","properties":{"kind":"Reclaimed","areaHa":1.69,"shedId":"RB22"},"geometry":{"type":"Polygon","coordinates":[[[76.6694,11.1166],[76.6698,11.1172],[76.6703,11.1173],[76.6693,11.1159],[76.6685,11.1157],[76.6682,11.116],[76.6699,11.1176],[76.6694,11.1166]]]}},{"type":"Feature","properties":{"kind":"Reclaimed","areaHa":1.9,"shedId":"RB22"},"geometry":{"type":"Polygon","coordinates":[[[76.6717,11.1153],[76.6722,11.1146],[76.6721,11.1142],[76.6715,11.1139],[76.6706,11.1143],[76.6704,11.1148],[76.6717,11.1153]]]}},{"type":"Feature","properties":{"kind":"Reclaimed","areaHa":2.97,"shedId":"RB22"},"geometry":{"type":"Polygon","coordinates":[[[76.659,11.096],[76.6601,11.0959],[76.6604,11.0955],[76.6615,11.096],[76.6605,11.0954],[76.6606,11.095],[76.66,11.0942],[76.6592,11.0936],[76.6587,11.0936],[76.6597,11.0952],[76.6594,11.095],[76.6593,11.0955],[76.6589,11.0954],[76.659,11.096]]]}},{"type":"Feature","properties":{"kind":"Reclaimed","areaHa":1.52,"shedId":"RB22"},"geometry":{"type":"Polygon","coordinates":[[[76.6593,11.1007],[76.6598,11.1006],[76.6587,11.0998],[76.658,11.1007],[76.6587,11.1012],[76.6592,11.1011],[76.6593,11.1007]]]}},{"type":"Feature","properties":{"kind":"Reclaimed","areaHa":1.17,"shedId":"RB22"},"geometry":{"type":"Polygon","coordinates":[[[76.6709,11.1109],[76.6701,11.1101],[76.6694,11.1101],[76.6696,11.1107],[76.67,11.1107],[76.6701,11.1113],[76.6704,11.1114],[76.6709,11.1109]]]}},{"type":"Feature","properties":{"kind":"Reclaimed","areaHa":1.18,"shedId":"RB22"},"geometry":{"type":"Polygon","coordinates":[[[76.6768,11.1164],[76.6761,11.1169],[76.6769,11.1179],[76.6774,11.1169],[76.6768,11.1164]]]}},{"type":"Feature","properties":{"kind":"Reclaimed","areaHa":1.92,"shedId":"RB22"},"geometry":{"type":"Polygon","coordinates":[[[76.6858,11.1287],[76.6847,11.1292],[76.6848,11.1301],[76.6843,11.1303],[76.6849,11.1309],[76.6852,11.1308],[76.6857,11.1294],[76.6858,11.1287]]]}},{"type":"Feature","properties":{"kind":"Fallow","areaHa":1.18,"shedId":"RB22"},"geometry":{"type":"Polygon","coordinates":[[[76.7408,11.0533],[76.743,11.0528],[76.7434,11.0532],[76.7435,11.0527],[76.7406,11.0527],[76.7408,11.0533]]]}},{"type":"Feature","properties":{"kind":"Fallow","areaHa":1.17,"shedId":"RB22"},"geometry":{"type":"Polygon","coordinates":[[[76.6325,11.1116],[76.6309,11.1112],[76.6308,11.1114],[76.6311,11.1115],[76.6309,11.1119],[76.6314,11.1119],[76.632,11.1124],[76.6325,11.1116]]]}},{"type":"Feature","properties":{"kind":"Reclaimed","areaHa":1.36,"shedId":"RB22"},"geometry":{"type":"Polygon","coordinates":[[[76.6242,11.111],[76.6248,11.111],[76.625,11.1104],[76.6247,11.1103],[76.6247,11.1099],[76.6239,11.1096],[76.6236,11.1102],[76.6243,11.1108],[76.6242,11.111]]]}},{"type":"Feature","properties":{"kind":"Fallow","areaHa":1.22,"shedId":"RB22"},"geometry":{"type":"MultiPolygon","coordinates":[[[[76.6255,11.1546],[76.6252,11.1555],[76.6255,11.1556],[76.6255,11.156],[76.6256,11.1556],[76.6262,11.1555],[76.6261,11.154],[76.6258,11.154],[76.6258,11.1546],[76.6256,11.1547],[76.6255,11.1546]]],[[[76.6255,11.1546],[76.6257,11.1544],[76.6255,11.1544],[76.6255,11.1546]]]]}},{"type":"Feature","properties":{"kind":"Reclaimed","areaHa":16.76,"shedId":"RB22"},"geometry":{"type":"Polygon","coordinates":[[[76.6567,11.1568],[76.6574,11.1572],[76.6579,11.1556],[76.6595,11.156],[76.6597,11.1552],[76.6583,11.1549],[76.6586,11.1538],[76.6589,11.1537],[76.6574,11.1534],[76.6569,11.1546],[76.6565,11.1544],[76.6561,11.1554],[76.6553,11.1552],[76.6553,11.1541],[76.6546,11.1534],[76.6543,11.1537],[76.6535,11.1535],[76.6536,11.1528],[76.6546,11.1531],[76.6545,11.152],[76.6535,11.1519],[76.6534,11.1527],[76.6529,11.1528],[76.6535,11.1531],[76.6529,11.153],[76.6523,11.1538],[76.6528,11.1543],[76.6533,11.1537],[76.6541,11.154],[76.6536,11.1554],[76.654,11.1555],[76.6538,11.1559],[76.6542,11.1562],[76.6549,11.1564],[76.6549,11.156],[76.6558,11.1563],[76.6556,11.1566],[76.6563,11.1573],[76.6567,11.1568]]]}},{"type":"Feature","properties":{"kind":"Reclaimed","areaHa":2.0,"shedId":"RB22"},"geometry":{"type":"Polygon","coordinates":[[[76.6625,11.1616],[76.662,11.1617],[76.6625,11.1611],[76.6617,11.1616],[76.662,11.161],[76.6616,11.161],[76.6609,11.1626],[76.6618,11.163],[76.6625,11.1616]]]}},{"type":"Feature","properties":{"kind":"Reclaimed","areaHa":1.16,"shedId":"RB22"},"geometry":{"type":"Polygon","coordinates":[[[76.6631,11.162],[76.6628,11.163],[76.6638,11.1631],[76.6641,11.1623],[76.6631,11.162]]]}},{"type":"Feature","properties":{"kind":"Reclaimed","areaHa":3.12,"shedId":"RB22"},"geometry":{"type":"Polygon","coordinates":[[[76.663,11.1611],[76.6632,11.1617],[76.6643,11.1617],[76.6649,11.1621],[76.6652,11.1613],[76.665,11.1606],[76.6653,11.1608],[76.6655,11.1601],[76.6637,11.1606],[76.6635,11.161],[76.663,11.1611]],[[76.6633,11.1614],[76.6635,11.1615],[76.6633,11.1615],[76.6633,11.1614]]]}},{"type":"Feature","properties":{"kind":"Fallow","areaHa":5.66,"shedId":"RB22"},"geometry":{"type":"MultiPolygon","coordinates":[[[[76.6769,11.1258],[76.6779,11.1268],[76.6788,11.1269],[76.6777,11.1265],[76.6769,11.1258]]],[[[76.6789,11.1269],[76.6796,11.1269],[76.6797,11.1264],[76.6795,11.1267],[76.6789,11.1269]]],[[[76.6645,11.1207],[76.6643,11.1207],[76.66423,11.12077],[76.6645,11.1207]]],[[[76.6645,11.1207],[76.6653,11.1207],[76.6655,11.1206],[76.6645,11.1207]]],[[[76.66597,11.1204],[76.6659,11.1204],[76.6655,11.1206],[76.66597,11.1204]]],[[[76.66601,11.12038],[76.6676,11.1184],[76.6679,11.1184],[76.6686,11.1189],[76.6694,11.1202],[76.6701,11.1225],[76.6705,11.123],[76.6718,11.1235],[76.6733,11.1246],[76.6755,11.1233],[76.6759,11.1233],[76.6765,11.1242],[76.6769,11.124],[76.676,11.1232],[76.6753,11.1232],[76.6734,11.1244],[76.672,11.1234],[76.6704,11.1228],[76.6696,11.1201],[76.6693,11.12],[76.6688,11.119],[76.668,11.1182],[76.6677,11.1182],[76.6672,11.1186],[76.66601,11.12038]]],[[[76.6611,11.1181],[76.6613,11.1189],[76.6608,11.1196],[76.6608,11.1201],[76.6612,11.1208],[76.6609,11.1196],[76.6614,11.119],[76.6614,11.1185],[76.6611,11.1181]]],[[[76.657,11.1127],[76.6565,11.1136],[76.6566,11.1153],[76.657,11.1161],[76.65792,11.11708],[76.657,11.116],[76.6567,11.115],[76.657,11.1127]]],[[[76.657,11.1127],[76.6579,11.1106],[76.6575,11.1101],[76.6576,11.1111],[76.657,11.1127]]],[[[76.6559,11.1094],[76.6558,11.1088],[76.6572,11.1069],[76.6569,11.1069],[76.6558,11.1085],[76.6557,11.1093],[76.6559,11.1094]]]]}},{"type":"Feature","properties":{"kind":"Fallow","areaHa":1.61,"shedId":"RB22"},"geometry":{"type":"MultiPolygon","coordinates":[[[[76.6774,11.1265],[76.6776,11.1267],[76.6779,11.1268],[76.6774,11.1265]]],[[[76.6765,11.1261],[76.6768,11.126],[76.6771,11.1262],[76.6769,11.1258],[76.6765,11.1261]]],[[[76.6764,11.1259],[76.6762,11.1257],[76.6764,11.124],[76.6761,11.1251],[76.6761,11.1259],[76.6764,11.1259]]],[[[76.6701,11.1225],[76.6703,11.1229],[76.6704,11.1229],[76.6701,11.1225]]],[[[76.6686,11.119],[76.6686,11.1189],[76.6684,11.1187],[76.6686,11.119]]],[[[76.6655,11.1206],[76.6653,11.1207],[76.6662,11.1203],[76.6655,11.1206]]],[[[76.6663,11.1202],[76.6664,11.1201],[76.6662,11.1203],[76.6663,11.1202]]],[[[76.6645,11.1207],[76.664,11.1208],[76.6634,11.1211],[76.6616,11.1211],[76.661,11.1207],[76.6616,11.1212],[76.6623,11.1213],[76.6637,11.1212],[76.6645,11.1207]]],[[[76.6611,11.1182],[76.6591,11.1181],[76.6577,11.1169],[76.6588,11.1181],[76.6611,11.1182]]],[[[76.6575,11.1103],[76.6566,11.1096],[76.656,11.1096],[76.6557,11.1093],[76.6558,11.1096],[76.6575,11.1103]]]]}}]}