{"type": "FeatureCollection", "features": [{"type": "Feature", "geometry": {"type": "Polygon", "coordinates": [[[77.64416625183154, 12.929289907547492], [77.64414923063289, 12.929184844461487], [77.64412179278003, 12.929081923757487], [77.64408420252492, 12.928982136612676], [77.64403682189081, 12.928886444025602], [77.64398010718534, 12.928795767561468], [77.64396913387287, 12.928781563620413], [77.64353102570024, 12.928769104814934], [77.64330632763397, 12.928850429521944], [77.6432587257115, 12.928921738783695], [77.6430675717893, 12.929407268267017], [77.64327498657327, 12.929766167349849], [77.64352441274569, 12.930082541749291], [77.6436644509816, 12.930318373703477], [77.64369105007461, 12.930302366904163], [77.64377748962137, 12.930238116119613], [77.64385709247287, 12.930165864117455], [77.64392909201176, 12.930086306730676], [77.64399279484734, 12.930000210146531], [77.64404758749318, 12.929908403527577], [77.64409294227511, 12.929811771026136], [77.64412842241249, 12.929711243269267], [77.64415368622456, 12.929607788396195], [77.64416849042016, 12.929502402734528], [77.64417269244052, 12.929396101205045], [77.64416625183154, 12.929289907547492]]]}, "properties": {"spine_id": "gba-bda-001", "key": "inlet-kc", "kind": "inlet", "label": "K&C valley inflow (NW)", "derivation": "platform rich-body zone, reviewed 2026-06-08; Anchored on the lake polygon's extreme vertex + K&C hydrology (W inflow / E outflow); 120 m mouth circle. Visually confirmed accurate on review (2026-06-08).", "area_ha": 1.408, "px_10m": 140}}, {"type": "Feature", "geometry": {"type": "Polygon", "coordinates": [[[77.68101171984462, 12.943171133381039], [77.68100526226986, 12.943064943839595], [77.6809882240051, 12.94295988644628], [77.6809607691502, 12.942856972956678], [77.68092316212083, 12.942757194478467], [77.68087576510177, 12.942661511926694], [77.68081903455847, 12.942570846769888], [77.68075351684074, 12.942486072156067], [77.68067984292111, 12.942408004504129], [77.68059872231804, 12.942337395641538], [77.68051093626302, 12.94227492556409], [77.68041733017698, 12.942221195887422], [77.68031880552874, 12.94217672405329], [77.6802163111537, 12.942141938346548], [77.68011083411643, 12.942117173770635], [77.68000339020521, 12.94210266882134], [77.67989501414992, 12.942098563190049], [77.67978674965748, 12.94210489641837], [77.67967963936113, 12.942121607517231], [77.6795747147795, 12.942148535554175], [77.67947298638327, 12.942185421202943], [77.67937543386397, 12.942231909240833], [77.67928299669946, 12.94228755196937], [77.67919656510644, 12.942351813525661], [77.67911697146737, 12.942424075042775], [77.67904498231412, 12.942503640609496], [77.67898129094588, 12.942589743972066], [77.6789265107521, 12.942681555913408], [77.67888116930493, 12.942778192238722], [77.67884570327813, 12.942878722290596], [77.6788204542412, 12.94298217791162], [77.67880566536945, 12.943087562768202], [77.67880147910152, 12.943193861945797], [77.67880793576713, 12.943300051723067], [77.67882497319816, 12.943405109431017], [77.67885242732685, 12.943508023301977], [77.67889003376534, 12.9436078022136], [77.67893743035164, 12.943703485234186], [77.6789941606369, 12.943794150877196], [77.67905967828123, 12.943878925975929], [77.67913335231492, 12.94395699409284], [77.67921447321513, 12.944027603382613], [77.67930225973895, 12.944090073833022], [77.67939586644742, 12.944143803814113], [77.67949439184781, 12.944188275872406], [77.67959688707583, 12.944223061714442], [77.67970236503412, 12.944247826331612], [77.67980980989898, 12.944262331226497], [77.67991818690398, 12.944266436709823], [77.68002645230553, 12.944260103245677], [77.68013356343563, 12.94424339183217], [77.68023848874346, 12.944216463413884], [77.68034021773056, 12.944179577331708], [77.68043777068262, 12.944133088825], [77.68053020810517, 12.944077445610251], [77.68061663977157, 12.944013183569052], [77.68069623329659, 12.943940921586954], [77.6807682221527, 12.943861355593059], [77.68083191305215, 12.943775251857524], [77.68088669262352, 12.943683439611767], [77.68093203331851, 12.943586803062288], [77.68096749849234, 12.94348627287512], [77.68099274660824, 12.943382817212852], [77.68100753452634, 12.943277432410671], [77.68101171984462, 12.943171133381039]]]}, "properties": {"spine_id": "gba-bda-001", "key": "weir", "kind": "outflow", "label": "Downstream foam weir (SE, toward Sarjapur Rd / Varthur)", "derivation": "platform rich-body zone, reviewed 2026-06-08; Anchored on the lake polygon's extreme vertex + K&C hydrology (W inflow / E outflow); 120 m mouth circle. Visually confirmed accurate on review (2026-06-08).", "area_ha": 4.517, "px_10m": 451}}, {"type": "Feature", "geometry": {"type": "MultiPolygon", "coordinates": [[[[77.72700119465044, 12.945021978003293], [77.72681458208258, 12.945484195447367], [77.726846476209, 12.94545522875791], [77.72688246216771, 12.94541544078694], [77.72691429867751, 12.945372384807037], [77.72694167913714, 12.945326475472156], [77.72696433986003, 12.945278154915385], [77.72698206261377, 12.945227888490896], [77.72699467672162, 12.945176160292316], [77.72700206070616, 12.945123468490614], [77.727004143459, 12.945070320536429], [77.72700119465044, 12.945021978003293]]], [[[77.72695982746833, 12.944863366519153], [77.72693612073427, 12.944815531219785], [77.72690774782244, 12.944770205364998], [77.72687498198042, 12.944727825465785], [77.72683813876145, 12.944688799662007], [77.72679757298543, 12.944653503791804], [77.72675367532189, 12.944622277772169], [77.72670686852761, 12.944595422325401], [77.72665760337537, 12.944573196083041], [77.72660635431279, 12.944555813095153], [77.72655361489329, 12.94454344076894], [77.72649989302296, 12.94453619825653], [77.72645419131817, 12.94453447521791], [77.72645137875301, 12.944561711615094], [77.72638933073158, 12.944538873767724], [77.72638931701043, 12.944537684436668], [77.72633802375213, 12.944545696536695], [77.7262855654218, 12.944559169568624], [77.72623470608787, 12.944577620941553], [77.7261859355514, 12.944600872960246], [77.72613972349778, 12.944628701696745], [77.72609651497342, 12.94466083914686], [77.7260567260998, 12.944696975811128], [77.72602074006592, 12.944736763675394], [77.72598890343805, 12.944779819562312], [77.72596152282203, 12.944825728821487], [77.72593886191041, 12.944874049322754], [77.72592113894285, 12.944924315714067], [77.72590852460434, 12.944976043903077], [77.72590114038113, 12.945028735719184], [77.72589905739079, 12.94508188371119], [77.72590229569707, 12.945134976034332], [77.72591082411657, 12.945187501379653], [77.72592456051896, 12.94523895389822], [77.72594337261778, 12.94528883807277], [77.72596707924436, 12.945336673489866], [77.72599545209246, 12.945381999466594], [77.72602821791698, 12.945424379487264], [77.72606506116536, 12.945463405407361], [77.72609395628555, 12.94548854678962], [77.72623765739874, 12.945285632933867], [77.72629317981077, 12.945174211134368], [77.72635633480073, 12.944731451568368], [77.72644123350749, 12.944704366156163], [77.72639401358305, 12.94518959702722], [77.7263737301744, 12.945255392361446], [77.72617029024504, 12.94554184168928], [77.72619633174882, 12.945556783019361], [77.7262455970898, 12.945579009317232], [77.7262968463662, 12.94559639233829], [77.72634958601638, 12.94560876467407], [77.72640330812537, 12.94561600717208], [77.72645749531647, 12.94561805008331], [77.72651162573396, 12.94561487373395], [77.72656517806907, 12.945606508714848], [77.72661763658054, 12.945593035586853], [77.72666849606163, 12.94557458410493], [77.72668219868962, 12.945568051172646], [77.72697359836434, 12.944899882538117], [77.72695982746833, 12.944863366519153]]]]}, "properties": {"spine_id": "gba-bda-002", "key": "inlet-1", "kind": "inlet", "label": "Inflow from Thubarahalli Lake (high confidence edge)", "derivation": "cascade edge 14671536 -> 19306126, endpoint nearest the footprint, inset 20 m, 120 m circle", "area_ha": 0.97, "px_10m": 96}}, {"type": "Feature", "geometry": {"type": "MultiPolygon", "coordinates": [[[[77.72700119465044, 12.945021978003293], [77.72681458208258, 12.945484195447367], [77.726846476209, 12.94545522875791], [77.72688246216771, 12.94541544078694], [77.72691429867751, 12.945372384807037], [77.72694167913714, 12.945326475472156], [77.72696433986003, 12.945278154915385], [77.72698206261377, 12.945227888490896], [77.72699467672162, 12.945176160292316], [77.72700206070616, 12.945123468490614], [77.727004143459, 12.945070320536429], [77.72700119465044, 12.945021978003293]]], [[[77.72695982746833, 12.944863366519153], [77.72693612073427, 12.944815531219785], [77.72690774782244, 12.944770205364998], [77.72687498198042, 12.944727825465785], [77.72683813876145, 12.944688799662007], [77.72679757298543, 12.944653503791804], [77.72675367532189, 12.944622277772169], [77.72670686852761, 12.944595422325401], [77.72665760337537, 12.944573196083041], [77.72660635431279, 12.944555813095153], [77.72655361489329, 12.94454344076894], [77.72649989302296, 12.94453619825653], [77.72645419131817, 12.94453447521791], [77.72645137875301, 12.944561711615094], [77.72638933073158, 12.944538873767724], [77.72638931701043, 12.944537684436668], [77.72633802375213, 12.944545696536695], [77.7262855654218, 12.944559169568624], [77.72623470608787, 12.944577620941553], [77.7261859355514, 12.944600872960246], [77.72613972349778, 12.944628701696745], [77.72609651497342, 12.94466083914686], [77.7260567260998, 12.944696975811128], [77.72602074006592, 12.944736763675394], [77.72598890343805, 12.944779819562312], [77.72596152282203, 12.944825728821487], [77.72593886191041, 12.944874049322754], [77.72592113894285, 12.944924315714067], [77.72590852460434, 12.944976043903077], [77.72590114038113, 12.945028735719184], [77.72589905739079, 12.94508188371119], [77.72590229569707, 12.945134976034332], [77.72591082411657, 12.945187501379653], [77.72592456051896, 12.94523895389822], [77.72594337261778, 12.94528883807277], [77.72596707924436, 12.945336673489866], [77.72599545209246, 12.945381999466594], [77.72602821791698, 12.945424379487264], [77.72606506116536, 12.945463405407361], [77.72609395628555, 12.94548854678962], [77.72623765739874, 12.945285632933867], [77.72629317981077, 12.945174211134368], [77.72635633480073, 12.944731451568368], [77.72644123350749, 12.944704366156163], [77.72639401358305, 12.94518959702722], [77.7263737301744, 12.945255392361446], [77.72617029024504, 12.94554184168928], [77.72619633174882, 12.945556783019361], [77.7262455970898, 12.945579009317232], [77.7262968463662, 12.94559639233829], [77.72634958601638, 12.94560876467407], [77.72640330812537, 12.94561600717208], [77.72645749531647, 12.94561805008331], [77.72651162573396, 12.94561487373395], [77.72656517806907, 12.945606508714848], [77.72661763658054, 12.945593035586853], [77.72666849606163, 12.94557458410493], [77.72668219868962, 12.945568051172646], [77.72697359836434, 12.944899882538117], [77.72695982746833, 12.944863366519153]]]]}, "properties": {"spine_id": "gba-bda-002", "key": "inlet-2", "kind": "inlet", "label": "Inflow from Panathuru Kere (medium confidence edge)", "derivation": "cascade edge 17062035 -> 19306126, endpoint nearest the footprint, inset 20 m, 120 m circle", "area_ha": 0.97, "px_10m": 96}}, {"type": "Feature", "geometry": {"type": "MultiPolygon", "coordinates": [[[[77.72700119465044, 12.945021978003293], [77.72681458208258, 12.945484195447367], [77.726846476209, 12.94545522875791], [77.72688246216771, 12.94541544078694], [77.72691429867751, 12.945372384807037], [77.72694167913714, 12.945326475472156], [77.72696433986003, 12.945278154915385], [77.72698206261377, 12.945227888490896], [77.72699467672162, 12.945176160292316], [77.72700206070616, 12.945123468490614], [77.727004143459, 12.945070320536429], [77.72700119465044, 12.945021978003293]]], [[[77.72695982746833, 12.944863366519153], [77.72693612073427, 12.944815531219785], [77.72690774782244, 12.944770205364998], [77.72687498198042, 12.944727825465785], [77.72683813876145, 12.944688799662007], [77.72679757298543, 12.944653503791804], [77.72675367532189, 12.944622277772169], [77.72670686852761, 12.944595422325401], [77.72665760337537, 12.944573196083041], [77.72660635431279, 12.944555813095153], [77.72655361489329, 12.94454344076894], [77.72649989302296, 12.94453619825653], [77.72645419131817, 12.94453447521791], [77.72645137875301, 12.944561711615094], [77.72638933073158, 12.944538873767724], [77.72638931701043, 12.944537684436668], [77.72633802375213, 12.944545696536695], [77.7262855654218, 12.944559169568624], [77.72623470608787, 12.944577620941553], [77.7261859355514, 12.944600872960246], [77.72613972349778, 12.944628701696745], [77.72609651497342, 12.94466083914686], [77.7260567260998, 12.944696975811128], [77.72602074006592, 12.944736763675394], [77.72598890343805, 12.944779819562312], [77.72596152282203, 12.944825728821487], [77.72593886191041, 12.944874049322754], [77.72592113894285, 12.944924315714067], [77.72590852460434, 12.944976043903077], [77.72590114038113, 12.945028735719184], [77.72589905739079, 12.94508188371119], [77.72590229569707, 12.945134976034332], [77.72591082411657, 12.945187501379653], [77.72592456051896, 12.94523895389822], [77.72594337261778, 12.94528883807277], [77.72596707924436, 12.945336673489866], [77.72599545209246, 12.945381999466594], [77.72602821791698, 12.945424379487264], [77.72606506116536, 12.945463405407361], [77.72609395628555, 12.94548854678962], [77.72623765739874, 12.945285632933867], [77.72629317981077, 12.945174211134368], [77.72635633480073, 12.944731451568368], [77.72644123350749, 12.944704366156163], [77.72639401358305, 12.94518959702722], [77.7263737301744, 12.945255392361446], [77.72617029024504, 12.94554184168928], [77.72619633174882, 12.945556783019361], [77.7262455970898, 12.945579009317232], [77.7262968463662, 12.94559639233829], [77.72634958601638, 12.94560876467407], [77.72640330812537, 12.94561600717208], [77.72645749531647, 12.94561805008331], [77.72651162573396, 12.94561487373395], [77.72656517806907, 12.945606508714848], [77.72661763658054, 12.945593035586853], [77.72666849606163, 12.94557458410493], [77.72668219868962, 12.945568051172646], [77.72697359836434, 12.944899882538117], [77.72695982746833, 12.944863366519153]]]]}, "properties": {"spine_id": "gba-bda-002", "key": "inlet-3", "kind": "inlet", "label": "Inflow from Munekolala Lake (high confidence edge)", "derivation": "cascade edge 18077306 -> 19306126, endpoint nearest the footprint, inset 20 m, 120 m circle", "area_ha": 0.97, "px_10m": 96}}, {"type": "Feature", "geometry": {"type": "MultiPolygon", "coordinates": [[[[77.72700119465044, 12.945021978003293], [77.72681458208258, 12.945484195447367], [77.726846476209, 12.94545522875791], [77.72688246216771, 12.94541544078694], [77.72691429867751, 12.945372384807037], [77.72694167913714, 12.945326475472156], [77.72696433986003, 12.945278154915385], [77.72698206261377, 12.945227888490896], [77.72699467672162, 12.945176160292316], [77.72700206070616, 12.945123468490614], [77.727004143459, 12.945070320536429], [77.72700119465044, 12.945021978003293]]], [[[77.72695982746833, 12.944863366519153], [77.72693612073427, 12.944815531219785], [77.72690774782244, 12.944770205364998], [77.72687498198042, 12.944727825465785], [77.72683813876145, 12.944688799662007], [77.72679757298543, 12.944653503791804], [77.72675367532189, 12.944622277772169], [77.72670686852761, 12.944595422325401], [77.72665760337537, 12.944573196083041], [77.72660635431279, 12.944555813095153], [77.72655361489329, 12.94454344076894], [77.72649989302296, 12.94453619825653], [77.72645419131817, 12.94453447521791], [77.72645137875301, 12.944561711615094], [77.72638933073158, 12.944538873767724], [77.72638931701043, 12.944537684436668], [77.72633802375213, 12.944545696536695], [77.7262855654218, 12.944559169568624], [77.72623470608787, 12.944577620941553], [77.7261859355514, 12.944600872960246], [77.72613972349778, 12.944628701696745], [77.72609651497342, 12.94466083914686], [77.7260567260998, 12.944696975811128], [77.72602074006592, 12.944736763675394], [77.72598890343805, 12.944779819562312], [77.72596152282203, 12.944825728821487], [77.72593886191041, 12.944874049322754], [77.72592113894285, 12.944924315714067], [77.72590852460434, 12.944976043903077], [77.72590114038113, 12.945028735719184], [77.72589905739079, 12.94508188371119], [77.72590229569707, 12.945134976034332], [77.72591082411657, 12.945187501379653], [77.72592456051896, 12.94523895389822], [77.72594337261778, 12.94528883807277], [77.72596707924436, 12.945336673489866], [77.72599545209246, 12.945381999466594], [77.72602821791698, 12.945424379487264], [77.72606506116536, 12.945463405407361], [77.72609395628555, 12.94548854678962], [77.72623765739874, 12.945285632933867], [77.72629317981077, 12.945174211134368], [77.72635633480073, 12.944731451568368], [77.72644123350749, 12.944704366156163], [77.72639401358305, 12.94518959702722], [77.7263737301744, 12.945255392361446], [77.72617029024504, 12.94554184168928], [77.72619633174882, 12.945556783019361], [77.7262455970898, 12.945579009317232], [77.7262968463662, 12.94559639233829], [77.72634958601638, 12.94560876467407], [77.72640330812537, 12.94561600717208], [77.72645749531647, 12.94561805008331], [77.72651162573396, 12.94561487373395], [77.72656517806907, 12.945606508714848], [77.72661763658054, 12.945593035586853], [77.72666849606163, 12.94557458410493], [77.72668219868962, 12.945568051172646], [77.72697359836434, 12.944899882538117], [77.72695982746833, 12.944863366519153]]]]}, "properties": {"spine_id": "gba-bda-002", "key": "inlet-4", "kind": "inlet", "label": "Inflow from Sheelavathana Kere (low confidence edge)", "derivation": "cascade edge 45860708 -> 19306126, endpoint nearest the footprint, inset 20 m, 120 m circle", "area_ha": 0.97, "px_10m": 96}}, {"type": "Feature", "geometry": {"type": "MultiPolygon", "coordinates": [[[[77.72700119465044, 12.945021978003293], [77.72681458208258, 12.945484195447367], [77.726846476209, 12.94545522875791], [77.72688246216771, 12.94541544078694], [77.72691429867751, 12.945372384807037], [77.72694167913714, 12.945326475472156], [77.72696433986003, 12.945278154915385], [77.72698206261377, 12.945227888490896], [77.72699467672162, 12.945176160292316], [77.72700206070616, 12.945123468490614], [77.727004143459, 12.945070320536429], [77.72700119465044, 12.945021978003293]]], [[[77.72695982746833, 12.944863366519153], [77.72693612073427, 12.944815531219785], [77.72690774782244, 12.944770205364998], [77.72687498198042, 12.944727825465785], [77.72683813876145, 12.944688799662007], [77.72679757298543, 12.944653503791804], [77.72675367532189, 12.944622277772169], [77.72670686852761, 12.944595422325401], [77.72665760337537, 12.944573196083041], [77.72660635431279, 12.944555813095153], [77.72655361489329, 12.94454344076894], [77.72649989302296, 12.94453619825653], [77.72645419131817, 12.94453447521791], [77.72645137875301, 12.944561711615094], [77.72638933073158, 12.944538873767724], [77.72638931701043, 12.944537684436668], [77.72633802375213, 12.944545696536695], [77.7262855654218, 12.944559169568624], [77.72623470608787, 12.944577620941553], [77.7261859355514, 12.944600872960246], [77.72613972349778, 12.944628701696745], [77.72609651497342, 12.94466083914686], [77.7260567260998, 12.944696975811128], [77.72602074006592, 12.944736763675394], [77.72598890343805, 12.944779819562312], [77.72596152282203, 12.944825728821487], [77.72593886191041, 12.944874049322754], [77.72592113894285, 12.944924315714067], [77.72590852460434, 12.944976043903077], [77.72590114038113, 12.945028735719184], [77.72589905739079, 12.94508188371119], [77.72590229569707, 12.945134976034332], [77.72591082411657, 12.945187501379653], [77.72592456051896, 12.94523895389822], [77.72594337261778, 12.94528883807277], [77.72596707924436, 12.945336673489866], [77.72599545209246, 12.945381999466594], [77.72602821791698, 12.945424379487264], [77.72606506116536, 12.945463405407361], [77.72609395628555, 12.94548854678962], [77.72623765739874, 12.945285632933867], [77.72629317981077, 12.945174211134368], [77.72635633480073, 12.944731451568368], [77.72644123350749, 12.944704366156163], [77.72639401358305, 12.94518959702722], [77.7263737301744, 12.945255392361446], [77.72617029024504, 12.94554184168928], [77.72619633174882, 12.945556783019361], [77.7262455970898, 12.945579009317232], [77.7262968463662, 12.94559639233829], [77.72634958601638, 12.94560876467407], [77.72640330812537, 12.94561600717208], [77.72645749531647, 12.94561805008331], [77.72651162573396, 12.94561487373395], [77.72656517806907, 12.945606508714848], [77.72661763658054, 12.945593035586853], [77.72666849606163, 12.94557458410493], [77.72668219868962, 12.945568051172646], [77.72697359836434, 12.944899882538117], [77.72695982746833, 12.944863366519153]]]]}, "properties": {"spine_id": "gba-bda-002", "key": "inlet-5", "kind": "inlet", "label": "Inflow from Kundalahalli Lake (high confidence edge)", "derivation": "cascade edge 120904870 -> 19306126, endpoint nearest the footprint, inset 20 m, 120 m circle", "area_ha": 0.97, "px_10m": 96}}, {"type": "Feature", "geometry": {"type": "Polygon", "coordinates": [[[77.61119522160142, 13.085892502388642], [77.61119199960645, 13.085839404767066], [77.6111834838483, 13.08578687240066], [77.61116975634138, 13.085735411203716], [77.61115094929178, 13.085685516774316], [77.61112724382384, 13.085637669621537], [77.61109886823574, 13.085592330537924], [77.6110660958009, 13.085549936161877], [77.61102924213606, 13.085510894772655], [77.61098866216177, 13.085475582358486], [77.61094474668431, 13.085444338995668], [77.61089791863206, 13.085417465573496], [77.61084862898251, 13.08539522089659], [77.61079735241921, 13.085377819192521], [77.61074458276042, 13.085365428048705], [77.61069082820342, 13.085358166798448], [77.61063660643053, 13.08535610537174], [77.61058243962364, 13.085359263621758], [77.61052884943535, 13.085367611133657], [77.61047635196545, 13.08538106751746], [77.6104254527906, 13.085399503182206], [77.6103766420955, 13.085422740583912], [77.61033038995225, 13.085450555935399], [77.61028714179331, 13.085482681361375], [77.61024731412178, 13.085518807478195], [77.61021129050032, 13.085558586373297], [77.61017941785713, 13.085601634955722], [77.61015200314488, 13.085647538645464], [77.6101293103845, 13.085695855366014], [77.61011155812236, 13.085746119801781], [77.61009891732556, 13.08579784787927], [77.61009150973523, 13.085850541429005], [77.61008940669397, 13.085903692983113], [77.61009262845869, 13.08595679066256], [77.61010114400534, 13.086009323106843], [77.6101148713276, 13.086060784398674], [77.6101336782265, 13.086110678936322], [77.61015738358351, 13.086158526206553], [77.61018575910467, 13.086203865412305], [77.61021853151917, 13.086246259910489], [77.61025538521102, 13.086285301417147], [77.61029596525866, 13.086320613939543], [77.61033988085298, 13.086351857397217], [77.6103867090611, 13.08637873089723], [77.61043599889956, 13.086400975631967], [77.61048727567753, 13.086418377371638], [77.61054004556853, 13.086430768527464], [77.6105938003663, 13.086438029765663], [77.61064802237931, 13.086440091156724], [77.61070218941647, 13.086436932848835], [77.61075577981626, 13.086428585259059], [77.61080827747082, 13.086415128780367], [77.61085917679637, 13.086396693007377], [77.61090798760242, 13.086373455488216], [77.61095423981259, 13.08634564001459], [77.61099748799188, 13.086313514466475], [77.61103731563638, 13.086277388232219], [77.6110733391845, 13.086237609228894], [77.61110521171084, 13.08619456055161], [77.6111326262672, 13.086148656784031], [77.6111553188387, 13.086100340005643], [77.61117307088615, 13.086050075534278], [77.61118571145076, 13.08599834744478], [77.6111931188003, 13.085945653907102], [77.61119522160142, 13.085892502388642]]]}, "properties": {"spine_id": "gba-bbmp-155", "key": "outflow", "kind": "outflow", "label": "Outflow toward Rachenahalli Lake", "derivation": "cascade edge 9321012 -> 6041559, endpoint nearest the footprint, inset 20 m, 120 m circle", "area_ha": 1.129, "px_10m": 112}}, {"type": "Feature", "geometry": {"type": "Polygon", "coordinates": [[[77.61119199960645, 13.085839404767066], [77.6111834838483, 13.08578687240066], [77.61116975634138, 13.085735411203716], [77.61115094929178, 13.085685516774316], [77.61112724382384, 13.085637669621537], [77.61109886823574, 13.085592330537924], [77.6110660958009, 13.085549936161877], [77.61102924213606, 13.085510894772655], [77.61098866216177, 13.085475582358486], [77.61094474668431, 13.085444338995668], [77.61089791863206, 13.085417465573496], [77.61084862898251, 13.08539522089659], [77.61079735241921, 13.085377819192521], [77.61074458276042, 13.085365428048705], [77.61069082820342, 13.085358166798448], [77.61063660643053, 13.08535610537174], [77.61058243962364, 13.085359263621758], [77.61052884943535, 13.085367611133657], [77.61047635196545, 13.08538106751746], [77.6104254527906, 13.085399503182206], [77.6103766420955, 13.085422740583912], [77.61033038995225, 13.085450555935399], [77.61028714179331, 13.085482681361375], [77.61024731412178, 13.085518807478195], [77.61021129050032, 13.085558586373297], [77.61017941785713, 13.085601634955722], [77.61015200314488, 13.085647538645464], [77.6101293103845, 13.085695855366014], [77.61011155812236, 13.085746119801781], [77.61009891732556, 13.08579784787927], [77.61009150973523, 13.085850541429005], [77.61008940669397, 13.085903692983113], [77.61009262845869, 13.08595679066256], [77.61010114400534, 13.086009323106843], [77.6101148713276, 13.086060784398674], [77.6101336782265, 13.086110678936322], [77.61015738358351, 13.086158526206553], [77.61018575910467, 13.086203865412305], [77.61021853151917, 13.086246259910489], [77.61025538521102, 13.086285301417147], [77.61029596525866, 13.086320613939543], [77.61033988085298, 13.086351857397217], [77.6103867090611, 13.08637873089723], [77.61043599889956, 13.086400975631967], [77.61048727567753, 13.086418377371638], [77.61054004556853, 13.086430768527464], [77.6105938003663, 13.086438029765663], [77.61064802237931, 13.086440091156724], [77.61070218941647, 13.086436932848835], [77.61075577981626, 13.086428585259059], [77.61080827747082, 13.086415128780367], [77.61085917679637, 13.086396693007377], [77.61090798760242, 13.086373455488216], [77.61095423981259, 13.08634564001459], [77.61099748799188, 13.086313514466475], [77.61103731563638, 13.086277388232219], [77.6110733391845, 13.086237609228894], [77.61110521171084, 13.08619456055161], [77.6111326262672, 13.086148656784031], [77.6111553188387, 13.086100340005643], [77.61117307088615, 13.086050075534278], [77.61118571145076, 13.08599834744478], [77.6111931188003, 13.085945653907102], [77.61119522160142, 13.085892502388642], [77.61119199960645, 13.085839404767066]]]}, "properties": {"spine_id": "gba-bbmp-155", "key": "inlet-1", "kind": "inlet", "label": "Inflow from Agrahara Lake (high confidence edge)", "derivation": "cascade edge 15989383 -> 9321012, endpoint nearest the footprint, inset 20 m, 120 m circle", "area_ha": 1.129, "px_10m": 112}}, {"type": "Feature", "geometry": {"type": "Polygon", "coordinates": [[[77.61119199960645, 13.085839404767066], [77.6111834838483, 13.08578687240066], [77.61116975634138, 13.085735411203716], [77.61115094929178, 13.085685516774316], [77.61112724382384, 13.085637669621537], [77.61109886823574, 13.085592330537924], [77.6110660958009, 13.085549936161877], [77.61102924213606, 13.085510894772655], [77.61098866216177, 13.085475582358486], [77.61094474668431, 13.085444338995668], [77.61089791863206, 13.085417465573496], [77.61084862898251, 13.08539522089659], [77.61079735241921, 13.085377819192521], [77.61074458276042, 13.085365428048705], [77.61069082820342, 13.085358166798448], [77.61063660643053, 13.08535610537174], [77.61058243962364, 13.085359263621758], [77.61052884943535, 13.085367611133657], [77.61047635196545, 13.08538106751746], [77.6104254527906, 13.085399503182206], [77.6103766420955, 13.085422740583912], [77.61033038995225, 13.085450555935399], [77.61028714179331, 13.085482681361375], [77.61024731412178, 13.085518807478195], [77.61021129050032, 13.085558586373297], [77.61017941785713, 13.085601634955722], [77.61015200314488, 13.085647538645464], [77.6101293103845, 13.085695855366014], [77.61011155812236, 13.085746119801781], [77.61009891732556, 13.08579784787927], [77.61009150973523, 13.085850541429005], [77.61008940669397, 13.085903692983113], [77.61009262845869, 13.08595679066256], [77.61010114400534, 13.086009323106843], [77.6101148713276, 13.086060784398674], [77.6101336782265, 13.086110678936322], [77.61015738358351, 13.086158526206553], [77.61018575910467, 13.086203865412305], [77.61021853151917, 13.086246259910489], [77.61025538521102, 13.086285301417147], [77.61029596525866, 13.086320613939543], [77.61033988085298, 13.086351857397217], [77.6103867090611, 13.08637873089723], [77.61043599889956, 13.086400975631967], [77.61048727567753, 13.086418377371638], [77.61054004556853, 13.086430768527464], [77.6105938003663, 13.086438029765663], [77.61064802237931, 13.086440091156724], [77.61070218941647, 13.086436932848835], [77.61075577981626, 13.086428585259059], [77.61080827747082, 13.086415128780367], [77.61085917679637, 13.086396693007377], [77.61090798760242, 13.086373455488216], [77.61095423981259, 13.08634564001459], [77.61099748799188, 13.086313514466475], [77.61103731563638, 13.086277388232219], [77.6110733391845, 13.086237609228894], [77.61110521171084, 13.08619456055161], [77.6111326262672, 13.086148656784031], [77.6111553188387, 13.086100340005643], [77.61117307088615, 13.086050075534278], [77.61118571145076, 13.08599834744478], [77.6111931188003, 13.085945653907102], [77.61119522160142, 13.085892502388642], [77.61119199960645, 13.085839404767066]]]}, "properties": {"spine_id": "gba-bbmp-155", "key": "inlet-2", "kind": "inlet", "label": "Inflow from Allalasandra Lake (high confidence edge)", "derivation": "cascade edge 16048376 -> 9321012, endpoint nearest the footprint, inset 20 m, 120 m circle", "area_ha": 1.129, "px_10m": 112}}, {"type": "Feature", "geometry": {"type": "Polygon", "coordinates": [[[77.61119199960645, 13.085839404767066], [77.6111834838483, 13.08578687240066], [77.61116975634138, 13.085735411203716], [77.61115094929178, 13.085685516774316], [77.61112724382384, 13.085637669621537], [77.61109886823574, 13.085592330537924], [77.6110660958009, 13.085549936161877], [77.61102924213606, 13.085510894772655], [77.61098866216177, 13.085475582358486], [77.61094474668431, 13.085444338995668], [77.61089791863206, 13.085417465573496], [77.61084862898251, 13.08539522089659], [77.61079735241921, 13.085377819192521], [77.61074458276042, 13.085365428048705], [77.61069082820342, 13.085358166798448], [77.61063660643053, 13.08535610537174], [77.61058243962364, 13.085359263621758], [77.61052884943535, 13.085367611133657], [77.61047635196545, 13.08538106751746], [77.6104254527906, 13.085399503182206], [77.6103766420955, 13.085422740583912], [77.61033038995225, 13.085450555935399], [77.61028714179331, 13.085482681361375], [77.61024731412178, 13.085518807478195], [77.61021129050032, 13.085558586373297], [77.61017941785713, 13.085601634955722], [77.61015200314488, 13.085647538645464], [77.6101293103845, 13.085695855366014], [77.61011155812236, 13.085746119801781], [77.61009891732556, 13.08579784787927], [77.61009150973523, 13.085850541429005], [77.61008940669397, 13.085903692983113], [77.61009262845869, 13.08595679066256], [77.61010114400534, 13.086009323106843], [77.6101148713276, 13.086060784398674], [77.6101336782265, 13.086110678936322], [77.61015738358351, 13.086158526206553], [77.61018575910467, 13.086203865412305], [77.61021853151917, 13.086246259910489], [77.61025538521102, 13.086285301417147], [77.61029596525866, 13.086320613939543], [77.61033988085298, 13.086351857397217], [77.6103867090611, 13.08637873089723], [77.61043599889956, 13.086400975631967], [77.61048727567753, 13.086418377371638], [77.61054004556853, 13.086430768527464], [77.6105938003663, 13.086438029765663], [77.61064802237931, 13.086440091156724], [77.61070218941647, 13.086436932848835], [77.61075577981626, 13.086428585259059], [77.61080827747082, 13.086415128780367], [77.61085917679637, 13.086396693007377], [77.61090798760242, 13.086373455488216], [77.61095423981259, 13.08634564001459], [77.61099748799188, 13.086313514466475], [77.61103731563638, 13.086277388232219], [77.6110733391845, 13.086237609228894], [77.61110521171084, 13.08619456055161], [77.6111326262672, 13.086148656784031], [77.6111553188387, 13.086100340005643], [77.61117307088615, 13.086050075534278], [77.61118571145076, 13.08599834744478], [77.6111931188003, 13.085945653907102], [77.61119522160142, 13.085892502388642], [77.61119199960645, 13.085839404767066]]]}, "properties": {"spine_id": "gba-bbmp-155", "key": "inlet-3", "kind": "inlet", "label": "Inflow from Allalasandra Lake (high confidence edge)", "derivation": "cascade edge 41206188 -> 9321012, endpoint nearest the footprint, inset 20 m, 120 m circle", "area_ha": 1.129, "px_10m": 112}}, {"type": "Feature", "geometry": {"type": "Polygon", "coordinates": [[[77.61119199960645, 13.085839404767066], [77.6111834838483, 13.08578687240066], [77.61116975634138, 13.085735411203716], [77.61115094929178, 13.085685516774316], [77.61112724382384, 13.085637669621537], [77.61109886823574, 13.085592330537924], [77.6110660958009, 13.085549936161877], [77.61102924213606, 13.085510894772655], [77.61098866216177, 13.085475582358486], [77.61094474668431, 13.085444338995668], [77.61089791863206, 13.085417465573496], [77.61084862898251, 13.08539522089659], [77.61079735241921, 13.085377819192521], [77.61074458276042, 13.085365428048705], [77.61069082820342, 13.085358166798448], [77.61063660643053, 13.08535610537174], [77.61058243962364, 13.085359263621758], [77.61052884943535, 13.085367611133657], [77.61047635196545, 13.08538106751746], [77.6104254527906, 13.085399503182206], [77.6103766420955, 13.085422740583912], [77.61033038995225, 13.085450555935399], [77.61028714179331, 13.085482681361375], [77.61024731412178, 13.085518807478195], [77.61021129050032, 13.085558586373297], [77.61017941785713, 13.085601634955722], [77.61015200314488, 13.085647538645464], [77.6101293103845, 13.085695855366014], [77.61011155812236, 13.085746119801781], [77.61009891732556, 13.08579784787927], [77.61009150973523, 13.085850541429005], [77.61008940669397, 13.085903692983113], [77.61009262845869, 13.08595679066256], [77.61010114400534, 13.086009323106843], [77.6101148713276, 13.086060784398674], [77.6101336782265, 13.086110678936322], [77.61015738358351, 13.086158526206553], [77.61018575910467, 13.086203865412305], [77.61021853151917, 13.086246259910489], [77.61025538521102, 13.086285301417147], [77.61029596525866, 13.086320613939543], [77.61033988085298, 13.086351857397217], [77.6103867090611, 13.08637873089723], [77.61043599889956, 13.086400975631967], [77.61048727567753, 13.086418377371638], [77.61054004556853, 13.086430768527464], [77.6105938003663, 13.086438029765663], [77.61064802237931, 13.086440091156724], [77.61070218941647, 13.086436932848835], [77.61075577981626, 13.086428585259059], [77.61080827747082, 13.086415128780367], [77.61085917679637, 13.086396693007377], [77.61090798760242, 13.086373455488216], [77.61095423981259, 13.08634564001459], [77.61099748799188, 13.086313514466475], [77.61103731563638, 13.086277388232219], [77.6110733391845, 13.086237609228894], [77.61110521171084, 13.08619456055161], [77.6111326262672, 13.086148656784031], [77.6111553188387, 13.086100340005643], [77.61117307088615, 13.086050075534278], [77.61118571145076, 13.08599834744478], [77.6111931188003, 13.085945653907102], [77.61119522160142, 13.085892502388642], [77.61119199960645, 13.085839404767066]]]}, "properties": {"spine_id": "gba-bbmp-155", "key": "inlet-4", "kind": "inlet", "label": "Inflow from Kogilu Lake (medium confidence edge)", "derivation": "cascade edge 41667656 -> 9321012, endpoint nearest the footprint, inset 20 m, 120 m circle", "area_ha": 1.129, "px_10m": 112}}]}