{
  "nvdm": "1.0",
  "dataset": "atlas/water-bodies",
  "scope": {
    "kind": "district",
    "id": "tn-thanjavur"
  },
  "provenance": {
    "sources": [
      {
        "id": "tngis-generic-viewer-water-bodies",
        "title": "TNGIS generic viewer: all water bodies (WFS layer generic_viewer:all_water_bodies)",
        "publisher": "Tamil Nadu e-Governance Agency (TNGIS)",
        "license": "LICENCE UNVERIFIED - see notes. TNGIS/TNeGA terms restrict public display, redistribution and commercial use to prior approval; the reuse confirmation requested 2026-07-27 has no reply. Only derived counts, areas, centroids and digests are published; cited with attribution.",
        "role": "asserts",
        "url": "https://tngis.tn.gov.in/tngismaps/ows",
        "retrieved": "2026-08-31"
      }
    ],
    "method": "api",
    "produced_at": "2026-08-31",
    "produced_by": "scripts/atlas-water-bodies-tn-district.ts",
    "internal_inputs": [
      "public/data/atlas/tn/thanjavur/directory.json"
    ],
    "note": "TNGIS all-water-bodies register for THIRUVIDAIMARUDUR block: 47 Gram Panchayats with 246 water bodies between them, rolled up per Panchayat (count, named count, summed and largest waterspread computed from the geometry, contributing departments, a digest of the sorted names). Geometry is null and names are withheld: TNGIS terms require prior approval for public display or redistribution and the confirmation requested on 2026-07-27 has no reply. A Panchayat absent here has no water body in the register.",
    "conventions": {
      "geometry": "null by rule until TNGIS/TNeGA approval is recorded; areas are hectares computed from the withheld polygons",
      "join": "panchayat_lgdvcode is the LGD Gram Panchayat code; features with code 0 (towns, corporations) are dropped, never pooled",
      "vintage": "the layer merges five departments' registers and carries no survey date"
    }
  },
  "ext": {
    "atlas": {
      "schemaVersion": 1,
      "planId": "tn-thanjavur-v1",
      "blockCode": "6638",
      "blockName": "THIRUVIDAIMARUDUR",
      "districtLgdCode": "540",
      "acquiredAt": "2026-08-31",
      "layer": "generic_viewer:all_water_bodies",
      "sourceUrl": "https://tngis.tn.gov.in/tngismaps/ows?service=WFS&version=2.0.0&request=GetFeature&typeNames=generic_viewer%3Aall_water_bodies&CQL_FILTER=rd_lgddcod%3D540&outputFormat=application%2Fjson",
      "rights": {
        "status": "permission-required",
        "termsUrl": "https://tngis.tn.gov.in/user.html",
        "termsQuote": "GIS based data available in TNGIS should be used for informational purpose only and Not for legal use/not to be shared / published in the public media in any form or in the social media without any prior approval / permission from TNGIS/TNeGA.",
        "approval": null
      },
      "contributingDepartments": [
        "AED",
        "DOSS",
        "NRSC",
        "TNRD",
        "WRD"
      ],
      "snapshotSha256": "6755839907a65627e949b05c27819b0cdc7ec0a00a8b4ad0fe71fc5563ce730a",
      "featureCount": 246,
      "recordCount": 47,
      "recordsSha256": "82d44441a07fdddef36090c1a8bffd7d816dd2b2ad9d7e44e0b7535098a33653"
    }
  },
  "type": "FeatureCollection",
  "features": [
    {
      "type": "Feature",
      "geometry": null,
      "properties": {
        "lgdGramPanchayatCode": "228912",
        "count": 8,
        "namedCount": 5,
        "areaHectares": 4.6615,
        "largestAreaHectares": 1.7359,
        "byDepartment": [
          {
            "department": "NRSC",
            "count": 5
          },
          {
            "department": "AED",
            "count": 3
          }
        ],
        "namesSha256": "7b2df4fe18d707b8dc0a0c1e86a2029f368f79e7eefa55ff964cdb7a6e3134a6",
        "lgdBlockCode": "6638"
      }
    },
    {
      "type": "Feature",
      "geometry": null,
      "properties": {
        "lgdGramPanchayatCode": "228913",
        "count": 1,
        "namedCount": 1,
        "areaHectares": 0.2792,
        "largestAreaHectares": 0.2792,
        "byDepartment": [
          {
            "department": "NRSC",
            "count": 1
          }
        ],
        "namesSha256": "06a9aeb76ef895ce4eaf5442da73c40af2f7a587e7307198f3ef76e17388d89c",
        "lgdBlockCode": "6638"
      }
    },
    {
      "type": "Feature",
      "geometry": null,
      "properties": {
        "lgdGramPanchayatCode": "228914",
        "count": 1,
        "namedCount": 0,
        "areaHectares": 0.3398,
        "largestAreaHectares": 0.3398,
        "byDepartment": [
          {
            "department": "AED",
            "count": 1
          }
        ],
        "namesSha256": "4f53cda18c2baa0c0354bb5f9a3ecbe5ed12ab4d8e11ba873c2f11161202b945",
        "lgdBlockCode": "6638"
      }
    },
    {
      "type": "Feature",
      "geometry": null,
      "properties": {
        "lgdGramPanchayatCode": "228915",
        "count": 6,
        "namedCount": 5,
        "areaHectares": 1.7055,
        "largestAreaHectares": 0.437,
        "byDepartment": [
          {
            "department": "NRSC",
            "count": 5
          },
          {
            "department": "AED",
            "count": 1
          }
        ],
        "namesSha256": "7b2df4fe18d707b8dc0a0c1e86a2029f368f79e7eefa55ff964cdb7a6e3134a6",
        "lgdBlockCode": "6638"
      }
    },
    {
      "type": "Feature",
      "geometry": null,
      "properties": {
        "lgdGramPanchayatCode": "228916",
        "count": 3,
        "namedCount": 1,
        "areaHectares": 1.1473,
        "largestAreaHectares": 0.9105,
        "byDepartment": [
          {
            "department": "AED",
            "count": 2
          },
          {
            "department": "NRSC",
            "count": 1
          }
        ],
        "namesSha256": "06a9aeb76ef895ce4eaf5442da73c40af2f7a587e7307198f3ef76e17388d89c",
        "lgdBlockCode": "6638"
      }
    },
    {
      "type": "Feature",
      "geometry": null,
      "properties": {
        "lgdGramPanchayatCode": "228917",
        "count": 3,
        "namedCount": 2,
        "areaHectares": 1.3168,
        "largestAreaHectares": 0.8678,
        "byDepartment": [
          {
            "department": "NRSC",
            "count": 2
          },
          {
            "department": "AED",
            "count": 1
          }
        ],
        "namesSha256": "54459dbe127d5cada5edca98dcd9cc943ceccfc1e627fbdb2f5152dc5d5c98e6",
        "lgdBlockCode": "6638"
      }
    },
    {
      "type": "Feature",
      "geometry": null,
      "properties": {
        "lgdGramPanchayatCode": "228918",
        "count": 9,
        "namedCount": 7,
        "areaHectares": 3.7459,
        "largestAreaHectares": 0.8196,
        "byDepartment": [
          {
            "department": "NRSC",
            "count": 7
          },
          {
            "department": "AED",
            "count": 2
          }
        ],
        "namesSha256": "b2b0de99c0ff2353f7b2f92e63edb137857576456c1e5a22e624ef8f18d745b5",
        "lgdBlockCode": "6638"
      }
    },
    {
      "type": "Feature",
      "geometry": null,
      "properties": {
        "lgdGramPanchayatCode": "228919",
        "count": 4,
        "namedCount": 4,
        "areaHectares": 0.5464,
        "largestAreaHectares": 0.2732,
        "byDepartment": [
          {
            "department": "NRSC",
            "count": 4
          }
        ],
        "namesSha256": "3c286f9b4d57446613534121f26f9e032e291835f3d12dc06ec242dd9916d2e4",
        "lgdBlockCode": "6638"
      }
    },
    {
      "type": "Feature",
      "geometry": null,
      "properties": {
        "lgdGramPanchayatCode": "228920",
        "count": 3,
        "namedCount": 2,
        "areaHectares": 0.5828,
        "largestAreaHectares": 0.255,
        "byDepartment": [
          {
            "department": "NRSC",
            "count": 2
          },
          {
            "department": "AED",
            "count": 1
          }
        ],
        "namesSha256": "54459dbe127d5cada5edca98dcd9cc943ceccfc1e627fbdb2f5152dc5d5c98e6",
        "lgdBlockCode": "6638"
      }
    },
    {
      "type": "Feature",
      "geometry": null,
      "properties": {
        "lgdGramPanchayatCode": "228921",
        "count": 3,
        "namedCount": 3,
        "areaHectares": 12.4928,
        "largestAreaHectares": 7.3028,
        "byDepartment": [
          {
            "department": "NRSC",
            "count": 3
          }
        ],
        "namesSha256": "59b6ee0dfb3935b71bcb3376277ffc610803726e03f3000364bc89212086ab35",
        "lgdBlockCode": "6638"
      }
    },
    {
      "type": "Feature",
      "geometry": null,
      "properties": {
        "lgdGramPanchayatCode": "228922",
        "count": 5,
        "namedCount": 4,
        "areaHectares": 2.8834,
        "largestAreaHectares": 1.4083,
        "byDepartment": [
          {
            "department": "NRSC",
            "count": 4
          },
          {
            "department": "AED",
            "count": 1
          }
        ],
        "namesSha256": "3c286f9b4d57446613534121f26f9e032e291835f3d12dc06ec242dd9916d2e4",
        "lgdBlockCode": "6638"
      }
    },
    {
      "type": "Feature",
      "geometry": null,
      "properties": {
        "lgdGramPanchayatCode": "228923",
        "count": 1,
        "namedCount": 1,
        "areaHectares": 0.3339,
        "largestAreaHectares": 0.3339,
        "byDepartment": [
          {
            "department": "NRSC",
            "count": 1
          }
        ],
        "namesSha256": "06a9aeb76ef895ce4eaf5442da73c40af2f7a587e7307198f3ef76e17388d89c",
        "lgdBlockCode": "6638"
      }
    },
    {
      "type": "Feature",
      "geometry": null,
      "properties": {
        "lgdGramPanchayatCode": "228924",
        "count": 1,
        "namedCount": 1,
        "areaHectares": 0.0486,
        "largestAreaHectares": 0.0486,
        "byDepartment": [
          {
            "department": "NRSC",
            "count": 1
          }
        ],
        "namesSha256": "06a9aeb76ef895ce4eaf5442da73c40af2f7a587e7307198f3ef76e17388d89c",
        "lgdBlockCode": "6638"
      }
    },
    {
      "type": "Feature",
      "geometry": null,
      "properties": {
        "lgdGramPanchayatCode": "228925",
        "count": 3,
        "namedCount": 2,
        "areaHectares": 2.2578,
        "largestAreaHectares": 0.9711,
        "byDepartment": [
          {
            "department": "NRSC",
            "count": 2
          },
          {
            "department": "AED",
            "count": 1
          }
        ],
        "namesSha256": "54459dbe127d5cada5edca98dcd9cc943ceccfc1e627fbdb2f5152dc5d5c98e6",
        "lgdBlockCode": "6638"
      }
    },
    {
      "type": "Feature",
      "geometry": null,
      "properties": {
        "lgdGramPanchayatCode": "228926",
        "count": 4,
        "namedCount": 4,
        "areaHectares": 0.8193,
        "largestAreaHectares": 0.267,
        "byDepartment": [
          {
            "department": "NRSC",
            "count": 4
          }
        ],
        "namesSha256": "3c286f9b4d57446613534121f26f9e032e291835f3d12dc06ec242dd9916d2e4",
        "lgdBlockCode": "6638"
      }
    },
    {
      "type": "Feature",
      "geometry": null,
      "properties": {
        "lgdGramPanchayatCode": "228927",
        "count": 6,
        "namedCount": 4,
        "areaHectares": 2.482,
        "largestAreaHectares": 0.7767,
        "byDepartment": [
          {
            "department": "NRSC",
            "count": 4
          },
          {
            "department": "AED",
            "count": 2
          }
        ],
        "namesSha256": "3c286f9b4d57446613534121f26f9e032e291835f3d12dc06ec242dd9916d2e4",
        "lgdBlockCode": "6638"
      }
    },
    {
      "type": "Feature",
      "geometry": null,
      "properties": {
        "lgdGramPanchayatCode": "228928",
        "count": 2,
        "namedCount": 2,
        "areaHectares": 3.5391,
        "largestAreaHectares": 3.0656,
        "byDepartment": [
          {
            "department": "NRSC",
            "count": 2
          }
        ],
        "namesSha256": "54459dbe127d5cada5edca98dcd9cc943ceccfc1e627fbdb2f5152dc5d5c98e6",
        "lgdBlockCode": "6638"
      }
    },
    {
      "type": "Feature",
      "geometry": null,
      "properties": {
        "lgdGramPanchayatCode": "228929",
        "count": 3,
        "namedCount": 2,
        "areaHectares": 4.8124,
        "largestAreaHectares": 3.4287,
        "byDepartment": [
          {
            "department": "NRSC",
            "count": 2
          },
          {
            "department": "AED",
            "count": 1
          }
        ],
        "namesSha256": "54459dbe127d5cada5edca98dcd9cc943ceccfc1e627fbdb2f5152dc5d5c98e6",
        "lgdBlockCode": "6638"
      }
    },
    {
      "type": "Feature",
      "geometry": null,
      "properties": {
        "lgdGramPanchayatCode": "228930",
        "count": 8,
        "namedCount": 6,
        "areaHectares": 2.1003,
        "largestAreaHectares": 0.9834,
        "byDepartment": [
          {
            "department": "NRSC",
            "count": 6
          },
          {
            "department": "AED",
            "count": 2
          }
        ],
        "namesSha256": "b93be6cec7e0cb6f0463b631bf330289a6a40e7298358834dbb2fe060656737d",
        "lgdBlockCode": "6638"
      }
    },
    {
      "type": "Feature",
      "geometry": null,
      "properties": {
        "lgdGramPanchayatCode": "228931",
        "count": 7,
        "namedCount": 7,
        "areaHectares": 1.6877,
        "largestAreaHectares": 0.7467,
        "byDepartment": [
          {
            "department": "NRSC",
            "count": 7
          }
        ],
        "namesSha256": "b2b0de99c0ff2353f7b2f92e63edb137857576456c1e5a22e624ef8f18d745b5",
        "lgdBlockCode": "6638"
      }
    },
    {
      "type": "Feature",
      "geometry": null,
      "properties": {
        "lgdGramPanchayatCode": "228932",
        "count": 17,
        "namedCount": 6,
        "areaHectares": 6.6809,
        "largestAreaHectares": 0.9284,
        "byDepartment": [
          {
            "department": "AED",
            "count": 11
          },
          {
            "department": "NRSC",
            "count": 6
          }
        ],
        "namesSha256": "b93be6cec7e0cb6f0463b631bf330289a6a40e7298358834dbb2fe060656737d",
        "lgdBlockCode": "6638"
      }
    },
    {
      "type": "Feature",
      "geometry": null,
      "properties": {
        "lgdGramPanchayatCode": "228933",
        "count": 4,
        "namedCount": 4,
        "areaHectares": 8.8517,
        "largestAreaHectares": 4.7172,
        "byDepartment": [
          {
            "department": "NRSC",
            "count": 4
          }
        ],
        "namesSha256": "3c286f9b4d57446613534121f26f9e032e291835f3d12dc06ec242dd9916d2e4",
        "lgdBlockCode": "6638"
      }
    },
    {
      "type": "Feature",
      "geometry": null,
      "properties": {
        "lgdGramPanchayatCode": "228934",
        "count": 3,
        "namedCount": 1,
        "areaHectares": 0.6007,
        "largestAreaHectares": 0.2185,
        "byDepartment": [
          {
            "department": "AED",
            "count": 2
          },
          {
            "department": "NRSC",
            "count": 1
          }
        ],
        "namesSha256": "06a9aeb76ef895ce4eaf5442da73c40af2f7a587e7307198f3ef76e17388d89c",
        "lgdBlockCode": "6638"
      }
    },
    {
      "type": "Feature",
      "geometry": null,
      "properties": {
        "lgdGramPanchayatCode": "228935",
        "count": 6,
        "namedCount": 5,
        "areaHectares": 3.3571,
        "largestAreaHectares": 1.463,
        "byDepartment": [
          {
            "department": "NRSC",
            "count": 5
          },
          {
            "department": "AED",
            "count": 1
          }
        ],
        "namesSha256": "7b2df4fe18d707b8dc0a0c1e86a2029f368f79e7eefa55ff964cdb7a6e3134a6",
        "lgdBlockCode": "6638"
      }
    },
    {
      "type": "Feature",
      "geometry": null,
      "properties": {
        "lgdGramPanchayatCode": "228936",
        "count": 4,
        "namedCount": 3,
        "areaHectares": 1.3596,
        "largestAreaHectares": 0.5766,
        "byDepartment": [
          {
            "department": "NRSC",
            "count": 3
          },
          {
            "department": "AED",
            "count": 1
          }
        ],
        "namesSha256": "59b6ee0dfb3935b71bcb3376277ffc610803726e03f3000364bc89212086ab35",
        "lgdBlockCode": "6638"
      }
    },
    {
      "type": "Feature",
      "geometry": null,
      "properties": {
        "lgdGramPanchayatCode": "228937",
        "count": 5,
        "namedCount": 2,
        "areaHectares": 2.5129,
        "largestAreaHectares": 1.0683,
        "byDepartment": [
          {
            "department": "AED",
            "count": 3
          },
          {
            "department": "NRSC",
            "count": 2
          }
        ],
        "namesSha256": "54459dbe127d5cada5edca98dcd9cc943ceccfc1e627fbdb2f5152dc5d5c98e6",
        "lgdBlockCode": "6638"
      }
    },
    {
      "type": "Feature",
      "geometry": null,
      "properties": {
        "lgdGramPanchayatCode": "228938",
        "count": 6,
        "namedCount": 2,
        "areaHectares": 1.857,
        "largestAreaHectares": 0.4187,
        "byDepartment": [
          {
            "department": "AED",
            "count": 4
          },
          {
            "department": "NRSC",
            "count": 2
          }
        ],
        "namesSha256": "54459dbe127d5cada5edca98dcd9cc943ceccfc1e627fbdb2f5152dc5d5c98e6",
        "lgdBlockCode": "6638"
      }
    },
    {
      "type": "Feature",
      "geometry": null,
      "properties": {
        "lgdGramPanchayatCode": "228939",
        "count": 6,
        "namedCount": 1,
        "areaHectares": 5.7891,
        "largestAreaHectares": 2.2149,
        "byDepartment": [
          {
            "department": "AED",
            "count": 5
          },
          {
            "department": "NRSC",
            "count": 1
          }
        ],
        "namesSha256": "06a9aeb76ef895ce4eaf5442da73c40af2f7a587e7307198f3ef76e17388d89c",
        "lgdBlockCode": "6638"
      }
    },
    {
      "type": "Feature",
      "geometry": null,
      "properties": {
        "lgdGramPanchayatCode": "228940",
        "count": 10,
        "namedCount": 10,
        "areaHectares": 7.1443,
        "largestAreaHectares": 2.3369,
        "byDepartment": [
          {
            "department": "NRSC",
            "count": 10
          }
        ],
        "namesSha256": "19b1a33a277a700d88d0730e73214201967d465be65bdffbd01bd5171ca527ae",
        "lgdBlockCode": "6638"
      }
    },
    {
      "type": "Feature",
      "geometry": null,
      "properties": {
        "lgdGramPanchayatCode": "228941",
        "count": 4,
        "namedCount": 4,
        "areaHectares": 3.0415,
        "largestAreaHectares": 2.6165,
        "byDepartment": [
          {
            "department": "NRSC",
            "count": 4
          }
        ],
        "namesSha256": "3c286f9b4d57446613534121f26f9e032e291835f3d12dc06ec242dd9916d2e4",
        "lgdBlockCode": "6638"
      }
    },
    {
      "type": "Feature",
      "geometry": null,
      "properties": {
        "lgdGramPanchayatCode": "228942",
        "count": 7,
        "namedCount": 1,
        "areaHectares": 2.3726,
        "largestAreaHectares": 0.6129,
        "byDepartment": [
          {
            "department": "AED",
            "count": 6
          },
          {
            "department": "NRSC",
            "count": 1
          }
        ],
        "namesSha256": "06a9aeb76ef895ce4eaf5442da73c40af2f7a587e7307198f3ef76e17388d89c",
        "lgdBlockCode": "6638"
      }
    },
    {
      "type": "Feature",
      "geometry": null,
      "properties": {
        "lgdGramPanchayatCode": "228943",
        "count": 8,
        "namedCount": 7,
        "areaHectares": 5.4506,
        "largestAreaHectares": 1.8209,
        "byDepartment": [
          {
            "department": "NRSC",
            "count": 7
          },
          {
            "department": "AED",
            "count": 1
          }
        ],
        "namesSha256": "b2b0de99c0ff2353f7b2f92e63edb137857576456c1e5a22e624ef8f18d745b5",
        "lgdBlockCode": "6638"
      }
    },
    {
      "type": "Feature",
      "geometry": null,
      "properties": {
        "lgdGramPanchayatCode": "228944",
        "count": 6,
        "namedCount": 6,
        "areaHectares": 2.3858,
        "largestAreaHectares": 1.0442,
        "byDepartment": [
          {
            "department": "NRSC",
            "count": 6
          }
        ],
        "namesSha256": "b93be6cec7e0cb6f0463b631bf330289a6a40e7298358834dbb2fe060656737d",
        "lgdBlockCode": "6638"
      }
    },
    {
      "type": "Feature",
      "geometry": null,
      "properties": {
        "lgdGramPanchayatCode": "228945",
        "count": 10,
        "namedCount": 9,
        "areaHectares": 6.8467,
        "largestAreaHectares": 2.9439,
        "byDepartment": [
          {
            "department": "NRSC",
            "count": 9
          },
          {
            "department": "AED",
            "count": 1
          }
        ],
        "namesSha256": "974d1029911a33137035a057acd2064a92926f75d5fe15158701e3ed127323a4",
        "lgdBlockCode": "6638"
      }
    },
    {
      "type": "Feature",
      "geometry": null,
      "properties": {
        "lgdGramPanchayatCode": "228946",
        "count": 6,
        "namedCount": 3,
        "areaHectares": 2.8161,
        "largestAreaHectares": 0.9286,
        "byDepartment": [
          {
            "department": "AED",
            "count": 3
          },
          {
            "department": "NRSC",
            "count": 3
          }
        ],
        "namesSha256": "59b6ee0dfb3935b71bcb3376277ffc610803726e03f3000364bc89212086ab35",
        "lgdBlockCode": "6638"
      }
    },
    {
      "type": "Feature",
      "geometry": null,
      "properties": {
        "lgdGramPanchayatCode": "228947",
        "count": 5,
        "namedCount": 5,
        "areaHectares": 1.0382,
        "largestAreaHectares": 0.431,
        "byDepartment": [
          {
            "department": "NRSC",
            "count": 5
          }
        ],
        "namesSha256": "7b2df4fe18d707b8dc0a0c1e86a2029f368f79e7eefa55ff964cdb7a6e3134a6",
        "lgdBlockCode": "6638"
      }
    },
    {
      "type": "Feature",
      "geometry": null,
      "properties": {
        "lgdGramPanchayatCode": "228948",
        "count": 15,
        "namedCount": 6,
        "areaHectares": 6.2623,
        "largestAreaHectares": 1.3714,
        "byDepartment": [
          {
            "department": "AED",
            "count": 9
          },
          {
            "department": "NRSC",
            "count": 6
          }
        ],
        "namesSha256": "b93be6cec7e0cb6f0463b631bf330289a6a40e7298358834dbb2fe060656737d",
        "lgdBlockCode": "6638"
      }
    },
    {
      "type": "Feature",
      "geometry": null,
      "properties": {
        "lgdGramPanchayatCode": "228949",
        "count": 4,
        "namedCount": 3,
        "areaHectares": 1.0744,
        "largestAreaHectares": 0.5524,
        "byDepartment": [
          {
            "department": "NRSC",
            "count": 3
          },
          {
            "department": "AED",
            "count": 1
          }
        ],
        "namesSha256": "59b6ee0dfb3935b71bcb3376277ffc610803726e03f3000364bc89212086ab35",
        "lgdBlockCode": "6638"
      }
    },
    {
      "type": "Feature",
      "geometry": null,
      "properties": {
        "lgdGramPanchayatCode": "228950",
        "count": 6,
        "namedCount": 2,
        "areaHectares": 1.8267,
        "largestAreaHectares": 0.7101,
        "byDepartment": [
          {
            "department": "AED",
            "count": 4
          },
          {
            "department": "NRSC",
            "count": 2
          }
        ],
        "namesSha256": "54459dbe127d5cada5edca98dcd9cc943ceccfc1e627fbdb2f5152dc5d5c98e6",
        "lgdBlockCode": "6638"
      }
    },
    {
      "type": "Feature",
      "geometry": null,
      "properties": {
        "lgdGramPanchayatCode": "228951",
        "count": 3,
        "namedCount": 3,
        "areaHectares": 0.6981,
        "largestAreaHectares": 0.3399,
        "byDepartment": [
          {
            "department": "NRSC",
            "count": 3
          }
        ],
        "namesSha256": "59b6ee0dfb3935b71bcb3376277ffc610803726e03f3000364bc89212086ab35",
        "lgdBlockCode": "6638"
      }
    },
    {
      "type": "Feature",
      "geometry": null,
      "properties": {
        "lgdGramPanchayatCode": "228952",
        "count": 9,
        "namedCount": 3,
        "areaHectares": 6.2688,
        "largestAreaHectares": 3.9143,
        "byDepartment": [
          {
            "department": "AED",
            "count": 6
          },
          {
            "department": "NRSC",
            "count": 3
          }
        ],
        "namesSha256": "59b6ee0dfb3935b71bcb3376277ffc610803726e03f3000364bc89212086ab35",
        "lgdBlockCode": "6638"
      }
    },
    {
      "type": "Feature",
      "geometry": null,
      "properties": {
        "lgdGramPanchayatCode": "228953",
        "count": 9,
        "namedCount": 8,
        "areaHectares": 2.2945,
        "largestAreaHectares": 0.4431,
        "byDepartment": [
          {
            "department": "NRSC",
            "count": 8
          },
          {
            "department": "AED",
            "count": 1
          }
        ],
        "namesSha256": "131c1061afab91213a6b4377f9dc396f63a492882f080b70f8f40c125ceeb185",
        "lgdBlockCode": "6638"
      }
    },
    {
      "type": "Feature",
      "geometry": null,
      "properties": {
        "lgdGramPanchayatCode": "228954",
        "count": 2,
        "namedCount": 2,
        "areaHectares": 0.4674,
        "largestAreaHectares": 0.255,
        "byDepartment": [
          {
            "department": "NRSC",
            "count": 2
          }
        ],
        "namesSha256": "54459dbe127d5cada5edca98dcd9cc943ceccfc1e627fbdb2f5152dc5d5c98e6",
        "lgdBlockCode": "6638"
      }
    },
    {
      "type": "Feature",
      "geometry": null,
      "properties": {
        "lgdGramPanchayatCode": "228955",
        "count": 1,
        "namedCount": 0,
        "areaHectares": 0.2063,
        "largestAreaHectares": 0.2063,
        "byDepartment": [
          {
            "department": "AED",
            "count": 1
          }
        ],
        "namesSha256": "4f53cda18c2baa0c0354bb5f9a3ecbe5ed12ab4d8e11ba873c2f11161202b945",
        "lgdBlockCode": "6638"
      }
    },
    {
      "type": "Feature",
      "geometry": null,
      "properties": {
        "lgdGramPanchayatCode": "228956",
        "count": 3,
        "namedCount": 2,
        "areaHectares": 2.6767,
        "largestAreaHectares": 2.2336,
        "byDepartment": [
          {
            "department": "NRSC",
            "count": 2
          },
          {
            "department": "AED",
            "count": 1
          }
        ],
        "namesSha256": "54459dbe127d5cada5edca98dcd9cc943ceccfc1e627fbdb2f5152dc5d5c98e6",
        "lgdBlockCode": "6638"
      }
    },
    {
      "type": "Feature",
      "geometry": null,
      "properties": {
        "lgdGramPanchayatCode": "228958",
        "count": 4,
        "namedCount": 4,
        "areaHectares": 1.3538,
        "largestAreaHectares": 0.5706,
        "byDepartment": [
          {
            "department": "NRSC",
            "count": 4
          }
        ],
        "namesSha256": "3c286f9b4d57446613534121f26f9e032e291835f3d12dc06ec242dd9916d2e4",
        "lgdBlockCode": "6638"
      }
    },
    {
      "type": "Feature",
      "geometry": null,
      "properties": {
        "lgdGramPanchayatCode": "228959",
        "count": 2,
        "namedCount": 0,
        "areaHectares": 1.0439,
        "largestAreaHectares": 0.7404,
        "byDepartment": [
          {
            "department": "AED",
            "count": 2
          }
        ],
        "namesSha256": "4f53cda18c2baa0c0354bb5f9a3ecbe5ed12ab4d8e11ba873c2f11161202b945",
        "lgdBlockCode": "6638"
      }
    }
  ]
}
