{"nvdm":"1.0","dataset":"basins/gaps","scope":{"kind":"basin","id":"mumbai-rivers"},"provenance":{"sources":[{"id":"fabdem-dem","title":"FABDEM v1-2 30 m bare-earth DEM","publisher":"University of Bristol (Hawker et al.), via GEE sat-io","license":"CC BY-NC-SA 4.0 (non-commercial AND share-alike); derived from Copernicus GLO-30, so the mandatory Copernicus WorldDEM-30 attribution to DLR and Airbus passes down (both notices reproduced in DATA-LICENSE.md)","role":"input"},{"id":"osm-overpass","title":"OpenStreetMap (Overpass API extracts: rivers, water bodies, drains, industrial landuse, corporation boundaries)","publisher":"OpenStreetMap contributors","license":"ODbL 1.0","role":"input"}],"method":"derived","produced_at":"2026-09-06","produced_by":"scripts/build_mumbai_rivers_basin.py","internal_inputs":["public/data/basins/mumbai-rivers/sub-hydrosheds.geojson"],"note":"Mumbai's rivers and lakes basin atlas (scope mumbai-rivers; the city's own scope id 'mumbai' is the MMR region). Catchment joins (shedId) come from sub-hydrosheds.geojson, whose city half is the reviewed pipeline input pipeline-inputs/mumbai-river-catchments-fabdem.geojson (FABDEM + WhiteboxTools); CPCB stretch and station figures are read from the reviewed national table pipeline-inputs/atlas/prs/cpcb-2025.json. FABDEM lineage makes the catchment-joined families CC BY-NC-SA (non-commercial) encumbered."},"type":"FeatureCollection","features":[{"type":"Feature","properties":{"gapUnit":"mithi","name":"Mithi","severity":"high"},"geometry":{"type":"Polygon","coordinates":[[[72.91565,19.1861],[72.92135,19.18616],[72.92165,19.18535],[72.92393,19.18565],[72.92393,19.18511],[72.92451,19.18485],[72.92964,19.1849],[72.93077,19.18546],[72.93077,19.186],[72.93277,19.18575],[72.93279,19.18413],[72.93194,19.18303],[72.93197,19.18114],[72.93141,19.18005],[72.93057,19.17922],[72.92914,19.17921],[72.92659,19.17809],[72.92666,19.17186],[72.92753,19.17133],[72.92703,19.16536],[72.9279,19.16456],[72.92793,19.16158],[72.92681,19.16021],[72.92683,19.15859],[72.92543,19.15667],[72.92603,19.15397],[72.92491,19.1526],[72.92464,19.15124],[72.92379,19.15123],[72.9238,19.15042],[72.92323,19.15042],[72.92353,19.14879],[72.9227,19.14689],[72.92244,19.14472],[72.91903,19.14359],[72.91847,19.14277],[72.91877,19.14169],[72.91822,19.1406],[72.91709,19.13978],[72.918,19.13491],[72.91743,19.1349],[72.91774,19.13301],[72.91746,19.13247],[72.91689,19.13246],[72.91719,19.13138],[72.91634,19.13137],[72.91637,19.12839],[72.91751,19.1284],[72.91753,19.12732],[72.91896,19.12679],[72.91955,19.12517],[72.91928,19.12436],[72.91985,19.12409],[72.91987,19.12274],[72.92074,19.12139],[72.92046,19.12058],[72.91933,19.12002],[72.91935,19.11812],[72.92022,19.11732],[72.91794,19.11702],[72.91653,19.11565],[72.91568,19.11564],[72.91374,19.11102],[72.90921,19.10825],[72.9075,19.10823],[72.90638,19.10714],[72.90638,19.1066],[72.90497,19.10577],[72.90498,19.10468],[72.90413,19.1044],[72.90358,19.10304],[72.90075,19.10111],[72.90077,19.09976],[72.89993,19.09866],[72.89994,19.09785],[72.90051,19.09786],[72.90053,19.09596],[72.89996,19.09595],[72.89999,19.09406],[72.89942,19.09378],[72.89915,19.09269],[72.89544,19.09265],[72.89517,19.09211],[72.89402,19.09236],[72.89403,19.09182],[72.89146,19.09206],[72.89204,19.09126],[72.89205,19.09017],[72.89064,19.08907],[72.89065,19.08853],[72.88952,19.08798],[72.88925,19.08662],[72.88927,19.08526],[72.88984,19.08527],[72.89013,19.08419],[72.88756,19.08524],[72.88728,19.08416],[72.88501,19.08413],[72.8853,19.08332],[72.8836,19.08276],[72.88332,19.08194],[72.8839,19.08141],[72.88391,19.08032],[72.88308,19.07896],[72.8834,19.07598],[72.88283,19.07598],[72.88255,19.07516],[72.88028,19.07486],[72.87886,19.07403],[72.87859,19.07322],[72.87917,19.07214],[72.87804,19.07186],[72.87833,19.07105],[72.87776,19.07077],[72.87781,19.06725],[72.87724,19.06697],[72.87698,19.06561],[72.87641,19.06561],[72.87642,19.06452],[72.87699,19.06453],[72.87729,19.06318],[72.87872,19.06265],[72.87647,19.06073],[72.87566,19.05693],[72.87481,19.05692],[72.87396,19.05609],[72.87426,19.05474],[72.8737,19.05446],[72.87371,19.05365],[72.87229,19.05309],[72.87204,19.05038],[72.87091,19.04983],[72.87092,19.04901],[72.87035,19.04873],[72.87038,19.0463],[72.86982,19.04602],[72.86952,19.04656],[72.86753,19.04653],[72.86669,19.04517],[72.86415,19.04379],[72.86388,19.04243],[72.86331,19.04242],[72.86305,19.04052],[72.86248,19.04051],[72.86251,19.03808],[72.86165,19.03861],[72.86023,19.03805],[72.85939,19.03668],[72.85882,19.03695],[72.85884,19.03559],[72.85827,19.03532],[72.85828,19.03478],[72.85743,19.03449],[72.85718,19.03178],[72.85632,19.0315],[72.85663,19.02988],[72.85492,19.02959],[72.85493,19.02877],[72.8555,19.02878],[72.85495,19.02769],[72.85525,19.02661],[72.85468,19.0266],[72.85469,19.02579],[72.85412,19.02578],[72.85413,19.02497],[72.8547,19.02498],[72.85528,19.02417],[72.85529,19.02309],[72.85586,19.02309],[72.85588,19.02201],[72.85503,19.02173],[72.85476,19.0201],[72.85249,19.01953],[72.85278,19.01899],[72.85221,19.01872],[72.85135,19.01952],[72.84879,19.01949],[72.84849,19.02003],[72.84792,19.02002],[72.84793,19.01921],[72.84708,19.01893],[72.84625,19.01729],[72.84368,19.01753],[72.84281,19.01861],[72.84196,19.0186],[72.84109,19.0194],[72.84079,19.02129],[72.83993,19.02155],[72.83963,19.02236],[72.83991,19.02318],[72.83905,19.02344],[72.83958,19.02643],[72.841,19.02672],[72.84156,19.02781],[72.8427,19.02782],[72.84268,19.02863],[72.84408,19.03055],[72.84407,19.0319],[72.8452,19.03273],[72.84405,19.03353],[72.84177,19.03323],[72.84176,19.03404],[72.84091,19.03403],[72.84088,19.0362],[72.8403,19.03646],[72.84,19.03808],[72.83942,19.03835],[72.84027,19.0389],[72.84027,19.03944],[72.84084,19.03945],[72.84083,19.03999],[72.84169,19.03973],[72.84225,19.04028],[72.84221,19.04353],[72.84135,19.04352],[72.84105,19.04487],[72.84048,19.04514],[72.84045,19.0473],[72.83874,19.04728],[72.83818,19.04673],[72.83817,19.04728],[72.83731,19.04754],[72.83814,19.04917],[72.839,19.04918],[72.83927,19.05054],[72.83925,19.0519],[72.8381,19.05297],[72.83808,19.05405],[72.83637,19.0543],[72.83578,19.05592],[72.8352,19.05618],[72.8349,19.05781],[72.83433,19.0578],[72.83432,19.05834],[72.83202,19.06021],[72.83145,19.0602],[72.83199,19.06265],[72.83142,19.06264],[72.83026,19.06371],[72.82941,19.0637],[72.82882,19.06478],[72.82797,19.0645],[72.82796,19.06504],[72.82853,19.06505],[72.82848,19.06911],[72.82962,19.0694],[72.82988,19.0713],[72.8313,19.07131],[72.83184,19.07349],[72.83326,19.07405],[72.83295,19.07621],[72.83464,19.07731],[72.83576,19.07922],[72.83718,19.07924],[72.83719,19.0787],[72.83805,19.07871],[72.83806,19.0779],[72.83892,19.07763],[72.83948,19.07791],[72.83946,19.07927],[72.84032,19.07928],[72.84059,19.08063],[72.83971,19.08198],[72.83999,19.08307],[72.8394,19.08387],[72.83997,19.08415],[72.84024,19.08524],[72.8402,19.08876],[72.84047,19.0893],[72.84161,19.08959],[72.84214,19.09258],[72.84271,19.09312],[72.8427,19.09367],[72.84213,19.09366],[72.84212,19.09447],[72.84268,19.09475],[72.84267,19.0961],[72.84494,19.0964],[72.84493,19.09749],[72.84864,19.09726],[72.84919,19.09835],[72.84976,19.09836],[72.84918,19.09943],[72.85003,19.09971],[72.8503,19.10107],[72.84944,19.1016],[72.84943,19.10242],[72.85028,19.10243],[72.85026,19.10378],[72.85083,19.10433],[72.85052,19.10622],[72.84994,19.10676],[72.85107,19.10758],[72.85106,19.10813],[72.85163,19.10813],[72.85162,19.10949],[72.85274,19.11058],[72.85273,19.11167],[72.85528,19.11278],[72.8567,19.1128],[72.85728,19.11226],[72.85755,19.11362],[72.85869,19.11363],[72.85923,19.11554],[72.86037,19.11555],[72.86035,19.11718],[72.86092,19.11718],[72.8612,19.11773],[72.86118,19.11935],[72.86203,19.11963],[72.862,19.12207],[72.86313,19.12263],[72.86312,19.12371],[72.86369,19.12399],[72.86368,19.12453],[72.86596,19.12456],[72.86595,19.12537],[72.8668,19.12538],[72.86764,19.12729],[72.87077,19.12732],[72.87133,19.12787],[72.87132,19.12896],[72.87217,19.12924],[72.87217,19.12978],[72.87302,19.13006],[72.87331,19.12952],[72.87359,19.13007],[72.87358,19.13088],[72.87301,19.13087],[72.87327,19.13277],[72.87695,19.13471],[72.87665,19.13579],[72.87749,19.13661],[72.87719,19.13851],[72.87775,19.13933],[72.87773,19.14068],[72.87715,19.14095],[72.87713,19.14311],[72.87767,19.14502],[72.87909,19.1453],[72.88054,19.14397],[72.88167,19.14425],[72.88224,19.1448],[72.88276,19.1486],[72.8836,19.14942],[72.88503,19.14944],[72.88529,19.15161],[72.88558,19.15107],[72.88615,19.15108],[72.88616,19.15053],[72.8873,19.15055],[72.88729,19.15109],[72.88871,19.15138],[72.88898,19.15273],[72.89012,19.15275],[72.89124,19.15412],[72.89295,19.15414],[72.89325,19.1536],[72.89438,19.15388],[72.89494,19.15497],[72.89579,19.15525],[72.89547,19.15769],[72.89717,19.15906],[72.89772,19.16042],[72.89915,19.16044],[72.89909,19.16477],[72.89823,19.16531],[72.89822,19.16612],[72.89764,19.16665],[72.8982,19.16747],[72.89817,19.17018],[72.89644,19.17152],[72.89473,19.1715],[72.89471,19.17312],[72.89866,19.17669],[72.89863,19.17859],[72.8989,19.17968],[72.89947,19.17995],[72.89943,19.1832],[72.9,19.18348],[72.89998,19.18457],[72.90256,19.18405],[72.90314,19.18325],[72.90513,19.18381],[72.90769,19.18384],[72.90798,19.1833],[72.91113,19.1828],[72.91168,19.18389],[72.91425,19.18364],[72.91453,19.18446],[72.91538,19.18474],[72.91565,19.1861]]]}},{"type":"Feature","properties":{"gapUnit":"dahisar","name":"Dahisar","severity":"medium"},"geometry":{"type":"Polygon","coordinates":[[[72.85551,19.27103],[72.85665,19.27105],[72.85695,19.27024],[72.8578,19.27025],[72.85839,19.26863],[72.86183,19.26786],[72.8624,19.26786],[72.86238,19.26949],[72.86352,19.2695],[72.86408,19.27059],[72.86552,19.26953],[72.86694,19.26981],[72.86695,19.269],[72.86809,19.26874],[72.86983,19.26687],[72.86984,19.26605],[72.87099,19.26552],[72.87071,19.26498],[72.87299,19.26501],[72.87299,19.26555],[72.87384,19.26556],[72.87385,19.26502],[72.8747,19.2653],[72.87528,19.26449],[72.87699,19.26451],[72.87729,19.26343],[72.87644,19.26288],[72.87759,19.26235],[72.87761,19.26099],[72.87906,19.25884],[72.87937,19.25749],[72.88023,19.25723],[72.88225,19.25509],[72.88339,19.2551],[72.88368,19.25456],[72.88511,19.25431],[72.88627,19.25297],[72.88742,19.25244],[72.88801,19.25109],[72.89001,19.25057],[72.89031,19.24976],[72.89343,19.25088],[72.89488,19.24954],[72.89858,19.24986],[72.89887,19.24932],[72.90116,19.24907],[72.90117,19.24826],[72.90517,19.24749],[72.90519,19.24587],[72.90577,19.2456],[72.90579,19.24371],[72.90523,19.24316],[72.90585,19.23937],[72.90789,19.2356],[72.91019,19.234],[72.9102,19.23346],[72.91309,19.23078],[72.91509,19.23053],[72.91512,19.2281],[72.91888,19.22434],[72.91952,19.21812],[72.92039,19.21705],[72.92041,19.21569],[72.92442,19.21465],[72.92529,19.21331],[72.9273,19.21252],[72.92903,19.21037],[72.93218,19.21013],[72.9325,19.20716],[72.93537,19.20529],[72.93569,19.20286],[72.93513,19.20231],[72.93514,19.2015],[72.93428,19.20121],[72.93431,19.19932],[72.93518,19.19797],[72.93521,19.19526],[72.93579,19.195],[72.9361,19.19311],[72.93553,19.19283],[72.93554,19.19229],[72.93497,19.19228],[72.93528,19.18957],[72.93445,19.18794],[72.9336,19.18739],[72.93305,19.18575],[72.93077,19.186],[72.93077,19.18546],[72.92964,19.1849],[72.92451,19.18485],[72.92393,19.18511],[72.92393,19.18565],[72.92165,19.18535],[72.92135,19.18616],[72.91565,19.1861],[72.91538,19.18474],[72.91453,19.18446],[72.91425,19.18364],[72.91168,19.18389],[72.91169,19.18334],[72.91084,19.18279],[72.90798,19.1833],[72.90769,19.18384],[72.90513,19.18381],[72.90314,19.18325],[72.90256,19.18405],[72.89998,19.18457],[72.89711,19.18616],[72.8971,19.18697],[72.89566,19.18804],[72.89565,19.18912],[72.89507,19.18966],[72.89504,19.19155],[72.89331,19.1937],[72.89298,19.19668],[72.89184,19.19721],[72.89039,19.19882],[72.8895,19.20152],[72.88977,19.20233],[72.88862,19.20313],[72.88862,19.20367],[72.88776,19.20367],[72.88775,19.20475],[72.8866,19.20501],[72.88657,19.20772],[72.88712,19.20935],[72.88654,19.21015],[72.88651,19.21205],[72.88592,19.21367],[72.8862,19.21449],[72.88504,19.21556],[72.88444,19.21799],[72.88387,19.21798],[72.88328,19.21906],[72.88326,19.22096],[72.88211,19.22203],[72.8784,19.22198],[72.87697,19.22224],[72.87696,19.22278],[72.87382,19.22274],[72.87382,19.22329],[72.87296,19.22328],[72.87181,19.22435],[72.87178,19.22597],[72.87064,19.22623],[72.87035,19.22677],[72.86835,19.22674],[72.86808,19.22566],[72.86579,19.22617],[72.86578,19.22699],[72.86521,19.22671],[72.86463,19.22778],[72.86377,19.22805],[72.86376,19.22913],[72.86173,19.23127],[72.86143,19.2329],[72.86057,19.23316],[72.86054,19.23532],[72.85969,19.23477],[72.85914,19.23341],[72.85713,19.23393],[72.85657,19.23365],[72.85627,19.23473],[72.85367,19.2366],[72.85366,19.23795],[72.85451,19.23851],[72.8545,19.23932],[72.85219,19.24146],[72.85245,19.24309],[72.85158,19.24443],[72.85184,19.24606],[72.85127,19.24633],[72.85126,19.24687],[72.85182,19.24769],[72.85239,19.24769],[72.85207,19.25067],[72.85319,19.25177],[72.85344,19.25475],[72.85258,19.25501],[72.85285,19.25637],[72.85171,19.25636],[72.85226,19.25799],[72.8514,19.25825],[72.85108,19.26069],[72.85165,19.26069],[72.85161,19.26367],[72.85275,19.26396],[72.85329,19.2664],[72.85013,19.26745],[72.84955,19.26853],[72.85096,19.27017],[72.85212,19.26856],[72.85269,19.26856],[72.85268,19.2691],[72.85382,19.26912],[72.85382,19.26966],[72.85439,19.26967],[72.85438,19.27048],[72.85523,19.27049],[72.85551,19.27103]]]}},{"type":"Feature","properties":{"gapUnit":"poisar","name":"Poisar","severity":"medium"},"geometry":{"type":"Polygon","coordinates":[[[72.86835,19.22674],[72.87035,19.22677],[72.87064,19.22623],[72.8715,19.22624],[72.87181,19.22435],[72.87296,19.22328],[72.87382,19.22329],[72.87382,19.22274],[72.87696,19.22278],[72.87697,19.22224],[72.8784,19.22198],[72.88211,19.22203],[72.88326,19.22096],[72.88328,19.21906],[72.88387,19.21798],[72.88444,19.21799],[72.88504,19.21556],[72.8862,19.21449],[72.88592,19.21367],[72.88651,19.21205],[72.88654,19.21015],[72.88712,19.20935],[72.88657,19.20772],[72.8866,19.20501],[72.88775,19.20475],[72.88776,19.20367],[72.88862,19.20367],[72.88862,19.20313],[72.88977,19.20233],[72.8895,19.20152],[72.89039,19.19882],[72.89184,19.19721],[72.89298,19.19668],[72.89301,19.19451],[72.89388,19.19344],[72.89389,19.19263],[72.89504,19.19155],[72.89507,19.18966],[72.89565,19.18912],[72.89566,19.18804],[72.8971,19.18697],[72.8974,19.18589],[72.89998,19.18484],[72.9,19.18348],[72.89775,19.18102],[72.89718,19.18101],[72.89662,19.18019],[72.89405,19.18016],[72.89319,19.18069],[72.8909,19.18094],[72.88777,19.18063],[72.88776,19.18144],[72.88519,19.18169],[72.88434,19.18141],[72.88378,19.18059],[72.88264,19.18057],[72.88206,19.18138],[72.88006,19.18163],[72.87948,19.18216],[72.87577,19.18212],[72.87462,19.18319],[72.87148,19.18315],[72.87147,19.1837],[72.8709,19.18369],[72.87032,19.18477],[72.87059,19.18612],[72.87029,19.18666],[72.86972,19.18666],[72.86971,19.18747],[72.86914,19.18746],[72.86882,19.19044],[72.86738,19.19178],[72.86624,19.19176],[72.86623,19.19231],[72.86394,19.19255],[72.86337,19.19309],[72.86194,19.19307],[72.86195,19.19253],[72.86053,19.19224],[72.86052,19.19278],[72.85794,19.19356],[72.85709,19.19355],[72.85681,19.19301],[72.85481,19.19326],[72.85165,19.19485],[72.84709,19.19452],[72.84682,19.19343],[72.84596,19.19342],[72.8457,19.19207],[72.84255,19.19257],[72.84197,19.19338],[72.83969,19.19308],[72.83826,19.19387],[72.83767,19.19495],[72.83711,19.1944],[72.83597,19.19439],[72.83598,19.19385],[72.83455,19.19383],[72.83342,19.193],[72.83343,19.19246],[72.83201,19.1919],[72.83172,19.19244],[72.83087,19.19216],[72.83057,19.1927],[72.83029,19.19215],[72.82744,19.19266],[72.82604,19.19075],[72.82605,19.18994],[72.82662,19.18967],[72.82721,19.18805],[72.82835,19.18807],[72.82836,19.18725],[72.82752,19.18616],[72.82695,19.18615],[72.82697,19.18507],[72.82498,19.1845],[72.82183,19.18501],[72.82039,19.18608],[72.81952,19.18742],[72.81666,19.18793],[72.81608,19.18846],[72.81549,19.19008],[72.81546,19.19252],[72.8163,19.19361],[72.81628,19.19497],[72.81742,19.19525],[72.8177,19.1958],[72.81739,19.19715],[72.81796,19.19743],[72.81823,19.19852],[72.81908,19.1988],[72.81907,19.19961],[72.82022,19.19935],[72.82275,19.20236],[72.82531,19.20266],[72.82587,19.20294],[72.82587,19.20348],[72.82672,19.20376],[72.82669,19.20593],[72.82612,19.2062],[72.82638,19.2081],[72.8278,19.20838],[72.82895,19.20731],[72.83353,19.20683],[72.83438,19.20711],[72.83437,19.20792],[72.83494,19.20793],[72.83493,19.20847],[72.83607,19.20848],[72.83634,19.2093],[72.83777,19.20959],[72.83861,19.21095],[72.83974,19.21123],[72.83974,19.21178],[72.84059,19.21179],[72.84058,19.21233],[72.84572,19.21239],[72.84599,19.21375],[72.84741,19.21376],[72.8474,19.21458],[72.84797,19.21458],[72.84825,19.21513],[72.84939,19.21487],[72.85051,19.21705],[72.85307,19.21708],[72.85307,19.21762],[72.85706,19.21794],[72.85762,19.21876],[72.85961,19.21906],[72.86017,19.2196],[72.85988,19.22014],[72.86045,19.22042],[72.86159,19.22016],[72.86273,19.22045],[72.86301,19.22099],[72.86444,19.22074],[72.86471,19.22128],[72.86671,19.22131],[72.86699,19.22185],[72.86756,19.22186],[72.86726,19.22321],[72.8681,19.22376],[72.86835,19.22674]]]}},{"type":"Feature","properties":{"gapUnit":"oshiwara","name":"Oshiwara","severity":"high"},"geometry":{"type":"Polygon","coordinates":[[[72.84723,19.18368],[72.85038,19.18318],[72.85094,19.18373],[72.85179,19.18374],[72.85295,19.18267],[72.85609,19.18216],[72.8564,19.18081],[72.85697,19.18082],[72.85837,19.18219],[72.86066,19.18167],[72.86151,19.18222],[72.86266,19.1817],[72.86267,19.18088],[72.86412,19.17927],[72.86669,19.17876],[72.86727,19.17823],[72.86728,19.17714],[72.86814,19.17715],[72.86844,19.1758],[72.86957,19.17609],[72.87042,19.17691],[72.87069,19.17827],[72.8724,19.17829],[72.87409,19.17993],[72.87379,19.18128],[72.87492,19.18211],[72.87833,19.18242],[72.88091,19.18137],[72.88206,19.18138],[72.88264,19.18057],[72.88378,19.18059],[72.88434,19.18141],[72.88519,19.18169],[72.88633,19.1817],[72.88776,19.18144],[72.88777,19.18063],[72.8909,19.18094],[72.89319,19.18069],[72.89405,19.18016],[72.89662,19.18019],[72.89943,19.18293],[72.89947,19.17995],[72.8989,19.17968],[72.89866,19.17669],[72.89471,19.17312],[72.89473,19.1715],[72.89644,19.17152],[72.89817,19.17018],[72.8982,19.16747],[72.89764,19.16665],[72.89822,19.16612],[72.89823,19.16531],[72.89909,19.16477],[72.89915,19.16044],[72.89772,19.16042],[72.89717,19.15906],[72.89547,19.15769],[72.89579,19.15525],[72.89494,19.15497],[72.89438,19.15388],[72.89325,19.1536],[72.89295,19.15414],[72.89124,19.15412],[72.89012,19.15275],[72.88898,19.15273],[72.88871,19.15138],[72.88729,19.15109],[72.8873,19.15055],[72.88616,19.15053],[72.88615,19.15108],[72.88558,19.15107],[72.88529,19.15161],[72.88503,19.14944],[72.8836,19.14942],[72.88276,19.1486],[72.88224,19.1448],[72.88167,19.14425],[72.88054,19.14397],[72.87909,19.1453],[72.87767,19.14502],[72.87713,19.14311],[72.87715,19.14095],[72.87773,19.14068],[72.87775,19.13933],[72.87719,19.13851],[72.87749,19.13661],[72.87665,19.13579],[72.87667,19.13444],[72.87581,19.13443],[72.87525,19.13361],[72.8744,19.1336],[72.87327,19.13277],[72.87331,19.12952],[72.87302,19.13006],[72.87245,19.13005],[72.87189,19.12896],[72.87075,19.12895],[72.86989,19.12921],[72.8696,19.13002],[72.86789,19.13],[72.86531,19.13105],[72.86217,19.13075],[72.86217,19.13129],[72.86073,19.13181],[72.85903,19.13152],[72.85902,19.13206],[72.85817,19.13205],[72.85816,19.1326],[72.8573,19.13259],[72.85672,19.13339],[72.85444,19.13364],[72.85387,19.13363],[72.85361,19.13173],[72.85275,19.13199],[72.85218,19.13171],[72.85219,19.13117],[72.85105,19.13143],[72.8502,19.13061],[72.84763,19.13085],[72.84761,19.13247],[72.8459,19.13245],[72.84589,19.13327],[72.84388,19.13433],[72.84356,19.13676],[72.84242,19.13702],[72.84241,19.1381],[72.84153,19.13945],[72.84068,19.13944],[72.83981,19.14078],[72.83866,19.14131],[72.83865,19.14185],[72.83634,19.14399],[72.83634,19.14454],[72.83463,19.14424],[72.83462,19.14479],[72.83318,19.14585],[72.83317,19.14667],[72.83116,19.14773],[72.83115,19.14854],[72.83001,19.14853],[72.82943,19.1496],[72.82829,19.14959],[72.82856,19.15068],[72.82798,19.15094],[72.82798,19.15148],[72.8294,19.15177],[72.82938,19.15285],[72.82852,19.15366],[72.82908,19.15448],[72.82906,19.1561],[72.82617,19.15851],[72.82612,19.1623],[72.82555,19.16256],[72.82554,19.1631],[72.8264,19.16311],[72.82695,19.16448],[72.82781,19.16449],[72.82694,19.16529],[72.82722,19.16583],[72.82779,19.16584],[72.82866,19.16477],[72.82979,19.16532],[72.83033,19.1675],[72.82974,19.16912],[72.83143,19.17076],[72.83142,19.17157],[72.83284,19.17186],[72.83281,19.1743],[72.83395,19.17431],[72.83421,19.17621],[72.83535,19.17623],[72.83534,19.17677],[72.83705,19.17733],[72.83733,19.17788],[72.83903,19.17817],[72.83987,19.17926],[72.84103,19.17846],[72.84246,19.17821],[72.84301,19.1793],[72.84414,19.18012],[72.84413,19.18121],[72.8447,19.18121],[72.84469,19.18203],[72.84553,19.18285],[72.84696,19.18287],[72.84723,19.18368]]]}}]}