{"nvdm":"1.0","dataset":"basins/groundwater-wells","scope":{"kind":"basin","id":"mumbai-rivers"},"provenance":{"sources":[{"id":"cgwb-yearbook-maharashtra","title":"CGWB Ground Water Year Book of Maharashtra (2024-25; 2022-23 stitched) - National Hydrograph Network wells","publisher":"CGWB Central Region, Nagpur","license":"CGWB website policy: material 'may be reproduced free of charge in any format or media without requiring specific permission', subject to accurate reproduction and prominent acknowledgement of the source; third-party material on the site excluded - GoI publication, cited with attribution","role":"input","as_of":"2025"},{"id":"fabdem-dem","title":"FABDEM v1-2 30 m bare-earth DEM","publisher":"University of Bristol (Hawker et al.), via GEE sat-io","license":"CC BY-NC-SA 4.0 (non-commercial AND share-alike); derived from Copernicus GLO-30, so the mandatory Copernicus WorldDEM-30 attribution to DLR and Airbus passes down (both notices reproduced in DATA-LICENSE.md)","role":"input"}],"method":"derived","produced_at":"2026-09-06","produced_by":"scripts/build_mumbai_rivers_basin.py","internal_inputs":["public/data/mumbai-cgwb-stations.json","public/data/basins/mumbai-rivers/sub-hydrosheds.geojson"],"note":"Mumbai's rivers and lakes basin atlas (scope mumbai-rivers; the city's own scope id 'mumbai' is the MMR region). Catchment joins (shedId) come from sub-hydrosheds.geojson, whose city half is the reviewed pipeline input pipeline-inputs/mumbai-river-catchments-fabdem.geojson (FABDEM + WhiteboxTools); CPCB stretch and station figures are read from the reviewed national table pipeline-inputs/atlas/prs/cpcb-2025.json. FABDEM lineage makes the catchment-joined families CC BY-NC-SA (non-commercial) encumbered."},"type":"FeatureCollection","features":[{"type":"Feature","properties":{"name":"Bombay (Church Gate)","kind":"cgwb-well","stationCode":"W185555072495201","district":"Mumbai City","block":"Mumbai City","wellType":"Dug Well","aquifer":"Unconfined","latestDepthMbgl":3.92,"latestReading":"2025-01 (Year Book 2024-25)","readingsCount":8,"source":"CGWB Ground Water Year Book of Maharashtra + GW Quality report","dataUrl":"https://cgwb.gov.in/cgwbpnm/"},"geometry":{"type":"Point","coordinates":[72.8311,18.9319]}},{"type":"Feature","properties":{"name":"Colaba (Dandi)","kind":"cgwb-well","stationCode":"W185348072484001","district":"Mumbai City","block":"Mumbai City","wellType":"Dug Well","aquifer":"Unconfined","latestDepthMbgl":3.92,"latestReading":"2025-01 (Year Book 2024-25)","readingsCount":4,"source":"CGWB Ground Water Year Book of Maharashtra + GW Quality report","dataUrl":"https://cgwb.gov.in/cgwbpnm/"},"geometry":{"type":"Point","coordinates":[72.8111,18.8967]}},{"type":"Feature","properties":{"name":"Colaba (Dandi) II","kind":"cgwb-well","stationCode":"W185617072501201","district":"Mumbai City","block":"Mumbai City","wellType":"Dug Well","aquifer":"Unconfined","latestDepthMbgl":1.56,"latestReading":"2025-01 (Year Book 2024-25)","readingsCount":4,"source":"CGWB Ground Water Year Book of Maharashtra + GW Quality report","dataUrl":"https://cgwb.gov.in/cgwbpnm/"},"geometry":{"type":"Point","coordinates":[72.8367,18.9381]}},{"type":"Feature","properties":{"name":"Mahim","kind":"cgwb-well","stationCode":"W190130072504001","district":"Mumbai City","block":"Mumbai City","wellType":"Dug Well","aquifer":"Unconfined","latestDepthMbgl":4.4,"latestReading":"2025-01 (Year Book 2024-25)","readingsCount":8,"shedId":"MITHI","source":"CGWB Ground Water Year Book of Maharashtra + GW Quality report","dataUrl":"https://cgwb.gov.in/cgwbpnm/"},"geometry":{"type":"Point","coordinates":[72.8444,19.025]}},{"type":"Feature","properties":{"name":"Mazgaon","kind":"cgwb-well","stationCode":"W185809072503801","district":"Mumbai City","block":"Mumbai City","wellType":"Dug Well","aquifer":"Unconfined","latestDepthMbgl":5.28,"latestReading":"2025-01 (Year Book 2024-25)","readingsCount":8,"source":"CGWB Ground Water Year Book of Maharashtra + GW Quality report","dataUrl":"https://cgwb.gov.in/cgwbpnm/"},"geometry":{"type":"Point","coordinates":[72.8439,18.9692]}},{"type":"Feature","properties":{"name":"Varli","kind":"cgwb-well","stationCode":"W185954072490701","district":"Mumbai City","block":"Mumbai City","wellType":"Dug Well","aquifer":"Unconfined","latestDepthMbgl":1.15,"latestReading":"2025-01 (Year Book 2024-25)","readingsCount":8,"source":"CGWB Ground Water Year Book of Maharashtra + GW Quality report","dataUrl":"https://cgwb.gov.in/cgwbpnm/"},"geometry":{"type":"Point","coordinates":[72.8186,18.9983]}},{"type":"Feature","properties":{"name":"A.M.C. Colony","kind":"cgwb-well","stationCode":"W190807072531401","district":"Mumbai Suburban","block":"Mumbai Suburban","wellType":"Dug Well","aquifer":"Unconfined","latestDepthMbgl":12.28,"latestReading":"2025-01 (Year Book 2024-25)","readingsCount":8,"shedId":"MITHI","source":"CGWB Ground Water Year Book of Maharashtra + GW Quality report","dataUrl":"https://cgwb.gov.in/cgwbpnm/"},"geometry":{"type":"Point","coordinates":[72.8872,19.1353]}},{"type":"Feature","properties":{"name":"Agarwadi","kind":"cgwb-well","stationCode":"W190222072553401","district":"Mumbai Suburban","block":"Mumbai Suburban","wellType":"Dug Well","aquifer":"Unconfined","latestDepthMbgl":4.67,"latestReading":"2024-11 (Year Book 2024-25)","readingsCount":7,"source":"CGWB Ground Water Year Book of Maharashtra + GW Quality report","dataUrl":"https://cgwb.gov.in/cgwbpnm/"},"geometry":{"type":"Point","coordinates":[72.9261,19.0394]}},{"type":"Feature","properties":{"name":"Amboli","kind":"cgwb-well","stationCode":"W190757072502101","district":"Mumbai Suburban","block":"Mumbai Suburban","wellType":"Dug Well","aquifer":"Unconfined","latestDepthMbgl":2.95,"latestReading":"2025-01 (Year Book 2024-25)","readingsCount":8,"source":"CGWB Ground Water Year Book of Maharashtra + GW Quality report","dataUrl":"https://cgwb.gov.in/cgwbpnm/"},"geometry":{"type":"Point","coordinates":[72.8392,19.1325]}},{"type":"Feature","properties":{"name":"Chembur","kind":"cgwb-well","stationCode":"W190318072535001","district":"Mumbai Suburban","block":"Mumbai Suburban","wellType":"Dug Well","aquifer":"Unconfined","latestDepthMbgl":2.34,"latestReading":"2025-01 (Year Book 2024-25)","readingsCount":8,"source":"CGWB Ground Water Year Book of Maharashtra + GW Quality report","dataUrl":"https://cgwb.gov.in/cgwbpnm/"},"geometry":{"type":"Point","coordinates":[72.8972,19.055]}},{"type":"Feature","properties":{"name":"Dahisar","kind":"cgwb-well","stationCode":"W191506072515101","district":"Mumbai Suburban","block":"Mumbai Suburban","wellType":"Dug Well","aquifer":"Unconfined","latestDepthMbgl":9.1,"latestReading":"2025-01 (Year Book 2024-25)","readingsCount":8,"shedId":"DAHISAR","source":"CGWB Ground Water Year Book of Maharashtra + GW Quality report","dataUrl":"https://cgwb.gov.in/cgwbpnm/"},"geometry":{"type":"Point","coordinates":[72.8642,19.2517]}},{"type":"Feature","properties":{"name":"Film City-Habale Pada","kind":"cgwb-well","stationCode":"W190947072531701","district":"Mumbai Suburban","block":"Mumbai Suburban","wellType":"Dug Well","aquifer":"Unconfined","latestDepthMbgl":2.65,"latestReading":"2025-01 (Year Book 2024-25)","readingsCount":8,"shedId":"OSHIWARA","source":"CGWB Ground Water Year Book of Maharashtra + GW Quality report","dataUrl":"https://cgwb.gov.in/cgwbpnm/"},"geometry":{"type":"Point","coordinates":[72.8881,19.1631]}},{"type":"Feature","properties":{"name":"Gorai","kind":"cgwb-well","stationCode":"W191434072470701","district":"Mumbai Suburban","block":"Mumbai Suburban","wellType":"Dug Well","aquifer":"Unconfined","latestDepthMbgl":3.15,"latestReading":"2025-01 (Year Book 2024-25)","readingsCount":8,"source":"CGWB Ground Water Year Book of Maharashtra + GW Quality report","dataUrl":"https://cgwb.gov.in/cgwbpnm/"},"geometry":{"type":"Point","coordinates":[72.7853,19.2428]}},{"type":"Feature","properties":{"name":"Goregaon","kind":"cgwb-well","stationCode":"W190956072512701","district":"Mumbai Suburban","block":"Mumbai Suburban","wellType":"Dug Well","aquifer":"Unconfined","latestDepthMbgl":1.23,"latestReading":"2025-01 (Year Book 2024-25)","readingsCount":8,"shedId":"OSHIWARA","source":"CGWB Ground Water Year Book of Maharashtra + GW Quality report","dataUrl":"https://cgwb.gov.in/cgwbpnm/"},"geometry":{"type":"Point","coordinates":[72.8575,19.1656]}},{"type":"Feature","properties":{"name":"Khardanda","kind":"cgwb-well","stationCode":"W190429072492401","district":"Mumbai Suburban","block":"Mumbai Suburban","wellType":"Dug Well","aquifer":"Unconfined","latestDepthMbgl":5.53,"latestReading":"2025-01 (Year Book 2024-25)","readingsCount":4,"source":"CGWB Ground Water Year Book of Maharashtra + GW Quality report","dataUrl":"https://cgwb.gov.in/cgwbpnm/"},"geometry":{"type":"Point","coordinates":[72.8233,19.0747]}},{"type":"Feature","properties":{"name":"Laxminagar-Mahul","kind":"cgwb-well","stationCode":"W190141072534801","district":"Mumbai Suburban","block":"Mumbai Suburban","wellType":"Dug Well","aquifer":"Unconfined","latestDepthMbgl":0.65,"latestReading":"2025-01 (Year Book 2024-25)","readingsCount":8,"source":"CGWB Ground Water Year Book of Maharashtra + GW Quality report","dataUrl":"https://cgwb.gov.in/cgwbpnm/"},"geometry":{"type":"Point","coordinates":[72.8967,19.0281]}},{"type":"Feature","properties":{"name":"Madh","kind":"cgwb-well","stationCode":"W190830072472301","district":"Mumbai Suburban","block":"Mumbai Suburban","wellType":"Dug Well","aquifer":"Unconfined","latestDepthMbgl":0.35,"latestReading":"2025-01 (Year Book 2024-25)","readingsCount":8,"source":"CGWB Ground Water Year Book of Maharashtra + GW Quality report","dataUrl":"https://cgwb.gov.in/cgwbpnm/"},"geometry":{"type":"Point","coordinates":[72.7897,19.1417]}},{"type":"Feature","properties":{"name":"Malvani","kind":"cgwb-well","stationCode":"W191146072483501","district":"Mumbai Suburban","block":"Mumbai Suburban","wellType":"Dug Well","aquifer":"Unconfined","latestDepthMbgl":1.94,"latestReading":"2025-01 (Year Book 2024-25)","readingsCount":8,"source":"CGWB Ground Water Year Book of Maharashtra + GW Quality report","dataUrl":"https://cgwb.gov.in/cgwbpnm/"},"geometry":{"type":"Point","coordinates":[72.8097,19.1961]}},{"type":"Feature","properties":{"name":"Manori","kind":"cgwb-well","stationCode":"W191251072470601","district":"Mumbai Suburban","block":"Mumbai Suburban","wellType":"Dug Well","aquifer":"Unconfined","latestDepthMbgl":3.48,"latestReading":"2025-01 (Year Book 2024-25)","readingsCount":8,"source":"CGWB Ground Water Year Book of Maharashtra + GW Quality report","dataUrl":"https://cgwb.gov.in/cgwbpnm/"},"geometry":{"type":"Point","coordinates":[72.785,19.2142]}},{"type":"Feature","properties":{"name":"Mulund","kind":"cgwb-well","stationCode":"W190949072571501","district":"Mumbai Suburban","block":"Mumbai Suburban","wellType":"Dug Well","aquifer":"Unconfined","latestDepthMbgl":4.37,"latestReading":"2025-01 (Year Book 2024-25)","readingsCount":7,"source":"CGWB Ground Water Year Book of Maharashtra + GW Quality report","dataUrl":"https://cgwb.gov.in/cgwbpnm/"},"geometry":{"type":"Point","coordinates":[72.9542,19.1636]}},{"type":"Feature","properties":{"name":"Ranicha Bagh","kind":"cgwb-well","stationCode":"W185845072500501","district":"Mumbai Suburban","block":"Mumbai Suburban","wellType":"Dug Well","aquifer":"Unconfined","latestDepthMbgl":8.35,"latestReading":"2025-01 (Year Book 2024-25)","readingsCount":8,"source":"CGWB Ground Water Year Book of Maharashtra + GW Quality report","dataUrl":"https://cgwb.gov.in/cgwbpnm/"},"geometry":{"type":"Point","coordinates":[72.8347,18.9792]}},{"type":"Feature","properties":{"name":"Trombay","kind":"cgwb-well","stationCode":"W190157072565301","district":"Mumbai Suburban","block":"Mumbai Suburban","wellType":"Dug Well","aquifer":"Unconfined","latestDepthMbgl":3.7,"latestReading":"2025-01 (Year Book 2024-25)","readingsCount":8,"source":"CGWB Ground Water Year Book of Maharashtra + GW Quality report","dataUrl":"https://cgwb.gov.in/cgwbpnm/"},"geometry":{"type":"Point","coordinates":[72.9481,19.0325]}},{"type":"Feature","properties":{"name":"Vakola","kind":"cgwb-well","stationCode":"W190450072513101","district":"Mumbai Suburban","block":"Mumbai Suburban","wellType":"Dug Well","aquifer":"Unconfined","latestDepthMbgl":2.15,"latestReading":"2025-01 (Year Book 2024-25)","readingsCount":8,"shedId":"MITHI","source":"CGWB Ground Water Year Book of Maharashtra + GW Quality report","dataUrl":"https://cgwb.gov.in/cgwbpnm/"},"geometry":{"type":"Point","coordinates":[72.8586,19.0806]}},{"type":"Feature","properties":{"name":"Varsowa","kind":"cgwb-well","stationCode":"W190820072482501","district":"Mumbai Suburban","block":"Mumbai Suburban","wellType":"Dug Well","aquifer":"Unconfined","latestDepthMbgl":4.57,"latestReading":"2025-01 (Year Book 2024-25)","readingsCount":4,"source":"CGWB Ground Water Year Book of Maharashtra + GW Quality report","dataUrl":"https://cgwb.gov.in/cgwbpnm/"},"geometry":{"type":"Point","coordinates":[72.8069,19.1389]}},{"type":"Feature","properties":{"name":"Vile Parle West","kind":"cgwb-well","stationCode":"W190551072503501","district":"Mumbai Suburban","block":"Mumbai Suburban","wellType":"Dug Well","aquifer":"Unconfined","latestDepthMbgl":2.58,"latestReading":"2025-01 (Year Book 2024-25)","readingsCount":8,"source":"CGWB Ground Water Year Book of Maharashtra + GW Quality report","dataUrl":"https://cgwb.gov.in/cgwbpnm/"},"geometry":{"type":"Point","coordinates":[72.8431,19.0975]}},{"type":"Feature","properties":{"name":"Agashi","kind":"cgwb-well","stationCode":"W192800072462201","district":"Palghar","block":"Vasai","wellType":"Dug Well","aquifer":"Unconfined","latestDepthMbgl":1.06,"latestReading":"2025-01 (Year Book 2024-25)","readingsCount":4,"source":"CGWB Ground Water Year Book of Maharashtra + GW Quality report","dataUrl":"https://cgwb.gov.in/cgwbpnm/"},"geometry":{"type":"Point","coordinates":[72.7728,19.4667]}},{"type":"Feature","properties":{"name":"Bramhanwadi","kind":"cgwb-well","stationCode":"W192530072470001","district":"Palghar","block":"Vasai","wellType":"Dug Well","aquifer":"Unconfined","latestDepthMbgl":1.51,"latestReading":"2025-01 (Year Book 2024-25)","readingsCount":4,"source":"CGWB Ground Water Year Book of Maharashtra + GW Quality report","dataUrl":"https://cgwb.gov.in/cgwbpnm/"},"geometry":{"type":"Point","coordinates":[72.7833,19.425]}},{"type":"Feature","properties":{"name":"Giraj","kind":"cgwb-well","stationCode":"W192245072473001","district":"Palghar","block":"Vasai","wellType":"Dug Well","aquifer":"Unconfined","latestDepthMbgl":2.07,"latestReading":"2025-01 (Year Book 2024-25)","readingsCount":4,"source":"CGWB Ground Water Year Book of Maharashtra + GW Quality report","dataUrl":"https://cgwb.gov.in/cgwbpnm/"},"geometry":{"type":"Point","coordinates":[72.7917,19.3792]}},{"type":"Feature","properties":{"name":"Parol","kind":"cgwb-well","stationCode":"W192746072562101","district":"Palghar","block":"Vasai","wellType":"Dug Well","aquifer":"Unconfined","latestDepthMbgl":1.35,"latestReading":"2025-01 (Year Book 2024-25)","readingsCount":4,"source":"CGWB Ground Water Year Book of Maharashtra + GW Quality report","dataUrl":"https://cgwb.gov.in/cgwbpnm/"},"geometry":{"type":"Point","coordinates":[72.9392,19.4628]}},{"type":"Feature","properties":{"name":"Sandor","kind":"cgwb-well","stationCode":"W192134072482101","district":"Palghar","block":"Vasai","wellType":"Dug Well","aquifer":"Unconfined","latestDepthMbgl":2.83,"latestReading":"2025-01 (Year Book 2024-25)","readingsCount":4,"source":"CGWB Ground Water Year Book of Maharashtra + GW Quality report","dataUrl":"https://cgwb.gov.in/cgwbpnm/"},"geometry":{"type":"Point","coordinates":[72.8058,19.3594]}},{"type":"Feature","properties":{"name":"Uttan","kind":"cgwb-well","stationCode":"W191649072471101","district":"Palghar","block":"Vasai","wellType":"Dug Well","aquifer":"Unconfined","latestDepthMbgl":1.04,"latestReading":"2025-01 (Year Book 2024-25)","readingsCount":4,"source":"CGWB Ground Water Year Book of Maharashtra + GW Quality report","dataUrl":"https://cgwb.gov.in/cgwbpnm/"},"geometry":{"type":"Point","coordinates":[72.7864,19.2803]}},{"type":"Feature","properties":{"name":"Vasai","kind":"cgwb-well","stationCode":"W192545072521101","district":"Palghar","block":"Vasai","wellType":"Dug Well","aquifer":"Unconfined","latestDepthMbgl":0.95,"latestReading":"2025-01 (Year Book 2024-25)","readingsCount":4,"source":"CGWB Ground Water Year Book of Maharashtra + GW Quality report","dataUrl":"https://cgwb.gov.in/cgwbpnm/"},"geometry":{"type":"Point","coordinates":[72.8697,19.4292]}},{"type":"Feature","properties":{"name":"Khupari","kind":"cgwb-well","stationCode":"W193347073061301","district":"Palghar","block":"Wada","wellType":"Dug Well","aquifer":"Unconfined","latestDepthMbgl":1.42,"latestReading":"2024-11 (Year Book 2024-25)","readingsCount":3,"source":"CGWB Ground Water Year Book of Maharashtra + GW Quality report","dataUrl":"https://cgwb.gov.in/cgwbpnm/"},"geometry":{"type":"Point","coordinates":[73.1036,19.5631]}},{"type":"Feature","properties":{"name":"Chinchawali","kind":"cgwb-well","stationCode":"W185833073194601","district":"Raigad","block":"Karjat","wellType":"Dug Well","aquifer":"Unconfined","latestDepthMbgl":2.1,"latestReading":"2025-01 (Year Book 2024-25)","readingsCount":4,"source":"CGWB Ground Water Year Book of Maharashtra + GW Quality report","dataUrl":"https://cgwb.gov.in/cgwbpnm/"},"geometry":{"type":"Point","coordinates":[73.3294,18.9758]}},{"type":"Feature","properties":{"name":"Hudhre Budruk (Karjat)","kind":"cgwb-well","stationCode":"W185445073191001","district":"Raigad","block":"Karjat","wellType":"Dug Well","aquifer":"Unconfined","latestDepthMbgl":0.45,"latestReading":"2025-01 (Year Book 2024-25)","readingsCount":4,"source":"CGWB Ground Water Year Book of Maharashtra + GW Quality report","dataUrl":"https://cgwb.gov.in/cgwbpnm/"},"geometry":{"type":"Point","coordinates":[73.3194,18.9125]}},{"type":"Feature","properties":{"name":"Hatanoli","kind":"cgwb-well","stationCode":"W185353073152201","district":"Raigad","block":"Khalapur","wellType":"Dug Well","aquifer":"Unconfined","latestDepthMbgl":2.28,"latestReading":"2025-01 (Year Book 2024-25)","readingsCount":4,"source":"CGWB Ground Water Year Book of Maharashtra + GW Quality report","dataUrl":"https://cgwb.gov.in/cgwbpnm/"},"geometry":{"type":"Point","coordinates":[73.2561,18.8981]}},{"type":"Feature","properties":{"name":"Chinchpara","kind":"cgwb-well","stationCode":"W185908073052401","district":"Raigad","block":"Panvel","wellType":"Dug Well","aquifer":"Unconfined","latestDepthMbgl":2.85,"latestReading":"2025-01 (Year Book 2024-25)","readingsCount":4,"source":"CGWB Ground Water Year Book of Maharashtra + GW Quality report","dataUrl":"https://cgwb.gov.in/cgwbpnm/"},"geometry":{"type":"Point","coordinates":[73.09,18.9856]}},{"type":"Feature","properties":{"name":"Chinchwad","kind":"cgwb-well","stationCode":"W185530073070001","district":"Raigad","block":"Panvel","wellType":"Dug Well","aquifer":"Unconfined","latestDepthMbgl":3.15,"latestReading":"2025-01 (Year Book 2024-25)","readingsCount":4,"source":"CGWB Ground Water Year Book of Maharashtra + GW Quality report","dataUrl":"https://cgwb.gov.in/cgwbpnm/"},"geometry":{"type":"Point","coordinates":[73.1167,18.925]}},{"type":"Feature","properties":{"name":"Navade","kind":"cgwb-well","stationCode":"W190302073060301","district":"Raigad","block":"Panvel","wellType":"Dug Well","aquifer":"Unconfined","latestDepthMbgl":4.86,"latestReading":"2025-01 (Year Book 2024-25)","readingsCount":4,"source":"CGWB Ground Water Year Book of Maharashtra + GW Quality report","dataUrl":"https://cgwb.gov.in/cgwbpnm/"},"geometry":{"type":"Point","coordinates":[73.1008,19.0506]}},{"type":"Feature","properties":{"name":"Mottijui","kind":"cgwb-well","stationCode":"W185202073014501","district":"Raigad","block":"Uran","wellType":"Dug Well","aquifer":"Unconfined","latestDepthMbgl":0.65,"latestReading":"2025-01 (Year Book 2024-25)","readingsCount":4,"source":"CGWB Ground Water Year Book of Maharashtra + GW Quality report","dataUrl":"https://cgwb.gov.in/cgwbpnm/"},"geometry":{"type":"Point","coordinates":[73.0292,18.8672]}},{"type":"Feature","properties":{"name":"Uran","kind":"cgwb-well","stationCode":"W185246072563101","district":"Raigad","block":"Uran","wellType":"Dug Well","aquifer":"Unconfined","latestDepthMbgl":0.25,"latestReading":"2025-01 (Year Book 2024-25)","readingsCount":4,"source":"CGWB Ground Water Year Book of Maharashtra + GW Quality report","dataUrl":"https://cgwb.gov.in/cgwbpnm/"},"geometry":{"type":"Point","coordinates":[72.9419,18.8794]}},{"type":"Feature","properties":{"name":"Amangaon","kind":"cgwb-well","stationCode":"W191859073093201","district":"Thane","block":"Bhiwandi","wellType":"Dug Well","aquifer":"Unconfined","latestDepthMbgl":3.53,"latestReading":"2025-01 (Year Book 2024-25)","readingsCount":4,"source":"CGWB Ground Water Year Book of Maharashtra + GW Quality report","dataUrl":"https://cgwb.gov.in/cgwbpnm/"},"geometry":{"type":"Point","coordinates":[73.1589,19.3164]}},{"type":"Feature","properties":{"name":"Padghe","kind":"cgwb-well","stationCode":"W192145073102001","district":"Thane","block":"Bhiwandi","wellType":"Dug Well","aquifer":"Unconfined","latestDepthMbgl":0.18,"latestReading":"2025-01 (Year Book 2024-25)","readingsCount":4,"source":"CGWB Ground Water Year Book of Maharashtra + GW Quality report","dataUrl":"https://cgwb.gov.in/cgwbpnm/"},"geometry":{"type":"Point","coordinates":[73.1722,19.3625]}},{"type":"Feature","properties":{"name":"Vajreshwari","kind":"cgwb-well","stationCode":"W192916073013101","district":"Thane","block":"Bhiwandi","wellType":"Dug Well","aquifer":"Unconfined","latestDepthMbgl":1.42,"latestReading":"2025-01 (Year Book 2024-25)","readingsCount":4,"source":"CGWB Ground Water Year Book of Maharashtra + GW Quality report","dataUrl":"https://cgwb.gov.in/cgwbpnm/"},"geometry":{"type":"Point","coordinates":[73.0253,19.4878]}},{"type":"Feature","properties":{"name":"Hetutane","kind":"cgwb-well","stationCode":"W191012073055501","district":"Thane","block":"Kalyan","wellType":"Dug Well","aquifer":"Unconfined","latestDepthMbgl":0.22,"latestReading":"2024-08 (Year Book 2024-25)","readingsCount":2,"source":"CGWB Ground Water Year Book of Maharashtra + GW Quality report","dataUrl":"https://cgwb.gov.in/cgwbpnm/"},"geometry":{"type":"Point","coordinates":[73.0986,19.17]}},{"type":"Feature","properties":{"name":"Kolimb","kind":"cgwb-well","stationCode":"W191700073160001","district":"Thane","block":"Kalyan","wellType":"Dug Well","aquifer":"Unconfined","latestDepthMbgl":0.12,"latestReading":"2025-01 (Year Book 2024-25)","readingsCount":4,"source":"CGWB Ground Water Year Book of Maharashtra + GW Quality report","dataUrl":"https://cgwb.gov.in/cgwbpnm/"},"geometry":{"type":"Point","coordinates":[73.2667,19.2833]}},{"type":"Feature","properties":{"name":"Pimpleshwar","kind":"cgwb-well","stationCode":"W191136073054201","district":"Thane","block":"Kalyan","wellType":"Dug Well","aquifer":"Unconfined","latestDepthMbgl":1.46,"latestReading":"2025-01 (Year Book 2024-25)","readingsCount":4,"source":"CGWB Ground Water Year Book of Maharashtra + GW Quality report","dataUrl":"https://cgwb.gov.in/cgwbpnm/"},"geometry":{"type":"Point","coordinates":[73.095,19.1933]}},{"type":"Feature","properties":{"name":"Cherfully","kind":"cgwb-well","stationCode":"W192800073200001","district":"Thane","block":"Shahapur","wellType":"Dug Well","aquifer":"Unconfined","latestDepthMbgl":4.8,"latestReading":"2025-01 (Year Book 2024-25)","readingsCount":4,"source":"CGWB Ground Water Year Book of Maharashtra + GW Quality report","dataUrl":"https://cgwb.gov.in/cgwbpnm/"},"geometry":{"type":"Point","coordinates":[73.3333,19.4667]}},{"type":"Feature","properties":{"name":"Bindarpada","kind":"cgwb-well","stationCode":"W191700072570001","district":"Thane","block":"Thane","wellType":"Dug Well","aquifer":"Unconfined","latestDepthMbgl":2.62,"latestReading":"2025-01 (Year Book 2024-25)","readingsCount":4,"source":"CGWB Ground Water Year Book of Maharashtra + GW Quality report","dataUrl":"https://cgwb.gov.in/cgwbpnm/"},"geometry":{"type":"Point","coordinates":[72.95,19.2833]}},{"type":"Feature","properties":{"name":"Dahisar","kind":"cgwb-well","stationCode":"W190640073035001","district":"Thane","block":"Thane","wellType":"Dug Well","aquifer":"Unconfined","latestDepthMbgl":2.56,"latestReading":"2025-01 (Year Book 2024-25)","readingsCount":4,"source":"CGWB Ground Water Year Book of Maharashtra + GW Quality report","dataUrl":"https://cgwb.gov.in/cgwbpnm/"},"geometry":{"type":"Point","coordinates":[73.0639,19.1111]}},{"type":"Feature","properties":{"name":"Yeur","kind":"cgwb-well","stationCode":"W191405072564101","district":"Thane","block":"Thane","wellType":"Dug Well","aquifer":"Unconfined","latestDepthMbgl":2.19,"latestReading":"2025-01 (Year Book 2024-25)","readingsCount":4,"source":"CGWB Ground Water Year Book of Maharashtra + GW Quality report","dataUrl":"https://cgwb.gov.in/cgwbpnm/"},"geometry":{"type":"Point","coordinates":[72.9447,19.2347]}},{"type":"Feature","properties":{"name":"Katolwadi (Mulgaon)","kind":"cgwb-well","stationCode":"W190950073181001","district":"Thane","block":"Ulhasnagar","wellType":"Dug Well","aquifer":"Unconfined","latestDepthMbgl":1.18,"latestReading":"2025-01 (Year Book 2024-25)","readingsCount":4,"source":"CGWB Ground Water Year Book of Maharashtra + GW Quality report","dataUrl":"https://cgwb.gov.in/cgwbpnm/"},"geometry":{"type":"Point","coordinates":[73.3028,19.1639]}},{"type":"Feature","properties":{"name":"Navali","kind":"cgwb-well","stationCode":"W191041073084901","district":"Thane","block":"Ulhasnagar","wellType":"Dug Well","aquifer":"Unconfined","latestDepthMbgl":0.36,"latestReading":"2024-11 (Year Book 2024-25)","readingsCount":3,"source":"CGWB Ground Water Year Book of Maharashtra + GW Quality report","dataUrl":"https://cgwb.gov.in/cgwbpnm/"},"geometry":{"type":"Point","coordinates":[73.1469,19.1781]}}]}