{"nvdm":"1.0","dataset":"basins/monitoring-points","scope":{"kind":"basin","id":"mumbai-rivers"},"provenance":{"sources":[{"id":"mpcb-water-quality-reports","title":"MPCB annual Water Quality Status of Maharashtra reports (2018-19 to 2023-24; 2019-20 never published)","publisher":"Maharashtra Pollution Control Board","license":"Maharashtra government publication, cited with attribution","role":"input","url":"https://mpcb.gov.in/focus-area/reports-documents/water","as_of":"2024"},{"id":"praja-civic-issues-mumbai","title":"Praja Foundation, Report on the Status of Civic Issues in Mumbai (May 2025 edition = 2024 data; RTI-sourced tables)","publisher":"Praja Foundation (via OpenCity mirror)","license":"report (c) Praja, RTI-sourced tables; OpenCity mirror","role":"input","as_of":"2024"},{"id":"cpcb-prs-report","title":"CPCB, Polluted River Stretches for Restoration of Water Quality, October 2025 (updated version)","publisher":"Central Pollution Control Board","license":"restrictive, permission required: the CPCB website policy permits material to be 'downloaded to file or printer without requiring specific prior permission', and 'Any other proposed use of the material is subject to the approval of competent authority of CPCB' - no redistribution without approval","role":"input","url":"https://cpcb.gov.in/polluted-river-stretches/","as_of":"2025-10"},{"title":"MPCB Action Plan for Mithi River (2019) - station 2168 series context and the 16-point sampling","publisher":"Maharashtra Pollution Control Board","license":"Maharashtra government publication, cited with attribution","closed":true,"as_of":"2019"},{"id":"fabdem-dem","title":"FABDEM v1-2 30 m bare-earth DEM","publisher":"University of Bristol (Hawker et al.), via GEE sat-io","license":"CC BY-NC-SA 4.0 (non-commercial AND share-alike); derived from Copernicus GLO-30, so the mandatory Copernicus WorldDEM-30 attribution to DLR and Airbus passes down (both notices reproduced in DATA-LICENSE.md)","role":"input"}],"method":"derived","produced_at":"2026-09-06","produced_by":"scripts/build_mumbai_rivers_basin.py","internal_inputs":["public/data/river-quality-mumbai.json","public/data/basins/mumbai-rivers/sub-hydrosheds.geojson"],"note":"Mumbai's rivers and lakes basin atlas (scope mumbai-rivers; the city's own scope id 'mumbai' is the MMR region). Catchment joins (shedId) come from sub-hydrosheds.geojson, whose city half is the reviewed pipeline input pipeline-inputs/mumbai-river-catchments-fabdem.geojson (FABDEM + WhiteboxTools); CPCB stretch and station figures are read from the reviewed national table pipeline-inputs/atlas/prs/cpcb-2025.json. FABDEM lineage makes the catchment-joined families CC BY-NC-SA (non-commercial) encumbered."},"type":"FeatureCollection","features":[{"type":"Feature","properties":{"name":"Mithi at Powai (origin)","stationKey":"mithi-powai","hasReadings":false,"river":"Mithi River","river_id":"mithi","kind":"wq-station","agency":"MPCB (sampling point)","readingsNote":"No published series for this point among the sources compiled here (MPCB annual reports, CPCB NWMP via Praja 2024)","shedId":"MITHI","source":"public/data/river-quality-mumbai.json","dataUrl":"https://mpcb.gov.in/focus-area/reports-documents/water"},"geometry":{"type":"Point","coordinates":[72.905,19.12]}},{"type":"Feature","properties":{"name":"Mithi at Mithi Bridge / Kurla (MPCB-CPCB NWMP, stn 2168)","stationKey":"mithi-kurla","hasReadings":true,"river":"Mithi River","river_id":"mithi","kind":"wq-station","agency":"MPCB / CPCB NWMP","stationCode":"2168","cpcbPriority":"I","bod2024":80.0,"source":"MPCB Water Quality Status of Maharashtra annual reports; CPCB NWMP series via Praja Foundation 2024","dataUrl":"https://mpcb.gov.in/focus-area/reports-documents/water","locationNote":"Coordinates place station 2168 at the Kurla bridge; CPCB's own location text reads 'near road bridge, Mahim' and MPCB's annual reports call it 'Mithi at Mahim bridge'. Position approximate."},"geometry":{"type":"Point","coordinates":[72.888,19.072]}},{"type":"Feature","properties":{"name":"Mithi at Mahim Creek (mouth)","stationKey":"mithi-mahim","hasReadings":false,"river":"Mithi River","river_id":"mithi","kind":"wq-station","agency":"MPCB (sampling point)","readingsNote":"No published series for this point among the sources compiled here (MPCB annual reports, CPCB NWMP via Praja 2024)","source":"public/data/river-quality-mumbai.json","dataUrl":"https://mpcb.gov.in/focus-area/reports-documents/water"},"geometry":{"type":"Point","coordinates":[72.842,19.041]}},{"type":"Feature","properties":{"name":"Dahisar near Tulsi Lake (origin)","stationKey":"dahisar-tulsi","hasReadings":false,"river":"Dahisar River","river_id":"dahisar","kind":"wq-station","agency":"MPCB (sampling point)","readingsNote":"No published series for this point among the sources compiled here (MPCB annual reports, CPCB NWMP via Praja 2024)","shedId":"DAHISAR","source":"public/data/river-quality-mumbai.json","dataUrl":"https://mpcb.gov.in/focus-area/reports-documents/water"},"geometry":{"type":"Point","coordinates":[72.905,19.205]}},{"type":"Feature","properties":{"name":"Dahisar at Dahisar (West)","stationKey":"dahisar-west","hasReadings":false,"river":"Dahisar River","river_id":"dahisar","kind":"wq-station","agency":"MPCB (sampling point)","readingsNote":"No published series for this point among the sources compiled here (MPCB annual reports, CPCB NWMP via Praja 2024)","shedId":"DAHISAR","source":"public/data/river-quality-mumbai.json","dataUrl":"https://mpcb.gov.in/focus-area/reports-documents/water"},"geometry":{"type":"Point","coordinates":[72.86,19.252]}},{"type":"Feature","properties":{"name":"Poisar near SGNP (origin)","stationKey":"poisar-sgnp","hasReadings":false,"river":"Poisar River","river_id":"poisar","kind":"wq-station","agency":"MPCB (sampling point)","readingsNote":"No published series for this point among the sources compiled here (MPCB annual reports, CPCB NWMP via Praja 2024)","shedId":"DAHISAR","source":"public/data/river-quality-mumbai.json","dataUrl":"https://mpcb.gov.in/focus-area/reports-documents/water"},"geometry":{"type":"Point","coordinates":[72.89,19.205]}},{"type":"Feature","properties":{"name":"Poisar at Kandivali","stationKey":"poisar-kandivali","hasReadings":false,"river":"Poisar River","river_id":"poisar","kind":"wq-station","agency":"MPCB (sampling point)","readingsNote":"No published series for this point among the sources compiled here (MPCB annual reports, CPCB NWMP via Praja 2024)","shedId":"POISAR","source":"public/data/river-quality-mumbai.json","dataUrl":"https://mpcb.gov.in/focus-area/reports-documents/water"},"geometry":{"type":"Point","coordinates":[72.85,19.205]}},{"type":"Feature","properties":{"name":"Oshiwara near Aarey (origin)","stationKey":"oshiwara-aarey","hasReadings":false,"river":"Oshiwara River","river_id":"oshiwara","kind":"wq-station","agency":"MPCB (sampling point)","readingsNote":"No published series for this point among the sources compiled here (MPCB annual reports, CPCB NWMP via Praja 2024)","shedId":"OSHIWARA","source":"public/data/river-quality-mumbai.json","dataUrl":"https://mpcb.gov.in/focus-area/reports-documents/water"},"geometry":{"type":"Point","coordinates":[72.875,19.155]}},{"type":"Feature","properties":{"name":"Oshiwara at Goregaon","stationKey":"oshiwara-goregaon","hasReadings":false,"river":"Oshiwara River","river_id":"oshiwara","kind":"wq-station","agency":"MPCB (sampling point)","readingsNote":"No published series for this point among the sources compiled here (MPCB annual reports, CPCB NWMP via Praja 2024)","shedId":"OSHIWARA","source":"public/data/river-quality-mumbai.json","dataUrl":"https://mpcb.gov.in/focus-area/reports-documents/water"},"geometry":{"type":"Point","coordinates":[72.835,19.155]}},{"type":"Feature","properties":{"name":"Ulhas at Badlapur Water Works","stationKey":"ulhas-badlapur","hasReadings":true,"river":"Ulhas River","river_id":"ulhas","kind":"wq-station","agency":"MPCB / CPCB NWMP","stationCode":"1094","cpcbPriority":"V","bod2024":4.0,"source":"MPCB Water Quality Status of Maharashtra annual reports; CPCB NWMP series via Praja Foundation 2024","dataUrl":"https://mpcb.gov.in/focus-area/reports-documents/water"},"geometry":{"type":"Point","coordinates":[73.23,19.16]}},{"type":"Feature","properties":{"name":"Ulhas at NRC Bund, Mohane (MPCB stn 1093)","stationKey":"ulhas-nrc-mohane","hasReadings":true,"river":"Ulhas River","river_id":"ulhas","kind":"wq-station","agency":"MPCB / CPCB NWMP","stationCode":"1093","cpcbPriority":"V","bod2024":7.0,"source":"MPCB Water Quality Status of Maharashtra annual reports; CPCB NWMP series via Praja Foundation 2024","dataUrl":"https://mpcb.gov.in/focus-area/reports-documents/water"},"geometry":{"type":"Point","coordinates":[73.12,19.26]}},{"type":"Feature","properties":{"name":"Ulhas at Jambhul water works (MPCB stn 2162)","stationKey":"ulhas-jambhul","hasReadings":true,"river":"Ulhas River","river_id":"ulhas","kind":"wq-station","agency":"MPCB / CPCB NWMP","stationCode":"2162","cpcbPriority":"V","bod2024":4.0,"source":"MPCB Water Quality Status of Maharashtra annual reports; CPCB NWMP series via Praja Foundation 2024","dataUrl":"https://mpcb.gov.in/focus-area/reports-documents/water"},"geometry":{"type":"Point","coordinates":[73.11,19.22]}}]}