{"nvdm":"1.0","dataset":"basins/reservoirs","scope":{"kind":"basin","id":"mumbai-rivers"},"provenance":{"sources":[{"id":"wrd-pravah-dam-feed","title":"Maharashtra WRD Pravah dam-safety daily bulletin (live capacities of the state dams)","publisher":"Maharashtra WRD (Pravah dam-safety portal)","license":"Maharashtra government public feed, no stated licence - cited with attribution","role":"asserts"},{"title":"BMC Hydraulic Engineer's Department, published live-storage (useful content) figures for the seven lakes, as carried in the city config (src/lib/cities/mumbai.ts, fullCapacityMcft)","publisher":"Brihanmumbai Municipal Corporation, Hydraulic Engineer's Department","license":"Maharashtra government publication, cited with attribution","closed":true,"as_of":"2026"},{"id":"osm-overpass","title":"OpenStreetMap (Overpass API extracts: rivers, water bodies, drains, industrial landuse, corporation boundaries)","publisher":"OpenStreetMap contributors","license":"ODbL 1.0","role":"input"},{"id":"fabdem-dem","title":"FABDEM v1-2 30 m bare-earth DEM","publisher":"University of Bristol (Hawker et al.), via GEE sat-io","license":"CC BY-NC-SA 4.0 (non-commercial AND share-alike); derived from Copernicus GLO-30, so the mandatory Copernicus WorldDEM-30 attribution to DLR and Airbus passes down (both notices reproduced in DATA-LICENSE.md)","role":"input"}],"method":"derived","produced_at":"2026-09-06","produced_by":"scripts/build_mumbai_rivers_basin.py","internal_inputs":["public/data/mmr-dam-storage.json","public/geojson/mumbai-water-bodies-current.geojson","public/data/cascade/mumbai-cascade-catchments.geojson"],"note":"Mumbai's rivers and lakes basin atlas (scope mumbai-rivers; the city's own scope id 'mumbai' is the MMR region). Catchment joins (shedId) come from sub-hydrosheds.geojson, whose city half is the reviewed pipeline input pipeline-inputs/mumbai-river-catchments-fabdem.geojson (FABDEM + WhiteboxTools); CPCB stretch and station figures are read from the reviewed national table pipeline-inputs/atlas/prs/cpcb-2025.json. FABDEM lineage makes the catchment-joined families CC BY-NC-SA (non-commercial) encumbered."},"type":"FeatureCollection","features":[{"type":"Feature","properties":{"name":"Bhatsa","kind":"supply-reservoir","liveCode":"bhatsa","operator":"Brihanmumbai Municipal Corporation, Hydraulic Engineer's Department (supply)","bmcShareMcft":25321.9,"liveCapacityMcum":942.1,"catchmentKm2":380.073,"supplyShare":"About 48% of BMC's supply (BMC Hydraulic Engineer's Department)","feed":"Maharashtra WRD Pravah daily bulletin (live storage shown when a reading is available)","shareNote":"BMC's share of the lake, from BMC's published live-storage figures, not the dam's total live capacity on the state's books","shedId":"BHATSA","source":"WRD Pravah bulletin (capacity); BMC Hydraulic Engineer's Department (share); FABDEM lake-catchment atlas (catchment)","dataUrl":"https://mwrdpravah.in/damsafety/control/main"},"geometry":{"type":"Point","coordinates":[73.43891,19.534]}},{"type":"Feature","properties":{"name":"Upper Vaitarna","kind":"supply-reservoir","liveCode":"upper_vaitarna","operator":"Brihanmumbai Municipal Corporation, Hydraulic Engineer's Department (supply)","bmcShareMcft":8018.1,"liveCapacityMcum":331.31,"catchmentKm2":160.837,"feed":"Maharashtra WRD Pravah daily bulletin (live storage shown when a reading is available)","shareNote":"BMC's share of the lake, from BMC's published live-storage figures, not the dam's total live capacity on the state's books","shedId":"VAITARNA","source":"WRD Pravah bulletin (capacity); BMC Hydraulic Engineer's Department (share); FABDEM lake-catchment atlas (catchment)","dataUrl":"https://mwrdpravah.in/damsafety/control/main"},"geometry":{"type":"Point","coordinates":[73.5144,19.82919]}},{"type":"Feature","properties":{"name":"Middle Vaitarna","kind":"supply-reservoir","liveCode":"middle_vaitarna","operator":"Brihanmumbai Municipal Corporation, Hydraulic Engineer's Department (supply)","bmcShareMcft":6834.4,"liveCapacityMcum":193.53,"feed":"Maharashtra WRD Pravah daily bulletin (live storage shown when a reading is available)","shareNote":"BMC's share of the lake, from BMC's published live-storage figures, not the dam's total live capacity on the state's books","locationNote":"No OSM polygon for this reservoir in the water-bodies layer; point from the city config.","source":"WRD Pravah bulletin (capacity); BMC Hydraulic Engineer's Department (share); FABDEM lake-catchment atlas (catchment)","dataUrl":"https://mwrdpravah.in/damsafety/control/main"},"geometry":{"type":"Point","coordinates":[73.4,19.83]}},{"type":"Feature","properties":{"name":"Modak Sagar","kind":"supply-reservoir","liveCode":"modak_sagar","operator":"Brihanmumbai Municipal Corporation, Hydraulic Engineer's Department (supply)","bmcShareMcft":4552.9,"liveCapacityMcum":128.92,"catchmentKm2":296.302,"feed":"Maharashtra WRD Pravah daily bulletin (live storage shown when a reading is available)","shareNote":"BMC's share of the lake, from BMC's published live-storage figures, not the dam's total live capacity on the state's books","shedId":"VAITARNA","source":"WRD Pravah bulletin (capacity); BMC Hydraulic Engineer's Department (share); FABDEM lake-catchment atlas (catchment)","dataUrl":"https://mwrdpravah.in/damsafety/control/main"},"geometry":{"type":"Point","coordinates":[73.31811,19.67709]}},{"type":"Feature","properties":{"name":"Tansa","kind":"supply-reservoir","liveCode":"tansa","operator":"Brihanmumbai Municipal Corporation, Hydraulic Engineer's Department (supply)","bmcShareMcft":5123.5,"liveCapacityMcum":172.52,"catchmentKm2":119.686,"feed":"Maharashtra WRD Pravah daily bulletin (live storage shown when a reading is available)","shareNote":"BMC's share of the lake, from BMC's published live-storage figures, not the dam's total live capacity on the state's books","shedId":"TANSA","source":"WRD Pravah bulletin (capacity); BMC Hydraulic Engineer's Department (share); FABDEM lake-catchment atlas (catchment)","dataUrl":"https://mwrdpravah.in/damsafety/control/main"},"geometry":{"type":"Point","coordinates":[73.26556,19.56943]}},{"type":"Feature","properties":{"name":"Vihar","kind":"supply-reservoir","operator":"Brihanmumbai Municipal Corporation, Hydraulic Engineer's Department (supply)","bmcShareMcft":978.2,"catchmentKm2":14.055,"feed":"No public daily feed: BMC publishes no machine-readable storage for Vihar and Tulsi","shareNote":"BMC's share of the lake, from BMC's published live-storage figures, not the dam's total live capacity on the state's books","shedId":"MITHI","source":"WRD Pravah bulletin (capacity); BMC Hydraulic Engineer's Department (share); FABDEM lake-catchment atlas (catchment)"},"geometry":{"type":"Point","coordinates":[72.91091,19.15399]}},{"type":"Feature","properties":{"name":"Tulsi","kind":"supply-reservoir","operator":"Brihanmumbai Municipal Corporation, Hydraulic Engineer's Department (supply)","bmcShareMcft":284.1,"catchmentKm2":6.847,"feed":"No public daily feed: BMC publishes no machine-readable storage for Vihar and Tulsi","shareNote":"BMC's share of the lake, from BMC's published live-storage figures, not the dam's total live capacity on the state's books","shedId":"DAHISAR","source":"WRD Pravah bulletin (capacity); BMC Hydraulic Engineer's Department (share); FABDEM lake-catchment atlas (catchment)"},"geometry":{"type":"Point","coordinates":[72.91768,19.19113]}}]}