{"type":"FeatureCollection","features":[{"type":"Feature","geometry":{"type":"Polygon","coordinates":[[[77.41201,12.34715],[77.41115,12.34713],[77.41107,12.35134],[77.41021,12.35133],[77.41023,12.35049],[77.40852,12.35046],[77.4085,12.3513],[77.40764,12.35128],[77.40763,12.35212],[77.40591,12.35209],[77.4059,12.35294],[77.40536,12.35293],[77.40504,12.35379],[77.40503,12.3538],[77.40499,12.35545],[77.40328,12.35542],[77.40327,12.35626],[77.40241,12.35624],[77.40239,12.35709],[77.40111,12.35706],[77.40094,12.35733],[77.40063,12.35971],[77.39917,12.36148],[77.39601,12.36439],[77.39423,12.36575],[77.39297,12.36699],[77.39213,12.36897],[77.39182,12.37031],[77.39141,12.37228],[77.39152,12.37373],[77.39216,12.37539],[77.39216,12.37715],[77.39196,12.3785],[77.39112,12.38006],[77.39092,12.38171],[77.39103,12.38327],[77.39156,12.38409],[77.39272,12.38492],[77.39325,12.38637],[77.3922,12.38668],[77.39019,12.38586],[77.3883,12.38618],[77.3863,12.38691],[77.38599,12.38847],[77.38515,12.39013],[77.38474,12.39158],[77.38443,12.39303],[77.38401,12.39376],[77.3838,12.3949],[77.38296,12.39563],[77.38296,12.39666],[77.38339,12.39749],[77.38444,12.39811],[77.38655,12.39841],[77.38709,12.39924],[77.38709,12.39996],[77.38636,12.40214],[77.38552,12.40308],[77.38426,12.4037],[77.38331,12.40402],[77.38236,12.40381],[77.38088,12.40392],[77.38057,12.40423],[77.38131,12.40516],[77.38215,12.40578],[77.38247,12.40661],[77.38216,12.40848],[77.38207,12.41065],[77.38133,12.41117],[77.38038,12.41128],[77.37996,12.4118],[77.37944,12.41304],[77.37871,12.41491],[77.37777,12.41595],[77.37682,12.41612],[77.37682,12.41658],[77.37714,12.41771],[77.37757,12.41865],[77.3781,12.41978],[77.37874,12.42133],[77.37927,12.4232],[77.37991,12.42506],[77.38076,12.42661],[77.3814,12.42847],[77.38225,12.42961],[77.3833,12.43054],[77.38605,12.43167],[77.38721,12.43187],[77.38858,12.43166],[77.39027,12.43145],[77.39195,12.43144],[77.39364,12.43133],[77.39554,12.43091],[77.39764,12.43059],[77.39965,12.43058],[77.40545,12.43159],[77.40693,12.43242],[77.40914,12.43282],[77.41168,12.43302],[77.4141,12.43312],[77.41684,12.43393],[77.41854,12.43528],[77.4197,12.4361],[77.42086,12.4362],[77.4234,12.43878],[77.4252,12.44126],[77.42574,12.44354],[77.42596,12.44478],[77.4268,12.44622],[77.42713,12.44809],[77.42819,12.44985],[77.42956,12.45025],[77.43093,12.4487],[77.43092,12.44611],[77.43028,12.44435],[77.42985,12.4431],[77.43048,12.44134],[77.43205,12.43988],[77.43447,12.43884],[77.43679,12.43945],[77.43827,12.44007],[77.44027,12.43985],[77.44565,12.43952],[77.44703,12.44097],[77.44796,12.44117],[77.44924,12.44116],[77.45051,12.44116],[77.45156,12.44074],[77.45166,12.43877],[77.44986,12.43733],[77.44901,12.4365],[77.44815,12.43288],[77.44731,12.43237],[77.44667,12.43164],[77.44625,12.43102],[77.44508,12.42947],[77.4436,12.42761],[77.44148,12.42596],[77.44063,12.424],[77.43944,12.41727],[77.44007,12.41457],[77.44164,12.41395],[77.44375,12.41363],[77.44544,12.41362],[77.44776,12.41371],[77.44892,12.41371],[77.44997,12.41319],[77.45049,12.41215],[77.4507,12.41122],[77.45218,12.41111],[77.45429,12.41172],[77.45534,12.41058],[77.45818,12.41005],[77.45966,12.41004],[77.46082,12.41024],[77.46219,12.41065],[77.46282,12.41086],[77.46356,12.41127],[77.46462,12.41147],[77.4662,12.41167],[77.46799,12.41208],[77.46968,12.4129],[77.47074,12.41373],[77.47222,12.41445],[77.47348,12.41444],[77.4757,12.41474],[77.47718,12.41463],[77.47865,12.4138],[77.47939,12.41369],[77.4815,12.4143],[77.48308,12.41461],[77.48434,12.4145],[77.48539,12.41325],[77.48675,12.41149],[77.48822,12.40899],[77.48895,12.40713],[77.48894,12.40495],[77.48756,12.40278],[77.48535,12.40383],[77.48103,12.40384],[77.47924,12.40333],[77.47786,12.40127],[77.47711,12.40034],[77.47648,12.3992],[77.47595,12.39796],[77.47583,12.39589],[77.47582,12.39423],[77.47602,12.39091],[77.47623,12.38998],[77.47802,12.38977],[77.48002,12.38945],[77.48139,12.38851],[77.48191,12.38706],[77.482,12.38467],[77.48336,12.38249],[77.48483,12.38],[77.48555,12.37575],[77.48606,12.37274],[77.48816,12.37077],[77.48995,12.36879],[77.49036,12.36672],[77.49056,12.36475],[77.49161,12.36298],[77.49466,12.36204],[77.49529,12.35996],[77.4957,12.35789],[77.49695,12.35591],[77.49926,12.35352],[77.49925,12.34979],[77.50018,12.34658],[77.50006,12.34264],[77.49931,12.33933],[77.49665,12.33385],[77.49496,12.33385],[77.49275,12.33438],[77.49001,12.33481],[77.48748,12.33326],[77.48505,12.33172],[77.48251,12.32924],[77.47976,12.3277],[77.47175,12.32742],[77.47049,12.32753],[77.46838,12.32795],[77.46701,12.32848],[77.46438,12.32932],[77.46228,12.33109],[77.45986,12.33224],[77.45681,12.33266],[77.45397,12.33433],[77.45345,12.33723],[77.45504,12.33878],[77.45515,12.33961],[77.45621,12.34075],[77.45716,12.34178],[77.45749,12.34395],[77.45675,12.34499],[77.45299,12.35278],[77.45247,12.35402],[77.45279,12.35547],[77.45374,12.3564],[77.45406,12.35754],[77.45386,12.35847],[77.45249,12.35827],[77.45112,12.35838],[77.44933,12.35911],[77.44828,12.36077],[77.44608,12.36399],[77.44482,12.36503],[77.44356,12.36618],[77.44283,12.36722],[77.44167,12.36836],[77.43947,12.37055],[77.43778,12.37169],[77.4361,12.3717],[77.43525,12.37077],[77.4344,12.36922],[77.43429,12.36715],[77.43449,12.36476],[77.43501,12.36248],[77.43584,12.36041],[77.43752,12.35895],[77.4391,12.35811],[77.44142,12.35769],[77.44289,12.35603],[77.44382,12.3524],[77.44487,12.35146],[77.44635,12.35156],[77.44793,12.35166],[77.44856,12.35134],[77.44834,12.3501],[77.44781,12.34793],[77.44801,12.34637],[77.44864,12.34554],[77.44885,12.34461],[77.44821,12.34337],[77.44683,12.34203],[77.44567,12.3411],[77.43985,12.33573],[77.43679,12.33512],[77.43395,12.33513],[77.4311,12.33515],[77.4288,12.33899],[77.42775,12.33951],[77.42606,12.34045],[77.42354,12.34129],[77.42112,12.34181],[77.41912,12.34286],[77.41723,12.3438],[77.41544,12.34505],[77.41375,12.34537],[77.41203,12.34588],[77.41201,12.34715]]]},"properties":{"name":"Arakavathi","areaHa":10193.73507143,"type":"Medium","shedId":"C05CAM36"}},{"type":"Feature","geometry":{"type":"Polygon","coordinates":[[[77.33608,12.87513],[77.3373,12.87525],[77.3379,12.87534],[77.33817,12.87519],[77.33868,12.87495],[77.33895,12.8746],[77.33904,12.8743],[77.33922,12.87369],[77.33919,12.87339],[77.33915,12.87298],[77.33924,12.87227],[77.33921,12.87195],[77.33921,12.87174],[77.33915,12.87139],[77.33912,12.8711],[77.33903,12.87083],[77.33908,12.87057],[77.3392,12.87027],[77.33938,12.86998],[77.33947,12.86977],[77.33989,12.86906],[77.33995,12.8688],[77.33995,12.86851],[77.33986,12.86833],[77.33976,12.86812],[77.33958,12.86801],[77.33941,12.86798],[77.33923,12.86795],[77.33907,12.86795],[77.33841,12.86769],[77.33823,12.86742],[77.33805,12.86698],[77.33784,12.86634],[77.33772,12.86598],[77.33769,12.86557],[77.33774,12.86525],[77.33789,12.86487],[77.33804,12.86463],[77.33831,12.86436],[77.33852,12.86419],[77.33864,12.86407],[77.33867,12.86386],[77.33858,12.86357],[77.33858,12.86295],[77.33884,12.8626],[77.33917,12.86239],[77.33935,12.86221],[77.33932,12.86186],[77.33917,12.86162],[77.33899,12.86139],[77.33878,12.8611],[77.33854,12.8608],[77.33845,12.86036],[77.33839,12.86004],[77.33826,12.85963],[77.33817,12.85919],[77.3382,12.85877],[77.3382,12.85842],[77.3382,12.85801],[77.3382,12.85772],[77.33825,12.85736],[77.33828,12.85713],[77.33861,12.8568],[77.33882,12.85662],[77.33906,12.85636],[77.33933,12.85615],[77.33969,12.85595],[77.3399,12.85591],[77.34002,12.85565],[77.33996,12.85541],[77.33981,12.85524],[77.33948,12.85506],[77.33935,12.8548],[77.33944,12.85442],[77.33962,12.85406],[77.33977,12.85371],[77.33998,12.85341],[77.34037,12.85318],[77.3407,12.85306],[77.34097,12.85306],[77.34145,12.85294],[77.34145,12.85279],[77.34151,12.85264],[77.34153,12.85244],[77.34168,12.85208],[77.34165,12.85182],[77.34114,12.85132],[77.34111,12.851],[77.34132,12.85064],[77.34153,12.85044],[77.34171,12.85017],[77.34179,12.84997],[77.342,12.84952],[77.342,12.84923],[77.342,12.84899],[77.34194,12.8487],[77.34164,12.84852],[77.34128,12.84853],[77.34074,12.84862],[77.33987,12.84877],[77.33894,12.84912],[77.33816,12.84927],[77.33774,12.84924],[77.33741,12.84901],[77.3372,12.84872],[77.33702,12.84845],[77.33678,12.84819],[77.3366,12.84807],[77.3363,12.84801],[77.336,12.84793],[77.33561,12.84775],[77.3354,12.84764],[77.33531,12.84749],[77.33501,12.84743],[77.33435,12.84711],[77.33411,12.8472],[77.33387,12.84714],[77.33369,12.84702],[77.33348,12.84691],[77.33231,12.8465],[77.33216,12.84632],[77.33209,12.84612],[77.332,12.84585],[77.33182,12.84544],[77.33167,12.84524],[77.33155,12.84485],[77.33146,12.84403],[77.33184,12.84344],[77.33199,12.84309],[77.33211,12.84256],[77.33226,12.84232],[77.33241,12.84209],[77.3325,12.84176],[77.33259,12.84135],[77.33262,12.84103],[77.33264,12.84067],[77.33264,12.84038],[77.33252,12.84011],[77.33237,12.83994],[77.3321,12.83953],[77.33192,12.83923],[77.33153,12.83885],[77.33135,12.83871],[77.3312,12.8385],[77.33108,12.83833],[77.33107,12.83829],[77.33074,12.83791],[77.3308,12.83774],[77.33107,12.83744],[77.33131,12.83712],[77.33149,12.83694],[77.33164,12.83679],[77.33167,12.8365],[77.33161,12.83632],[77.33134,12.83626],[77.33098,12.83627],[77.33056,12.8363],[77.33026,12.83621],[77.32972,12.83598],[77.32957,12.83577],[77.32939,12.83551],[77.32926,12.83433],[77.32908,12.83374],[77.32887,12.83307],[77.32881,12.83242],[77.32904,12.83177],[77.32913,12.83121],[77.32961,12.83054],[77.32982,12.83027],[77.33038,12.83006],[77.33077,12.82988],[77.33095,12.82985],[77.33116,12.82971],[77.33128,12.82953],[77.33128,12.82935],[77.33122,12.82912],[77.3311,12.82891],[77.3308,12.82877],[77.33068,12.82859],[77.33047,12.82841],[77.33032,12.82797],[77.33043,12.82738],[77.33037,12.82691],[77.33031,12.82647],[77.33031,12.82609],[77.33025,12.82553],[77.33025,12.82503],[77.33015,12.82456],[77.33003,12.82427],[77.32988,12.82409],[77.32889,12.82345],[77.32877,12.82324],[77.32877,12.82301],[77.32862,12.82265],[77.32853,12.82239],[77.32832,12.82207],[77.3281,12.82174],[77.32807,12.82142],[77.32798,12.82077],[77.32798,12.82033],[77.32798,12.81986],[77.32786,12.81948],[77.32765,12.81913],[77.32752,12.81889],[77.32677,12.81695],[77.32686,12.81645],[77.327,12.81592],[77.32739,12.8156],[77.32781,12.81513],[77.32838,12.81471],[77.32835,12.81418],[77.32816,12.81359],[77.32798,12.81298],[77.32783,12.81248],[77.32771,12.8118],[77.32762,12.81145],[77.3275,12.81116],[77.32743,12.81086],[77.32716,12.81007],[77.32722,12.8096],[77.32707,12.80916],[77.32674,12.80883],[77.32647,12.8086],[77.32626,12.80825],[77.32604,12.80804],[77.3255,12.80743],[77.32538,12.8071],[77.32508,12.80696],[77.32481,12.80696],[77.32448,12.80705],[77.3243,12.80696],[77.32409,12.80684],[77.32394,12.80673],[77.32388,12.80655],[77.32392,12.80627],[77.3245,12.80617],[77.32494,12.80632],[77.32538,12.80659],[77.32564,12.80685],[77.32582,12.80706],[77.32617,12.80719],[77.3268,12.80723],[77.32718,12.80723],[77.32753,12.8071],[77.32768,12.80693],[77.32769,12.80691],[77.3276,12.80621],[77.32751,12.8058],[77.32738,12.8053],[77.32738,12.80495],[77.32726,12.8046],[77.32723,12.8043],[77.32726,12.80404],[77.32729,12.80365],[77.32738,12.80327],[77.32725,12.80286],[77.32713,12.80268],[77.32707,12.80239],[77.32707,12.80207],[77.3271,12.8018],[77.32725,12.80151],[77.32746,12.80127],[77.328,12.80098],[77.32836,12.80083],[77.32854,12.80059],[77.32871,12.80027],[77.32898,12.79994],[77.32913,12.79962],[77.32952,12.79917],[77.32988,12.79888],[77.33018,12.7987],[77.33069,12.79861],[77.33108,12.79838],[77.33116,12.79799],[77.33119,12.79761],[77.33125,12.79732],[77.33116,12.79699],[77.33095,12.79635],[77.33077,12.79608],[77.33044,12.79567],[77.33019,12.79529],[77.33004,12.79523],[77.32888,12.79547],[77.32831,12.79562],[77.32774,12.7958],[77.32744,12.79606],[77.32705,12.79615],[77.32627,12.79613],[77.32579,12.79595],[77.32567,12.79554],[77.32566,12.79472],[77.32593,12.79392],[77.32608,12.79325],[77.32626,12.79277],[77.32616,12.79213],[77.32604,12.79198],[77.32583,12.79163],[77.32559,12.79145],[77.32529,12.79136],[77.32481,12.79134],[77.32442,12.79128],[77.32397,12.79128],[77.32355,12.79128],[77.32301,12.79114],[77.32244,12.79093],[77.32223,12.79079],[77.32178,12.79079],[77.32151,12.79082],[77.32121,12.79097],[77.32101,12.79123],[77.32071,12.79168],[77.3205,12.79221],[77.32038,12.79247],[77.32014,12.79277],[77.31957,12.793],[77.31894,12.79327],[77.31843,12.79327],[77.31825,12.79301],[77.31804,12.7918],[77.31789,12.79154],[77.31768,12.79136],[77.31792,12.79083],[77.31809,12.79054],[77.31812,12.7901],[77.31821,12.7896],[77.31839,12.78901],[77.3186,12.78836],[77.31865,12.78795],[77.31859,12.78768],[77.3182,12.78739],[77.31784,12.78716],[77.31697,12.78707],[77.31631,12.78625],[77.31628,12.78587],[77.31637,12.78545],[77.31654,12.78504],[77.31678,12.78457],[77.31693,12.78425],[77.31705,12.78395],[77.31705,12.78354],[77.31702,12.78304],[77.31687,12.78269],[77.31644,12.78219],[77.3162,12.78195],[77.31596,12.78181],[77.31572,12.7816],[77.31551,12.78128],[77.31545,12.78087],[77.31545,12.78054],[77.31533,12.78025],[77.31506,12.77966],[77.31485,12.77922],[77.31466,12.77887],[77.31445,12.7789],[77.31416,12.77925],[77.31362,12.77949],[77.31319,12.77858],[77.31283,12.77835],[77.31199,12.77823],[77.31172,12.77782],[77.31154,12.77735],[77.3116,12.77682],[77.31187,12.77629],[77.31202,12.77597],[77.31258,12.77485],[77.31273,12.77426],[77.3127,12.77361],[77.31239,12.77311],[77.3123,12.77288],[77.31212,12.77256],[77.31185,12.77244],[77.31134,12.77259],[77.31095,12.77276],[77.31065,12.77288],[77.31033,12.77303],[77.30973,12.77295],[77.30951,12.77259],[77.30945,12.77221],[77.30933,12.7718],[77.30909,12.7713],[77.309,12.77101],[77.30879,12.77033],[77.30887,12.76998],[77.30923,12.76956],[77.30923,12.76912],[77.30917,12.76889],[77.30917,12.76848],[77.30929,12.76821],[77.30932,12.7678],[77.30932,12.7675],[77.30925,12.76721],[77.3091,12.76701],[77.30872,12.76698],[77.30809,12.76698],[77.30731,12.76695],[77.30693,12.76675],[77.30659,12.76652],[77.30676,12.76595],[77.30682,12.76484],[77.30753,12.7636],[77.30939,12.76283],[77.31119,12.7627],[77.31185,12.76252],[77.31214,12.76223],[77.3125,12.76129],[77.3126,12.76042],[77.31351,12.75928],[77.31447,12.75816],[77.315,12.7571],[77.31518,12.75604],[77.31542,12.75527],[77.31553,12.7548],[77.31601,12.75421],[77.31691,12.75368],[77.31763,12.75327],[77.31829,12.75315],[77.31871,12.7532],[77.31936,12.75302],[77.31966,12.75296],[77.32014,12.75273],[77.32024,12.75254],[77.32344,12.75154],[77.32499,12.75171],[77.32704,12.75247],[77.32872,12.7534],[77.32992,12.75404],[77.33088,12.75469],[77.33172,12.75522],[77.33274,12.75574],[77.3337,12.75627],[77.33413,12.7565],[77.33514,12.75673],[77.33544,12.75673],[77.33608,12.75704],[77.33643,12.75641],[77.33678,12.75587],[77.33689,12.75537],[77.33702,12.75471],[77.33699,12.75431],[77.33693,12.75408],[77.33663,12.75379],[77.33621,12.75326],[77.33567,12.75261],[77.33519,12.75203],[77.33459,12.75138],[77.33374,12.75074],[77.33326,12.75027],[77.3329,12.75003],[77.33236,12.7498],[77.332,12.74957],[77.33134,12.74927],[77.33044,12.74898],[77.3293,12.74887],[77.32834,12.74858],[77.3275,12.74852],[77.32696,12.74841],[77.32618,12.74823],[77.32552,12.74788],[77.3251,12.74747],[77.32414,12.74712],[77.32312,12.74707],[77.32258,12.74689],[77.32204,12.7466],[77.32162,12.74613],[77.32108,12.7456],[77.32059,12.74496],[77.32005,12.74431],[77.31999,12.74431],[77.31909,12.74338],[77.31831,12.74244],[77.31806,12.74173],[77.31806,12.74108],[77.31806,12.74079],[77.31782,12.7405],[77.31764,12.74044],[77.31704,12.74103],[77.31668,12.74138],[77.31644,12.7415],[77.31596,12.7415],[77.3156,12.74151],[77.31542,12.74133],[77.31506,12.74127],[77.31476,12.74121],[77.31417,12.74122],[77.31387,12.74128],[77.31345,12.7414],[77.31321,12.74157],[77.31309,12.74198],[77.3121,12.74196],[77.31174,12.74199],[77.31099,12.74208],[77.31024,12.74217],[77.30931,12.74226],[77.30853,12.74227],[77.30784,12.74221],[77.30563,12.74233],[77.30554,12.74231],[77.30464,12.74216],[77.30425,12.74199],[77.30392,12.74175],[77.30365,12.74143],[77.30355,12.74125],[77.30343,12.74102],[77.30328,12.74064],[77.3028,12.73993],[77.30265,12.73961],[77.30259,12.73943],[77.30199,12.73926],[77.30118,12.73947],[77.30067,12.73965],[77.30034,12.73988],[77.30001,12.74021],[77.29999,12.74085],[77.3,12.7409],[77.29954,12.74068],[77.29918,12.74056],[77.29888,12.74051],[77.29834,12.74033],[77.29792,12.74033],[77.29744,12.74028],[77.29708,12.74016],[77.2966,12.74004],[77.29612,12.73999],[77.29581,12.73928],[77.29533,12.73887],[77.29473,12.73858],[77.29431,12.73834],[77.29389,12.73805],[77.29335,12.73752],[77.29287,12.73711],[77.29215,12.73682],[77.29095,12.73653],[77.29047,12.73636],[77.28987,12.73583],[77.28939,12.73524],[77.28896,12.73442],[77.28812,12.73372],[77.28722,12.73331],[77.28656,12.73278],[77.2856,12.73249],[77.28458,12.73208],[77.28398,12.73155],[77.28374,12.73114],[77.28331,12.7305],[77.28235,12.73021],[77.28098,12.7308],[77.28032,12.73121],[77.2799,12.7318],[77.27966,12.73222],[77.27925,12.73257],[77.27859,12.73275],[77.27763,12.73322],[77.27679,12.73334],[77.27613,12.73376],[77.27517,12.73406],[77.27404,12.73429],[77.27314,12.73436],[77.27266,12.73406],[77.2723,12.73342],[77.27205,12.73277],[77.27169,12.73189],[77.27241,12.73083],[77.273,12.73077],[77.27396,12.73094],[77.27463,12.73129],[77.27499,12.73164],[77.27553,12.73188],[77.27589,12.73164],[77.27612,12.73152],[77.27618,12.73117],[77.27618,12.73058],[77.27582,12.72999],[77.27528,12.72923],[77.27504,12.72894],[77.2748,12.72853],[77.27455,12.72823],[77.27413,12.728],[77.27359,12.72741],[77.27323,12.72706],[77.27263,12.72683],[77.27197,12.72742],[77.27162,12.72795],[77.27126,12.72819],[77.27006,12.72872],[77.26946,12.72925],[77.2688,12.72955],[77.26815,12.7299],[77.26785,12.73008],[77.26725,12.73008],[77.26683,12.73002],[77.26665,12.72967],[77.26647,12.72908],[77.26628,12.72844],[77.26586,12.72797],[77.26496,12.72768],[77.26364,12.72756],[77.26274,12.72739],[77.26184,12.72716],[77.26142,12.72663],[77.261,12.72575],[77.26088,12.72522],[77.26099,12.72463],[77.26141,12.72398],[77.26147,12.72316],[77.262,12.7221],[77.26233,12.7216],[77.26286,12.72146],[77.26332,12.72145],[77.26401,12.72133],[77.26437,12.72142],[77.26484,12.72125],[77.26526,12.72077],[77.26538,12.72024],[77.26563,12.71987],[77.26578,12.71939],[77.26553,12.71891],[77.26523,12.71848],[77.26591,12.7179],[77.26673,12.7179],[77.26787,12.71855],[77.26859,12.7189],[77.26925,12.71925],[77.26985,12.71913],[77.27033,12.71907],[77.27074,12.71866],[77.2711,12.7183],[77.27128,12.71771],[77.27128,12.71718],[77.27116,12.71648],[77.27103,12.71565],[77.27073,12.71501],[77.27043,12.7143],[77.27001,12.71348],[77.26935,12.71301],[77.26868,12.7126],[77.26791,12.71231],[77.26718,12.71131],[77.26718,12.71084],[77.26682,12.71008],[77.26598,12.70932],[77.26429,12.70791],[77.26285,12.70703],[77.26092,12.70636],[77.26081,12.70639],[77.26033,12.70627],[77.26,12.70619],[77.2597,12.70622],[77.25937,12.70634],[77.25895,12.7064],[77.25862,12.70634],[77.25805,12.70614],[77.25751,12.70614],[77.25677,12.70623],[77.25641,12.70647],[77.2562,12.7067],[77.25575,12.70761],[77.25539,12.70806],[77.25539,12.70841],[77.25575,12.70864],[77.25626,12.70861],[77.25668,12.70879],[77.25702,12.70923],[77.25717,12.70976],[77.25726,12.71032],[77.25717,12.71135],[77.25699,12.71176],[77.25685,12.71208],[77.25658,12.71252],[77.25643,12.71291],[77.25625,12.71326],[77.25604,12.7135],[77.25577,12.71367],[77.25538,12.71382],[77.25493,12.71374],[77.25466,12.71362],[77.2543,12.71353],[77.254,12.71339],[77.25346,12.71327],[77.25289,12.71324],[77.25262,12.7133],[77.25233,12.71442],[77.25212,12.71507],[77.25197,12.71554],[77.25188,12.71604],[77.25188,12.71636],[77.25207,12.71681],[77.25237,12.71707],[77.25282,12.71748],[77.253,12.7178],[77.25333,12.71842],[77.25379,12.72024],[77.25391,12.7208],[77.25412,12.72162],[77.25415,12.72224],[77.25416,12.72283],[77.25407,12.72318],[77.25371,12.72363],[77.25335,12.72386],[77.25242,12.72451],[77.25197,12.72493],[77.25132,12.72528],[77.25087,12.72558],[77.25066,12.72587],[77.25054,12.72617],[77.25042,12.7267],[77.25025,12.72852],[77.25022,12.7289],[77.24989,12.72917],[77.24959,12.72929],[77.24929,12.72961],[77.24935,12.72985],[77.24942,12.73017],[77.24954,12.73067],[77.24954,12.73111],[77.24942,12.73149],[77.24945,12.73185],[77.24966,12.73208],[77.25044,12.7322],[77.25125,12.73246],[77.25194,12.73252],[77.25278,12.73243],[77.25323,12.73216],[77.25362,12.73189],[77.25407,12.73148],[77.2546,12.7313],[77.25529,12.73124],[77.25568,12.7313],[77.25628,12.73138],[77.25649,12.73153],[77.25685,12.73176],[77.25733,12.73182],[77.25778,12.73188],[77.25853,12.73191],[77.25904,12.7319],[77.25958,12.7319],[77.26006,12.73181],[77.26051,12.73178],[77.26087,12.73193],[77.26105,12.73207],[77.26138,12.73254],[77.26153,12.73292],[77.26153,12.73328],[77.26157,12.73363],[77.26169,12.73395],[77.26184,12.73431],[77.26199,12.73466],[77.26208,12.73487],[77.26217,12.73528],[77.26223,12.73563],[77.26223,12.73604],[77.26205,12.73651],[77.262,12.73689],[77.26182,12.73737],[77.26143,12.73787],[77.26116,12.73828],[77.26074,12.73866],[77.26039,12.73902],[77.26018,12.73923],[77.26018,12.73964],[77.26015,12.73996],[77.26,12.74023],[77.26057,12.74017],[77.2609,12.73993],[77.26117,12.73987],[77.26144,12.7399],[77.26162,12.74004],[77.2618,12.74025],[77.26216,12.74043],[77.2624,12.74057],[77.26258,12.74078],[77.26282,12.7411],[77.26306,12.74136],[77.2633,12.74174],[77.26339,12.74216],[77.26343,12.7426],[77.26343,12.74301],[77.26319,12.74348],[77.26289,12.74386],[77.26235,12.74401],[77.2619,12.74437],[77.26166,12.74458],[77.26137,12.7449],[77.26113,12.74525],[77.26092,12.74546],[77.2605,12.74581],[77.26005,12.74608],[77.25948,12.74641],[77.25894,12.74694],[77.25865,12.74729],[77.25844,12.74764],[77.25829,12.74894],[77.25797,12.75035],[77.25785,12.75124],[77.25783,12.75274],[77.25792,12.75397],[77.25825,12.75459],[77.259,12.75461],[77.25951,12.7547],[77.26041,12.75488],[77.26119,12.75517],[77.26197,12.75558],[77.26257,12.75593],[77.2632,12.75616],[77.26365,12.75642],[77.26393,12.75698],[77.2642,12.75783],[77.2642,12.75839],[77.26408,12.75884],[77.26396,12.75942],[77.26375,12.75975],[77.2634,12.76016],[77.2625,12.76052],[77.26193,12.7607],[77.25968,12.76059],[77.25917,12.76056],[77.25848,12.76062],[77.25812,12.76086],[77.25797,12.76121],[77.258,12.76153],[77.25843,12.76171],[77.25873,12.76165],[77.25944,12.76153],[77.25968,12.76153],[77.25998,12.76176],[77.26095,12.76211],[77.26172,12.76205],[77.26268,12.76175],[77.26316,12.76163],[77.26388,12.76192],[77.26472,12.76269],[77.26526,12.76286],[77.26568,12.76304],[77.2664,12.76309],[77.26676,12.76309],[77.26718,12.76303],[77.26766,12.7628],[77.2682,12.76279],[77.26886,12.76279],[77.26952,12.76273],[77.2703,12.76249],[77.27102,12.76214],[77.2715,12.76166],[77.27185,12.76066],[77.27155,12.76031],[77.27101,12.76002],[77.27077,12.75967],[77.27071,12.7592],[77.27083,12.75902],[77.27101,12.75866],[77.27094,12.75837],[77.27076,12.75808],[77.27028,12.75767],[77.26998,12.75767],[77.26902,12.75796],[77.26848,12.75785],[77.2683,12.75726],[77.26848,12.75661],[77.26866,12.75614],[77.26878,12.75585],[77.26884,12.75567],[77.26901,12.75496],[77.26919,12.75449],[77.26937,12.75384],[77.26979,12.75284],[77.26978,12.75202],[77.26996,12.75149],[77.27026,12.75025],[77.27061,12.74949],[77.27133,12.74878],[77.27241,12.7486],[77.27373,12.74859],[77.27499,12.74882],[77.27589,12.74888],[77.27697,12.74899],[77.27817,12.74934],[77.27895,12.74975],[77.28051,12.75034],[77.28213,12.75104],[77.28303,12.75145],[77.28405,12.75174],[77.28507,12.75232],[77.28531,12.75291],[77.28718,12.75484],[77.28772,12.75614],[77.28815,12.75755],[77.28827,12.75878],[77.28791,12.75931],[77.2869,12.75996],[77.28623,12.76062],[77.28534,12.76097],[77.28438,12.76133],[77.28382,12.76168],[77.28352,12.76195],[77.28343,12.76256],[77.28346,12.76318],[77.28322,12.76395],[77.28203,12.7643],[77.28155,12.76431],[77.28092,12.7644],[77.2811,12.76566],[77.28125,12.76619],[77.28146,12.76643],[77.28182,12.76636],[77.28236,12.76627],[77.28317,12.76618],[77.28389,12.76615],[77.28461,12.76609],[77.28539,12.76609],[77.28611,12.76611],[77.28671,12.76629],[77.2871,12.76661],[77.28863,12.76802],[77.28888,12.76875],[77.28894,12.76943],[77.28915,12.76999],[77.28939,12.77046],[77.28996,12.77087],[77.29068,12.77116],[77.29152,12.77139],[77.29233,12.77157],[77.29287,12.77186],[77.29345,12.77224],[77.29411,12.77312],[77.29456,12.77382],[77.29516,12.77444],[77.29511,12.77529],[77.29511,12.77582],[77.29478,12.77626],[77.294,12.77647],[77.29313,12.77656],[77.29253,12.77671],[77.29208,12.77689],[77.29194,12.77745],[77.29197,12.77804],[77.29212,12.77871],[77.29242,12.77916],[77.29278,12.77936],[77.29317,12.77927],[77.29359,12.77918],[77.29401,12.77909],[77.29428,12.77927],[77.29569,12.77973],[77.29596,12.7807],[77.29597,12.78108],[77.29588,12.78147],[77.29573,12.7817],[77.2954,12.78194],[77.29513,12.78203],[77.29498,12.78209],[77.29468,12.78215],[77.29444,12.78215],[77.29435,12.78227],[77.29444,12.78271],[77.2948,12.78327],[77.29499,12.78377],[77.2952,12.78423],[77.2955,12.78465],[77.2958,12.785],[77.29667,12.78558],[77.29781,12.78614],[77.2985,12.78663],[77.29922,12.78678],[77.29988,12.78692],[77.30031,12.7881],[77.30046,12.78886],[77.30076,12.78963],[77.30068,12.79092],[77.30047,12.79142],[77.30023,12.79187],[77.29982,12.79319],[77.29979,12.79369],[77.29994,12.7941],[77.30012,12.79431],[77.30063,12.79442],[77.30099,12.79442],[77.30141,12.79439],[77.30189,12.7943],[77.30246,12.79424],[77.30276,12.79439],[77.30339,12.79441],[77.30372,12.795],[77.30417,12.79547],[77.30453,12.79585],[77.3051,12.79617],[77.30576,12.79641],[77.30628,12.79696],[77.30688,12.79758],[77.30736,12.79802],[77.30781,12.79843],[77.30817,12.79884],[77.30823,12.79904],[77.30829,12.79925],[77.30806,12.79966],[77.30788,12.79996],[77.30782,12.80046],[77.30767,12.80128],[77.30746,12.80167],[77.30729,12.80243],[77.30729,12.80279],[77.30867,12.80346],[77.30936,12.80387],[77.31038,12.80457],[77.31083,12.8051],[77.3108,12.80548],[77.31003,12.80604],[77.30991,12.80631],[77.31006,12.80657],[77.31057,12.80683],[77.31108,12.8071],[77.3112,12.80727],[77.31123,12.80777],[77.31135,12.80824],[77.31157,12.80868],[77.31286,12.80938],[77.31337,12.80988],[77.31373,12.81035],[77.31412,12.81082],[77.31457,12.81126],[77.31473,12.81197],[77.31461,12.81217],[77.3141,12.81232],[77.31359,12.81238],[77.31326,12.81253],[77.31281,12.81247],[77.31227,12.81221],[77.31197,12.81224],[77.31191,12.81256],[77.31194,12.81289],[77.312,12.81318],[77.31242,12.81345],[77.31272,12.81362],[77.31299,12.8138],[77.31356,12.81394],[77.31392,12.81403],[77.31479,12.81391],[77.31524,12.81432],[77.31531,12.81479],[77.31531,12.81541],[77.31519,12.81585],[77.31501,12.81629],[77.31504,12.81673],[77.31513,12.81708],[77.31538,12.81723],[77.31586,12.81723],[77.3164,12.81717],[77.31652,12.81717],[77.31687,12.81717],[77.31744,12.81716],[77.31783,12.81731],[77.31823,12.81784],[77.31838,12.81822],[77.31835,12.81846],[77.31838,12.81893],[77.31868,12.81937],[77.31907,12.81975],[77.31919,12.8201],[77.31938,12.82063],[77.31935,12.82145],[77.31935,12.82157],[77.3198,12.8221],[77.32046,12.82254],[77.32079,12.82274],[77.321,12.82298],[77.32127,12.82321],[77.32152,12.82403],[77.32134,12.82462],[77.32119,12.82512],[77.3211,12.82545],[77.32104,12.82589],[77.32105,12.82706],[77.32108,12.82795],[77.32084,12.8286],[77.32067,12.82883],[77.32046,12.82901],[77.32016,12.82904],[77.31974,12.82904],[77.31914,12.82898],[77.31866,12.82899],[77.31839,12.82919],[77.31824,12.82958],[77.31824,12.82999],[77.31845,12.83034],[77.31872,12.83057],[77.31932,12.8309],[77.32005,12.83128],[77.32101,12.83165],[77.32182,12.832],[77.32242,12.83221],[77.32317,12.83224],[77.32416,12.83226],[77.32497,12.83229],[77.32542,12.83264],[77.32593,12.83367],[77.32593,12.8344],[77.32573,12.83478],[77.32549,12.83532],[77.32549,12.83585],[77.32564,12.83673],[77.32589,12.8377],[77.32617,12.83869],[77.32608,12.84005],[77.32638,12.84158],[77.32608,12.84217],[77.3259,12.84249],[77.32576,12.8427],[77.32537,12.84276],[77.32489,12.84276],[77.3245,12.84276],[77.32423,12.84268],[77.32384,12.84259],[77.32351,12.8425],[77.32324,12.84244],[77.32288,12.84227],[77.32221,12.84203],[77.32203,12.84192],[77.3217,12.84171],[77.32155,12.8416],[77.32128,12.84145],[77.32107,12.84139],[77.32059,12.84122],[77.32035,12.84101],[77.31957,12.84081],[77.31915,12.84066],[77.31882,12.84066],[77.31828,12.84067],[77.31813,12.84102],[77.31831,12.84122],[77.31894,12.84149],[77.31912,12.8416],[77.31957,12.84184],[77.31991,12.84195],[77.32027,12.84213],[77.32057,12.84231],[77.32072,12.84242],[77.32135,12.84248],[77.32153,12.8426],[77.32183,12.8428],[77.32225,12.84295],[77.32255,12.84306],[77.32294,12.84315],[77.32321,12.84315],[77.32351,12.84329],[77.32366,12.84353],[77.32387,12.84388],[77.32411,12.84421],[77.32432,12.84444],[77.32462,12.84461],[77.32492,12.84485],[77.32531,12.84514],[77.32574,12.84552],[77.32598,12.84608],[77.32661,12.84737],[77.32685,12.84784],[77.32701,12.8482],[77.32737,12.84869],[77.32767,12.84931],[77.32803,12.84972],[77.32836,12.85043],[77.32866,12.85104],[77.32903,12.85245],[77.32939,12.85295],[77.33017,12.85313],[77.33125,12.8533],[77.33209,12.85377],[77.33246,12.85421],[77.33321,12.85491],[77.33339,12.85538],[77.33345,12.85591],[77.33345,12.8565],[77.33337,12.85691],[77.33328,12.85723],[77.33301,12.85765],[77.33301,12.85823],[77.33298,12.85865],[77.33308,12.86006],[77.3332,12.86044],[77.33332,12.86082],[77.33335,12.86132],[77.33329,12.86179],[77.33324,12.86212],[77.33312,12.86229],[77.3327,12.86244],[77.3324,12.86244],[77.33177,12.86242],[77.33126,12.86227],[77.33042,12.86219],[77.32991,12.86195],[77.32957,12.86163],[77.32918,12.86122],[77.32882,12.86084],[77.32852,12.86058],[77.32837,12.86043],[77.32804,12.86043],[77.32789,12.86055],[77.32786,12.86075],[77.32792,12.86114],[77.32811,12.86146],[77.32844,12.86181],[77.32916,12.86216],[77.32952,12.86254],[77.32973,12.86292],[77.3306,12.86386],[77.33078,12.86401],[77.33099,12.86433],[77.33118,12.86457],[77.33127,12.86486],[77.33112,12.86521],[77.33085,12.86601],[77.33055,12.86633],[77.33022,12.86654],[77.3298,12.86672],[77.32956,12.86693],[77.32945,12.86719],[77.3293,12.86751],[77.32918,12.8679],[77.32903,12.86816],[77.32873,12.86858],[77.32819,12.8689],[77.32783,12.86914],[77.32736,12.86943],[77.32688,12.86976],[77.32637,12.87009],[77.32592,12.87029],[77.32559,12.87041],[77.32526,12.87056],[77.32523,12.87077],[77.3255,12.87085],[77.32589,12.87091],[77.32616,12.87091],[77.32652,12.87088],[77.32682,12.87085],[77.32721,12.87076],[77.32757,12.87073],[77.3279,12.87061],[77.32811,12.87052],[77.32841,12.87034],[77.32871,12.87014],[77.32898,12.86993],[77.32954,12.86972],[77.32996,12.86945],[77.33026,12.86913],[77.33038,12.86895],[77.33065,12.86872],[77.33131,12.86857],[77.33167,12.86842],[77.33215,12.8683],[77.33233,12.868],[77.33257,12.86765],[77.33286,12.86733],[77.33355,12.86697],[77.33388,12.86682],[77.33436,12.86679],[77.33472,12.86697],[77.33496,12.86738],[77.33503,12.86796],[77.33575,12.86958],[77.33581,12.8699],[77.33587,12.87017],[77.336,12.87052],[77.33612,12.87076],[77.33624,12.87108],[77.3363,12.87123],[77.3366,12.87243],[77.33655,12.87296],[77.33649,12.87349],[77.3364,12.87408],[77.33625,12.87461],[77.33608,12.87513]]]},"properties":{"name":"Manchanabele","areaHa":3817.29138108,"type":"Medium","shedId":"CO5CAM33"}},{"type":"Feature","geometry":{"type":"Polygon","coordinates":[[[77.42292,12.75744],[77.42261,12.75714],[77.42237,12.75681],[77.42224,12.75641],[77.42223,12.75592],[77.42226,12.75532],[77.42246,12.75389],[77.42259,12.7534],[77.42266,12.75306],[77.42266,12.7528],[77.42194,12.75141],[77.42177,12.75121],[77.42164,12.75111],[77.42133,12.75108],[77.4212,12.75111],[77.42099,12.75125],[77.42076,12.75135],[77.42055,12.75138],[77.42035,12.75128],[77.42018,12.75118],[77.42008,12.75112],[77.41981,12.75109],[77.4196,12.75099],[77.4195,12.75085],[77.41858,12.7498],[77.41759,12.74821],[77.41725,12.74781],[77.41725,12.74755],[77.41728,12.74725],[77.41735,12.74692],[77.41738,12.74649],[77.41758,12.74629],[77.41792,12.74622],[77.41829,12.74628],[77.41894,12.74632],[77.41928,12.74628],[77.41979,12.74621],[77.42019,12.74621],[77.42074,12.74618],[77.42124,12.74607],[77.42162,12.74604],[77.42189,12.74591],[77.42238,12.74576],[77.4226,12.74545],[77.42275,12.74499],[77.4227,12.74457],[77.42251,12.74432],[77.42229,12.74454],[77.42215,12.74451],[77.42185,12.74448],[77.42168,12.74448],[77.42147,12.74445],[77.4208,12.74432],[77.41934,12.74373],[77.41832,12.74333],[77.41791,12.74307],[77.4175,12.74254],[77.41733,12.74211],[77.41733,12.74151],[77.41746,12.74098],[77.41776,12.74042],[77.41813,12.74009],[77.41847,12.73988],[77.41888,12.73962],[77.41896,12.73953],[77.41905,12.73948],[77.41922,12.73935],[77.41932,12.73895],[77.41931,12.73875],[77.41931,12.73849],[77.41935,12.73816],[77.41975,12.73802],[77.42009,12.73799],[77.4203,12.73805],[77.42053,12.73835],[77.42077,12.73878],[77.42101,12.73881],[77.42152,12.73868],[77.42196,12.73855],[77.42246,12.73821],[77.42273,12.73791],[77.42287,12.73755],[77.42304,12.73715],[77.42331,12.73711],[77.42371,12.73695],[77.42405,12.73671],[77.42432,12.73631],[77.42432,12.73605],[77.42432,12.73572],[77.42415,12.73552],[77.42384,12.73549],[77.42367,12.73559],[77.4232,12.73582],[77.42293,12.73592],[77.42256,12.73582],[77.42215,12.73583],[77.42168,12.73583],[77.4212,12.73576],[77.42096,12.73576],[77.42066,12.73573],[77.42032,12.7355],[77.42001,12.7354],[77.41967,12.73507],[77.4192,12.73504],[77.41906,12.73504],[77.41883,12.73491],[77.41862,12.73491],[77.41846,12.73477],[77.41832,12.73461],[77.41828,12.73445],[77.41825,12.73438],[77.41804,12.73412],[77.41784,12.73395],[77.41763,12.73385],[77.41743,12.73369],[77.41723,12.73342],[77.41712,12.73323],[77.41692,12.73306],[77.41638,12.7328],[77.4161,12.73273],[77.41577,12.7327],[77.41536,12.73207],[77.41525,12.73181],[77.41535,12.73131],[77.41569,12.73088],[77.41606,12.73078],[77.41657,12.73058],[77.41698,12.73061],[77.41755,12.73067],[77.41789,12.7308],[77.41823,12.73093],[77.41847,12.7309],[77.41864,12.73063],[77.41864,12.73037],[77.4188,12.72987],[77.41894,12.7297],[77.41914,12.7295],[77.41955,12.7292],[77.41992,12.72894],[77.42032,12.72874],[77.42073,12.7286],[77.42127,12.72857],[77.42175,12.72853],[77.42215,12.7285],[77.42236,12.72823],[77.42225,12.72787],[77.42164,12.72761],[77.4209,12.72741],[77.42049,12.72718],[77.42011,12.72698],[77.41984,12.72682],[77.4196,12.72649],[77.41953,12.72619],[77.41947,12.72582],[77.41936,12.72559],[77.41909,12.72556],[77.41885,12.72556],[77.41841,12.72573],[77.41808,12.7258],[77.41781,12.72576],[77.4175,12.72563],[77.4175,12.72533],[77.4175,12.72487],[77.41756,12.7245],[77.41776,12.72374],[77.418,12.72334],[77.4182,12.72291],[77.4184,12.72264],[77.41881,12.72238],[77.41911,12.72221],[77.41925,12.72204],[77.41928,12.72178],[77.41908,12.72148],[77.4187,12.72125],[77.41836,12.72109],[77.41761,12.72053],[77.41748,12.72036],[77.41734,12.72023],[77.41703,12.71986],[77.41703,12.71977],[77.41683,12.71947],[77.41683,12.7193],[77.41683,12.71917],[77.41689,12.7188],[77.41706,12.71831],[77.41716,12.71801],[77.41716,12.71764],[77.41713,12.71738],[77.41702,12.71705],[77.41692,12.71685],[77.41689,12.71672],[77.41684,12.71639],[77.417,12.71631],[77.41759,12.71614],[77.41802,12.71618],[77.41821,12.71624],[77.41829,12.71627],[77.41856,12.71665],[77.41883,12.71691],[77.41924,12.71697],[77.41941,12.71697],[77.41978,12.7168],[77.4203,12.71668],[77.4208,12.71674],[77.42141,12.71692],[77.42194,12.71728],[77.42219,12.71768],[77.42225,12.71813],[77.42221,12.71889],[77.42214,12.71962],[77.4222,12.72004],[77.42247,12.72045],[77.42285,12.72077],[77.42334,12.72098],[77.42418,12.72137],[77.4248,12.72184],[77.42538,12.72244],[77.42569,12.7228],[77.42607,12.723],[77.42648,12.72308],[77.4268,12.72304],[77.42694,12.72294],[77.42702,12.72279],[77.42699,12.72258],[77.42686,12.72236],[77.42678,12.72217],[77.42589,12.72096],[77.42537,12.72015],[77.42523,12.71945],[77.42534,12.71856],[77.42563,12.71813],[77.42615,12.71784],[77.42686,12.71784],[77.42729,12.71797],[77.42775,12.71806],[77.42802,12.71806],[77.42823,12.71797],[77.42837,12.71776],[77.42846,12.71744],[77.42858,12.71706],[77.42874,12.71667],[77.42914,12.71625],[77.42949,12.71616],[77.43008,12.7161],[77.43055,12.71612],[77.43099,12.71638],[77.4312,12.71653],[77.43174,12.71655],[77.43267,12.71632],[77.43352,12.71633],[77.43443,12.71651],[77.43524,12.7169],[77.43584,12.71732],[77.43611,12.71752],[77.43629,12.71766],[77.43669,12.71775],[77.43696,12.71773],[77.4371,12.71767],[77.43733,12.71737],[77.43744,12.71693],[77.43744,12.71683],[77.43742,12.71655],[77.43692,12.71576],[77.43639,12.71508],[77.43622,12.71496],[77.43595,12.71476],[77.43535,12.71452],[77.43493,12.71445],[77.43441,12.71435],[77.43329,12.71417],[77.43275,12.71396],[77.43244,12.71368],[77.43232,12.71332],[77.43224,12.71313],[77.43216,12.71294],[77.43174,12.71266],[77.43128,12.71263],[77.43083,12.7127],[77.43004,12.71295],[77.42937,12.71329],[77.4285,12.7136],[77.42765,12.71388],[77.42655,12.7139],[77.42609,12.71379],[77.4256,12.7133],[77.4252,12.71258],[77.4251,12.71186],[77.42517,12.71114],[77.42544,12.71078],[77.426,12.71037],[77.42715,12.70968],[77.42753,12.70935],[77.42804,12.70882],[77.42849,12.70842],[77.42858,12.70815],[77.42852,12.70795],[77.42843,12.70785],[77.42812,12.70778],[77.42754,12.70774],[77.42717,12.70767],[77.42702,12.70748],[77.4269,12.70718],[77.4269,12.70625],[77.42689,12.70581],[77.42679,12.70531],[77.42646,12.70454],[77.42636,12.70399],[77.42639,12.70295],[77.42637,12.70256],[77.42636,12.70183],[77.42649,12.70141],[77.42676,12.70117],[77.42701,12.70113],[77.42763,12.70112],[77.42809,12.70127],[77.42875,12.70173],[77.42916,12.70235],[77.42947,12.70301],[77.42976,12.70369],[77.43042,12.70427],[77.43065,12.70455],[77.43094,12.70508],[77.43123,12.70572],[77.43143,12.70593],[77.43162,12.70599],[77.43187,12.70595],[77.43234,12.7056],[77.43278,12.70524],[77.43305,12.70512],[77.43348,12.7051],[77.43394,12.70529],[77.43465,12.70591],[77.43527,12.70666],[77.43553,12.70706],[77.43553,12.7075],[77.43543,12.70854],[77.43549,12.70874],[77.4356,12.70892],[77.43569,12.70906],[77.4359,12.70921],[77.43613,12.70927],[77.43629,12.70929],[77.43657,12.70929],[77.43673,12.70919],[77.43688,12.70902],[77.43693,12.70891],[77.437,12.70874],[77.43694,12.70789],[77.43697,12.70745],[77.43699,12.707],[77.43695,12.70638],[77.43695,12.70603],[77.43702,12.70575],[77.43727,12.70537],[77.43742,12.70515],[77.4378,12.70496],[77.43817,12.70491],[77.43896,12.70507],[77.43981,12.70567],[77.44033,12.70634],[77.4407,12.70703],[77.44097,12.70754],[77.4413,12.7079],[77.44182,12.7083],[77.44269,12.70894],[77.44291,12.70927],[77.44303,12.70964],[77.44298,12.7104],[77.44296,12.71099],[77.44304,12.71142],[77.44314,12.71173],[77.4442,12.71179],[77.44575,12.71224],[77.44662,12.71199],[77.44738,12.71178],[77.44803,12.71183],[77.44855,12.71209],[77.44905,12.71205],[77.44972,12.71183],[77.4503,12.71183],[77.45029,12.71143],[77.45041,12.71097],[77.44971,12.70949],[77.44912,12.70869],[77.44893,12.70818],[77.4488,12.70794],[77.44874,12.70791],[77.44866,12.70796],[77.44846,12.70799],[77.44829,12.70797],[77.44818,12.70787],[77.44795,12.70771],[77.44779,12.70759],[77.44738,12.70723],[77.44694,12.70686],[77.44663,12.70653],[77.44635,12.70628],[77.44591,12.70588],[77.44571,12.70565],[77.4454,12.70536],[77.44524,12.70517],[77.44498,12.70497],[77.44462,12.70471],[77.44437,12.70442],[77.44415,12.70419],[77.44397,12.70392],[77.44381,12.70374],[77.44359,12.70353],[77.44337,12.70338],[77.44318,12.70321],[77.44294,12.70301],[77.44284,12.70288],[77.44278,12.70278],[77.44258,12.70259],[77.4424,12.7023],[77.44232,12.70219],[77.44201,12.70188],[77.44183,12.70159],[77.44157,12.70118],[77.44151,12.70093],[77.44129,12.70061],[77.44113,12.70041],[77.44099,12.70026],[77.44066,12.69986],[77.44054,12.69976],[77.44004,12.69941],[77.43988,12.69938],[77.43953,12.69914],[77.43921,12.69899],[77.43897,12.69886],[77.43882,12.69868],[77.43872,12.69847],[77.43862,12.6983],[77.43842,12.69801],[77.4383,12.69793],[77.4381,12.6977],[77.43788,12.69743],[77.4378,12.69737],[77.43772,12.69728],[77.43747,12.6972],[77.43709,12.69701],[77.43687,12.6969],[77.43642,12.69667],[77.43628,12.69659],[77.43614,12.69646],[77.436,12.69632],[77.43592,12.69626],[77.43578,12.69611],[77.43553,12.69594],[77.43515,12.69572],[77.43466,12.6954],[77.43446,12.69523],[77.43418,12.69503],[77.43402,12.69492],[77.43394,12.69484],[77.4338,12.69467],[77.43374,12.69453],[77.43364,12.69428],[77.43356,12.69395],[77.4335,12.69376],[77.43343,12.69365],[77.43331,12.69349],[77.43299,12.69311],[77.43291,12.69295],[77.43271,12.69274],[77.43253,12.69263],[77.43228,12.69255],[77.43222,12.69251],[77.4318,12.69253],[77.43158,12.69255],[77.43145,12.69255],[77.43123,12.69257],[77.43103,12.69259],[77.43085,12.69265],[77.4307,12.69273],[77.43056,12.69281],[77.43042,12.69287],[77.4303,12.69292],[77.43003,12.69293],[77.42977,12.69291],[77.42957,12.69277],[77.42941,12.69268],[77.42922,12.6925],[77.4291,12.69225],[77.42907,12.69196],[77.42907,12.69163],[77.42905,12.69131],[77.42905,12.6909],[77.42905,12.69055],[77.42911,12.69024],[77.42915,12.68999],[77.42918,12.68974],[77.42918,12.68939],[77.42918,12.68897],[77.4291,12.68858],[77.42888,12.68824],[77.42882,12.68812],[77.4287,12.68791],[77.42866,12.68785],[77.4286,12.68777],[77.42845,12.68766],[77.42819,12.68754],[77.42803,12.68735],[77.42777,12.68731],[77.42758,12.68732],[77.42742,12.68722],[77.4271,12.68703],[77.427,12.68691],[77.42684,12.68682],[77.4268,12.68672],[77.42674,12.68662],[77.42664,12.68653],[77.42651,12.68643],[77.42635,12.68624],[77.42629,12.68616],[77.42613,12.68603],[77.42593,12.68593],[77.42587,12.68587],[77.42575,12.68582],[77.42563,12.68574],[77.42544,12.68558],[77.42538,12.68557],[77.42502,12.6853],[77.42494,12.68514],[77.42482,12.68507],[77.42455,12.68495],[77.42435,12.68487],[77.42413,12.6848],[77.42383,12.68472],[77.42364,12.68465],[77.42352,12.68455],[77.42318,12.6844],[77.42275,12.6842],[77.42257,12.68417],[77.42249,12.68409],[77.42211,12.68392],[77.42194,12.68386],[77.42178,12.68384],[77.42162,12.6838],[77.4213,12.6838],[77.42107,12.68377],[77.42077,12.68371],[77.42045,12.6836],[77.42014,12.68339],[77.41994,12.68325],[77.41968,12.68314],[77.41944,12.68289],[77.41931,12.68267],[77.41919,12.68246],[77.41913,12.68233],[77.41903,12.68213],[77.41893,12.68196],[77.41857,12.68179],[77.41826,12.68177],[77.41796,12.68202],[77.41774,12.6821],[77.41755,12.68212],[77.41745,12.68208],[77.41729,12.68197],[77.41707,12.68181],[77.41668,12.68151],[77.41654,12.68131],[77.4163,12.68093],[77.41632,12.68068],[77.41637,12.68035],[77.41645,12.6801],[77.41677,12.67969],[77.417,12.67955],[77.4173,12.67942],[77.41748,12.67932],[77.41781,12.67922],[77.41793,12.67914],[77.41807,12.6791],[77.4185,12.67897],[77.41862,12.67889],[77.41872,12.67874],[77.41876,12.67858],[77.41891,12.67852],[77.41897,12.67839],[77.41895,12.67808],[77.41889,12.67771],[77.41895,12.67736],[77.41903,12.67721],[77.41914,12.67703],[77.41916,12.67678],[77.41914,12.67661],[77.41898,12.67603],[77.41896,12.67586],[77.41892,12.67553],[77.41894,12.6752],[77.41904,12.67497],[77.41914,12.67487],[77.41925,12.67466],[77.41941,12.67446],[77.41953,12.67433],[77.41974,12.67425],[77.41994,12.67423],[77.42034,12.67415],[77.42067,12.67392],[77.42077,12.67376],[77.42087,12.67338],[77.42088,12.67309],[77.42088,12.67286],[77.4209,12.6727],[77.42093,12.67264],[77.42098,12.67237],[77.42092,12.6721],[77.42088,12.67197],[77.42074,12.67143],[77.4207,12.67123],[77.4206,12.67096],[77.42044,12.67067],[77.42012,12.6705],[77.41998,12.67033],[77.41979,12.67019],[77.41963,12.67008],[77.41955,12.66998],[77.41921,12.66966],[77.41888,12.66908],[77.41885,12.6689],[77.41887,12.66873],[77.41899,12.66852],[77.41909,12.66842],[77.41934,12.66817],[77.41946,12.66792],[77.41938,12.66759],[77.4193,12.66738],[77.41916,12.66715],[77.419,12.66691],[77.41885,12.66674],[77.41869,12.66661],[77.41839,12.66638],[77.41811,12.66615],[77.41789,12.66599],[77.41762,12.66582],[77.41746,12.66567],[77.41736,12.66549],[77.417,12.66513],[77.41688,12.66499],[77.41675,12.66484],[77.41653,12.66468],[77.41643,12.66455],[77.41627,12.66432],[77.41605,12.66422],[77.41593,12.6642],[77.41554,12.66422],[77.41524,12.66426],[77.41495,12.6643],[77.41469,12.6644],[77.41441,12.66448],[77.41427,12.66454],[77.41404,12.66454],[77.41386,12.66454],[77.4137,12.66454],[77.41353,12.66454],[77.41347,12.66454],[77.41339,12.66452],[77.41305,12.66454],[77.41297,12.66454],[77.41286,12.66452],[77.4127,12.66456],[77.41238,12.66472],[77.41228,12.66495],[77.4121,12.66513],[77.41192,12.66531],[77.41183,12.66547],[77.41178,12.66565],[77.41178,12.6659],[77.4118,12.66617],[77.41186,12.66647],[77.41198,12.66682],[77.41208,12.66702],[77.41217,12.66723],[77.41226,12.66764],[77.41226,12.66812],[77.41226,12.66839],[77.41226,12.66864],[77.41218,12.66926],[77.41211,12.66955],[77.41205,12.66979],[77.41183,12.67004],[77.41156,12.67019],[77.41142,12.67032],[77.41122,12.6704],[77.41079,12.67048],[77.41063,12.67054],[77.41039,12.67077],[77.41024,12.67116],[77.41018,12.67131],[77.41006,12.67159],[77.41,12.67178],[77.40985,12.67193],[77.40981,12.67211],[77.40961,12.67236],[77.40943,12.67257],[77.40934,12.67273],[77.40916,12.67294],[77.40907,12.67322],[77.40892,12.67362],[77.40875,12.67393],[77.40855,12.67429],[77.40848,12.6747],[77.40844,12.67489],[77.40846,12.67513],[77.40852,12.67532],[77.40868,12.67597],[77.40876,12.67609],[77.40884,12.67632],[77.40902,12.67702],[77.40916,12.67731],[77.40932,12.67754],[77.40936,12.67788],[77.4093,12.67839],[77.4092,12.67866],[77.40905,12.67901],[77.40894,12.67939],[77.40883,12.67979],[77.40876,12.68002],[77.40849,12.68027],[77.40831,12.68046],[77.40813,12.68082],[77.40786,12.68116],[77.40732,12.68152],[77.40714,12.68168],[77.40683,12.68195],[77.40657,12.6823],[77.40647,12.68249],[77.40632,12.6827],[77.40606,12.6829],[77.40569,12.68307],[77.40529,12.68327],[77.40504,12.68341],[77.40462,12.68356],[77.40431,12.6837],[77.40417,12.68381],[77.40399,12.68405],[77.4039,12.6843],[77.40388,12.68445],[77.40395,12.68475],[77.40405,12.68511],[77.40417,12.68536],[77.40435,12.68555],[77.40454,12.68565],[77.40474,12.68569],[77.40501,12.68569],[77.40522,12.6857],[77.40554,12.68566],[77.40578,12.68566],[77.40603,12.68566],[77.40613,12.68566],[77.40643,12.68566],[77.40649,12.68568],[77.40661,12.68575],[77.40668,12.68581],[77.40676,12.68591],[77.40681,12.68595],[77.40697,12.68617],[77.40703,12.68636],[77.40707,12.68655],[77.40708,12.68684],[77.40689,12.68714],[77.40689,12.68738],[77.40683,12.68764],[77.40673,12.68784],[77.40663,12.68802],[77.40636,12.68838],[77.40616,12.68849],[77.40606,12.68873],[77.40596,12.68899],[77.40583,12.68927],[77.40579,12.68949],[77.4058,12.69003],[77.40584,12.69037],[77.40588,12.69057],[77.40602,12.69075],[77.40619,12.69091],[77.40648,12.69125],[77.40664,12.69157],[77.40667,12.69177],[77.40667,12.69199],[77.40669,12.69219],[77.40669,12.69239],[77.40665,12.69282],[77.40651,12.69298],[77.4064,12.69314],[77.40634,12.69318],[77.40618,12.69337],[77.4061,12.69346],[77.40585,12.69358],[77.40534,12.69388],[77.40501,12.69397],[77.40475,12.69405],[77.4044,12.69433],[77.40426,12.69443],[77.40407,12.69455],[77.40389,12.69477],[77.40379,12.69505],[77.40366,12.69518],[77.4035,12.69536],[77.4034,12.69558],[77.40332,12.69576],[77.40326,12.69602],[77.40324,12.69644],[77.40326,12.6966],[77.40326,12.69678],[77.40322,12.69698],[77.40318,12.69708],[77.40314,12.69734],[77.40308,12.69748],[77.40295,12.69775],[77.40296,12.69799],[77.40299,12.6982],[77.40303,12.6984],[77.40309,12.69861],[77.40315,12.69889],[77.40327,12.69909],[77.40337,12.69929],[77.40346,12.69937],[77.40354,12.69943],[77.40364,12.69953],[77.40381,12.69965],[77.40389,12.69975],[77.40405,12.69989],[77.40426,12.69999],[77.4044,12.70015],[77.40451,12.70027],[77.40457,12.70033],[77.40467,12.70061],[77.40467,12.70075],[77.40465,12.70091],[77.40465,12.70111],[77.40465,12.70129],[77.40465,12.70151],[77.40461,12.70177],[77.40462,12.70203],[77.40439,12.70223],[77.40419,12.70246],[77.40404,12.70274],[77.40396,12.70294],[77.40396,12.70308],[77.40396,12.70326],[77.40386,12.7036],[77.4039,12.70382],[77.40397,12.70394],[77.40419,12.70412],[77.40438,12.7042],[77.40458,12.7044],[77.40477,12.70474],[77.40524,12.70516],[77.40541,12.7054],[77.40545,12.70562],[77.40545,12.7059],[77.40536,12.70612],[77.40527,12.70645],[77.40506,12.70673],[77.40484,12.70697],[77.40466,12.70709],[77.40437,12.70741],[77.40421,12.70757],[77.40386,12.70779],[77.40359,12.70799],[77.40329,12.7082],[77.40306,12.70836],[77.4028,12.70858],[77.40259,12.70868],[77.40251,12.70874],[77.40233,12.7089],[77.4022,12.709],[77.40173,12.70947],[77.40155,12.70967],[77.40128,12.70997],[77.40122,12.71019],[77.40114,12.71043],[77.40113,12.71049],[77.40074,12.71156],[77.4002,12.71292],[77.3996,12.71464],[77.39907,12.71742],[77.39793,12.7187],[77.39725,12.71998],[77.39756,12.72073],[77.39782,12.72098],[77.39825,12.7214],[77.39849,12.72168],[77.39872,12.72175],[77.39899,12.72186],[77.40032,12.72321],[77.40068,12.72383],[77.40131,12.72489],[77.40147,12.72589],[77.40152,12.72625],[77.40136,12.72669],[77.40087,12.72757],[77.40055,12.72795],[77.40034,12.72826],[77.4003,12.72893],[77.40024,12.72937],[77.40012,12.72957],[77.39981,12.72968],[77.3995,12.72979],[77.39916,12.72994],[77.39889,12.73023],[77.39871,12.73061],[77.39869,12.73133],[77.39878,12.7321],[77.39878,12.73244],[77.39862,12.73291],[77.39831,12.73326],[77.39741,12.73417],[77.3971,12.73453],[77.39696,12.735],[77.39692,12.73544],[77.39692,12.73673],[77.39683,12.73725],[77.39659,12.73774],[77.39609,12.73838],[77.39558,12.73891],[77.39508,12.7396],[77.39497,12.73994],[77.39499,12.74043],[77.39515,12.74069],[77.39552,12.74098],[77.39659,12.74118],[77.39752,12.74142],[77.39813,12.7416],[77.39847,12.74193],[77.39884,12.74295],[77.39899,12.74368],[77.3992,12.7447],[77.39911,12.74508],[77.399,12.74526],[77.39868,12.74546],[77.39836,12.74571],[77.39811,12.74591],[77.39807,12.74626],[77.39816,12.74664],[77.39841,12.747],[77.39887,12.74735],[77.39928,12.74782],[77.39944,12.74818],[77.39949,12.74847],[77.39944,12.74869],[77.39933,12.749],[77.39938,12.74922],[77.39951,12.74942],[77.39997,12.74971],[77.40013,12.74989],[77.40013,12.7502],[77.39995,12.75053],[77.39981,12.75089],[77.39981,12.75118],[77.3997,12.75142],[77.39938,12.75265],[77.39917,12.75333],[77.39896,12.75401],[77.39884,12.7545],[77.39892,12.75514],[77.3991,12.75564],[77.39934,12.75611],[77.39977,12.75671],[77.40062,12.75717],[77.40131,12.75738],[77.40227,12.75764],[77.40291,12.7582],[77.4036,12.75851],[77.40466,12.75861],[77.40523,12.7582],[77.40519,12.75686],[77.40543,12.75614],[77.4081,12.75652],[77.40855,12.75693],[77.41007,12.75698],[77.41169,12.75672],[77.41302,12.7565],[77.41373,12.75665],[77.41432,12.75774],[77.41476,12.75853],[77.41548,12.75872],[77.41656,12.76013],[77.41725,12.7608],[77.41771,12.76099],[77.41821,12.7608],[77.41883,12.76035],[77.4189,12.76044],[77.41925,12.76043],[77.41937,12.76033],[77.41944,12.76024],[77.41962,12.76005],[77.41978,12.75998],[77.41998,12.76005],[77.42007,12.76015],[77.42012,12.76019],[77.42034,12.76013],[77.42037,12.76001],[77.42046,12.75992],[77.4206,12.75996],[77.4208,12.76008],[77.42093,12.7602],[77.42109,12.76032],[77.42121,12.76027],[77.42127,12.76006],[77.42125,12.75992],[77.42137,12.75971],[77.42151,12.7596],[77.42169,12.75967],[77.42185,12.75962],[77.42196,12.75941],[77.42203,12.75929],[77.42216,12.75923],[77.42232,12.75927],[77.42255,12.75918],[77.42266,12.75895],[77.42275,12.75878],[77.42294,12.75858],[77.42321,12.75846],[77.42337,12.75841],[77.4236,12.7583],[77.42339,12.75786],[77.42313,12.75762],[77.42292,12.75744]]]},"properties":{"name":"Byramangala","areaHa":2448.79787461,"type":"Medium","shedId":"C05CAM34"}}]}