{"type": "FeatureCollection", "features": [{"type": "Feature", "geometry": {"type": "Point", "coordinates": [77.4929, 13.043]}, "properties": {"name": "Nagasandra Phase I", "capacityMld": 20.0, "status": "Operational since 2005\n& mechanical Upgradation taken up", "process": "Extended Aeration", "agency": "BWSSB", "kind": "stp", "shedId": "C05CAM32"}}, {"type": "Feature", "geometry": {"type": "Point", "coordinates": [77.492, 13.042]}, "properties": {"name": "Nagasandra Phase II", "capacityMld": 20.0, "status": "Operational since 2018", "process": "Sequential Batch Reactor", "agency": "BWSSB", "kind": "stp", "shedId": "C05CAM32"}}, {"type": "Feature", "geometry": {"type": "Point", "coordinates": [77.513, 13.083]}, "properties": {"name": "Chikkabanavara I", "capacityMld": 5.0, "status": "Operational since 2018", "process": "Sequential Batch Reactor", "agency": "BWSSB", "kind": "stp", "shedId": "C05CAM32"}}, {"type": "Feature", "geometry": {"type": "Point", "coordinates": [77.36, 12.985]}, "properties": {"name": "TG halli", "capacityMld": 20.0, "status": "Operational since 2023", "process": "Extended Aeration", "agency": "BWSSB", "kind": "stp", "shedId": "C05CAM32"}}, {"type": "Feature", "geometry": {"type": "Point", "coordinates": [77.4776, 13.139]}, "properties": {"name": "Hesarghatta", "capacityMld": 3.0, "status": "Under Construction under BWSSB Funds", "process": "Sequential Batch Reactor", "agency": "BWSSB", "kind": "stp", "locationNote": "approximate (source coordinate error corrected)"}}, {"type": "Feature", "geometry": {"type": "Point", "coordinates": [77.5059, 13.0865]}, "properties": {"name": "Chikkabanavara II", "status": "Under Construction under JICA CP 27", "process": "Extended Aeration with BNR", "agency": "BWSSB", "kind": "stp", "shedId": "C05CAM32"}}, {"type": "Feature", "geometry": {"type": "Point", "coordinates": [77.4903, 13.0411]}, "properties": {"name": "Nagasandra 9 MLD", "status": "Under Construction under JICA CP 27", "process": "Extended Aeration with BNR", "agency": "BWSSB", "kind": "stp", "shedId": "C05CAM32"}}, {"type": "Feature", "geometry": {"type": "Point", "coordinates": [77.4769, 13.0165]}, "properties": {"name": "Karihobanahalli", "status": "Under Construction under JICA CP 27", "process": "Extended Aeration with BNR", "agency": "BWSSB", "kind": "stp", "shedId": "C05CAM32"}}, {"type": "Feature", "geometry": {"type": "Point", "coordinates": [77.4706, 12.9965]}, "properties": {"name": "Hosahalli", "status": "Under Construction under JICA CP 27", "process": "Extended Aeration with BNR", "agency": "BWSSB", "kind": "stp", "shedId": "C05CAM32"}}, {"type": "Feature", "geometry": {"type": "Point", "coordinates": [77.5313, 13.0791]}, "properties": {"name": "Abbigere", "status": "Under Construction under WBS-1", "process": "Sequential Batch Reactor", "agency": "BWSSB", "kind": "stp", "shedId": "C05CAM32"}}, {"type": "Feature", "geometry": {"type": "Point", "coordinates": [77.494, 12.919]}, "properties": {"name": "Mylasandra Ph-I", "capacityMld": 75.0, "status": "Operational since 2005 & upgradation work under progress", "process": "Extended Aeration", "agency": "BWSSB", "kind": "stp", "shedId": "C05CAM34"}}, {"type": "Feature", "geometry": {"type": "Point", "coordinates": [77.477, 12.897]}, "properties": {"name": "Doddabele", "capacityMld": 20.0, "status": "Operational since 2018 & upgradation work under progress", "process": "Sequential Batch Reactor", "agency": "BWSSB", "kind": "stp", "shedId": "C05CAM34"}}, {"type": "Feature", "geometry": {"type": "Point", "coordinates": [77.489, 12.915]}, "properties": {"name": "Kengeri", "capacityMld": 60.0, "status": "Operational since 2018 & upgradation work under progress", "process": "Secondary-Activated Sludge Process", "agency": "BWSSB", "kind": "stp", "shedId": "C05CAM34"}}, {"type": "Feature", "geometry": {"type": "Point", "coordinates": [77.478, 12.898]}, "properties": {"name": "Doddabele", "capacityMld": 40.0, "status": "Operational since 2019", "process": "Sequential Batch Reactor", "agency": "BWSSB", "kind": "stp", "shedId": "C05CAM34"}}, {"type": "Feature", "geometry": {"type": "Point", "coordinates": [77.494, 12.919]}, "properties": {"name": "V.Valley", "capacityMld": 150.0, "status": "Operational since", "process": "Activated Sludge Process (ASP)", "agency": "BWSSB", "kind": "stp", "shedId": "C05CAM34"}}, {"type": "Feature", "geometry": {"type": "Point", "coordinates": [77.4688, 12.9785]}, "properties": {"name": "Herohally", "status": "Work under progress", "process": "SBR", "agency": "BWSSB", "kind": "stp", "shedId": "C05CAM34"}}, {"type": "Feature", "geometry": {"type": "Point", "coordinates": [77.4839, 12.8876]}, "properties": {"name": "Hemmigepura", "status": "Work under progress", "process": "SBR", "agency": "BWSSB", "kind": "stp", "shedId": "C05CAM34"}}, {"type": "Feature", "geometry": {"type": "Point", "coordinates": [77.4975, 12.8747]}, "properties": {"name": "Somapura", "status": "Work under progress", "process": "SBR", "agency": "BWSSB", "kind": "stp", "shedId": "C05CAM34"}}, {"type": "Feature", "geometry": {"type": "Point", "coordinates": [77.5232, 12.9347]}, "properties": {"name": "V Valley/Mysore Road", "status": "Work under progress", "process": "SBR with ASP", "agency": "BWSSB", "kind": "stp", "shedId": "C05CAM34"}}, {"type": "Feature", "geometry": {"type": "Point", "coordinates": [77.5578, 12.9524]}, "properties": {"name": "Kempambudhi/\nNR Colony", "status": "Work under progress", "process": "SBR", "agency": "BWSSB", "kind": "stp", "shedId": "C05CAM34"}}, {"type": "Feature", "geometry": {"type": "Point", "coordinates": [77.495, 12.968]}, "properties": {"name": "Mallathahalli/\nMallathahalli kere", "status": "Work under progress", "process": "SBR", "agency": "BWSSB", "kind": "stp", "shedId": "C05CAM34"}}, {"type": "Feature", "geometry": {"type": "Point", "coordinates": [77.4561, 12.9093]}, "properties": {"name": "Kommaghatta", "status": "Work under progress", "process": "SBR", "agency": "BWSSB", "kind": "stp", "shedId": "C05CAM34"}}, {"type": "Feature", "geometry": {"type": "Point", "coordinates": [77.4759, 12.8982]}, "properties": {"name": "Doddabele", "status": "Work proposed to be taken up", "process": "Conventional ASP", "agency": "BWSSB", "kind": "stp", "shedId": "C05CAM34"}}, {"type": "Feature", "geometry": {"type": "Point", "coordinates": [77.494, 12.919]}, "properties": {"name": "Mailasandra", "status": "Work proposed to be taken up", "process": "Conventional ASP", "agency": "BWSSB", "kind": "stp", "shedId": "C05CAM34"}}, {"type": "Feature", "geometry": {"type": "Point", "coordinates": [77.417, 12.762]}, "properties": {"name": "Byramangala", "status": "Work proposed to be taken up", "process": "Conventional ASP", "agency": "BWSSB", "kind": "stp", "shedId": "C05CAM34"}}, {"type": "Feature", "geometry": {"type": "Point", "coordinates": [77.4155, 12.761]}, "properties": {"name": "Thimmegowdadoddi, Byramangala", "status": "Under Construction", "process": "SBR", "agency": "KUWS&DB", "kind": "stp", "shedId": "C05CAM34"}}, {"type": "Feature", "geometry": {"type": "Point", "coordinates": [77.5693, 12.8345]}, "properties": {"name": "Pillaganahalli", "status": "Under Construction", "process": "SBR", "agency": "BWSSB", "kind": "stp", "shedId": "C05CAM34"}}, {"type": "Feature", "geometry": {"type": "Point", "coordinates": [77.5262, 12.8597]}, "properties": {"name": "Talaghattapura", "status": "Under Construction", "process": "SBR", "agency": "BWSSB", "kind": "stp", "shedId": "C05CAM34"}}, {"type": "Feature", "geometry": {"type": "Point", "coordinates": [77.5673, 12.8488]}, "properties": {"name": "Anjanapura", "status": "Under Construction", "process": "SBR", "agency": "BWSSB", "kind": "stp", "shedId": "C05CAM34"}}, {"type": "Feature", "geometry": {"type": "Point", "coordinates": [77.5456, 12.845]}, "properties": {"name": "Anjanapura Further extension", "status": "Under Construction", "process": "SBR", "agency": "BWSSB", "kind": "stp", "shedId": "C05CAM34"}}, {"type": "Feature", "geometry": {"type": "Point", "coordinates": [77.544, 12.8386]}, "properties": {"name": "UM kaval", "status": "Work proposed", "process": "SBR", "agency": "BWSSB", "kind": "stp", "shedId": "C05CAM34"}}, {"type": "Feature", "geometry": {"type": "Point", "coordinates": [77.4562, 12.9078]}, "properties": {"name": "Challaghatta STP 5 NPKL", "status": "Under Construction", "agency": "BDA", "kind": "stp", "shedId": "C05CAM34"}}, {"type": "Feature", "geometry": {"type": "Point", "coordinates": [77.4488, 12.89081]}, "properties": {"name": "Challaghatta STP 5B NPKL", "status": "Under Construction", "agency": "BDA", "kind": "stp", "shedId": "C05CAM34"}}, {"type": "Feature", "geometry": {"type": "Point", "coordinates": [77.4431, 12.9037]}, "properties": {"name": "Challaghatta NPKL BLK6 STP-6", "status": "Under Construction", "agency": "BDA", "kind": "stp", "shedId": "C05CAM34"}}, {"type": "Feature", "geometry": {"type": "Point", "coordinates": [77.4577, 12.9526]}, "properties": {"name": "NPKL BLK2 STP-2", "status": "Under Construction", "agency": "BDA", "kind": "stp", "shedId": "C05CAM34"}}, {"type": "Feature", "geometry": {"type": "Point", "coordinates": [77.4574, 12.9697]}, "properties": {"name": "NPKL BLK1 Sector-H STP-1", "status": "Under Construction", "agency": "BDA", "kind": "stp", "shedId": "C05CAM34"}}, {"type": "Feature", "geometry": {"type": "Point", "coordinates": [77.4551, 12.9372]}, "properties": {"name": "NPKL BLK3 STP-3 sector L", "status": "Under Construction", "agency": "BDA", "kind": "stp", "shedId": "C05CAM34"}}, {"type": "Feature", "geometry": {"type": "Point", "coordinates": [77.4456, 12.9375]}, "properties": {"name": "NPKL BLK8 STP-8", "status": "Under Construction", "agency": "BDA", "kind": "stp", "shedId": "C05CAM34"}}, {"type": "Feature", "geometry": {"type": "Point", "coordinates": [77.539, 13.2642]}, "properties": {"name": "Chikka tumkur STP on Arkavathi River", "status": "Operational since", "process": "WSP", "agency": "KUWS&DB", "kind": "stp", "shedId": "C05CAM31"}}, {"type": "Feature", "geometry": {"type": "Point", "coordinates": [77.539, 13.2642]}, "properties": {"name": "Doddaballapura STP", "status": "Work Proposed", "process": "SBR", "agency": "KUIDFC", "kind": "stp", "shedId": "C05CAM31"}}, {"type": "Feature", "geometry": {"type": "Point", "coordinates": [77.4183, 12.5411]}, "properties": {"name": "Kanakapura STP", "status": "Operational", "process": "WSP", "agency": "KUWS&DB", "kind": "stp", "shedId": "C05CAM35"}}, {"type": "Feature", "geometry": {"type": "Point", "coordinates": [77.2265, 12.9514]}, "properties": {"name": "Magadi Puragrama STP", "status": "Operational but non-complying", "process": "WSP", "agency": "KUWS&DB", "kind": "stp"}}, {"type": "Feature", "geometry": {"type": "Point", "coordinates": [77.3766, 12.7617]}, "properties": {"name": "Heggadagere STP", "status": "Under Construction", "process": "MBBR", "agency": "KUWS&DB", "kind": "stp", "shedId": "C05CAM34"}}, {"type": "Feature", "properties": {"name": "Kempambudhi / NR Colony", "capacityMld": 10.0, "status": "Work under progress", "process": "SBR", "agency": "BWSSB", "kind": "stp", "shedId": "C05CAM34"}, "geometry": {"type": "Point", "coordinates": [77.5578, 12.9524]}}, {"type": "Feature", "properties": {"name": "Mallathahalli / Mallathahalli kere", "capacityMld": 10.0, "status": "Work under progress", "process": "SBR", "agency": "BWSSB", "kind": "stp", "shedId": "C05CAM34"}, "geometry": {"type": "Point", "coordinates": [77.495, 12.968]}}, {"type": "Feature", "properties": {"name": "Ramanagara STP", "capacityMld": 7.56, "status": "Operational", "process": "Aerated Lagoon", "agency": "KUWS&DB", "kind": "stp", "shedId": "CO5CAM33", "locationNote": "approximate (no source coordinate)"}, "geometry": {"type": "Point", "coordinates": [77.2807, 12.7217]}}, {"type": "Feature", "properties": {"name": "Bashettihalli FSTP", "capacityKld": 6, "status": "Not yet functional - tender/planning stage", "agency": "—", "kind": "fstp", "shedId": "C05CAM31", "locationNote": "approximate (no source coordinate)"}, "geometry": {"type": "Point", "coordinates": [77.537, 13.197]}}, {"type": "Feature", "properties": {"name": "Chikkabanavara FSTP", "capacityKld": 9, "status": "Not yet functional - tender/planning stage", "agency": "—", "kind": "fstp", "shedId": "C05CAM32", "locationNote": "approximate (no source coordinate)"}, "geometry": {"type": "Point", "coordinates": [77.512, 13.08]}}, {"type": "Feature", "properties": {"name": "Harohalli FSTP", "capacityKld": 6, "status": "Not yet functional - tender/planning stage", "agency": "—", "kind": "fstp", "shedId": "C05CAM35", "locationNote": "approximate (no source coordinate)"}, "geometry": {"type": "Point", "coordinates": [77.478, 12.608]}}]}