{"type":"FeatureCollection","features":[{"type":"Feature","geometry":{"type":"Polygon","coordinates":[[[77.37453,12.51828],[77.37525,12.51895],[77.37557,12.52006],[77.37646,12.5209],[77.3763,12.52269],[77.37717,12.52356],[77.37723,12.52435],[77.37867,12.52364],[77.37863,12.52173],[77.37819,12.52165],[77.37688,12.51994],[77.37475,12.51815],[77.37453,12.51828]]]},"properties":{"name":"Hosadoddi","custodian":"Minor Irrigation Department","district":"Ramanagara","tankId":"KA29040130","shedId":"C05CAM35"}},{"type":"Feature","geometry":{"type":"MultiPolygon","coordinates":[[[[77.34152,12.99842],[77.34313,12.99914],[77.34225,12.99791],[77.34155,12.99756],[77.34079,12.99762],[77.34252,12.99548],[77.34237,12.99496],[77.34293,12.99494],[77.34266,12.99408],[77.34416,12.99279],[77.34445,12.99299],[77.34463,12.99408],[77.34551,12.99351],[77.34498,12.99305],[77.34554,12.99268],[77.3453,12.99219],[77.34436,12.99182],[77.34281,12.99039],[77.3426,12.98993],[77.34296,12.98922],[77.34668,12.98879],[77.34689,12.98845],[77.34592,12.98765],[77.34586,12.98599],[77.34527,12.98622],[77.34466,12.98573],[77.34439,12.98605],[77.34351,12.98602],[77.34287,12.98487],[77.34205,12.98453],[77.34187,12.98407],[77.3434,12.98345],[77.34346,12.98299],[77.34208,12.98205],[77.34216,12.98173],[77.3429,12.98144],[77.34234,12.98096],[77.34243,12.98004],[77.34167,12.97964],[77.34032,12.98027],[77.33955,12.97887],[77.34096,12.97782],[77.34114,12.97741],[77.34052,12.97721],[77.34029,12.97673],[77.34126,12.97604],[77.34079,12.97516],[77.34158,12.97441],[77.34231,12.97453],[77.34252,12.97616],[77.34302,12.9749],[77.34495,12.97599],[77.34551,12.97579],[77.34639,12.9775],[77.34568,12.97827],[77.34671,12.97873],[77.34721,12.9795],[77.34733,12.97799],[77.34815,12.97793],[77.34824,12.97767],[77.34762,12.97719],[77.34774,12.97687],[77.34912,12.97639],[77.35017,12.97724],[77.35114,12.97719],[77.35067,12.9777],[77.35067,12.97836],[77.35032,12.97847],[77.35029,12.97919],[77.34964,12.97956],[77.35079,12.98022],[77.35076,12.98104],[77.34979,12.98207],[77.35008,12.98262],[77.3512,12.98245],[77.35352,12.98345],[77.35237,12.98482],[77.35088,12.98473],[77.35129,12.98653],[77.35102,12.98722],[77.35187,12.98796],[77.35252,12.98776],[77.35146,12.98988],[77.35196,12.99002],[77.35281,12.98945],[77.35425,12.98939],[77.35451,12.98988],[77.3544,12.99056],[77.35343,12.99182],[77.35355,12.99256],[77.35484,12.99356],[77.35522,12.99496],[77.35589,12.99531],[77.35715,12.99948],[77.35745,12.99962],[77.35753,12.99911],[77.35727,12.99754],[77.35751,12.99505],[77.35777,12.99494],[77.35888,12.99574],[77.35903,12.99534],[77.35897,12.99474],[77.35665,12.99382],[77.35704,12.99259],[77.35686,12.99168],[77.35806,12.99068],[77.35803,12.98945],[77.35841,12.98905],[77.35885,12.98908],[77.35956,12.98985],[77.36006,12.98939],[77.3602,12.99025],[77.36088,12.99102],[77.36167,12.98979],[77.36276,12.99025],[77.36232,12.98933],[77.36273,12.9893],[77.36305,12.98833],[77.3629,12.98739],[77.36246,12.98705],[77.3634,12.98616],[77.3634,12.98576],[77.36105,12.98579],[77.36012,12.98516],[77.36012,12.98467],[77.36056,12.98405],[77.36167,12.98339],[77.3632,12.98356],[77.36396,12.98287],[77.36361,12.98259],[77.36185,12.98285],[77.36102,12.98239],[77.36035,12.98256],[77.359,12.98179],[77.35865,12.98207],[77.35739,12.98073],[77.35677,12.98047],[77.35689,12.97999],[77.35753,12.97956],[77.35786,12.97847],[77.35926,12.97724],[77.36026,12.97793],[77.36032,12.97699],[77.36308,12.97696],[77.36185,12.97684],[77.36135,12.97639],[77.35959,12.97664],[77.35868,12.97633],[77.35906,12.9745],[77.35803,12.97453],[77.35745,12.97419],[77.35768,12.97276],[77.35721,12.97267],[77.35721,12.97193],[77.35619,12.97181],[77.35592,12.97044],[77.35504,12.96918],[77.35663,12.96938],[77.35657,12.96853],[77.35748,12.9679],[77.36032,12.96878],[77.36003,12.96833],[77.35636,12.96704],[77.35595,12.96515],[77.35566,12.96515],[77.3556,12.96375],[77.35516,12.96424],[77.35463,12.96595],[77.3539,12.96507],[77.35349,12.96215],[77.35305,12.96147],[77.35308,12.96049],[77.35443,12.95818],[77.35384,12.95695],[77.35522,12.95526],[77.35604,12.95532],[77.35639,12.95358],[77.35868,12.9524],[77.35944,12.95163],[77.36067,12.95135],[77.36138,12.95069],[77.36322,12.95009],[77.36674,12.94803],[77.36419,12.94872],[77.3634,12.94946],[77.36135,12.95046],[77.36105,12.95032],[77.36079,12.94837],[77.36058,12.95077],[77.35665,12.95286],[77.35598,12.95383],[77.35598,12.95503],[77.35504,12.95509],[77.35404,12.95618],[77.35366,12.95755],[77.3541,12.95866],[77.35264,12.96035],[77.35225,12.96375],[77.3507,12.9639],[77.35076,12.96455],[77.35137,12.96464],[77.35223,12.96632],[77.35255,12.96658],[77.35299,12.96621],[77.35299,12.9669],[77.35275,12.96787],[77.35173,12.96727],[77.35158,12.96881],[77.35041,12.96978],[77.35114,12.97141],[77.35061,12.97207],[77.35038,12.97187],[77.34967,12.97207],[77.34844,12.97158],[77.34812,12.97078],[77.34689,12.97041],[77.34659,12.96901],[77.34548,12.96935],[77.34372,12.97087],[77.34351,12.97038],[77.34187,12.96975],[77.34164,12.96935],[77.34519,12.96458],[77.34695,12.96315],[77.34724,12.96215],[77.34882,12.96012],[77.34545,12.96338],[77.34287,12.96532],[77.34172,12.96675],[77.34093,12.9665],[77.34052,12.96595],[77.34055,12.96492],[77.33662,12.9659],[77.33653,12.96641],[77.33592,12.9667],[77.33433,12.96635],[77.33425,12.9659],[77.33354,12.96587],[77.33331,12.96607],[77.33372,12.9669],[77.33331,12.96873],[77.33231,12.96798],[77.33175,12.96801],[77.33105,12.96858],[77.32568,12.96778],[77.32416,12.96684],[77.32237,12.9667],[77.32116,12.96532],[77.32166,12.96647],[77.32137,12.96678],[77.3199,12.96644],[77.32002,12.96695],[77.31835,12.9675],[77.31764,12.96698],[77.31823,12.96801],[77.31952,12.96764],[77.31855,12.96858],[77.31826,12.97078],[77.31876,12.97181],[77.31896,12.97127],[77.31855,12.97041],[77.31899,12.96844],[77.32099,12.96764],[77.32313,12.96844],[77.32339,12.96901],[77.32289,12.97001],[77.32477,12.96875],[77.32495,12.9693],[77.32556,12.96967],[77.32524,12.9709],[77.32545,12.97107],[77.326,12.96978],[77.32674,12.96918],[77.32782,12.96993],[77.32847,12.96967],[77.33111,12.96984],[77.33137,12.97038],[77.33114,12.97147],[77.33155,12.97098],[77.33225,12.97161],[77.33345,12.9707],[77.33425,12.97096],[77.33389,12.97218],[77.33445,12.97281],[77.33448,12.9749],[77.33401,12.97533],[77.33339,12.97527],[77.33392,12.97596],[77.33386,12.97641],[77.33269,12.97613],[77.33196,12.97507],[77.33155,12.97513],[77.33155,12.97464],[77.33105,12.97496],[77.32949,12.97384],[77.32985,12.97484],[77.33108,12.97656],[77.33111,12.97701],[77.33029,12.97707],[77.33246,12.97802],[77.33287,12.97867],[77.33281,12.97939],[77.33222,12.97967],[77.33222,12.98007],[77.33322,12.98076],[77.33275,12.98173],[77.33166,12.98179],[77.33166,12.98239],[77.33275,12.98276],[77.33281,12.98359],[77.33196,12.98545],[77.33061,12.9855],[77.32923,12.98479],[77.32982,12.98599],[77.33155,12.98768],[77.3304,12.98819],[77.33046,12.99013],[77.32987,12.99156],[77.33029,12.99151],[77.33037,12.99245],[77.33073,12.99279],[77.33108,12.99271],[77.33114,12.99111],[77.33172,12.99088],[77.33187,12.98942],[77.33251,12.98896],[77.33342,12.98953],[77.33293,12.98796],[77.33342,12.98725],[77.33445,12.98716],[77.33574,12.98393],[77.33645,12.98347],[77.33765,12.98485],[77.33794,12.98596],[77.33656,12.9867],[77.33662,12.98748],[77.33738,12.98708],[77.33856,12.98736],[77.33821,12.98919],[77.33653,12.99042],[77.33774,12.99128],[77.33862,12.99328],[77.33612,12.99373],[77.33639,12.99502],[77.33501,12.99591],[77.33477,12.99714],[77.3353,12.99659],[77.33609,12.99659],[77.33712,12.99591],[77.33777,12.99605],[77.33891,12.99542],[77.33935,12.99551],[77.33879,12.99602],[77.33865,12.99708],[77.33917,12.99805],[77.33888,12.99876],[77.33944,12.99916],[77.33926,12.99999],[77.33944,13.00114],[77.33888,13.00214],[77.3395,13.00228],[77.33926,13.00279],[77.33996,13.00354],[77.33996,13.00399],[77.33985,13.00434],[77.33859,13.00497],[77.33926,13.00508],[77.34032,13.00468],[77.3412,13.00605],[77.34099,13.00471],[77.34131,13.00425],[77.3409,13.00394],[77.34076,13.00317],[77.34111,13.00217],[77.34023,13.00205],[77.34008,13.00174],[77.34014,13.00005],[77.34014,12.99999],[77.34067,12.99928],[77.34108,12.99959],[77.34152,12.99842]],[[77.3393,13.00003],[77.3393,13.00001],[77.33943,13.00006],[77.3393,13.00003]]],[[[77.34017,13.00022],[77.34014,13.00005],[77.34014,13.00022],[77.34017,13.00022]]]]},"properties":{"name":"Thippagondanahalli Reservoir","custodian":"Bengaluru Water Supply & Sewerage Board","district":"Bengaluru Urban & Ramnagara","shedId":"C05CAM32"}},{"type":"Feature","geometry":{"type":"Polygon","coordinates":[[[77.5002,13.17639],[77.49997,13.16868],[77.49797,13.16811],[77.4975,13.16748],[77.49662,13.16383],[77.49703,13.16149],[77.49885,13.16],[77.49915,13.15937],[77.49809,13.15692],[77.49598,13.1564],[77.4951,13.15555],[77.4948,13.15458],[77.49504,13.15269],[77.49557,13.15092],[77.49627,13.15052],[77.49668,13.14921],[77.49598,13.14721],[77.49422,13.14526],[77.49422,13.14395],[77.49305,13.14349],[77.49263,13.14178],[77.4914,13.14092],[77.48765,13.14304],[77.48495,13.14332],[77.4836,13.14481],[77.48278,13.14521],[77.48061,13.14538],[77.48014,13.14566],[77.48155,13.14658],[77.48143,13.14749],[77.48061,13.14875],[77.47668,13.15069],[77.47662,13.15275],[77.47744,13.15326],[77.48002,13.15389],[77.48266,13.15389],[77.48342,13.1544],[77.48413,13.15446],[77.48483,13.15549],[77.48595,13.16052],[77.48677,13.1624],[77.48454,13.16474],[77.48442,13.16604],[77.48618,13.16699],[77.48703,13.16888],[77.48672,13.16994],[77.48515,13.17254],[77.48563,13.17349],[77.48478,13.17414],[77.48484,13.17491],[77.48618,13.17686],[77.48715,13.17698],[77.48842,13.1765],[77.4897,13.17686],[77.48988,13.1781],[77.49085,13.17828],[77.49152,13.17721],[77.49176,13.17727],[77.49486,13.18023],[77.49613,13.18194],[77.49741,13.1846],[77.49929,13.18643],[77.49941,13.18773],[77.50014,13.18903],[77.50117,13.18957],[77.50196,13.19252],[77.50232,13.1927],[77.50336,13.19252],[77.50408,13.19199],[77.50548,13.18939],[77.50639,13.18856],[77.50639,13.18779],[77.50584,13.18531],[77.50439,13.18306],[77.50305,13.17993],[77.50269,13.17863],[77.50281,13.17733],[77.50238,13.1768],[77.5002,13.17639]]]},"properties":{"name":"Hessarghatta Reservoir","custodian":"Bengaluru Water Supply & Sewerage Board (BWSSB)","district":"Bengaluru Urban","tankId":"KA06LH0006 ( NRLD 2019)","shedId":"C05CAM31"}},{"type":"Feature","geometry":{"type":"Polygon","coordinates":[[[77.31324,12.92072],[77.31352,12.92067],[77.31389,12.91964],[77.31481,12.91921],[77.31555,12.91777],[77.31604,12.91779],[77.31601,12.91839],[77.31669,12.91898],[77.31667,12.91693],[77.31702,12.91672],[77.31651,12.91626],[77.31758,12.91359],[77.31828,12.91343],[77.3195,12.91443],[77.31937,12.91397],[77.31988,12.91253],[77.32016,12.91287],[77.32029,12.91265],[77.32127,12.91286],[77.32113,12.9117],[77.32138,12.91162],[77.32119,12.91138],[77.32149,12.9107],[77.32251,12.9115],[77.32294,12.91063],[77.32358,12.91053],[77.32357,12.91007],[77.32506,12.91011],[77.32626,12.90903],[77.32772,12.90911],[77.32836,12.90964],[77.32895,12.90937],[77.33029,12.91002],[77.33099,12.90992],[77.33555,12.91086],[77.33591,12.91515],[77.33626,12.91526],[77.3363,12.91168],[77.33766,12.91185],[77.33779,12.91163],[77.33658,12.91128],[77.3363,12.91051],[77.33171,12.90958],[77.3272,12.9081],[77.32774,12.90673],[77.32644,12.90779],[77.32457,12.90829],[77.32373,12.90819],[77.3235,12.90678],[77.32401,12.9052],[77.32665,12.90235],[77.32716,12.9005],[77.32876,12.89888],[77.32926,12.89707],[77.33017,12.89571],[77.33113,12.89543],[77.33163,12.89593],[77.33165,12.89668],[77.3322,12.89651],[77.33328,12.89536],[77.33396,12.89536],[77.33515,12.89697],[77.33595,12.89956],[77.33658,12.89772],[77.33653,12.89547],[77.33767,12.89569],[77.33762,12.89528],[77.33825,12.8949],[77.33627,12.89397],[77.33734,12.89409],[77.33733,12.89245],[77.33766,12.89242],[77.33812,12.89132],[77.33794,12.89019],[77.33889,12.88739],[77.34018,12.8854],[77.34066,12.88387],[77.34148,12.88298],[77.34166,12.88228],[77.34228,12.88194],[77.34181,12.88108],[77.34207,12.87966],[77.34055,12.88142],[77.33961,12.88135],[77.33928,12.88096],[77.3394,12.8805],[77.33844,12.88033],[77.33815,12.87753],[77.33837,12.87543],[77.33799,12.87507],[77.33544,12.87489],[77.33459,12.87691],[77.33424,12.87707],[77.33449,12.87808],[77.33526,12.87787],[77.33544,12.8786],[77.33525,12.87932],[77.33474,12.87923],[77.33454,12.88029],[77.33375,12.88084],[77.33402,12.88305],[77.3331,12.88352],[77.33342,12.88398],[77.33402,12.88366],[77.33499,12.88513],[77.33452,12.88547],[77.3341,12.88681],[77.33325,12.88756],[77.3334,12.88854],[77.33305,12.88862],[77.3326,12.88939],[77.33177,12.88959],[77.33124,12.89082],[77.33026,12.88981],[77.32952,12.88989],[77.33004,12.89092],[77.33002,12.89178],[77.32813,12.89545],[77.32758,12.8958],[77.3254,12.89876],[77.32268,12.89992],[77.32255,12.90203],[77.32184,12.90248],[77.32119,12.90238],[77.32097,12.90202],[77.32115,12.90308],[77.32196,12.90298],[77.32217,12.9034],[77.32177,12.90484],[77.3204,12.9063],[77.32014,12.90721],[77.31928,12.90737],[77.31828,12.90639],[77.31768,12.90696],[77.31693,12.9053],[77.31691,12.9043],[77.31626,12.90408],[77.3164,12.905],[77.31599,12.90468],[77.31596,12.90414],[77.31549,12.90406],[77.316,12.90511],[77.31591,12.90632],[77.31529,12.90678],[77.31477,12.90634],[77.31384,12.90617],[77.31285,12.90485],[77.3116,12.90459],[77.31259,12.90517],[77.31327,12.90665],[77.31439,12.90738],[77.31444,12.90795],[77.31485,12.90774],[77.3156,12.90834],[77.31575,12.90759],[77.3161,12.90736],[77.31667,12.90831],[77.31937,12.90904],[77.31967,12.90991],[77.31956,12.91057],[77.31858,12.91066],[77.31741,12.91168],[77.31681,12.91166],[77.31638,12.91308],[77.31582,12.91342],[77.31574,12.91592],[77.31359,12.91841],[77.31319,12.91952],[77.31283,12.91956],[77.31242,12.9204],[77.312,12.91957],[77.31198,12.92075],[77.31152,12.9213],[77.31217,12.92208],[77.31146,12.92295],[77.31159,12.92328],[77.31264,12.92244],[77.31324,12.92072]]]},"properties":{"name":"Manchanabele Reservoir","custodian":"Cauvery Neeravari Nigama Limited (CNNL)","district":"Ramnagara","tankId":"KA06HH0193 (NRLD 2019)","shedId":"CO5CAM33"}},{"type":"Feature","geometry":{"type":"Polygon","coordinates":[[[77.44062,12.46747],[77.44211,12.46562],[77.4425,12.46651],[77.442,12.46735],[77.44262,12.46838],[77.44344,12.46814],[77.44413,12.46843],[77.44374,12.46673],[77.44416,12.46622],[77.4435,12.46457],[77.44374,12.46315],[77.44453,12.46268],[77.44429,12.46208],[77.44522,12.46137],[77.4463,12.46196],[77.44682,12.46184],[77.44705,12.4611],[77.4478,12.46113],[77.44801,12.45859],[77.44927,12.45747],[77.45014,12.45758],[77.45025,12.45729],[77.4498,12.45695],[77.45028,12.45617],[77.4505,12.45474],[77.4514,12.45472],[77.4519,12.45367],[77.45306,12.45386],[77.4555,12.45514],[77.45609,12.45511],[77.45651,12.45464],[77.45838,12.45595],[77.45964,12.45609],[77.45936,12.45522],[77.45885,12.45475],[77.45744,12.45443],[77.45748,12.45364],[77.45707,12.45339],[77.45665,12.45193],[77.45567,12.45134],[77.45511,12.45019],[77.45487,12.44832],[77.4562,12.44683],[77.45573,12.44379],[77.45471,12.44158],[77.45468,12.44092],[77.45506,12.44023],[77.45753,12.44018],[77.4583,12.44091],[77.46047,12.43894],[77.46103,12.43882],[77.46178,12.43919],[77.462,12.43888],[77.46392,12.43847],[77.46504,12.43887],[77.46506,12.43947],[77.46565,12.43976],[77.46568,12.44065],[77.46601,12.44085],[77.4664,12.44071],[77.46631,12.44032],[77.46711,12.43942],[77.46718,12.43859],[77.46772,12.43829],[77.46875,12.43827],[77.47081,12.43758],[77.47232,12.43806],[77.47231,12.43744],[77.4737,12.43704],[77.474,12.43663],[77.47582,12.43674],[77.47722,12.4372],[77.47754,12.43684],[77.47626,12.43593],[77.47417,12.43563],[77.47246,12.43637],[77.47044,12.43654],[77.46891,12.43614],[77.46892,12.43523],[77.46718,12.43512],[77.46538,12.43569],[77.46433,12.43505],[77.46108,12.43536],[77.46046,12.43465],[77.45968,12.43477],[77.45803,12.43576],[77.45717,12.43564],[77.45616,12.43482],[77.45643,12.43418],[77.45601,12.43284],[77.45632,12.43157],[77.45679,12.43144],[77.45635,12.43122],[77.4541,12.43162],[77.45367,12.43215],[77.45372,12.43331],[77.45292,12.43333],[77.45313,12.43461],[77.45157,12.43474],[77.45101,12.43524],[77.45061,12.4351],[77.4493,12.43338],[77.44959,12.43239],[77.4503,12.43194],[77.45005,12.43099],[77.45026,12.4304],[77.44933,12.42946],[77.44868,12.42994],[77.44765,12.42888],[77.44799,12.42778],[77.44885,12.42804],[77.44972,12.42726],[77.45121,12.4272],[77.45198,12.42636],[77.45097,12.42591],[77.45012,12.4239],[77.45026,12.42343],[77.45144,12.42285],[77.45099,12.42186],[77.45092,12.42011],[77.45026,12.4201],[77.44927,12.42126],[77.44815,12.42122],[77.44723,12.42446],[77.44646,12.42454],[77.44471,12.42389],[77.44408,12.42205],[77.43915,12.42421],[77.43845,12.42395],[77.43806,12.42518],[77.43649,12.42521],[77.43498,12.42742],[77.43588,12.42907],[77.43589,12.42981],[77.4376,12.4299],[77.43798,12.42901],[77.43842,12.42895],[77.43963,12.42994],[77.44031,12.42988],[77.44074,12.43077],[77.44137,12.43077],[77.44207,12.43221],[77.44192,12.43284],[77.44144,12.43308],[77.43995,12.43323],[77.43952,12.4328],[77.43716,12.43307],[77.43674,12.43365],[77.4357,12.43384],[77.43566,12.43464],[77.43668,12.43462],[77.43685,12.43497],[77.43761,12.43518],[77.43773,12.43574],[77.43901,12.43596],[77.43901,12.4369],[77.44001,12.43736],[77.44014,12.4377],[77.44407,12.43724],[77.44696,12.43909],[77.44831,12.44045],[77.44876,12.44152],[77.44915,12.44156],[77.45007,12.44541],[77.4507,12.44604],[77.45071,12.44676],[77.45021,12.44707],[77.45015,12.44869],[77.44817,12.45158],[77.44729,12.45172],[77.44735,12.45286],[77.44683,12.454],[77.44602,12.45407],[77.44617,12.45456],[77.44575,12.45588],[77.44443,12.4564],[77.44428,12.4579],[77.44267,12.45778],[77.44199,12.45864],[77.44237,12.45916],[77.44226,12.45973],[77.44136,12.46093],[77.44129,12.46191],[77.44072,12.46212],[77.44125,12.46261],[77.44128,12.46356],[77.43998,12.46561],[77.4388,12.46646],[77.43836,12.46747],[77.43739,12.46748],[77.43657,12.46793],[77.43705,12.46937],[77.43556,12.47193],[77.43468,12.4725],[77.432,12.47307],[77.43169,12.47331],[77.43176,12.4737],[77.43238,12.47399],[77.43473,12.47404],[77.43643,12.47332],[77.43907,12.47047],[77.44034,12.46853],[77.44046,12.46808],[77.44006,12.46772],[77.44062,12.46747]]]},"properties":{"name":"Arkavathi Reservior/Harobele Dam","custodian":"Cauvery Neeravari Nigama Limited (CNNL)","district":"Ramnagara","tankId":"KA29040283","shedId":"C05CAM36"}},{"type":"Feature","geometry":{"type":"Polygon","coordinates":[[[77.39037,13.02342],[77.39038,13.02211],[77.3907,13.02153],[77.38925,13.0194],[77.38838,13.01869],[77.38793,13.01689],[77.38834,13.01549],[77.38971,13.01429],[77.38926,13.01403],[77.38792,13.01502],[77.38707,13.01684],[77.38654,13.01711],[77.38468,13.01646],[77.38384,13.01522],[77.38412,13.0146],[77.38353,13.01479],[77.38419,13.01796],[77.38516,13.01908],[77.38498,13.02007],[77.38539,13.02015],[77.38584,13.02091],[77.38698,13.0205],[77.38812,13.02049],[77.38953,13.02203],[77.38984,13.02312],[77.38957,13.02341],[77.39037,13.02342]]]},"properties":{"name":"Sundekoppa","custodian":"Minor Irrigation Department","district":"Bengaluru (Urban)","tankId":"KA20010072","shedId":"C05CAM32"}},{"type":"Feature","geometry":{"type":"Polygon","coordinates":[[[77.34588,13.08729],[77.34746,13.08788],[77.34801,13.08714],[77.34807,13.08593],[77.34606,13.08427],[77.34445,13.08445],[77.34382,13.08373],[77.34338,13.08385],[77.34479,13.08567],[77.34526,13.08738],[77.34489,13.08788],[77.34588,13.08729]]]},"properties":{"name":"Srinivaspura","custodian":"Minor Irrigation Department","district":"Bengaluru (Rural)","tankId":"KA21010113","shedId":"C05CAM30"}},{"type":"Feature","geometry":{"type":"Polygon","coordinates":[[[77.4606,13.10249],[77.46038,13.09803],[77.45942,13.09495],[77.46063,13.09297],[77.46015,13.09307],[77.45945,13.09386],[77.45771,13.09419],[77.45702,13.0939],[77.45628,13.09217],[77.4562,13.09377],[77.45679,13.09458],[77.45761,13.09818],[77.4573,13.10039],[77.45843,13.10012],[77.45838,13.10195],[77.45954,13.10289],[77.4606,13.10249]]]},"properties":{"name":"Alur","custodian":"Minor Irrigation Department","district":"Bengaluru (Urban)","tankId":"KA20010012","shedId":"C05CAM32"}},{"type":"Feature","geometry":{"type":"Polygon","coordinates":[[[77.24296,13.07926],[77.24545,13.08006],[77.2435,13.07882],[77.24282,13.0742],[77.24219,13.07465],[77.24253,13.0761],[77.24192,13.07679],[77.23888,13.07867],[77.237,13.07908],[77.23875,13.08026],[77.23869,13.08325],[77.24013,13.08132],[77.24296,13.07926]]]},"properties":{"name":"Solur Doddakere","custodian":"Minor Irrigation Department","district":"Ramanagara","tankId":"KA29010298","shedId":"C05CAM30"}},{"type":"Feature","geometry":{"type":"Polygon","coordinates":[[[77.55571,13.19123],[77.5557,13.19036],[77.55699,13.19008],[77.55776,13.18912],[77.55839,13.18911],[77.55913,13.18839],[77.55889,13.18738],[77.55702,13.18788],[77.55639,13.18766],[77.55599,13.18696],[77.55592,13.18624],[77.55556,13.18595],[77.55563,13.18463],[77.5559,13.18461],[77.55562,13.18179],[77.55312,13.18395],[77.55243,13.18488],[77.55267,13.18527],[77.55248,13.18626],[77.55189,13.18661],[77.55213,13.18687],[77.55463,13.18628],[77.55532,13.18668],[77.5558,13.18738],[77.55583,13.18934],[77.55535,13.19046],[77.55571,13.19123]]]},"properties":{"name":"Adde Viswanathapura Tank","custodian":"Minor Irrigation Department","district":"Bengaluru (Urban)","tankId":"KA20050026","shedId":"C05CAM31"}},{"type":"Feature","geometry":{"type":"Polygon","coordinates":[[[77.57055,13.2424],[77.5719,13.24215],[77.57217,13.24148],[77.57234,13.23527],[77.57167,13.23479],[77.57231,13.23462],[77.57215,13.23374],[77.57257,13.23355],[77.57256,13.23212],[77.57364,13.23177],[77.57578,13.22955],[77.5755,13.22917],[77.57465,13.22936],[77.57435,13.22859],[77.573,13.22821],[77.57234,13.22831],[77.57215,13.22874],[77.56921,13.22832],[77.56761,13.22862],[77.56681,13.22812],[77.56613,13.22973],[77.56578,13.23382],[77.56424,13.23461],[77.56436,13.23562],[77.56628,13.23474],[77.56787,13.2345],[77.56829,13.23482],[77.56997,13.23731],[77.57055,13.2424]]]},"properties":{"name":"Aradeshanahalli Kere","custodian":"Minor Irrigation Department","district":"Bengaluru (Rural)","tankId":"KA21030107","shedId":"C05CAM31"}},{"type":"Feature","geometry":{"type":"Polygon","coordinates":[[[77.59413,13.26566],[77.59598,13.26554],[77.59597,13.26449],[77.59627,13.26402],[77.59506,13.26059],[77.59489,13.25712],[77.5961,13.25396],[77.59604,13.253],[77.59569,13.25296],[77.59565,13.25402],[77.59525,13.25408],[77.5943,13.25522],[77.59313,13.25549],[77.59198,13.2545],[77.59108,13.25211],[77.59034,13.25302],[77.59115,13.25431],[77.59132,13.25531],[77.58935,13.26005],[77.5915,13.26166],[77.59169,13.26241],[77.59224,13.2623],[77.59266,13.26275],[77.59332,13.26517],[77.59413,13.26566]]]},"properties":{"name":"Bannimangala Ammanikere","custodian":"Minor Irrigation Department","district":"Bengaluru (Rural)","tankId":"KA21030089","shedId":"C05CAM31"}},{"type":"Feature","geometry":{"type":"Polygon","coordinates":[[[77.50582,13.30021],[77.50577,13.29879],[77.50628,13.29834],[77.5065,13.29721],[77.50581,13.29517],[77.50622,13.29356],[77.50564,13.29097],[77.50725,13.2883],[77.51041,13.28652],[77.51112,13.2849],[77.51409,13.28505],[77.51441,13.28355],[77.51494,13.2836],[77.51485,13.28277],[77.51519,13.28193],[77.51619,13.28156],[77.51665,13.28087],[77.51796,13.28071],[77.51834,13.2803],[77.51924,13.28028],[77.51977,13.28078],[77.52047,13.27826],[77.51879,13.27805],[77.51842,13.2775],[77.5178,13.27761],[77.51527,13.27998],[77.51374,13.28042],[77.51077,13.27779],[77.5094,13.27604],[77.50939,13.27504],[77.50836,13.27507],[77.50678,13.28129],[77.5039,13.28626],[77.50278,13.28691],[77.50237,13.28809],[77.50073,13.2879],[77.50067,13.28886],[77.50018,13.28981],[77.50064,13.29066],[77.49989,13.29192],[77.50017,13.29361],[77.50069,13.2944],[77.50036,13.29445],[77.5005,13.29518],[77.50111,13.29517],[77.50111,13.29564],[77.50074,13.29592],[77.50073,13.29776],[77.50189,13.2976],[77.50227,13.30001],[77.50483,13.29994],[77.50472,13.30114],[77.50508,13.30119],[77.50582,13.30021]]]},"properties":{"name":"Aralumallige Kere","custodian":"Minor Irrigation Department","district":"Bengaluru (Rural)","tankId":"KA21020043","shedId":"C05CAM31"}},{"type":"Feature","geometry":{"type":"Polygon","coordinates":[[[77.60474,13.28384],[77.60441,13.28024],[77.60353,13.28006],[77.60243,13.27794],[77.60188,13.27782],[77.60229,13.27904],[77.60172,13.28103],[77.60103,13.28203],[77.60025,13.28208],[77.6002,13.2825],[77.60329,13.28391],[77.60444,13.28492],[77.60474,13.28384]]]},"properties":{"name":"Alur Doddanahally kere","custodian":"Minor Irrigation Department","district":"Bengaluru (Rural)","tankId":"KA21030108","shedId":"C05CAM31"}},{"type":"Feature","geometry":{"type":"Polygon","coordinates":[[[77.54691,13.30207],[77.54667,13.30127],[77.54596,13.30088],[77.54671,13.30029],[77.54651,13.29902],[77.5468,13.29893],[77.54741,13.29604],[77.54867,13.29483],[77.54949,13.29254],[77.55009,13.29212],[77.55034,13.29022],[77.54983,13.28976],[77.55055,13.2852],[77.55098,13.2852],[77.55106,13.28476],[77.55035,13.28457],[77.54969,13.28503],[77.54935,13.28768],[77.54863,13.28952],[77.54766,13.28991],[77.54439,13.2896],[77.54556,13.29165],[77.54575,13.29328],[77.54543,13.29391],[77.54523,13.29594],[77.54394,13.29798],[77.54354,13.29919],[77.54344,13.30098],[77.54495,13.30216],[77.54691,13.30207]]]},"properties":{"name":"Doddaballapur Nagarakere","custodian":"Minor Irrigation Department","district":"Bengaluru (Rural)","tankId":"KA21020033","shedId":"C05CAM31"}},{"type":"Feature","geometry":{"type":"Polygon","coordinates":[[[77.57284,13.31819],[77.5736,13.31844],[77.57448,13.31809],[77.5755,13.31883],[77.57694,13.31903],[77.57933,13.31922],[77.57956,13.31893],[77.57928,13.31785],[77.57778,13.31762],[77.5769,13.31642],[77.57616,13.31604],[77.57579,13.31486],[77.5766,13.31434],[77.57631,13.31351],[77.57485,13.31397],[77.57471,13.31467],[77.57357,13.31479],[77.56947,13.31325],[77.56862,13.3125],[77.56732,13.31048],[77.56514,13.30913],[77.56516,13.3082],[77.56399,13.30721],[77.56384,13.30612],[77.56286,13.30579],[77.56283,13.30669],[77.56366,13.30859],[77.56346,13.31001],[77.56397,13.31224],[77.56408,13.31479],[77.56306,13.31532],[77.5604,13.31395],[77.56016,13.31409],[77.56318,13.31594],[77.56475,13.31628],[77.56528,13.31579],[77.56613,13.31575],[77.56817,13.31725],[77.56873,13.31938],[77.57079,13.31919],[77.57125,13.31866],[77.57284,13.31819]]]},"properties":{"name":"Shivapura Amani Kere","custodian":"Minor Irrigation Department","district":"Bengaluru (Rural)","tankId":"KA21020046","shedId":"C05CAM31"}},{"type":"Feature","geometry":{"type":"Polygon","coordinates":[[[77.5895,13.31857],[77.59064,13.3187],[77.59133,13.31828],[77.59457,13.31761],[77.60072,13.31744],[77.6016,13.31681],[77.60154,13.3153],[77.60023,13.31323],[77.59715,13.31351],[77.59274,13.31313],[77.59183,13.31276],[77.59132,13.31145],[77.59069,13.31222],[77.59108,13.31299],[77.59084,13.31799],[77.58822,13.31847],[77.58806,13.31906],[77.5895,13.31857]]]},"properties":{"name":"Konaghatta Amani Kere","custodian":"Minor Irrigation Department","district":"Bengaluru (Rural)","tankId":"KA21020047","shedId":"C05CAM31"}},{"type":"Feature","geometry":{"type":"Polygon","coordinates":[[[77.51314,13.33348],[77.5142,13.33057],[77.51406,13.32445],[77.5144,13.32383],[77.51503,13.3235],[77.51417,13.32319],[77.51351,13.32359],[77.51175,13.3237],[77.50915,13.32304],[77.51038,13.3286],[77.51147,13.33155],[77.51212,13.333],[77.51302,13.33288],[77.51314,13.33348]]]},"properties":{"name":"Madagondanahalli Kere","custodian":"Minor Irrigation Department","district":"Bengaluru (Rural)","tankId":"KA21020023","shedId":"C05CAM31"}},{"type":"Feature","geometry":{"type":"Polygon","coordinates":[[[77.62484,13.33411],[77.62744,13.33407],[77.62865,13.33166],[77.62791,13.33072],[77.62484,13.32999],[77.624,13.32858],[77.6239,13.32673],[77.62366,13.32663],[77.6231,13.32826],[77.6233,13.32987],[77.61923,13.33236],[77.62098,13.3326],[77.62205,13.33327],[77.62436,13.33369],[77.62484,13.33411]]]},"properties":{"name":"Linganahalli Kere","custodian":"Minor Irrigation Department","district":"Bengaluru (Rural)","tankId":"KA21020049","shedId":"C05CAM31"}},{"type":"Feature","geometry":{"type":"Polygon","coordinates":[[[77.59902,13.34662],[77.60016,13.34693],[77.59949,13.3446],[77.59904,13.34391],[77.59655,13.34216],[77.59612,13.34036],[77.59529,13.34278],[77.59435,13.34343],[77.59205,13.34291],[77.59136,13.34139],[77.59086,13.34143],[77.59278,13.34777],[77.59484,13.34896],[77.5958,13.3499],[77.5964,13.35102],[77.59743,13.3507],[77.59722,13.34891],[77.59785,13.34843],[77.59737,13.34828],[77.59734,13.34796],[77.59902,13.34662]]]},"properties":{"name":"Kenchiganala Bachegowda Kere","custodian":"Minor Irrigation Department","district":"Bengaluru (Rural)","tankId":"KA21020044","shedId":"C05CAM31"}},{"type":"Feature","geometry":{"type":"Polygon","coordinates":[[[77.54925,13.36419],[77.55084,13.36176],[77.55392,13.36057],[77.55396,13.3601],[77.55316,13.35959],[77.55314,13.35891],[77.55008,13.35832],[77.54894,13.35657],[77.5489,13.35507],[77.54749,13.35628],[77.54438,13.35614],[77.5433,13.35541],[77.54126,13.3529],[77.54061,13.3525],[77.54058,13.3533],[77.53998,13.354],[77.54002,13.35478],[77.54048,13.35526],[77.54173,13.35529],[77.54532,13.35764],[77.54772,13.36188],[77.54799,13.3642],[77.54925,13.36419]]]},"properties":{"name":"Tirumagondanahalli Kere","custodian":"Minor Irrigation Department","district":"Bengaluru (Rural)","tankId":"KA21020050","shedId":"C05CAM31"}},{"type":"Feature","geometry":{"type":"Polygon","coordinates":[[[77.63857,13.36167],[77.63989,13.36016],[77.64112,13.35976],[77.64112,13.35918],[77.63999,13.35842],[77.63956,13.35743],[77.63906,13.35907],[77.63723,13.3617],[77.63728,13.36239],[77.63781,13.36185],[77.63857,13.36167]]]},"properties":{"name":"Machagondanahalli Kere","custodian":"Minor Irrigation Department","district":"Bengaluru (Rural)","tankId":"KA21020051","shedId":"C05CAM31"}},{"type":"Feature","geometry":{"type":"Polygon","coordinates":[[[77.65525,13.36492],[77.65492,13.36474],[77.65482,13.3633],[77.65392,13.36358],[77.65389,13.36466],[77.65452,13.36563],[77.65479,13.36747],[77.65546,13.36733],[77.65525,13.36492]]]},"properties":{"name":"Heggadihalli Amani Kere","custodian":"Minor Irrigation Department","district":"Bengaluru (Rural)","tankId":"KA21020037","shedId":"C05CAM31"}},{"type":"Feature","geometry":{"type":"Polygon","coordinates":[[[77.5357,12.8417],[77.53726,12.84199],[77.53771,12.84163],[77.5372,12.84118],[77.53727,12.84028],[77.53659,12.84116],[77.53587,12.84047],[77.53491,12.83819],[77.53544,12.83416],[77.53513,12.83384],[77.53056,12.83603],[77.53005,12.83727],[77.53036,12.8383],[77.52977,12.83931],[77.52987,12.84023],[77.52867,12.84178],[77.52887,12.84201],[77.52948,12.84173],[77.52989,12.8419],[77.53052,12.84139],[77.53112,12.84172],[77.53239,12.84002],[77.53291,12.84092],[77.53266,12.84145],[77.5321,12.84138],[77.53305,12.84173],[77.53356,12.84112],[77.53408,12.84178],[77.53468,12.84161],[77.53501,12.84349],[77.5357,12.8417]]]},"properties":{"name":"Vaderahalli Lake/O.B.Chud anahalli\nlake","custodian":"Minor Irrigation Department","district":"Bengaluru (Urban)","tankId":"KA20020175","shedId":"C05CAM34"}},{"type":"Feature","geometry":{"type":"Polygon","coordinates":[[[77.5431,12.74907],[77.54354,12.74801],[77.54323,12.74623],[77.54475,12.7444],[77.54455,12.74417],[77.54364,12.74427],[77.54381,12.74385],[77.54332,12.74315],[77.54252,12.74301],[77.54196,12.74379],[77.54148,12.74393],[77.54142,12.74446],[77.54058,12.74373],[77.54041,12.7445],[77.53983,12.74475],[77.53976,12.74596],[77.53934,12.74619],[77.53907,12.74615],[77.53911,12.74583],[77.53812,12.74605],[77.53761,12.74674],[77.53791,12.7483],[77.53741,12.74909],[77.54109,12.75157],[77.54177,12.75094],[77.54267,12.74925],[77.5431,12.74907]]]},"properties":{"name":"Muninagara","custodian":"Minor Irrigation Department","district":"Ramanagara","tankId":"KA29040379","shedId":"C05CAM34"}},{"type":"Feature","geometry":{"type":"Polygon","coordinates":[[[77.43427,12.78493],[77.4363,12.78433],[77.43735,12.78346],[77.43842,12.78362],[77.43863,12.78278],[77.43835,12.78152],[77.43787,12.78152],[77.43765,12.78096],[77.43717,12.78081],[77.43676,12.78117],[77.43506,12.78131],[77.43436,12.78018],[77.43361,12.77687],[77.43126,12.77646],[77.431,12.77606],[77.43184,12.77586],[77.4317,12.7725],[77.4313,12.77223],[77.43011,12.77238],[77.42755,12.7702],[77.42614,12.7701],[77.42585,12.76928],[77.42588,12.76853],[77.42684,12.76805],[77.42595,12.76658],[77.42596,12.76528],[77.43078,12.76562],[77.43122,12.76594],[77.43193,12.76781],[77.43288,12.76796],[77.43313,12.7674],[77.43275,12.76407],[77.43294,12.76359],[77.43383,12.76339],[77.43468,12.76408],[77.43489,12.76467],[77.43589,12.76439],[77.43604,12.76262],[77.43647,12.76282],[77.43639,12.76189],[77.43776,12.76145],[77.4382,12.76074],[77.4389,12.76059],[77.43898,12.76022],[77.43952,12.76001],[77.43913,12.75921],[77.43618,12.7606],[77.43567,12.76013],[77.43518,12.7604],[77.43321,12.75989],[77.43028,12.76145],[77.43,12.76057],[77.42902,12.76022],[77.42924,12.75896],[77.43335,12.75471],[77.43388,12.75459],[77.43353,12.75376],[77.43379,12.75358],[77.43423,12.75392],[77.43433,12.75359],[77.43389,12.75318],[77.43378,12.7519],[77.43477,12.7517],[77.43499,12.75122],[77.43569,12.7512],[77.43566,12.75058],[77.43452,12.75036],[77.43091,12.75055],[77.43029,12.75191],[77.42897,12.7524],[77.42793,12.75333],[77.42663,12.75366],[77.42242,12.75755],[77.41814,12.75935],[77.41694,12.75916],[77.41656,12.75976],[77.41667,12.76064],[77.41742,12.76177],[77.41667,12.76326],[77.41906,12.76329],[77.41983,12.76395],[77.41918,12.76521],[77.41972,12.76589],[77.4199,12.76728],[77.41872,12.76861],[77.41995,12.76929],[77.42038,12.7709],[77.41982,12.77163],[77.41819,12.77191],[77.41876,12.77304],[77.41848,12.7737],[77.4193,12.7747],[77.42027,12.77399],[77.42076,12.77422],[77.42184,12.77391],[77.42293,12.77403],[77.42317,12.77517],[77.42477,12.77466],[77.42493,12.77648],[77.4242,12.77744],[77.42397,12.77839],[77.42339,12.7789],[77.42374,12.77977],[77.42455,12.77963],[77.42625,12.77815],[77.42748,12.78024],[77.42846,12.78111],[77.42902,12.78301],[77.42933,12.78283],[77.42966,12.78073],[77.42939,12.78079],[77.42914,12.78022],[77.43013,12.77972],[77.43088,12.78027],[77.43197,12.78226],[77.43386,12.7829],[77.43393,12.78345],[77.43328,12.785],[77.43413,12.78521],[77.43427,12.78493]]]},"properties":{"name":"Byramangala Reservoir/Vrishabhavathi Reservoir","custodian":"Minor Irrigation Department","district":"Ramanagara","tankId":"KA29020033","shedId":"C05CAM34"}},{"type":"Feature","geometry":{"type":"Polygon","coordinates":[[[77.32588,12.64789],[77.32889,12.64602],[77.32912,12.64561],[77.32878,12.64548],[77.32851,12.6447],[77.32748,12.64533],[77.32762,12.6448],[77.32735,12.64435],[77.32586,12.64385],[77.32575,12.64334],[77.32483,12.64239],[77.32397,12.64221],[77.32273,12.64054],[77.32212,12.63907],[77.32151,12.63888],[77.32129,12.63917],[77.32216,12.64084],[77.32219,12.64169],[77.32347,12.64292],[77.32326,12.64342],[77.325,12.64467],[77.32444,12.64598],[77.32509,12.64691],[77.32501,12.64764],[77.32588,12.64789]]]},"properties":{"name":"Avverahalli","custodian":"Minor Irrigation Department","district":"Ramanagara","tankId":"KA29020012","shedId":"CO5CAM33"}},{"type":"Feature","geometry":{"type":"Polygon","coordinates":[[[77.33688,12.7163],[77.33523,12.71322],[77.33565,12.71325],[77.33635,12.71255],[77.3361,12.71232],[77.33555,12.71293],[77.33458,12.71269],[77.3334,12.71062],[77.33165,12.71306],[77.33169,12.7136],[77.33314,12.71348],[77.33321,12.71408],[77.33384,12.71475],[77.33498,12.71467],[77.33529,12.71548],[77.33675,12.7167],[77.33688,12.7163]]]},"properties":{"name":"Thammanayakanahalli","custodian":"Minor Irrigation Department","district":"Ramanagara","tankId":"KA29020007","shedId":"CO5CAM33"}},{"type":"Feature","geometry":{"type":"Polygon","coordinates":[[[77.34115,12.75922],[77.33784,12.7537],[77.33758,12.753],[77.33707,12.7536],[77.33672,12.75558],[77.33588,12.75728],[77.33729,12.75731],[77.33737,12.75761],[77.33939,12.75856],[77.33963,12.7591],[77.34121,12.7599],[77.34115,12.75922]]]},"properties":{"name":"Kethohalli","custodian":"Minor Irrigation Department","district":"Ramanagara","tankId":"KA29020004","shedId":"CO5CAM33"}},{"type":"Feature","geometry":{"type":"Polygon","coordinates":[[[77.36507,12.63113],[77.36511,12.62736],[77.3645,12.62734],[77.36343,12.62798],[77.36215,12.62785],[77.36179,12.62826],[77.36058,12.62787],[77.36041,12.62841],[77.36,12.62857],[77.36031,12.62923],[77.36204,12.62955],[77.36279,12.63025],[77.36299,12.63004],[77.36389,12.63027],[77.3644,12.63094],[77.36507,12.63113]]]},"properties":{"name":"Anajavadi","custodian":"Minor Irrigation Department","district":"Ramanagara","tankId":"KA29040124","shedId":"CO5CAM33"}},{"type":"Feature","geometry":{"type":"Polygon","coordinates":[[[77.37374,12.3952],[77.37531,12.39158],[77.37377,12.39181],[77.37135,12.39113],[77.3711,12.39147],[77.37075,12.39115],[77.36942,12.39156],[77.36893,12.39322],[77.36991,12.3945],[77.37158,12.39438],[77.37219,12.39497],[77.37282,12.39475],[77.37374,12.3952]]]},"properties":{"name":"Gorchi","custodian":"Minor Irrigation Department","district":"Ramanagara","tankId":"KA29040129","shedId":"C05CAM36"}},{"type":"Feature","geometry":{"type":"Polygon","coordinates":[[[77.37646,12.82197],[77.37699,12.8219],[77.37769,12.82102],[77.37733,12.81954],[77.3765,12.81855],[77.37429,12.81884],[77.37411,12.81818],[77.37461,12.81706],[77.37575,12.81688],[77.37606,12.8164],[77.37655,12.81646],[77.37622,12.81586],[77.37665,12.81242],[77.37678,12.81217],[77.3774,12.81225],[77.37748,12.81193],[77.37116,12.80977],[77.37137,12.81062],[77.37079,12.81136],[77.37119,12.81133],[77.37131,12.81236],[77.37125,12.81303],[77.37085,12.81313],[77.37077,12.81415],[77.37011,12.81458],[77.36842,12.81434],[77.36775,12.81462],[77.36855,12.81627],[77.36832,12.81865],[77.36891,12.81864],[77.36898,12.8191],[77.3687,12.81918],[77.36855,12.82052],[77.36787,12.82056],[77.36754,12.82095],[77.36637,12.82045],[77.36637,12.82079],[77.3676,12.82197],[77.36722,12.82205],[77.36726,12.82243],[77.36633,12.82334],[77.36607,12.82457],[77.36673,12.82462],[77.36669,12.82381],[77.36739,12.82295],[77.36809,12.82329],[77.3691,12.82249],[77.36954,12.82255],[77.36969,12.82176],[77.37106,12.81982],[77.37171,12.81991],[77.37256,12.82123],[77.37505,12.82154],[77.37531,12.82544],[77.37569,12.82604],[77.37584,12.82733],[77.37668,12.82848],[77.37727,12.83062],[77.37721,12.83239],[77.37767,12.83265],[77.3785,12.83241],[77.37874,12.83067],[77.37922,12.83006],[77.37701,12.82756],[77.3764,12.82632],[77.37718,12.82413],[77.37646,12.82197]]]},"properties":{"name":"Nelligudda Tank","custodian":"Minor Irrigation Department","district":"Ramanagara","tankId":"KA29020134","shedId":"C05CAM34"}},{"type":"Feature","geometry":{"type":"Polygon","coordinates":[[[77.38221,12.77638],[77.38226,12.775],[77.38342,12.77371],[77.38298,12.77165],[77.3825,12.77133],[77.38207,12.77144],[77.38152,12.77187],[77.38133,12.77286],[77.37991,12.77284],[77.37928,12.77171],[77.37914,12.77208],[77.38004,12.77465],[77.37972,12.77614],[77.38144,12.77666],[77.38221,12.77638]]]},"properties":{"name":"Heggedagere Eeregowdanakee","custodian":"Minor Irrigation Department","district":"Ramanagara","tankId":"KA29020009","shedId":"C05CAM34"}},{"type":"Feature","geometry":{"type":"Polygon","coordinates":[[[77.42707,12.62625],[77.43021,12.62584],[77.4286,12.62557],[77.42767,12.62463],[77.42783,12.6235],[77.42744,12.62333],[77.42609,12.62455],[77.42707,12.62625]]]},"properties":{"name":"Cheelur tank","custodian":"Minor Irrigation Department","district":"Ramanagara","tankId":"KA29040186","shedId":"C05CAM34"}},{"type":"Feature","geometry":{"type":"Polygon","coordinates":[[[77.44429,12.59379],[77.44381,12.59259],[77.44398,12.59147],[77.44447,12.59067],[77.44596,12.58969],[77.44598,12.58932],[77.44584,12.58896],[77.44442,12.58889],[77.44411,12.5885],[77.44177,12.59076],[77.44239,12.59315],[77.44345,12.59341],[77.44375,12.59382],[77.44429,12.59379]]]},"properties":{"name":"Rayasandra","custodian":"Minor Irrigation Department","district":"Ramanagara","tankId":"KA29040001","shedId":"C05CAM35"}},{"type":"Feature","geometry":{"type":"Polygon","coordinates":[[[77.53397,12.60274],[77.53556,12.60224],[77.53519,12.60139],[77.53458,12.60146],[77.5336,12.60102],[77.53317,12.60032],[77.53265,12.60052],[77.53227,12.60157],[77.53119,12.60198],[77.53148,12.60281],[77.53183,12.60278],[77.53259,12.60365],[77.53338,12.60372],[77.53397,12.60274]]]},"properties":{"name":"Maralawadi Agrahara Kere","custodian":"Minor Irrigation Department","district":"Ramanagara","tankId":"KA29040003","shedId":"C05CAM35"}},{"type":"Feature","geometry":{"type":"Polygon","coordinates":[[[77.34868,13.15474],[77.34996,13.15465],[77.35065,13.15412],[77.35062,13.15246],[77.35023,13.15112],[77.34835,13.14907],[77.34841,13.14761],[77.34795,13.14604],[77.34759,13.14622],[77.34782,13.14734],[77.34733,13.14802],[77.34592,13.1484],[77.34392,13.14825],[77.34305,13.14789],[77.34259,13.14818],[77.34271,13.14867],[77.34367,13.1489],[77.34393,13.14932],[77.34363,13.15073],[77.34421,13.15209],[77.34374,13.15281],[77.34399,13.15372],[77.34555,13.15276],[77.34706,13.15332],[77.34868,13.15474]]]},"properties":{"name":"Beguru Kere","custodian":"Minor Irrigation Department","district":"Bengaluru (Rural)","tankId":"KA21010108","shedId":"C05CAM30"}},{"type":"Feature","geometry":{"type":"Polygon","coordinates":[[[77.41759,13.15287],[77.41745,13.15156],[77.41686,13.15225],[77.41564,13.15266],[77.41476,13.15254],[77.41436,13.1521],[77.41395,13.15237],[77.41696,13.15571],[77.41852,13.15592],[77.41896,13.15468],[77.41759,13.15287]]]},"properties":{"name":"Gollahallikere","custodian":"Minor Irrigation Department","district":"Bengaluru (Rural)","tankId":"KA21010107","shedId":"C05CAM32"}},{"type":"Feature","geometry":{"type":"Polygon","coordinates":[[[77.24115,13.16343],[77.24202,13.16111],[77.24293,13.15973],[77.24224,13.16014],[77.24101,13.16009],[77.2393,13.15978],[77.2382,13.1591],[77.2374,13.15933],[77.23772,13.16191],[77.23933,13.16273],[77.24068,13.16294],[77.24115,13.16343]]]},"properties":{"name":"Kambalu","custodian":"Minor Irrigation Department","district":"Bengaluru (Rural)","tankId":"KA21010104","shedId":"C05CAM30"}},{"type":"Feature","geometry":{"type":"Polygon","coordinates":[[[77.26708,13.20809],[77.26938,13.20482],[77.27033,13.20407],[77.27178,13.20433],[77.27209,13.20488],[77.2724,13.20453],[77.27242,13.20425],[77.27088,13.20302],[77.27033,13.20173],[77.27145,13.20039],[77.27156,13.19974],[77.26938,13.20046],[77.26929,13.201],[77.26867,13.20119],[77.26796,13.20327],[77.26708,13.20454],[77.26661,13.20505],[77.26541,13.2053],[77.26583,13.20667],[77.26566,13.20767],[77.26708,13.20809]]]},"properties":{"name":"Billana Kote","custodian":"Minor Irrigation Department","district":"Bengaluru (Rural)","tankId":"KA21010109","shedId":"C05CAM30"}},{"type":"Feature","geometry":{"type":"Polygon","coordinates":[[[77.42279,13.21171],[77.42477,13.20925],[77.4255,13.20898],[77.41991,13.21005],[77.41832,13.20995],[77.41819,13.21272],[77.42123,13.21519],[77.42166,13.21733],[77.4221,13.21712],[77.42207,13.21601],[77.42282,13.21334],[77.42279,13.21171]]]},"properties":{"name":"Honnavara Dodda Kere","custodian":"Minor Irrigation Department","district":"Bengaluru (Rural)","tankId":"KA21020013","shedId":"C05CAM31"}},{"type":"Feature","geometry":{"type":"Polygon","coordinates":[[[77.30639,13.23339],[77.30686,13.23324],[77.30679,13.23212],[77.30782,13.23218],[77.30899,13.23178],[77.30894,13.23137],[77.30805,13.23139],[77.30798,13.22992],[77.30755,13.22944],[77.30742,13.22792],[77.30713,13.22762],[77.30732,13.22712],[77.30668,13.22659],[77.30691,13.22288],[77.30819,13.22151],[77.30986,13.22051],[77.31079,13.2204],[77.31131,13.21905],[77.31123,13.21876],[77.30965,13.21845],[77.30922,13.21696],[77.30946,13.21533],[77.30898,13.21517],[77.30868,13.21518],[77.30881,13.21576],[77.30782,13.21801],[77.30663,13.21876],[77.30514,13.21932],[77.30193,13.21853],[77.30371,13.22045],[77.30405,13.22288],[77.30442,13.22316],[77.30402,13.22404],[77.30385,13.22696],[77.30295,13.22849],[77.30311,13.23044],[77.30353,13.2305],[77.30328,13.2311],[77.30381,13.23143],[77.30346,13.23377],[77.30511,13.23391],[77.30527,13.23482],[77.30461,13.23519],[77.3048,13.23551],[77.30538,13.23558],[77.30622,13.23526],[77.30639,13.23339]]]},"properties":{"name":"Thyamagondluherekere","custodian":"Minor Irrigation Department","district":"Bengaluru (Rural)","tankId":"KA21010094","shedId":"C05CAM30"}},{"type":"Feature","geometry":{"type":"Polygon","coordinates":[[[77.46334,13.23867],[77.46304,13.23919],[77.46429,13.24007],[77.46388,13.24207],[77.46337,13.24364],[77.46199,13.24418],[77.4619,13.24454],[77.46479,13.24559],[77.46548,13.24703],[77.46751,13.24614],[77.46764,13.24409],[77.4673,13.24155],[77.46334,13.23867]]]},"properties":{"name":"Kadanur Hirekere","custodian":"Minor Irrigation Department","district":"Bengaluru (Rural)","tankId":"KA21020021","shedId":"C05CAM31"}},{"type":"Feature","geometry":{"type":"Polygon","coordinates":[[[77.2624,13.2427],[77.26513,13.24302],[77.26662,13.24394],[77.26755,13.24373],[77.26624,13.24324],[77.26513,13.24155],[77.26532,13.241],[77.26207,13.23846],[77.25851,13.23689],[77.25792,13.23714],[77.2551,13.23714],[77.25487,13.23741],[77.25534,13.23849],[77.25596,13.2387],[77.25748,13.24037],[77.25746,13.24096],[77.25841,13.24044],[77.25873,13.24064],[77.25939,13.24152],[77.25959,13.24263],[77.25988,13.2425],[77.2606,13.2432],[77.26166,13.24515],[77.26184,13.24497],[77.26135,13.24355],[77.26162,13.243],[77.2624,13.2427]]]},"properties":{"name":"Niduvanda","custodian":"Minor Irrigation Department","district":"Bengaluru (Rural)","tankId":"KA21010097","shedId":"C05CAM30"}},{"type":"Feature","geometry":{"type":"Polygon","coordinates":[[[77.28369,13.2546],[77.2856,13.2531],[77.28554,13.25256],[77.29027,13.25083],[77.29364,13.24889],[77.29442,13.24884],[77.29587,13.25001],[77.29488,13.24784],[77.2948,13.24388],[77.29615,13.24274],[77.28993,13.24427],[77.28735,13.24163],[77.28783,13.24236],[77.28835,13.24457],[77.28822,13.24564],[77.28763,13.24676],[77.28426,13.2486],[77.2824,13.24911],[77.28204,13.2497],[77.28127,13.25001],[77.28113,13.25126],[77.27819,13.25062],[77.27809,13.25219],[77.28163,13.25358],[77.28351,13.25368],[77.28369,13.2546]]]},"properties":{"name":"Manne Ammanikere","custodian":"Minor Irrigation Department","district":"Bengaluru (Rural)","tankId":"KA21010095","shedId":"C05CAM30"}},{"type":"Feature","geometry":{"type":"Polygon","coordinates":[[[77.32542,13.25474],[77.32532,13.25208],[77.3249,13.25178],[77.32491,13.25109],[77.32287,13.25012],[77.3217,13.24894],[77.32197,13.25121],[77.32164,13.25263],[77.32004,13.25334],[77.32275,13.25363],[77.32358,13.2544],[77.32428,13.25424],[77.32507,13.25471],[77.32542,13.25474]]]},"properties":{"name":"Obalapura","custodian":"Minor Irrigation Department","district":"Bengaluru (Rural)","tankId":"KA21010100","shedId":"C05CAM30"}},{"type":"Feature","geometry":{"type":"Polygon","coordinates":[[[77.45293,13.26643],[77.45237,13.26319],[77.45161,13.26139],[77.45086,13.26144],[77.44999,13.26048],[77.44873,13.26076],[77.44928,13.26157],[77.44925,13.26409],[77.44884,13.26474],[77.44692,13.26497],[77.44672,13.26601],[77.44763,13.26556],[77.44832,13.26618],[77.4497,13.26849],[77.45021,13.26883],[77.44978,13.26929],[77.45153,13.2724],[77.45273,13.27209],[77.45323,13.27143],[77.45266,13.26988],[77.4525,13.26822],[77.4525,13.2665],[77.45293,13.26643]]]},"properties":{"name":"Hadripur Kere","custodian":"Minor Irrigation Department","district":"Bengaluru (Rural)","tankId":"KA21020020","shedId":"C05CAM31"}},{"type":"Feature","geometry":{"type":"Polygon","coordinates":[[[77.42017,13.27856],[77.42087,13.2784],[77.42225,13.27639],[77.42281,13.27627],[77.42399,13.27405],[77.42532,13.27329],[77.4282,13.27345],[77.42811,13.27244],[77.42681,13.27017],[77.42678,13.26886],[77.42721,13.26798],[77.42892,13.26757],[77.42905,13.26725],[77.42744,13.26711],[77.42641,13.26765],[77.42327,13.26752],[77.42119,13.26667],[77.42122,13.26551],[77.42163,13.26473],[77.42092,13.26447],[77.42022,13.26535],[77.41905,13.266],[77.41886,13.2667],[77.4197,13.26954],[77.41955,13.27063],[77.41737,13.2714],[77.41767,13.27261],[77.41706,13.27298],[77.41719,13.27339],[77.41759,13.27336],[77.41806,13.27548],[77.41783,13.27602],[77.41708,13.27618],[77.41598,13.27902],[77.41922,13.27999],[77.42017,13.27856]]]},"properties":{"name":"Chikka hejjaji Kere","custodian":"Minor Irrigation Department","district":"Bengaluru (Rural)","tankId":"KA21020019","shedId":"C05CAM31"}},{"type":"Feature","geometry":{"type":"Polygon","coordinates":[[[77.40618,13.2794],[77.40715,13.27925],[77.40704,13.27894],[77.40602,13.27855],[77.40543,13.27412],[77.4061,13.27346],[77.40764,13.27289],[77.40755,13.27182],[77.40428,13.27373],[77.39954,13.27416],[77.39815,13.27488],[77.39822,13.2763],[77.39965,13.27825],[77.40106,13.27844],[77.40099,13.27935],[77.40375,13.27892],[77.40618,13.2794]]]},"properties":{"name":"Doddahejjaji Amani Kere","custodian":"Minor Irrigation Department","district":"Bengaluru (Rural)","tankId":"KA21020018","shedId":"C05CAM31"}},{"type":"Feature","geometry":{"type":"Polygon","coordinates":[[[77.41058,13.30579],[77.41103,13.30611],[77.41106,13.30529],[77.413,13.30489],[77.41494,13.3049],[77.41493,13.30448],[77.41535,13.30436],[77.41471,13.301],[77.41481,13.29549],[77.41626,13.29162],[77.41624,13.2909],[77.41469,13.29383],[77.41193,13.295],[77.41068,13.29478],[77.40938,13.29126],[77.40945,13.29408],[77.40995,13.29411],[77.40991,13.29501],[77.41019,13.29509],[77.41031,13.29603],[77.4103,13.29694],[77.40975,13.29695],[77.41084,13.30072],[77.41111,13.30316],[77.41007,13.30521],[77.40936,13.30554],[77.40976,13.30623],[77.41058,13.30579]]]},"properties":{"name":"Sonnenahalli Kere","custodian":"Minor Irrigation Department","district":"Bengaluru (Rural)","tankId":"KA21020014","shedId":"C05CAM31"}},{"type":"Feature","geometry":{"type":"Polygon","coordinates":[[[77.4475,13.34577],[77.4484,13.34633],[77.4486,13.34513],[77.44901,13.34514],[77.45048,13.3433],[77.45148,13.34281],[77.45351,13.34263],[77.45462,13.34329],[77.45299,13.34074],[77.45279,13.33872],[77.45337,13.33581],[77.45243,13.33591],[77.45206,13.33747],[77.45156,13.3382],[77.44755,13.34031],[77.44643,13.34034],[77.44442,13.33967],[77.44387,13.33971],[77.44392,13.33997],[77.44331,13.34021],[77.44334,13.34106],[77.4439,13.3413],[77.44424,13.34249],[77.44479,13.34226],[77.44592,13.34434],[77.44632,13.34444],[77.44665,13.34524],[77.44665,13.34665],[77.4475,13.34577]]]},"properties":{"name":"Tippuru Timmamana Kere","custodian":"Minor Irrigation Department","district":"Bengaluru (Rural)","tankId":"KA21020029","shedId":"C05CAM31"}},{"type":"Feature","geometry":{"type":"Polygon","coordinates":[[[77.22633,13.03684],[77.2254,13.03425],[77.22345,13.03505],[77.22496,13.03736],[77.22633,13.03684]]]},"properties":{"name":"Byala Uramundina Kere","custodian":"Minor Irrigation Department","district":"Ramanagara","tankId":"KA29010304","shedId":"CO5CAM33"}},{"type":"Feature","geometry":{"type":"Polygon","coordinates":[[[77.25739,13.11713],[77.25794,13.11667],[77.25892,13.11322],[77.25996,13.11266],[77.26076,13.11283],[77.26008,13.1115],[77.25241,13.11113],[77.2521,13.11154],[77.25214,13.11216],[77.25335,13.11361],[77.25345,13.1142],[77.25287,13.11455],[77.25301,13.115],[77.2539,13.11564],[77.25583,13.11483],[77.25718,13.11494],[77.25701,13.11686],[77.25739,13.11713]]]},"properties":{"name":"Banavadi Doddakere","custodian":"Minor Irrigation Department","district":"Ramanagara","tankId":"KA29010293","shedId":"C05CAM30"}},{"type":"Feature","geometry":{"type":"Polygon","coordinates":[[[77.26442,13.06288],[77.26719,13.06175],[77.26549,13.05896],[77.26566,13.05852],[77.26664,13.05793],[77.26669,13.05756],[77.26375,13.05866],[77.26286,13.05975],[77.2619,13.05981],[77.26184,13.06024],[77.26109,13.0604],[77.26076,13.0611],[77.26095,13.06138],[77.26278,13.06157],[77.26377,13.06136],[77.26383,13.0617],[77.26246,13.06287],[77.26249,13.06388],[77.26339,13.06391],[77.26442,13.06288]]]},"properties":{"name":"Gudemaranahalli Kere","custodian":"Minor Irrigation Department","district":"Ramanagara","tankId":"KA29010314","shedId":"C05CAM30"}},{"type":"Feature","geometry":{"type":"Polygon","coordinates":[[[77.47198,12.70991],[77.47148,12.70847],[77.47186,12.70776],[77.47195,12.70647],[77.47174,12.70607],[77.47099,12.70613],[77.47134,12.70724],[77.47116,12.70798],[77.46984,12.70811],[77.46809,12.70701],[77.46806,12.70639],[77.46764,12.70638],[77.46748,12.70422],[77.46543,12.70559],[77.46484,12.70547],[77.46453,12.70499],[77.46422,12.70683],[77.46385,12.7069],[77.46363,12.7063],[77.46268,12.70635],[77.46319,12.70565],[77.46212,12.70567],[77.46182,12.70451],[77.46052,12.70471],[77.45988,12.70446],[77.45915,12.70499],[77.45808,12.70509],[77.45782,12.704],[77.45802,12.70295],[77.45742,12.70274],[77.45686,12.70186],[77.45585,12.70464],[77.45538,12.70488],[77.4565,12.70779],[77.45922,12.70877],[77.46,12.70867],[77.45989,12.70824],[77.46003,12.70867],[77.46165,12.70871],[77.4623,12.70938],[77.46308,12.70924],[77.46371,12.71021],[77.46596,12.70851],[77.46828,12.70842],[77.46862,12.70916],[77.47086,12.70916],[77.47127,12.71081],[77.47185,12.71129],[77.47167,12.71056],[77.47198,12.70991]]]},"properties":{"name":"Suvarnamukhi /Medamaranahalli Reservoir","custodian":"Minor Irrigation Department","district":"Ramanagara","tankId":"KA29040199","shedId":"C05CAM34"}},{"type":"Feature","geometry":{"type":"Polygon","coordinates":[[[77.49032,12.8533],[77.4915,12.85278],[77.49195,12.85296],[77.49349,12.85245],[77.49366,12.85149],[77.49408,12.85165],[77.49423,12.85121],[77.4935,12.85039],[77.49275,12.85066],[77.49172,12.84981],[77.49181,12.84844],[77.49236,12.84754],[77.49204,12.84717],[77.49126,12.84722],[77.49049,12.84835],[77.48958,12.84852],[77.48809,12.85044],[77.48863,12.85102],[77.48863,12.85179],[77.49019,12.85194],[77.49032,12.8533]]]},"properties":{"name":"Agara Hosa Kere Lake","custodian":"Minor Irrigation Department","district":"Bengaluru (Urban)","tankId":"KA20020219","shedId":"C05CAM34"}},{"type":"Feature","geometry":{"type":"Polygon","coordinates":[[[77.50602,12.82675],[77.50513,12.82544],[77.50497,12.82595],[77.50333,12.82675],[77.50332,12.82734],[77.50443,12.8287],[77.50475,12.82771],[77.50602,12.82675]]]},"properties":{"name":"Udayapalya Lake","custodian":"Minor Irrigation Department","district":"Bengaluru (Urban)","tankId":"KA20020220","shedId":"C05CAM34"}},{"type":"Feature","geometry":{"type":"Polygon","coordinates":[[[77.53779,12.77949],[77.53852,12.7763],[77.53824,12.77469],[77.53896,12.77352],[77.53824,12.77294],[77.53858,12.7706],[77.53945,12.76859],[77.5387,12.76797],[77.5371,12.76921],[77.53657,12.77081],[77.53567,12.77163],[77.53552,12.77424],[77.53435,12.77497],[77.53362,12.77476],[77.53362,12.77556],[77.53302,12.77661],[77.5332,12.77704],[77.53465,12.77778],[77.53504,12.77899],[77.53622,12.7789],[77.53693,12.77835],[77.53779,12.77949]]]},"properties":{"name":"Chikkalingashasthri Kere/Mariapura","custodian":"Minor Irrigation Department","district":"Bengaluru (Urban)","tankId":"KA20020206","shedId":"C05CAM34"}},{"type":"Feature","geometry":{"type":"Polygon","coordinates":[[[77.54952,12.81963],[77.55135,12.81982],[77.5517,12.81875],[77.55233,12.81897],[77.55262,12.81968],[77.55309,12.81963],[77.55301,12.81927],[77.55184,12.81848],[77.5508,12.8189],[77.54973,12.8175],[77.54822,12.8178],[77.54723,12.81844],[77.54799,12.81868],[77.54788,12.81922],[77.54907,12.82025],[77.54933,12.82024],[77.54952,12.81963]]]},"properties":{"name":"Byatarayanadoddi Kere","custodian":"Minor Irrigation Department","district":"Bengaluru (Urban)","tankId":"KA20030135","shedId":"C05CAM34"}},{"type":"Feature","geometry":{"type":"Polygon","coordinates":[[[77.60895,12.73002],[77.6084,12.72863],[77.6077,12.7285],[77.60761,12.72792],[77.60693,12.72782],[77.60686,12.72742],[77.60501,12.7282],[77.6055,12.72861],[77.60579,12.7285],[77.60624,12.72906],[77.60741,12.72941],[77.60791,12.73006],[77.60805,12.7311],[77.60895,12.73002]]]},"properties":{"name":"Mysurammanadoddi Kere/Bagganadoddi Kere","custodian":"Minor Irrigation Department","district":"Bengaluru (Urban)","tankId":"KA20030042","shedId":"C05CAM35"}},{"type":"Feature","geometry":{"type":"Polygon","coordinates":[[[77.26241,13.01978],[77.26412,13.01874],[77.26396,13.01837],[77.26438,13.01805],[77.26584,13.01831],[77.26657,13.01882],[77.26665,13.01721],[77.26711,13.01664],[77.26636,13.01566],[77.26512,13.01681],[77.26369,13.01706],[77.26325,13.01781],[77.26331,13.0185],[77.26241,13.01978]]]},"properties":{"name":"Muthurayanagudi palya","custodian":"Minor Irrigation Department","district":"Ramanagara","tankId":"KA29010299","shedId":"CO5CAM33"}},{"type":"Feature","geometry":{"type":"Polygon","coordinates":[[[77.23292,13.00269],[77.23346,13.00255],[77.23363,13.002],[77.23456,13.00142],[77.23543,13.00176],[77.23623,13.00182],[77.23655,13.00149],[77.23696,13.00169],[77.23781,13.00009],[77.23892,12.99925],[77.23831,12.99711],[77.23774,12.99636],[77.23729,12.99645],[77.23668,12.99764],[77.23561,12.99829],[77.23334,12.9989],[77.23428,12.99991],[77.23192,13.00293],[77.23115,13.00345],[77.2311,13.00411],[77.23131,13.00431],[77.23292,13.00269]]]},"properties":{"name":"Belagumba Kere","custodian":"Minor Irrigation Department","district":"Ramanagara","tankId":"KA29010306","shedId":"CO5CAM33"}},{"type":"Feature","geometry":{"type":"Polygon","coordinates":[[[77.52712,12.80936],[77.52912,12.80893],[77.5302,12.80771],[77.53126,12.80817],[77.53209,12.80803],[77.53265,12.80874],[77.53345,12.80905],[77.53276,12.80838],[77.53315,12.80796],[77.53225,12.80784],[77.53192,12.80679],[77.53143,12.80689],[77.53148,12.80724],[77.53085,12.8072],[77.5311,12.80596],[77.53014,12.80569],[77.53007,12.80541],[77.53038,12.805],[77.53214,12.80649],[77.53344,12.80579],[77.53375,12.80593],[77.53381,12.80562],[77.53178,12.80463],[77.531,12.80369],[77.53091,12.80459],[77.52997,12.80486],[77.52853,12.8061],[77.52869,12.80511],[77.52828,12.80439],[77.52686,12.80643],[77.52658,12.80754],[77.5268,12.80782],[77.52646,12.80829],[77.52712,12.80936]]]},"properties":{"name":"Obichudanahally/Gulakamale Kere","custodian":"Minor Irrigation Department","district":"Bengaluru (Urban)","tankId":"KA20020174","shedId":"C05CAM34"}},{"type":"Feature","geometry":{"type":"Polygon","coordinates":[[[77.47438,12.76557],[77.47452,12.7649],[77.47501,12.76482],[77.475,12.76425],[77.4769,12.76404],[77.477,12.76448],[77.47762,12.76452],[77.4771,12.76401],[77.47681,12.76272],[77.47403,12.76215],[77.47415,12.76304],[77.47383,12.76336],[77.47377,12.76461],[77.47251,12.76541],[77.47301,12.76579],[77.47438,12.76557]]]},"properties":{"name":"Matti Taltalk Kere/Jattipalya tank","custodian":"Minor Irrigation Department","district":"Ramanagara","tankId":"KA29020158","shedId":"C05CAM34"}},{"type":"Feature","geometry":{"type":"Polygon","coordinates":[[[77.41282,12.85924],[77.41209,12.8605],[77.41224,12.86152],[77.41266,12.86197],[77.41358,12.86089],[77.41282,12.85924]]]},"properties":{"name":"Hejjala","custodian":"Minor Irrigation Department","district":"Ramanagara","tankId":"KA29020001","shedId":"C05CAM34"}},{"type":"Feature","geometry":{"type":"Polygon","coordinates":[[[77.39848,12.83076],[77.39787,12.82801],[77.39749,12.82781],[77.396,12.82842],[77.3962,12.82922],[77.39733,12.82977],[77.39739,12.8309],[77.39764,12.83077],[77.39754,12.83193],[77.39848,12.83076]]]},"properties":{"name":"Vajarahalli","custodian":"Minor Irrigation Department","district":"Ramanagara","tankId":"KA29020002","shedId":"C05CAM34"}},{"type":"Feature","geometry":{"type":"Polygon","coordinates":[[[77.42128,12.81263],[77.42066,12.81252],[77.42082,12.81323],[77.41939,12.81449],[77.41938,12.81495],[77.42138,12.81442],[77.42128,12.81263]]]},"properties":{"name":"Talaguppe","custodian":"Minor Irrigation Department","district":"Ramanagara","tankId":"KA29020003","shedId":"C05CAM34"}},{"type":"Feature","geometry":{"type":"Polygon","coordinates":[[[77.26823,12.73938],[77.26949,12.7387],[77.26906,12.73789],[77.26939,12.7375],[77.26904,12.73557],[77.27016,12.73516],[77.26951,12.73435],[77.26921,12.73322],[77.2676,12.73312],[77.26726,12.73255],[77.26618,12.73362],[77.26652,12.7338],[77.26628,12.73566],[77.26679,12.73592],[77.26704,12.73706],[77.26668,12.73721],[77.26666,12.73812],[77.26707,12.73919],[77.26823,12.73938]]]},"properties":{"name":"Bollappanahalli Amani Kere","custodian":"Minor Irrigation Department","district":"Ramanagara","tankId":"KA29020005","shedId":"CO5CAM33"}},{"type":"Feature","geometry":{"type":"Polygon","coordinates":[[[77.26177,12.72135],[77.26299,12.7212],[77.26313,12.7209],[77.26409,12.72114],[77.26428,12.72084],[77.26505,12.72072],[77.26483,12.72018],[77.26525,12.7196],[77.26515,12.71857],[77.26434,12.71755],[77.26359,12.7155],[77.26286,12.71658],[77.26102,12.71762],[77.26025,12.71691],[77.25987,12.7168],[77.25959,12.71708],[77.2584,12.71658],[77.2599,12.7176],[77.26041,12.71858],[77.26123,12.71853],[77.26159,12.71899],[77.26153,12.71942],[77.25942,12.72074],[77.25934,12.72146],[77.26093,12.72149],[77.26125,12.72194],[77.26177,12.72135]]]},"properties":{"name":"Rangarayanadoddi","custodian":"Minor Irrigation Department","district":"Ramanagara","tankId":"KA29020006","shedId":"CO5CAM33"}},{"type":"Feature","geometry":{"type":"Polygon","coordinates":[[[77.37196,12.69832],[77.37304,12.69873],[77.37386,12.69835],[77.3746,12.69881],[77.37389,12.6952],[77.3728,12.69562],[77.37254,12.69668],[77.372,12.69704],[77.37162,12.69799],[77.37061,12.69915],[77.37196,12.69832]]]},"properties":{"name":"Annahalli","custodian":"Minor Irrigation Department","district":"Ramanagara","tankId":"KA29020010","shedId":"C05CAM34"}},{"type":"Feature","geometry":{"type":"Polygon","coordinates":[[[77.32574,12.57584],[77.32802,12.5747],[77.32889,12.57451],[77.33004,12.57277],[77.33036,12.57294],[77.33053,12.5713],[77.33007,12.57006],[77.33028,12.56853],[77.32969,12.56848],[77.32871,12.56939],[77.32826,12.56881],[77.32712,12.56866],[77.32517,12.56711],[77.32443,12.56614],[77.32417,12.56679],[77.32471,12.56833],[77.32626,12.56906],[77.32642,12.56999],[77.32759,12.57027],[77.32891,12.5722],[77.32829,12.57307],[77.32769,12.57308],[77.32728,12.57411],[77.32534,12.57573],[77.32574,12.57584]]]},"properties":{"name":"Murukani Kere","custodian":"Minor Irrigation Department","district":"Ramanagara","tankId":"KA29040125","shedId":"CO5CAM33"}},{"type":"Feature","geometry":{"type":"Polygon","coordinates":[[[77.36632,12.43111],[77.36656,12.43082],[77.36645,12.42892],[77.36808,12.42839],[77.36812,12.42729],[77.36951,12.42592],[77.3707,12.42575],[77.37019,12.4271],[77.3704,12.42751],[77.37211,12.42765],[77.37294,12.4274],[77.37211,12.42553],[77.37247,12.4236],[77.37202,12.42282],[77.37459,12.42173],[77.37552,12.42211],[77.37611,12.41906],[77.37712,12.41824],[77.37647,12.41526],[77.3761,12.41535],[77.37557,12.41422],[77.37635,12.4133],[77.37596,12.41255],[77.37551,12.41273],[77.37481,12.41195],[77.3734,12.4117],[77.37273,12.41248],[77.37348,12.41305],[77.37293,12.4135],[77.37295,12.41417],[77.37229,12.41439],[77.37185,12.41523],[77.37275,12.41756],[77.37256,12.41849],[77.37191,12.41902],[77.36886,12.41942],[77.36821,12.42007],[77.36806,12.42045],[77.36937,12.42117],[77.36945,12.42209],[77.3679,12.42284],[77.36803,12.4234],[77.36707,12.4245],[77.3673,12.42554],[77.36677,12.42666],[77.36578,12.42726],[77.36584,12.42777],[77.36524,12.42782],[77.36513,12.42857],[77.36408,12.42893],[77.36412,12.42932],[77.36507,12.42945],[77.36527,12.43093],[77.36632,12.43111]]]},"properties":{"name":"Doddaladahalli Tank","custodian":"Minor Irrigation Department","district":"Ramanagara","tankId":"KA29040253","shedId":"C05CAM36"}},{"type":"Feature","geometry":{"type":"Polygon","coordinates":[[[77.40803,12.50116],[77.40953,12.50049],[77.41077,12.49753],[77.41177,12.49603],[77.41278,12.49524],[77.41028,12.49263],[77.40842,12.49387],[77.40787,12.49578],[77.4083,12.49702],[77.4077,12.49888],[77.40658,12.49862],[77.40574,12.50033],[77.40589,12.50074],[77.40626,12.50082],[77.40746,12.49943],[77.4077,12.49957],[77.40766,12.50106],[77.40803,12.50116]]]},"properties":{"name":"Hulibele","custodian":"Minor Irrigation Department","district":"Ramanagara","tankId":"KA29040002","shedId":"C05CAM35"}},{"type":"Feature","geometry":{"type":"Polygon","coordinates":[[[77.45849,12.56978],[77.45885,12.56986],[77.45908,12.56924],[77.45971,12.569],[77.46012,12.56806],[77.46175,12.56689],[77.46214,12.56624],[77.46326,12.56614],[77.46414,12.56554],[77.46617,12.56561],[77.46684,12.56755],[77.46784,12.56774],[77.46838,12.56676],[77.46962,12.56647],[77.46965,12.5651],[77.47262,12.56529],[77.47328,12.56586],[77.47528,12.56642],[77.47656,12.56611],[77.47935,12.56622],[77.47963,12.5658],[77.4755,12.56508],[77.47465,12.56349],[77.47391,12.56307],[77.46933,12.56371],[77.46679,12.56215],[77.46597,12.56226],[77.46535,12.56191],[77.46526,12.56135],[77.46577,12.56089],[77.46579,12.56035],[77.4663,12.56028],[77.46682,12.5596],[77.46684,12.55882],[77.46729,12.55856],[77.46693,12.55726],[77.46748,12.55654],[77.46732,12.5554],[77.4689,12.5551],[77.4687,12.55447],[77.46744,12.55487],[77.46691,12.55489],[77.46675,12.55455],[77.46619,12.55472],[77.46583,12.55323],[77.46591,12.552],[77.46711,12.55136],[77.46687,12.5507],[77.46677,12.55127],[77.46568,12.55182],[77.46558,12.55344],[77.46503,12.55419],[77.46466,12.55405],[77.46455,12.55287],[77.46317,12.55325],[77.4632,12.55377],[77.46382,12.55406],[77.46394,12.55625],[77.46368,12.55684],[77.46293,12.55727],[77.46282,12.55826],[77.46227,12.55871],[77.46127,12.5585],[77.45979,12.55996],[77.45726,12.5605],[77.45627,12.5644],[77.45528,12.56493],[77.45477,12.5646],[77.45381,12.56566],[77.4542,12.56595],[77.45521,12.56564],[77.45706,12.56573],[77.45776,12.56687],[77.45785,12.56798],[77.45777,12.56858],[77.45718,12.56897],[77.45691,12.56975],[77.45829,12.57022],[77.45849,12.56978]]]},"properties":{"name":"Maralwadi tank (Mavathur tank)","custodian":"Minor Irrigation Department","district":"Ramanagara","tankId":"KA29040305","shedId":"C05CAM35"}},{"type":"Feature","geometry":{"type":"Polygon","coordinates":[[[77.55059,12.44361],[77.55,12.44361],[77.5498,12.4431],[77.54909,12.44266],[77.54841,12.44268],[77.5479,12.44134],[77.54762,12.44138],[77.54775,12.44105],[77.54741,12.44106],[77.54743,12.44055],[77.54689,12.44051],[77.54692,12.44023],[77.54786,12.44014],[77.54771,12.43927],[77.54901,12.43842],[77.54874,12.4379],[77.54899,12.43739],[77.54951,12.43735],[77.54968,12.43775],[77.5509,12.43805],[77.55151,12.43874],[77.55086,12.43717],[77.5504,12.43695],[77.55154,12.4361],[77.55127,12.43566],[77.55077,12.43571],[77.54995,12.43509],[77.54985,12.43455],[77.54963,12.43473],[77.54988,12.43605],[77.54828,12.43692],[77.54753,12.43706],[77.54728,12.4368],[77.54713,12.43715],[77.54654,12.43713],[77.54632,12.43794],[77.54552,12.43832],[77.54507,12.43967],[77.54436,12.43937],[77.54261,12.43974],[77.54198,12.4384],[77.54096,12.44028],[77.54108,12.44091],[77.54592,12.44251],[77.54587,12.44192],[77.54622,12.44162],[77.547,12.44177],[77.54809,12.44347],[77.5488,12.44336],[77.54932,12.44388],[77.55025,12.44404],[77.55059,12.44361]]]},"properties":{"name":"Thattiguppe","custodian":"Minor Irrigation Department","district":"Ramanagara","tankId":"KA29040122","shedId":"C05CAM36"}},{"type":"Feature","geometry":{"type":"Polygon","coordinates":[[[77.55452,12.48152],[77.55551,12.48132],[77.55458,12.4809],[77.55465,12.47979],[77.55399,12.47989],[77.55326,12.47942],[77.55304,12.47965],[77.55221,12.47949],[77.55219,12.48227],[77.55321,12.48215],[77.55358,12.48153],[77.55538,12.48224],[77.55455,12.48183],[77.55452,12.48152]]]},"properties":{"name":"Hirandyappanahalli","custodian":"Minor Irrigation Department","district":"Ramanagara","tankId":"KA29040123","shedId":"C05CAM36"}},{"type":"Feature","geometry":{"type":"Polygon","coordinates":[[[77.58522,12.41765],[77.58503,12.417],[77.58553,12.41565],[77.58715,12.41562],[77.58596,12.41453],[77.58552,12.41312],[77.58583,12.4125],[77.58666,12.41197],[77.58593,12.41107],[77.58699,12.40916],[77.58701,12.40655],[77.58772,12.40571],[77.58763,12.40509],[77.58316,12.40517],[77.58244,12.40634],[77.58314,12.40709],[77.58328,12.40795],[77.58377,12.40807],[77.58405,12.40896],[77.58355,12.41304],[77.58394,12.41347],[77.58373,12.41408],[77.58431,12.41561],[77.58418,12.41667],[77.5835,12.41746],[77.58368,12.41784],[77.58412,12.41769],[77.58406,12.41988],[77.58478,12.41985],[77.58522,12.41765]]]},"properties":{"name":"Chikkagondanahally Tank","custodian":"Minor Irrigation Department","district":"Ramanagara","tankId":"KA29040282","shedId":"C05CAM36"}},{"type":"Feature","geometry":{"type":"Polygon","coordinates":[[[77.58843,12.68738],[77.5883,12.68639],[77.58877,12.68526],[77.58847,12.68513],[77.58858,12.68477],[77.58923,12.68468],[77.59001,12.68624],[77.5909,12.68591],[77.58969,12.68374],[77.59026,12.68207],[77.59094,12.68166],[77.59048,12.68167],[77.59063,12.68132],[77.58983,12.68117],[77.58831,12.67982],[77.58842,12.67903],[77.58885,12.67901],[77.58945,12.67956],[77.58971,12.67889],[77.59048,12.67836],[77.58994,12.67809],[77.59028,12.67745],[77.5893,12.67684],[77.58971,12.67651],[77.5894,12.67619],[77.5873,12.67651],[77.58563,12.67744],[77.58641,12.67806],[77.58542,12.67885],[77.58571,12.67924],[77.58538,12.67977],[77.58626,12.67972],[77.58587,12.68086],[77.58621,12.68106],[77.58599,12.68158],[77.58645,12.68162],[77.58705,12.68226],[77.58771,12.68421],[77.5875,12.68618],[77.58799,12.68637],[77.58792,12.68694],[77.58843,12.68738]]]},"properties":{"name":"Thattekere","custodian":"Minor Irrigation Department","district":"Ramanagara","tankId":"KA29040119","shedId":"C05CAM35"}},{"type":"Feature","geometry":{"type":"Polygon","coordinates":[[[77.6127,12.40032],[77.61201,12.39893],[77.61214,12.39821],[77.6126,12.39824],[77.61261,12.3979],[77.61183,12.39733],[77.61173,12.39689],[77.611,12.39658],[77.61231,12.39519],[77.61206,12.39414],[77.61142,12.39413],[77.6109,12.39365],[77.61148,12.39293],[77.61108,12.39155],[77.6074,12.39274],[77.60827,12.39476],[77.60915,12.39535],[77.60964,12.39685],[77.60951,12.39741],[77.61,12.39755],[77.61003,12.39827],[77.6104,12.3981],[77.6103,12.39947],[77.61108,12.39977],[77.61143,12.40208],[77.61131,12.40357],[77.6116,12.40386],[77.6123,12.40365],[77.6126,12.40254],[77.61329,12.40162],[77.61329,12.40074],[77.6127,12.40032]]]},"properties":{"name":"Neralahatti tank","custodian":"Minor Irrigation Department","district":"Ramanagara","tankId":"KA29040121","shedId":"C05CAM36"}},{"type":"Feature","geometry":{"type":"Polygon","coordinates":[[[77.38887,12.48241],[77.39027,12.4819],[77.39084,12.47875],[77.38726,12.48],[77.38709,12.48064],[77.3855,12.48067],[77.38556,12.48105],[77.38616,12.48128],[77.38638,12.48216],[77.3869,12.48215],[77.38714,12.48252],[77.38887,12.48241]]]},"properties":{"name":"Horalagallu","custodian":"Minor Irrigation Department","district":"Ramanagara","tankId":"KA29040127","shedId":"C05CAM35"}},{"type":"Feature","geometry":{"type":"Polygon","coordinates":[[[77.38017,12.53151],[77.38249,12.52679],[77.38058,12.52556],[77.3803,12.52782],[77.37915,12.52798],[77.37921,12.52824],[77.37871,12.52837],[77.37749,12.53005],[77.37877,12.52918],[77.38019,12.52881],[77.38017,12.53151]]]},"properties":{"name":"Doddathandyakere","custodian":"Minor Irrigation Department","district":"Ramanagara","tankId":"KA29040131","shedId":"C05CAM35"}},{"type":"Feature","geometry":{"type":"Polygon","coordinates":[[[77.47418,12.51795],[77.4736,12.51782],[77.47575,12.51623],[77.47448,12.51667],[77.47428,12.51639],[77.47221,12.51622],[77.47206,12.5158],[77.47256,12.51537],[77.47225,12.51424],[77.47161,12.51622],[77.46981,12.51704],[77.47054,12.51791],[77.47008,12.51891],[77.47334,12.51965],[77.47418,12.51795]]]},"properties":{"name":"Keralalusandra","custodian":"Minor Irrigation Department","district":"Ramanagara","tankId":"KA29040132","shedId":"C05CAM35"}},{"type":"Feature","geometry":{"type":"Polygon","coordinates":[[[77.59797,12.50699],[77.59768,12.5066],[77.59641,12.50647],[77.59415,12.50459],[77.5951,12.50417],[77.59496,12.50391],[77.59397,12.50372],[77.59212,12.50498],[77.59359,12.50644],[77.59439,12.50622],[77.59437,12.50595],[77.5939,12.50585],[77.5946,12.50586],[77.59472,12.50644],[77.59532,12.5062],[77.59476,12.50661],[77.59471,12.50686],[77.59491,12.50668],[77.59584,12.50711],[77.59797,12.50699]]]},"properties":{"name":"Kadushivanahalli tank","custodian":"Minor Irrigation Department","district":"Ramanagara","tankId":"KA29040158","shedId":"C05CAM36"}},{"type":"Feature","geometry":{"type":"Polygon","coordinates":[[[77.43573,12.66636],[77.43887,12.66636],[77.43567,12.66484],[77.43632,12.66345],[77.43693,12.66317],[77.43701,12.66281],[77.43726,12.66293],[77.43761,12.66152],[77.43814,12.66104],[77.4378,12.6607],[77.43553,12.66336],[77.43381,12.66313],[77.43426,12.66471],[77.43254,12.66585],[77.43345,12.6681],[77.43381,12.66826],[77.43422,12.66821],[77.43477,12.66746],[77.43473,12.6669],[77.43573,12.66636]]]},"properties":{"name":"Bannikuppe","custodian":"Minor Irrigation Department","district":"Ramanagara","tankId":"KA29040165","shedId":"C05CAM34"}},{"type":"Feature","geometry":{"type":"Polygon","coordinates":[[[77.34694,12.67729],[77.34777,12.67758],[77.3474,12.67706],[77.34781,12.67635],[77.34772,12.67584],[77.34849,12.67448],[77.34912,12.67455],[77.34977,12.67417],[77.34986,12.67245],[77.35015,12.67231],[77.34633,12.67153],[77.34594,12.67187],[77.34594,12.67301],[77.34567,12.67304],[77.34634,12.67544],[77.34641,12.67698],[77.34552,12.6774],[77.34623,12.67971],[77.34649,12.67961],[77.34643,12.67857],[77.34694,12.67729]]]},"properties":{"name":"Voddarahalli tank","custodian":"Minor Irrigation Department","district":"Ramanagara","tankId":"KA29020008","shedId":"CO5CAM33"}},{"type":"Feature","geometry":{"type":"Polygon","coordinates":[[[77.29109,12.65417],[77.29096,12.65158],[77.29142,12.65117],[77.29004,12.65147],[77.28821,12.65091],[77.28803,12.65052],[77.28705,12.6507],[77.28767,12.65194],[77.28922,12.65311],[77.28967,12.65382],[77.2903,12.65419],[77.29109,12.65417]]]},"properties":{"name":"Jakkanahalli","custodian":"Minor Irrigation Department","district":"Ramanagara","tankId":"KA29020011","shedId":"CO5CAM33"}},{"type":"Feature","geometry":{"type":"Polygon","coordinates":[[[77.29123,12.68736],[77.29044,12.68656],[77.29009,12.68668],[77.28998,12.68695],[77.29052,12.68734],[77.29123,12.68736]]]},"properties":{"name":"Achalu","custodian":"Minor Irrigation Department","district":"Ramanagara","tankId":"KA29020013","shedId":"CO5CAM33"}},{"type":"Feature","geometry":{"type":"Polygon","coordinates":[[[77.37039,12.68564],[77.36991,12.68576],[77.36952,12.68687],[77.37033,12.68732],[77.37168,12.68924],[77.37303,12.68773],[77.37251,12.68677],[77.37039,12.68564]]]},"properties":{"name":"Pitchanakere","custodian":"Minor Irrigation Department","district":"Ramanagara","tankId":"KA29020014","shedId":"C05CAM34"}},{"type":"Feature","geometry":{"type":"Polygon","coordinates":[[[77.5677,12.62026],[77.56715,12.61807],[77.56659,12.61819],[77.56639,12.6178],[77.56681,12.61768],[77.56756,12.61804],[77.56752,12.61752],[77.56558,12.61759],[77.56434,12.61598],[77.56467,12.6155],[77.56275,12.61396],[77.56347,12.61332],[77.56323,12.61268],[77.5618,12.61313],[77.56044,12.61221],[77.55957,12.61204],[77.55873,12.61049],[77.55836,12.61093],[77.55698,12.61004],[77.55574,12.60877],[77.55564,12.6082],[77.55508,12.60841],[77.55449,12.60709],[77.5538,12.60702],[77.55355,12.60641],[77.55316,12.60657],[77.55254,12.60627],[77.55091,12.60346],[77.54976,12.60409],[77.54897,12.60298],[77.54694,12.60138],[77.54472,12.60281],[77.54515,12.60365],[77.54594,12.60361],[77.546,12.60412],[77.54674,12.60423],[77.54773,12.6053],[77.54857,12.60555],[77.54886,12.60619],[77.54915,12.60595],[77.55094,12.60712],[77.55262,12.60899],[77.55509,12.61029],[77.55584,12.61175],[77.55678,12.61141],[77.55756,12.61195],[77.55915,12.61386],[77.55906,12.61478],[77.55963,12.61606],[77.55998,12.61592],[77.5601,12.61442],[77.56161,12.61422],[77.56298,12.61518],[77.56485,12.61778],[77.56685,12.61849],[77.5677,12.62026]]]},"properties":{"name":"Ravuthanahalli Kere","custodian":"Minor Irrigation Department","district":"Ramanagara","tankId":"KA29040120","shedId":"C05CAM35"}},{"type":"Feature","geometry":{"type":"Polygon","coordinates":[[[77.522,12.50138],[77.52405,12.50093],[77.52362,12.49791],[77.52396,12.49734],[77.5238,12.49627],[77.52111,12.49593],[77.52111,12.49727],[77.52204,12.499],[77.52161,12.49925],[77.52151,12.50103],[77.522,12.50138]]]},"properties":{"name":"Hanchiguli","custodian":"Minor Irrigation Department","district":"Ramanagara","tankId":"KA29040133","shedId":"C05CAM36"}},{"type":"Feature","geometry":{"type":"Polygon","coordinates":[[[77.37335,13.18057],[77.37358,13.17604],[77.37315,13.17522],[77.37258,13.17548],[77.37275,13.17603],[77.37243,13.17662],[77.37124,13.17711],[77.36889,13.17739],[77.36964,13.17793],[77.37033,13.17915],[77.37188,13.1827],[77.37307,13.18249],[77.37271,13.18183],[77.37302,13.18171],[77.37305,13.18074],[77.37335,13.18057]]]},"properties":{"name":"Baradikere","custodian":"Minor Irrigation Department","district":"Bengaluru (Rural)","tankId":"KA21010110","shedId":"C05CAM30"}},{"type":"Feature","geometry":{"type":"Polygon","coordinates":[[[77.63744,13.34207],[77.6396,13.3413],[77.64003,13.34083],[77.63969,13.33918],[77.63829,13.33911],[77.63816,13.3387],[77.63537,13.33714],[77.63531,13.33785],[77.63609,13.33826],[77.63729,13.34026],[77.63729,13.34262],[77.63744,13.34207]]]},"properties":{"name":"Dandusa kodigehalli Kere","custodian":"Minor Irrigation Department","district":"Bengaluru (Rural)","tankId":"KA21020039","shedId":"C05CAM31"}},{"type":"Feature","geometry":{"type":"Polygon","coordinates":[[[77.63703,12.74882],[77.63743,12.74889],[77.63741,12.74795],[77.63778,12.74734],[77.63701,12.74746],[77.63637,12.74675],[77.63599,12.74676],[77.63616,12.74605],[77.63589,12.74552],[77.63624,12.74536],[77.63716,12.74572],[77.63737,12.74451],[77.63584,12.74431],[77.63421,12.74496],[77.63394,12.74569],[77.63561,12.74825],[77.63651,12.74853],[77.63684,12.74913],[77.63703,12.74882]]]},"properties":{"name":"Bommandahalli Kere","custodian":"Minor Irrigation Department","district":"Bengaluru (Urban)","tankId":"KA20030024","shedId":"C05CAM35"}},{"type":"Feature","geometry":{"type":"Polygon","coordinates":[[[77.48692,12.67471],[77.48684,12.67354],[77.48729,12.67349],[77.48742,12.66877],[77.48882,12.66764],[77.49362,12.67176],[77.49507,12.67204],[77.49545,12.67309],[77.49375,12.67402],[77.49371,12.67459],[77.49151,12.67535],[77.49085,12.67438],[77.48692,12.67471]]]},"properties":{"name":"Chilukana Kere tank","custodian":"Minor Irrigation Department","district":"Ramanagara","tankId":"KA29040172","shedId":"C05CAM34"}},{"type":"Feature","geometry":{"type":"Polygon","coordinates":[[[77.60486,13.35428],[77.60467,13.35317],[77.60529,13.35366],[77.6062,13.3538],[77.60662,13.35048],[77.60718,13.34864],[77.60751,13.34862],[77.60815,13.35046],[77.61014,13.35058],[77.61059,13.35034],[77.61187,13.3505],[77.61227,13.35082],[77.61345,13.35066],[77.61417,13.35338],[77.61324,13.35362],[77.6131,13.35444],[77.61384,13.35481],[77.6137,13.35527],[77.61076,13.35529],[77.6103,13.35495],[77.61018,13.35515],[77.60908,13.35479],[77.60585,13.35466],[77.60486,13.35428]]]},"properties":{"name":"Beedigere Kere","custodian":"Minor Irrigation Department","district":"Bengaluru (Rural)","tankId":"KA21020052","shedId":"C05CAM31"}},{"type":"Feature","geometry":{"type":"Polygon","coordinates":[[[77.6235,13.36221],[77.62417,13.3565],[77.62475,13.35501],[77.6264,13.35646],[77.62764,13.35646],[77.62822,13.3569],[77.6286,13.35787],[77.63009,13.35803],[77.62917,13.35919],[77.62992,13.36028],[77.62913,13.36064],[77.62851,13.36185],[77.62897,13.36185],[77.62826,13.36286],[77.62706,13.36189],[77.62499,13.36149],[77.62437,13.36149],[77.62375,13.3625],[77.6235,13.36221]]]},"properties":{"name":"Melekote Dodda Kere","custodian":"Minor Irrigation Department","district":"Bengaluru (Rural)","tankId":"KA21020036","shedId":"C05CAM31"}},{"type":"Feature","geometry":{"type":"Polygon","coordinates":[[[77.52255,13.25067],[77.52657,13.25063],[77.52653,13.24914],[77.52756,13.24825],[77.52777,13.24664],[77.5274,13.2464],[77.52727,13.24455],[77.52794,13.24378],[77.52806,13.24084],[77.52876,13.24027],[77.52851,13.23858],[77.5288,13.23745],[77.5305,13.23544],[77.5329,13.23544],[77.53311,13.23459],[77.53249,13.23447],[77.5322,13.23375],[77.53166,13.23379],[77.53,13.23101],[77.53083,13.23012],[77.53034,13.22992],[77.52909,13.22621],[77.52806,13.22625],[77.52798,13.22658],[77.52831,13.22686],[77.52851,13.22887],[77.52541,13.22936],[77.52442,13.22907],[77.5233,13.22903],[77.52289,13.22932],[77.52198,13.22911],[77.52144,13.2298],[77.52363,13.23052],[77.52496,13.23214],[77.52487,13.23419],[77.52425,13.2352],[77.52367,13.23862],[77.52404,13.24003],[77.52458,13.24064],[77.52409,13.24205],[77.52342,13.24257],[77.5233,13.24342],[77.52384,13.24543],[77.52318,13.24765],[77.52264,13.24781],[77.52235,13.24882],[77.52181,13.2491],[77.52193,13.2499],[77.52247,13.25006],[77.52255,13.25067]]]},"properties":{"name":"Doddatumakuru Kere","custodian":"Minor Irrigation Department","district":"Bengaluru (Rural)","tankId":"KA21020041","shedId":"C05CAM31"}},{"type":"Feature","geometry":{"type":"Polygon","coordinates":[[[77.47978,13.31222],[77.48015,13.31165],[77.48098,13.31117],[77.48108,13.31139],[77.48202,13.31057],[77.48336,13.31016],[77.48326,13.30952],[77.4857,13.30898],[77.48758,13.3098],[77.49197,13.30964],[77.493,13.30914],[77.49296,13.30843],[77.49137,13.30879],[77.49064,13.30863],[77.49011,13.30789],[77.49062,13.3035],[77.49009,13.30348],[77.49009,13.30459],[77.48889,13.30573],[77.48638,13.30642],[77.48626,13.3062],[77.48545,13.30636],[77.48481,13.3069],[77.48357,13.30666],[77.4828,13.30708],[77.48247,13.30688],[77.48005,13.30807],[77.48055,13.31041],[77.47916,13.31107],[77.47978,13.31222]]]},"properties":{"name":"Kesturu Kere","custodian":"Minor Irrigation Department","district":"Bengaluru (Rural)","tankId":"KA21020042","shedId":"C05CAM31"}},{"type":"Feature","geometry":{"type":"Polygon","coordinates":[[[77.5822,13.32515],[77.58423,13.32692],[77.58527,13.33054],[77.58523,13.3338],[77.58634,13.33348],[77.58808,13.33388],[77.58825,13.33441],[77.59168,13.33485],[77.59251,13.33525],[77.59284,13.33578],[77.59301,13.33517],[77.59263,13.33505],[77.59214,13.333],[77.59057,13.3303],[77.59028,13.32994],[77.5897,13.33006],[77.58887,13.32913],[77.58912,13.32817],[77.58829,13.32571],[77.58833,13.32535],[77.58903,13.3249],[77.58887,13.32434],[77.58837,13.32414],[77.58618,13.32478],[77.5822,13.32515]]]},"properties":{"name":"Rajaghatta Amani Kere","custodian":"Minor Irrigation Department","district":"Bengaluru (Rural)","tankId":"KA21020045","shedId":"C05CAM31"}},{"type":"Feature","geometry":{"type":"Polygon","coordinates":[[[77.64466,13.33525],[77.64573,13.33757],[77.64644,13.33741],[77.64673,13.33666],[77.64785,13.33606],[77.64778,13.3355],[77.64896,13.33519],[77.64898,13.33461],[77.64983,13.33435],[77.64977,13.33382],[77.64946,13.33312],[77.64869,13.33312],[77.64716,13.33431],[77.64578,13.33425],[77.64571,13.33451],[77.64336,13.33495],[77.6434,13.33562],[77.64466,13.33525]]]},"properties":{"name":"Gulya Nandi Gunda Kere","custodian":"Minor Irrigation Department","district":"Bengaluru (Rural)","tankId":"KA21020048","shedId":"C05CAM31"}},{"type":"Feature","geometry":{"type":"Polygon","coordinates":[[[77.56251,13.36268],[77.56328,13.36131],[77.56409,13.35821],[77.56371,13.35785],[77.56177,13.3575],[77.56109,13.35704],[77.56107,13.35664],[77.56218,13.3565],[77.56216,13.35605],[77.56307,13.35581],[77.56316,13.3568],[77.56396,13.357],[77.56566,13.35821],[77.56794,13.35748],[77.568,13.3595],[77.56752,13.35966],[77.56839,13.36252],[77.57003,13.36411],[77.57042,13.36511],[77.56839,13.36536],[77.56781,13.36497],[77.56781,13.36368],[77.56727,13.36372],[77.56736,13.36403],[77.56384,13.36314],[77.5639,13.36227],[77.56299,13.36232],[77.56251,13.36268]]]},"properties":{"name":"Thippanahalli/Lakshmidevapura","custodian":"Minor Irrigation Department","district":"Bengaluru (Rural)","tankId":"KA21020035","shedId":"C05CAM31"}},{"type":"Feature","geometry":{"type":"Polygon","coordinates":[[[77.50772,13.34778],[77.50883,13.34883],[77.50983,13.34826],[77.51008,13.3485],[77.51128,13.34778],[77.5114,13.34734],[77.5131,13.34689],[77.51529,13.34778],[77.51542,13.34846],[77.5167,13.34846],[77.51715,13.3477],[77.51703,13.34585],[77.51633,13.34568],[77.51579,13.3444],[77.5155,13.34214],[77.51595,13.34142],[77.51657,13.34121],[77.51703,13.33972],[77.51542,13.34005],[77.51504,13.34085],[77.51285,13.34162],[77.51115,13.34134],[77.50888,13.34009],[77.50846,13.34065],[77.50879,13.34093],[77.50921,13.34311],[77.50888,13.3454],[77.50772,13.34778]]]},"properties":{"name":"Koluru Kere","custodian":"Minor Irrigation Department","district":"Bengaluru (Rural)","tankId":"KA21020027","shedId":"C05CAM31"}},{"type":"Feature","geometry":{"type":"Polygon","coordinates":[[[77.51028,13.3127],[77.51128,13.31351],[77.51202,13.31355],[77.5126,13.31447],[77.51376,13.31508],[77.51401,13.31588],[77.51616,13.31608],[77.51624,13.31661],[77.51906,13.31697],[77.52084,13.31761],[77.52233,13.31717],[77.52407,13.31802],[77.52398,13.31725],[77.52146,13.31484],[77.52001,13.31278],[77.5198,13.3119],[77.5203,13.31097],[77.52017,13.3102],[77.51748,13.30992],[77.51711,13.30896],[77.51479,13.30791],[77.51488,13.30722],[77.51409,13.30674],[77.51372,13.30759],[77.51426,13.30783],[77.51413,13.30996],[77.51124,13.31129],[77.50954,13.31153],[77.51028,13.3127]]]},"properties":{"name":"Talagavara Kere","custodian":"Minor Irrigation Department","district":"Bengaluru (Rural)","tankId":"KA21020028","shedId":"C05CAM31"}},{"type":"Feature","geometry":{"type":"Polygon","coordinates":[[[77.53354,13.32567],[77.53938,13.32788],[77.54166,13.32958],[77.54298,13.33276],[77.54352,13.33312],[77.54406,13.33437],[77.54451,13.33682],[77.54426,13.33775],[77.54546,13.33779],[77.54584,13.33513],[77.54579,13.33413],[77.54476,13.33107],[77.54509,13.32845],[77.54319,13.32498],[77.5431,13.32414],[77.54116,13.32446],[77.54178,13.32345],[77.53706,13.32136],[77.53536,13.32096],[77.53462,13.32184],[77.53462,13.32402],[77.53354,13.32567]]]},"properties":{"name":"Palanajogi Halli Kere","custodian":"Minor Irrigation Department","district":"Bengaluru (Rural)","tankId":"KA21020038","shedId":"C05CAM31"}},{"type":"Feature","geometry":{"type":"Polygon","coordinates":[[[77.46412,13.32897],[77.46453,13.32833],[77.46573,13.32958],[77.46747,13.32917],[77.47094,13.32921],[77.47144,13.32829],[77.47219,13.32809],[77.47223,13.32869],[77.47326,13.33018],[77.47206,13.33163],[77.47119,13.33195],[77.47041,13.33425],[77.4697,13.33441],[77.4695,13.33574],[77.4685,13.33594],[77.46594,13.33852],[77.46532,13.3386],[77.46523,13.33904],[77.46271,13.33964],[77.46217,13.33848],[77.46209,13.33715],[77.46263,13.33481],[77.46366,13.33324],[77.46383,13.33219],[77.46432,13.33203],[77.46465,13.32986],[77.46412,13.32897]]]},"properties":{"name":"Hanabe Doddakere","custodian":"Minor Irrigation Department","district":"Bengaluru (Rural)","tankId":"KA21020030","shedId":"C05CAM31"}},{"type":"Feature","geometry":{"type":"MultiPolygon","coordinates":[[[[77.41135,13.23983],[77.41197,13.24056],[77.41304,13.24076],[77.41342,13.23975],[77.41433,13.23975],[77.41433,13.23915],[77.41358,13.2387],[77.41329,13.23754],[77.41159,13.23423],[77.41164,13.23314],[77.41093,13.23407],[77.41106,13.23463],[77.41052,13.23463],[77.41068,13.2352],[77.40986,13.23588],[77.4099,13.23637],[77.40812,13.23754],[77.40808,13.23862],[77.40853,13.23927],[77.40754,13.23955],[77.40788,13.24093],[77.41135,13.23983]]],[[[77.40787,13.24094],[77.40779,13.24076],[77.40779,13.24096],[77.40787,13.24094]]],[[[77.40791,13.24104],[77.40788,13.24093],[77.40787,13.24094],[77.40791,13.24104]]]]},"properties":{"name":"Simpadipura Kere","custodian":"Minor Irrigation Department","district":"Bengaluru (Rural)","tankId":"KA21020017","shedId":"C05CAM31"}},{"type":"Feature","geometry":{"type":"Polygon","coordinates":[[[77.43038,13.21542],[77.43063,13.21662],[77.43477,13.21642],[77.43899,13.21703],[77.43961,13.2186],[77.43908,13.22061],[77.43862,13.22061],[77.43841,13.22218],[77.43804,13.22231],[77.43796,13.22343],[77.43763,13.22351],[77.4375,13.22509],[77.43775,13.22533],[77.43738,13.22678],[77.43775,13.23012],[77.44479,13.22932],[77.44466,13.22803],[77.44504,13.22662],[77.44541,13.2265],[77.44562,13.22327],[77.44648,13.22227],[77.44665,13.22118],[77.44748,13.21961],[77.44835,13.21928],[77.44831,13.21791],[77.44905,13.21461],[77.45066,13.21336],[77.45066,13.21211],[77.45025,13.21098],[77.45166,13.20969],[77.45133,13.20857],[77.45071,13.20865],[77.45079,13.20937],[77.45025,13.21002],[77.44802,13.21022],[77.44363,13.20929],[77.44115,13.20756],[77.4411,13.20647],[77.44015,13.20671],[77.4404,13.20828],[77.44011,13.20945],[77.43672,13.21171],[77.43051,13.21179],[77.43101,13.21489],[77.43038,13.21542]]]},"properties":{"name":"Madura Amanikere","custodian":"Minor Irrigation Department","district":"Bengaluru (Rural)","tankId":"KA21020040","shedId":"C05CAM31"}},{"type":"Feature","geometry":{"type":"Polygon","coordinates":[[[77.30206,13.18149],[77.30152,13.17512],[77.30198,13.17157],[77.30169,13.17097],[77.30099,13.17069],[77.30065,13.16968],[77.3009,13.16904],[77.30214,13.16791],[77.30157,13.16573],[77.30152,13.16275],[77.30239,13.16323],[77.30243,13.16484],[77.3031,13.16521],[77.30409,13.16428],[77.30488,13.164],[77.30579,13.16444],[77.30608,13.16521],[77.30579,13.16561],[77.30806,13.16698],[77.3081,13.16807],[77.30624,13.16827],[77.30521,13.17129],[77.30608,13.17371],[77.30604,13.17512],[77.30682,13.17581],[77.3067,13.17641],[77.30455,13.17633],[77.30384,13.17774],[77.30405,13.18048],[77.3045,13.18056],[77.30413,13.18125],[77.30206,13.18149]]]},"properties":{"name":"Kuluvanahalli","custodian":"Minor Irrigation Department","district":"Bengaluru (Rural)","tankId":"KA21010106","shedId":"C05CAM30"}},{"type":"Feature","geometry":{"type":"Polygon","coordinates":[[[77.28796,13.19765],[77.29071,13.19817],[77.29179,13.20031],[77.29458,13.2023],[77.29568,13.20212],[77.29605,13.2025],[77.29646,13.20476],[77.29731,13.20544],[77.29824,13.2054],[77.29777,13.2072],[77.2964,13.20758],[77.29572,13.20695],[77.29348,13.20591],[77.29011,13.20615],[77.28984,13.20456],[77.28999,13.20385],[77.2903,13.20385],[77.29036,13.2026],[77.28808,13.19863],[77.28796,13.19765]]]},"properties":{"name":"Sondilavadi","custodian":"Minor Irrigation Department","district":"Bengaluru (Rural)","tankId":"KA21010105","shedId":"C05CAM30"}},{"type":"Feature","geometry":{"type":"Polygon","coordinates":[[[77.3063,13.19722],[77.30599,13.19674],[77.30608,13.19593],[77.3093,13.19537],[77.31235,13.1943],[77.31291,13.19519],[77.31233,13.19646],[77.31162,13.19638],[77.31133,13.19813],[77.31222,13.20194],[77.31042,13.20238],[77.31017,13.20176],[77.30848,13.20252],[77.30779,13.20341],[77.30804,13.20518],[77.30767,13.20512],[77.3075,13.2055],[77.30635,13.2055],[77.30616,13.20248],[77.30767,13.20156],[77.30786,13.20075],[77.3075,13.20021],[77.30875,13.19986],[77.3073,13.1971],[77.3063,13.19722]]]},"properties":{"name":"Bidalooru Gangammanagudi kere","custodian":"Minor Irrigation Department","district":"Bengaluru (Rural)","tankId":"KA21010112","shedId":"C05CAM30"}},{"type":"Feature","geometry":{"type":"MultiPolygon","coordinates":[[[[77.34489,13.21483],[77.34752,13.21481],[77.34822,13.21517],[77.34845,13.21479],[77.35134,13.21471],[77.35103,13.21376],[77.34725,13.21262],[77.34574,13.21056],[77.34541,13.21078],[77.34613,13.21302],[77.34598,13.21364],[77.34547,13.21423],[77.34457,13.21433],[77.34489,13.21483]]],[[[77.34449,13.21421],[77.34447,13.21421],[77.34457,13.21433],[77.34449,13.21421]]]]},"properties":{"name":"Belekonanakere","custodian":"Minor Irrigation Department","district":"Bengaluru (Rural)","tankId":"KA21010111","shedId":"C05CAM30"}},{"type":"Feature","geometry":{"type":"MultiPolygon","coordinates":[[[[77.38965,13.10651],[77.39089,13.10678],[77.391,13.10726],[77.39262,13.10629],[77.39462,13.10632],[77.3957,13.10711],[77.39576,13.10818],[77.39598,13.10814],[77.39621,13.10733],[77.39556,13.10561],[77.39527,13.10506],[77.39439,13.10463],[77.395,13.10311],[77.396,13.10263],[77.39628,13.10207],[77.3958,13.0995],[77.39555,13.09968],[77.39592,13.10121],[77.39474,13.10241],[77.392,13.10315],[77.39211,13.10335],[77.39038,13.10415],[77.39019,13.10494],[77.38936,13.10527],[77.38965,13.10651]]],[[[77.38964,13.10651],[77.38965,13.10652],[77.38965,13.10651],[77.38964,13.10651]]]]},"properties":{"name":"Nelamangla","custodian":"Minor Irrigation Department","district":"Bengaluru (Rural)","tankId":"KA21010102","shedId":"C05CAM32"}},{"type":"Feature","geometry":{"type":"Polygon","coordinates":[[[77.40859,13.09263],[77.4079,13.09168],[77.41027,13.0895],[77.41076,13.08967],[77.41146,13.08865],[77.41505,13.08601],[77.416,13.08592],[77.41431,13.08742],[77.41543,13.09079],[77.41615,13.09071],[77.41604,13.09149],[77.41463,13.09164],[77.41453,13.09216],[77.41479,13.09246],[77.41356,13.09258],[77.41336,13.09175],[77.41277,13.09117],[77.41191,13.09098],[77.40987,13.09173],[77.40859,13.09263]]]},"properties":{"name":"Arishinakunte","custodian":"Minor Irrigation Department","district":"Bengaluru (Rural)","tankId":"KA21010103","shedId":"C05CAM32"}},{"type":"Feature","geometry":{"type":"Polygon","coordinates":[[[77.28929,13.10994],[77.29028,13.10898],[77.29119,13.10878],[77.29156,13.10946],[77.29165,13.10898],[77.29407,13.10833],[77.29502,13.10924],[77.29481,13.11001],[77.29545,13.11119],[77.29645,13.1095],[77.29798,13.10904],[77.29922,13.1098],[77.29953,13.10944],[77.29802,13.10851],[77.29756,13.10741],[77.29514,13.10708],[77.29357,13.10612],[77.2927,13.10593],[77.29138,13.10652],[77.29109,13.10779],[77.29065,13.10831],[77.28968,13.10845],[77.28929,13.10994]]]},"properties":{"name":"Honnarayanahalli","custodian":"Minor Irrigation Department","district":"Bengaluru (Rural)","tankId":"KA21010001","shedId":"C05CAM30"}}]}