{"nvdm":"1.0","dataset":"basins/wetlands","scope":{"kind":"basin","id":"palakkad-rivers"},"provenance":{"sources":[{"id":"ksrec-open-geoserver","title":"KSREC GeoServer (WFS): local-body boundaries, watershed atlas, wetlands, paddy, notified wetland parcels, flood extents and quarries of Kerala","publisher":"Kerala State Remote Sensing and Environment Centre (KSREC)","license":"No licence or terms are stated on the GeoServer (WFS capabilities: AccessConstraints NONE). Served with attribution to KSREC by the maintainer's decision; layers KSREC derived from OpenStreetMap (quarries, waterbodies) carry ODbL 1.0.","role":"input","url":"http://ksrec.in:9090/geoserver/ows"}],"method":"derived","produced_at":"2026-09-29","produced_by":"scripts/build_palakkad_rivers_basin.py","note":"Palakkad district's rivers, reservoirs, wetlands and groundwater (scope palakkad-rivers; the district's own scope id is kl-palakkad). The district is the union of its local bodies in KSREC's layer and the catchments (shedId) are the river basins of KSREC's watershed atlas cut to it. KSREC publishes no licence and its layers are served with attribution; its quarry layer is OpenStreetMap's (ODbL)."},"type":"FeatureCollection","features":[{"type":"Feature","properties":{"system":"Inland Wetlands","origin":"Man-Made","kind":"Tanks/Ponds","areaHa":0.12,"shedId":"RB19"},"geometry":{"type":"Polygon","coordinates":[[[76.0472,10.8193],[76.0467,10.8193],[76.0465,10.8194],[76.0466,10.8196],[76.0472,10.8193]]]}},{"type":"Feature","properties":{"system":"Inland Wetlands","origin":"Man-Made","kind":"Tanks/Ponds","areaHa":0.43,"shedId":"RB19"},"geometry":{"type":"Polygon","coordinates":[[[76.0979,10.7885],[76.0974,10.7885],[76.0969,10.7888],[76.0971,10.789],[76.0974,10.789],[76.098,10.7887],[76.0979,10.7885]]]}},{"type":"Feature","properties":{"system":"Inland Wetlands","origin":"Man-Made","kind":"Tanks/Ponds","areaHa":0.12,"shedId":"RB19"},"geometry":{"type":"Polygon","coordinates":[[[76.0972,10.7879],[76.0973,10.7882],[76.0976,10.7882],[76.0977,10.788],[76.0972,10.7879]]]}},{"type":"Feature","properties":{"system":"Inland Wetlands","origin":"Man-Made","kind":"Tanks/Ponds","areaHa":0.21,"shedId":"RB19"},"geometry":{"type":"Polygon","coordinates":[[[76.1017,10.7708],[76.1018,10.7712],[76.1022,10.7711],[76.1021,10.7707],[76.1017,10.7708]]]}},{"type":"Feature","properties":{"system":"Inland Wetlands","origin":"Natural","kind":"River/Stream","areaHa":1.17,"shedId":"RB19"},"geometry":{"type":"MultiPolygon","coordinates":[[[[76.098,10.7303],[76.0975,10.73],[76.0974,10.73],[76.098,10.7303]]],[[[76.098,10.7304],[76.0976,10.7309],[76.0982,10.7316],[76.0983,10.7323],[76.0985,10.7323],[76.0983,10.7322],[76.0983,10.7315],[76.0977,10.7309],[76.098,10.7306],[76.098,10.7304]]],[[[76.0985,10.7323],[76.0987,10.7323],[76.0991,10.7323],[76.0989,10.7321],[76.0985,10.7323]]],[[[76.0991,10.7323],[76.0998,10.7323],[76.0999,10.7328],[76.1004,10.733],[76.1004,10.7337],[76.1011,10.7342],[76.1005,10.7336],[76.1006,10.733],[76.1001,10.7328],[76.1,10.7326],[76.1001,10.7324],[76.0999,10.7322],[76.0991,10.7323]]],[[[76.1012,10.7343],[76.1012,10.7342],[76.1011,10.7342],[76.1012,10.7343]]],[[[76.1012,10.7343],[76.1015,10.7346],[76.1016,10.7346],[76.1014,10.7343],[76.1012,10.7343]]],[[[76.1016,10.7346],[76.1023,10.7347],[76.1023,10.7346],[76.1016,10.7346]]],[[[76.1023,10.7347],[76.1024,10.735],[76.1025,10.7351],[76.1025,10.7348],[76.1023,10.7347]]],[[[76.1025,10.7351],[76.1031,10.7353],[76.1033,10.7356],[76.1035,10.7356],[76.1031,10.7352],[76.1025,10.7351]]],[[[76.1037,10.7356],[76.1038,10.7356],[76.1039,10.7356],[76.1038,10.7355],[76.1037,10.7356]]],[[[76.1041,10.7356],[76.1042,10.7355],[76.104,10.7356],[76.1041,10.7356]]],[[[76.1042,10.7355],[76.1043,10.7353],[76.1042,10.7352],[76.1042,10.7355]]],[[[76.1041,10.7352],[76.1042,10.7349],[76.1046,10.7347],[76.1041,10.7349],[76.1041,10.7352]]],[[[76.1047,10.7347],[76.1048,10.7346],[76.1046,10.7347],[76.1047,10.7347]]],[[[76.1049,10.7347],[76.1049,10.7346],[76.1048,10.7346],[76.1049,10.7347]]],[[[76.1049,10.7348],[76.105,10.7349],[76.1049,10.7347],[76.1049,10.7348]]],[[[76.1056,10.7351],[76.1057,10.7351],[76.1055,10.735],[76.1056,10.7351]]],[[[76.1057,10.7351],[76.1059,10.7353],[76.1061,10.7353],[76.1057,10.7351]]],[[[76.1072,10.7354],[76.107,10.7353],[76.1069,10.7353],[76.1072,10.7354]]],[[[76.1072,10.7354],[76.1074,10.7355],[76.1073,10.7354],[76.1072,10.7354]]],[[[76.1074,10.7356],[76.1075,10.736],[76.1076,10.7361],[76.1074,10.7356]]],[[[76.1079,10.7363],[76.1079,10.7362],[76.1077,10.7362],[76.1079,10.7363]]],[[[76.1083,10.73645],[76.1083,10.7364],[76.1082,10.7364],[76.1083,10.73645]]],[[[76.1092,10.7368],[76.1093,10.7367],[76.109,10.7367],[76.1092,10.7368]]]]}},{"type":"Feature","properties":{"system":"Inland Wetlands","origin":"Natural","kind":"River/Stream","areaHa":2.46,"shedId":"RB19"},"geometry":{"type":"MultiPolygon","coordinates":[[[[76.1094,10.7368],[76.1098,10.7371],[76.1101,10.737],[76.1094,10.7368]]],[[[76.1101,10.7369],[76.1106,10.7366],[76.1103,10.7366],[76.1101,10.7369]]],[[[76.1107,10.7366],[76.1108,10.7361],[76.1109,10.736],[76.1107,10.7361],[76.1107,10.7366]]],[[[76.1109,10.736],[76.1113,10.7361],[76.1114,10.7359],[76.1118,10.736],[76.1122,10.7355],[76.1118,10.7358],[76.1109,10.736]]],[[[76.1122,10.7355],[76.1129,10.7348],[76.1132,10.7347],[76.1132,10.7346],[76.1127,10.7347],[76.1122,10.7355]]],[[[76.1133,10.7346],[76.1136,10.7347],[76.1137,10.7346],[76.1133,10.7346]]],[[[76.1139,10.7346],[76.1141,10.7346],[76.1142,10.7346],[76.1141,10.7345],[76.1139,10.7346]]],[[[76.1144,10.7348],[76.1144,10.7347],[76.1143,10.7347],[76.1144,10.7348]]],[[[76.1146,10.7348],[76.1147,10.7349],[76.1148,10.735],[76.1148,10.7348],[76.1147,10.7347],[76.1146,10.7348]]],[[[76.1148,10.735],[76.115,10.7352],[76.1151,10.7352],[76.1148,10.735]]],[[[76.1151,10.7352],[76.1153,10.7356],[76.1154,10.7357],[76.1151,10.7352]]],[[[76.1154,10.7357],[76.1155,10.7359],[76.1156,10.7359],[76.1154,10.7357]]],[[[76.1157,10.736],[76.1158,10.736],[76.1156,10.7359],[76.1157,10.736]]],[[[76.1159,10.736],[76.1165,10.7361],[76.1168,10.7365],[76.1171,10.7366],[76.1165,10.736],[76.1159,10.736]]],[[[76.1173,10.7367],[76.1174,10.7367],[76.1172,10.7366],[76.1173,10.7367]]],[[[76.1178,10.7369],[76.1178,10.7368],[76.1176,10.7368],[76.1178,10.7369]]],[[[76.1179,10.737],[76.118,10.7369],[76.1178,10.7369],[76.1179,10.737]]],[[[76.118,10.7367],[76.1181,10.7368],[76.1181,10.7365],[76.118,10.7367]]],[[[76.1182,10.7364],[76.1181,10.7364],[76.1181,10.7365],[76.1182,10.7364]]],[[[76.1183,10.7365],[76.1184,10.7364],[76.1182,10.7364],[76.1183,10.7365]]],[[[76.1184,10.7365],[76.1186,10.7366],[76.1186,10.7365],[76.1184,10.7365]]],[[[76.1186,10.7365],[76.1188,10.7364],[76.119,10.7364],[76.1188,10.7363],[76.1186,10.7365]]],[[[76.1193,10.7365],[76.1192,10.7364],[76.1191,10.7364],[76.1193,10.7365]]],[[[76.1193,10.7365],[76.1195,10.7366],[76.1197,10.7366],[76.1195,10.7365],[76.1193,10.7365]]],[[[76.1197,10.7366],[76.1198,10.7365],[76.1197,10.7365],[76.1197,10.7366]]],[[[76.1198,10.7365],[76.12,10.7365],[76.1201,10.7364],[76.1198,10.7365]]],[[[76.1201,10.7364],[76.1205,10.7363],[76.1206,10.7364],[76.1204,10.7361],[76.1201,10.7364]]],[[[76.1208,10.7364],[76.1211,10.7364],[76.1212,10.7364],[76.121,10.7363],[76.1208,10.7364]]],[[[76.1212,10.7364],[76.1214,10.7365],[76.1215,10.7364],[76.1212,10.7364]]],[[[76.122,10.7364],[76.1219,10.7366],[76.1219,10.737],[76.122,10.7364]]],[[[76.1219,10.737],[76.1218,10.7373],[76.122,10.7374],[76.1219,10.737]]],[[[76.1226,10.7365],[76.1227,10.7364],[76.1225,10.7364],[76.1226,10.7365]]],[[[76.1229,10.7366],[76.123,10.7365],[76.1228,10.7365],[76.1229,10.7366]]],[[[76.1231,10.7364],[76.123,10.7364],[76.123,10.7365],[76.1231,10.7364]]],[[[76.1231,10.7364],[76.1232,10.736],[76.1232,10.7359],[76.1231,10.7364]]],[[[76.1232,10.7359],[76.1232,10.7352],[76.1233,10.7351],[76.1231,10.7352],[76.1232,10.7359]]],[[[76.1233,10.7351],[76.1236,10.7351],[76.1236,10.7349],[76.1233,10.7351]]],[[[76.1237,10.7349],[76.1238,10.7348],[76.1237,10.7348],[76.1237,10.7349]]],[[[76.1239,10.7349],[76.124,10.7348],[76.1238,10.7349],[76.1239,10.7349]]],[[[76.124,10.7348],[76.1242,10.7348],[76.1243,10.7348],[76.1242,10.7347],[76.124,10.7348]]],[[[76.1247,10.7349],[76.1248,10.7349],[76.1245,10.7348],[76.1247,10.7349]]],[[[76.1249,10.735],[76.125,10.7349],[76.1248,10.7349],[76.1249,10.735]]],[[[76.1251,10.735],[76.1252,10.735],[76.125,10.7349],[76.1251,10.735]]],[[[76.1254,10.7351],[76.1257,10.7353],[76.1259,10.7351],[76.1257,10.7352],[76.1254,10.7351]]],[[[76.126,10.7351],[76.126,10.7347],[76.1265,10.7345],[76.1266,10.7343],[76.1259,10.7347],[76.126,10.7351]]],[[[76.1277,10.7344],[76.1277,10.7343],[76.1276,10.7344],[76.1277,10.7344]]],[[[76.1282,10.7343],[76.1281,10.7343],[76.128,10.7344],[76.1282,10.7343]]],[[[76.1284,10.7343],[76.1284,10.7342],[76.1282,10.7343],[76.1284,10.7343]]],[[[76.129,10.7342],[76.1291,10.7341],[76.1289,10.7342],[76.129,10.7342]]],[[[76.1293,10.7341],[76.1296,10.7341],[76.1297,10.734],[76.1293,10.7341]]],[[[76.1297,10.734],[76.1301,10.7335],[76.1302,10.7334],[76.13,10.7335],[76.1297,10.734]]],[[[76.1304,10.7333],[76.1305,10.7332],[76.1303,10.7334],[76.1304,10.7333]]],[[[76.1306,10.7332],[76.1307,10.7331],[76.1305,10.7332],[76.1306,10.7332]]],[[[76.1308,10.7331],[76.1309,10.733],[76.1307,10.7331],[76.1308,10.7331]]],[[[76.1312,10.733],[76.1312,10.7329],[76.1311,10.733],[76.1312,10.733]]],[[[76.1313,10.7329],[76.1313,10.7328],[76.1312,10.7329],[76.1313,10.7329]]],[[[76.1315,10.7326],[76.1315,10.7325],[76.1314,10.7327],[76.1315,10.7326]]],[[[76.1315,10.7325],[76.1317,10.7322],[76.1317,10.732],[76.1315,10.7325]]],[[[76.1318,10.7318],[76.1317,10.7318],[76.1317,10.7319],[76.1318,10.7318]]],[[[76.1319,10.7317],[76.1318,10.7317],[76.1318,10.7318],[76.1319,10.7317]]],[[[76.132,10.7316],[76.1319,10.7316],[76.1319,10.7317],[76.132,10.7316]]],[[[76.1321,10.7316],[76.1325,10.7316],[76.1327,10.7315],[76.1327,10.7314],[76.1321,10.7316]]],[[[76.1329,10.7314],[76.1334,10.7314],[76.1335,10.7313],[76.1329,10.7314]]],[[[76.1335,10.7313],[76.1337,10.7312],[76.1338,10.7311],[76.1335,10.7313]]],[[[76.1338,10.7311],[76.1341,10.731],[76.134,10.7309],[76.1338,10.7311]]],[[[76.1341,10.731],[76.1343,10.7309],[76.1343,10.7308],[76.1341,10.731]]],[[[76.1343,10.7308],[76.1348,10.7308],[76.1348,10.7307],[76.1343,10.7308]]],[[[76.1349,10.7307],[76.135,10.7306],[76.1348,10.7307],[76.1349,10.7307]]],[[[76.1351,10.7306],[76.1352,10.7306],[76.1351,10.7305],[76.1351,10.7306]]],[[[76.1353,10.7307],[76.1353,10.7306],[76.1352,10.7306],[76.1353,10.7307]]],[[[76.1354,10.7305],[76.1355,10.7304],[76.1354,10.7304],[76.1354,10.7305]]],[[[76.1355,10.7304],[76.1357,10.7305],[76.1357,10.7304],[76.1355,10.7304]]],[[[76.1358,10.7306],[76.1359,10.7306],[76.1357,10.7305],[76.1358,10.7306]]],[[[76.136,10.7307],[76.1361,10.7307],[76.1359,10.7306],[76.136,10.7307]]],[[[76.1362,10.7308],[76.1363,10.7309],[76.1363,10.7307],[76.1362,10.7308]]],[[[76.1364,10.7306],[76.1365,10.7305],[76.1363,10.7307],[76.1364,10.7306]]],[[[76.137,10.7305],[76.137,10.7304],[76.1369,10.7305],[76.137,10.7305]]],[[[76.137,10.7304],[76.1372,10.7304],[76.1372,10.7303],[76.137,10.7304]]],[[[76.1374,10.7303],[76.1374,10.7302],[76.1373,10.7303],[76.1374,10.7303]]],[[[76.1363,10.7313],[76.1367,10.7314],[76.1369,10.7313],[76.1363,10.7313]]],[[[76.1376,10.7314],[76.1377,10.7314],[76.1375,10.7313],[76.1376,10.7314]]],[[[76.1379,10.7314],[76.1383,10.7315],[76.1383,10.7314],[76.1379,10.7314]]],[[[76.1385,10.7314],[76.1385,10.7313],[76.1383,10.7314],[76.1385,10.7314]]],[[[76.1386,10.731],[76.1386,10.7309],[76.1385,10.7312],[76.1386,10.731]]],[[[76.1386,10.7309],[76.1387,10.7308],[76.1386,10.7308],[76.1386,10.7309]]],[[[76.1389,10.7308],[76.1391,10.7309],[76.1392,10.7309],[76.1389,10.7308]]],[[[76.1393,10.731],[76.1394,10.731],[76.1392,10.7309],[76.1393,10.731]]],[[[76.1395,10.731],[76.1395,10.7309],[76.1394,10.731],[76.1395,10.731]]],[[[76.1207,10.7367],[76.1207,10.7368],[76.1208,10.7366],[76.1207,10.7367]]],[[[76.1208,10.7371],[76.1209,10.7371],[76.1208,10.737],[76.1208,10.7371]]],[[[76.1209,10.7375],[76.121,10.7375],[76.1209,10.7374],[76.1209,10.7375]]],[[[76.1211,10.7383],[76.1212,10.7385],[76.1211,10.7382],[76.1211,10.7383]]],[[[76.1211,10.7391],[76.1211,10.7392],[76.1212,10.7391],[76.1211,10.7391]]],[[[76.121,10.7393],[76.121,10.7394],[76.1211,10.7392],[76.121,10.7393]]],[[[76.121,10.7397],[76.121,10.7398],[76.121,10.7399],[76.1211,10.7398],[76.121,10.7397]]],[[[76.121,10.7399],[76.1207,10.7402],[76.1207,10.7404],[76.121,10.7399]]],[[[76.1207,10.7404],[76.1206,10.7406],[76.1206,10.7408],[76.1207,10.7404]]],[[[76.1206,10.7408],[76.1205,10.7411],[76.1206,10.7412],[76.1206,10.7408]]],[[[76.1206,10.7412],[76.1205,10.7415],[76.1206,10.7415],[76.1206,10.7412]]],[[[76.1205,10.7415],[76.1204,10.7417],[76.1205,10.7417],[76.1205,10.7415]]],[[[76.1206,10.7419],[76.1206,10.7418],[76.1205,10.7418],[76.1206,10.7419]]],[[[76.1207,10.742],[76.1207,10.7419],[76.1206,10.7419],[76.1207,10.742]]],[[[76.1207,10.742],[76.1211,10.7422],[76.1208,10.742],[76.1207,10.742]]],[[[76.1212,10.7423],[76.1212,10.7422],[76.1211,10.7422],[76.1212,10.7423]]],[[[76.1212,10.7425],[76.1213,10.7428],[76.1212,10.7424],[76.1212,10.7425]]],[[[76.1212,10.7429],[76.1213,10.7429],[76.1213,10.7428],[76.1212,10.7429]]],[[[76.1211,10.743],[76.121,10.7431],[76.1211,10.7433],[76.1211,10.743]]],[[[76.1211,10.7434],[76.1211,10.7438],[76.1211,10.7441],[76.1212,10.7439],[76.1211,10.7434]]],[[[76.121,10.7442],[76.121,10.7443],[76.1211,10.7441],[76.121,10.7442]]],[[[76.121,10.7443],[76.1208,10.7444],[76.1208,10.7445],[76.121,10.7443]]],[[[76.1206,10.7445],[76.1206,10.7446],[76.1207,10.7445],[76.1206,10.7445]]],[[[76.1206,10.7446],[76.1205,10.7447],[76.1206,10.7447],[76.1206,10.7446]]],[[[76.12,10.745],[76.1198,10.7451],[76.1201,10.745],[76.12,10.745]]],[[[76.1194,10.7454],[76.1194,10.7455],[76.1195,10.7454],[76.1194,10.7454]]],[[[76.1188,10.7458],[76.1187,10.7459],[76.1187,10.746],[76.1189,10.7459],[76.1188,10.7458]]],[[[76.1187,10.746],[76.1186,10.7462],[76.1186,10.7466],[76.1187,10.746]]],[[[76.1185,10.7468],[76.1186,10.7468],[76.1186,10.7467],[76.1185,10.7468]]],[[[76.1185,10.747],[76.1186,10.747],[76.1185,10.7469],[76.1185,10.747]]],[[[76.1087,10.7367],[76.1088,10.7367],[76.1086,10.7366],[76.1087,10.7367]]],[[[76.1081,10.7364],[76.108,10.7363],[76.1079,10.7363],[76.1081,10.7364]]],[[[76.1075,10.7358],[76.1075,10.7356],[76.1074,10.7356],[76.1075,10.7358]]],[[[76.1041,10.7349],[76.104,10.7351],[76.1041,10.7351],[76.1041,10.7349]]],[[[76.1042,10.7348],[76.1045,10.7347],[76.1041,10.7349],[76.1042,10.7348]]],[[[76.1046,10.7347],[76.1049,10.7346],[76.105,10.7348],[76.1049,10.7345],[76.1046,10.7346],[76.1046,10.7347]]],[[[76.105,10.7348],[76.1052,10.7349],[76.1053,10.7349],[76.105,10.7348]]],[[[76.1053,10.735],[76.1054,10.735],[76.1053,10.7349],[76.1053,10.735]]],[[[76.1057,10.7351],[76.1058,10.73515],[76.1056,10.735],[76.1057,10.7351]]],[[[76.1061,10.7353],[76.1062,10.7353],[76.107,10.7353],[76.1069,10.7352],[76.1061,10.7353]]],[[[76.1072,10.7354],[76.1072,10.7353],[76.107,10.7353],[76.1072,10.7354]]],[[[76.1042,10.7353],[76.1042,10.7352],[76.1041,10.7352],[76.1042,10.7353]]],[[[76.1035,10.7355],[76.1037,10.7355],[76.1036,10.7354],[76.1035,10.7355]]],[[[76.104,10.7356],[76.1041,10.7355],[76.1039,10.7356],[76.104,10.7356]]]]}},{"type":"Feature","properties":{"system":"Inland Wetlands","origin":"Natural","kind":"River/Stream","areaHa":0.98,"shedId":"RB19"},"geometry":{"type":"MultiPolygon","coordinates":[[[[76.0628,10.7456],[76.0629,10.7457],[76.0629,10.7456],[76.0628,10.7456]]],[[[76.0632,10.746],[76.0633,10.746],[76.063,10.7458],[76.0632,10.746]]],[[[76.0634,10.746],[76.0635,10.7461],[76.0635,10.746],[76.0634,10.746]]],[[[76.0637,10.7462],[76.0638,10.7462],[76.0637,10.7461],[76.0637,10.7462]]],[[[76.0638,10.7463],[76.0639,10.7464],[76.0638,10.7462],[76.0638,10.7463]]],[[[76.0639,10.7465],[76.064,10.7465],[76.0639,10.7464],[76.0639,10.7465]]],[[[76.0639,10.7466],[76.064,10.7467],[76.064,10.7465],[76.0639,10.7466]]],[[[76.064,10.7471],[76.0641,10.7473],[76.0642,10.7473],[76.064,10.7471]]],[[[76.0644,10.7474],[76.0645,10.7474],[76.0644,10.7473],[76.0644,10.7474]]],[[[76.0643,10.7477],[76.0644,10.7477],[76.0644,10.7476],[76.0643,10.7477]]],[[[76.064,10.7479],[76.0639,10.7481],[76.064,10.7482],[76.064,10.7479]]],[[[76.064,10.7482],[76.0639,10.7485],[76.064,10.7488],[76.0641,10.7487],[76.064,10.7482]]],[[[76.06395,10.7489],[76.064,10.7489],[76.064,10.7488],[76.06395,10.7489]]],[[[76.0636,10.7496],[76.0636,10.7497],[76.0637,10.7496],[76.0636,10.7496]]],[[[76.0636,10.7498],[76.0637,10.7499],[76.0637,10.7497],[76.0636,10.7498]]],[[[76.0636,10.75],[76.0637,10.75],[76.0637,10.7499],[76.0636,10.75]]],[[[76.0635,10.7501],[76.0635,10.7502],[76.0636,10.75],[76.0635,10.7501]]],[[[76.0635,10.7502],[76.0636,10.7503],[76.0636,10.7502],[76.0635,10.7502]]],[[[76.0637,10.7504],[76.0637,10.7503],[76.0636,10.7503],[76.0637,10.7504]]],[[[76.0636,10.7506],[76.0637,10.7506],[76.0637,10.7505],[76.0636,10.7506]]],[[[76.0635,10.7508],[76.0636,10.7507],[76.0636,10.7506],[76.0635,10.7508]]],[[[76.0635,10.7508],[76.0634,10.751],[76.0634,10.7514],[76.0635,10.7508]]],[[[76.0632,10.7517],[76.0632,10.7518],[76.0633,10.7517],[76.0632,10.7517]]],[[[76.0632,10.7518],[76.0631,10.752],[76.0632,10.752],[76.0632,10.7518]]],[[[76.0632,10.7521],[76.0634,10.7521],[76.0636,10.7522],[76.0633,10.752],[76.0632,10.7521]]],[[[76.0636,10.7522],[76.0636,10.7526],[76.0638,10.7528],[76.0636,10.7522]]],[[[76.0637,10.753],[76.0638,10.7531],[76.0638,10.7528],[76.0637,10.753]]],[[[76.0639,10.7533],[76.0639,10.7532],[76.0638,10.7532],[76.0639,10.7533]]],[[[76.0639,10.7533],[76.0639,10.7536],[76.064,10.7535],[76.0639,10.7533]]],[[[76.0638,10.7536],[76.0639,10.7538],[76.0639,10.7536],[76.0638,10.7536]]],[[[76.0642,10.7541],[76.0642,10.754],[76.0641,10.7539],[76.0642,10.7541]]],[[[76.0646,10.7544],[76.0647,10.7545],[76.0648,10.7544],[76.0646,10.7544]]],[[[76.0651,10.7545],[76.065,10.7544],[76.0649,10.7544],[76.0651,10.7545]]],[[[76.0651,10.7545],[76.0653,10.7546],[76.0652,10.7545],[76.0651,10.7545]]],[[[76.0653,10.7546],[76.0656,10.7549],[76.0654,10.7546],[76.0653,10.7546]]],[[[76.0657,10.7551],[76.0658,10.7552],[76.0657,10.755],[76.0657,10.7551]]],[[[76.0659,10.7554],[76.066,10.7555],[76.0658,10.7552],[76.0659,10.7554]]],[[[76.066,10.7557],[76.0661,10.7558],[76.0661,10.7556],[76.066,10.7557]]],[[[76.0661,10.7561],[76.0662,10.7561],[76.0661,10.756],[76.0661,10.7561]]],[[[76.0661,10.7563],[76.0662,10.7564],[76.0662,10.7562],[76.0661,10.7563]]],[[[76.0663,10.7571],[76.0663,10.757],[76.0662,10.757],[76.0663,10.7571]]],[[[76.0663,10.7574],[76.0663,10.7576],[76.0661,10.7579],[76.0664,10.7576],[76.0663,10.7574]]],[[[76.066,10.7582],[76.0661,10.7583],[76.0661,10.7581],[76.066,10.7582]]],[[[76.0661,10.7584],[76.0662,10.7585],[76.0662,10.7584],[76.0661,10.7584]]],[[[76.0662,10.7585],[76.0662,10.7591],[76.0663,10.7592],[76.0662,10.7585]]],[[[76.0664,10.7593],[76.0664,10.7592],[76.0663,10.7592],[76.0664,10.7593]]],[[[76.0665,10.7594],[76.0665,10.7593],[76.0664,10.7593],[76.0665,10.7594]]],[[[76.0664,10.7598],[76.0664,10.7602],[76.0665,10.7594],[76.0664,10.7598]]],[[[76.0662,10.7615],[76.0663,10.7613],[76.0663,10.7612],[76.0662,10.7615]]],[[[76.0661,10.7618],[76.0661,10.7621],[76.0662,10.7615],[76.0661,10.7618]]],[[[76.0662,10.7629],[76.0662,10.7631],[76.0663,10.7629],[76.0662,10.7629]]],[[[76.0662,10.7632],[76.0662,10.7634],[76.0663,10.7633],[76.0662,10.7632]]],[[[76.066,10.7639],[76.0661,10.7639],[76.0661,10.7638],[76.066,10.7639]]],[[[76.0661,10.7639],[76.0662,10.764],[76.0662,10.7639],[76.0661,10.7639]]],[[[76.0663,10.764],[76.0662,10.7645],[76.0663,10.7646],[76.0663,10.764]]],[[[76.0663,10.765],[76.0663,10.7655],[76.0664,10.7656],[76.0663,10.765]]],[[[76.0665,10.7658],[76.0665,10.7657],[76.0664,10.7656],[76.0665,10.7658]]],[[[76.0665,10.7658],[76.0665,10.7661],[76.0665,10.7662],[76.0666,10.7661],[76.0665,10.7658]]],[[[76.0665,10.7665],[76.0666,10.7666],[76.0665,10.7664],[76.0665,10.7665]]],[[[76.067,10.7669],[76.0672,10.767],[76.0672,10.7668],[76.067,10.7669]]],[[[76.0672,10.7671],[76.0673,10.7673],[76.0672,10.767],[76.0672,10.7671]]],[[[76.0673,10.7674],[76.0674,10.7676],[76.0673,10.7673],[76.0673,10.7674]]],[[[76.0675,10.7678],[76.0675,10.7677],[76.0674,10.7677],[76.0675,10.7678]]],[[[76.0675,10.7679],[76.0676,10.7679],[76.0675,10.7678],[76.0675,10.7679]]],[[[76.0676,10.768],[76.0677,10.768],[76.0676,10.7679],[76.0676,10.768]]],[[[76.0678,10.7682],[76.0678,10.7681],[76.0677,10.7681],[76.0678,10.7682]]],[[[76.0681,10.7688],[76.0682,10.7689],[76.068,10.7686],[76.0681,10.7688]]],[[[76.0683,10.769],[76.0683,10.7689],[76.0682,10.7689],[76.0683,10.769]]],[[[76.0687,10.7691],[76.0691,10.7694],[76.0692,10.7694],[76.0687,10.7691]]],[[[76.0694,10.7695],[76.0693,10.7694],[76.0692,10.7694],[76.0694,10.7695]]],[[[76.0696,10.7696],[76.0697,10.7696],[76.0695,10.7695],[76.0696,10.7696]]],[[[76.0631,10.7455],[76.0631,10.7454],[76.063,10.7455],[76.0631,10.7455]]],[[[76.0632,10.7451],[76.0631,10.745],[76.0631,10.7452],[76.0632,10.7451]]],[[[76.0631,10.745],[76.0633,10.7447],[76.0632,10.7445],[76.0631,10.745]]],[[[76.0633,10.7444],[76.0633,10.7443],[76.0632,10.7445],[76.0633,10.7444]]],[[[76.0633,10.7442],[76.0634,10.7439],[76.0633,10.7438],[76.0633,10.7442]]],[[[76.0633,10.7436],[76.0633,10.7434],[76.0632,10.7435],[76.0633,10.7436]]],[[[76.0634,10.7433],[76.0633,10.7433],[76.0633,10.7434],[76.0634,10.7433]]]]}},{"type":"Feature","properties":{"system":"Inland Wetlands","origin":"Natural","kind":"River/Stream","areaHa":0.49,"shedId":"RB19"},"geometry":{"type":"MultiPolygon","coordinates":[[[[76.0543,10.7849],[76.0543,10.785],[76.0544,10.785],[76.0543,10.7849]]],[[[76.0545,10.7851],[76.0546,10.7851],[76.0545,10.785],[76.0545,10.7851]]],[[[76.0546,10.7851],[76.055,10.7852],[76.0552,10.7851],[76.0546,10.7851]]],[[[76.0553,10.7851],[76.0555,10.7851],[76.0553,10.785],[76.0553,10.7851]]],[[[76.0558,10.7851],[76.0558,10.785],[76.0557,10.7851],[76.0558,10.7851]]],[[[76.0559,10.785],[76.0561,10.7849],[76.0561,10.7848],[76.0559,10.785]]],[[[76.0561,10.7846],[76.0564,10.7846],[76.0565,10.7845],[76.0561,10.7846]]],[[[76.0565,10.7845],[76.0567,10.7843],[76.0566,10.7843],[76.0565,10.7845]]],[[[76.057,10.7843],[76.0569,10.7842],[76.0569,10.7843],[76.057,10.7843]]],[[[76.0571,10.7841],[76.0572,10.784],[76.0571,10.784],[76.0571,10.7841]]],[[[76.0573,10.784],[76.0575,10.7841],[76.0575,10.784],[76.0573,10.784]]],[[[76.0575,10.784],[76.0577,10.784],[76.0577,10.7839],[76.0575,10.784]]],[[[76.0585,10.7837],[76.0586,10.7836],[76.0585,10.7836],[76.0585,10.7837]]],[[[76.0587,10.7835],[76.0586,10.7835],[76.0586,10.7836],[76.0587,10.7835]]],[[[76.0588,10.7832],[76.0588,10.783],[76.0587,10.783],[76.0588,10.7832]]],[[[76.0587,10.7828],[76.0586,10.7827],[76.0587,10.7829],[76.0587,10.7828]]],[[[76.0587,10.7825],[76.0586,10.7825],[76.0586,10.7826],[76.0587,10.7825]]],[[[76.0587,10.7825],[76.0591,10.7824],[76.0592,10.7823],[76.0587,10.7825]]],[[[76.0592,10.7823],[76.0595,10.7823],[76.0597,10.7822],[76.0592,10.7823]]],[[[76.0598,10.7822],[76.0599,10.7821],[76.0597,10.7822],[76.0598,10.7822]]],[[[76.0599,10.7821],[76.0601,10.7821],[76.0602,10.782],[76.0599,10.7821]]],[[[76.0604,10.782],[76.0604,10.7819],[76.0603,10.782],[76.0604,10.782]]],[[[76.0604,10.7819],[76.0606,10.7819],[76.0606,10.7818],[76.0604,10.7819]]],[[[76.0607,10.7818],[76.0609,10.7818],[76.061,10.7817],[76.0607,10.7818]]],[[[76.0618,10.7815],[76.062,10.7814],[76.0617,10.7815],[76.0618,10.7815]]],[[[76.0623,10.7814],[76.0625,10.7814],[76.0624,10.7813],[76.0623,10.7814]]],[[[76.0627,10.7815],[76.0628,10.7815],[76.0626,10.7814],[76.0627,10.7815]]],[[[76.0635,10.7816],[76.0638,10.7815],[76.0634,10.7815],[76.0635,10.7816]]],[[[76.0641,10.7815],[76.0643,10.7815],[76.0644,10.7814],[76.0641,10.7815]]],[[[76.0645,10.7814],[76.0646,10.7813],[76.0644,10.7814],[76.0645,10.7814]]],[[[76.0648,10.7811],[76.0647,10.7812],[76.0647,10.7813],[76.0648,10.7811]]],[[[76.0648,10.7811],[76.0657,10.7804],[76.0658,10.7802],[76.0648,10.7811]]],[[[76.0659,10.7802],[76.066,10.78],[76.0658,10.7802],[76.0659,10.7802]]],[[[76.0661,10.7799],[76.0662,10.7798],[76.066,10.78],[76.0661,10.7799]]],[[[76.0663,10.7797],[76.0663,10.7796],[76.0662,10.7798],[76.0663,10.7797]]],[[[76.0665,10.7791],[76.0664,10.7793],[76.0664,10.7794],[76.0665,10.7791]]],[[[76.0666,10.779],[76.06667,10.77867],[76.0665,10.7791],[76.0666,10.779]]],[[[76.0668,10.7783],[76.0667,10.7783],[76.0668,10.7784],[76.0668,10.7783]]],[[[76.0667,10.7782],[76.0666,10.7782],[76.0667,10.7783],[76.0667,10.7782]]],[[[76.0666,10.7782],[76.0666,10.778],[76.0665,10.7782],[76.0666,10.7782]]],[[[76.0667,10.7779],[76.0667,10.7778],[76.06665,10.7779],[76.0667,10.7779]]],[[[76.0668,10.7777],[76.0668,10.7776],[76.06675,10.7777],[76.0668,10.7777]]],[[[76.0666,10.7775],[76.0663,10.7774],[76.0663,10.7775],[76.0666,10.7775]]]]}},{"type":"Feature","properties":{"system":"Inland Wetlands","origin":"Natural","kind":"River/Stream","areaHa":0.43,"shedId":"RB19"},"geometry":{"type":"MultiPolygon","coordinates":[[[[76.0453,10.7667],[76.0453,10.767],[76.0454,10.767],[76.0453,10.7667]]],[[[76.046,10.7668],[76.0462,10.7669],[76.0462,10.7668],[76.046,10.7668]]],[[[76.0464,10.7669],[76.0465,10.7668],[76.0463,10.7668],[76.0464,10.7669]]],[[[76.0465,10.7666],[76.0471,10.7666],[76.0471,10.7665],[76.0465,10.7666]]],[[[76.0471,10.7665],[76.0473,10.7666],[76.0475,10.7666],[76.0471,10.7665]]],[[[76.0481,10.7667],[76.0482,10.7667],[76.0479,10.7666],[76.0481,10.7667]]],[[[76.0486,10.7666],[76.0488,10.7667],[76.049,10.7668],[76.0488,10.7666],[76.0486,10.7666]]],[[[76.0493,10.7671],[76.0496,10.7671],[76.0497,10.7672],[76.0497,10.767],[76.0493,10.7671]]],[[[76.0499,10.7674],[76.0498,10.7673],[76.0497,10.7673],[76.0499,10.7674]]],[[[76.0502,10.7675],[76.0501,10.7674],[76.05,10.7674],[76.0502,10.7675]]],[[[76.0502,10.7675],[76.0502,10.7677],[76.0503,10.7677],[76.0502,10.7675]]],[[[76.0505,10.7679],[76.0506,10.7679],[76.0503,10.7677],[76.0505,10.7679]]],[[[76.0506,10.768],[76.0507,10.7679],[76.0506,10.7679],[76.0506,10.768]]],[[[76.0506,10.768],[76.0505,10.7682],[76.0507,10.7683],[76.0506,10.768]]],[[[76.051,10.7684],[76.051,10.7683],[76.0509,10.7683],[76.051,10.7684]]],[[[76.0513,10.7685],[76.0515,10.7687],[76.0516,10.7687],[76.0513,10.7685]]],[[[76.0516,10.7687],[76.0518,10.7688],[76.0518,10.7687],[76.0516,10.7687]]],[[[76.0518,10.7689],[76.0519,10.7689],[76.0521,10.769],[76.0519,10.7688],[76.0518,10.7689]]],[[[76.0524,10.7691],[76.0523,10.769],[76.0522,10.769],[76.0524,10.7691]]],[[[76.0528,10.7692],[76.0528,10.7691],[76.0527,10.7691],[76.0528,10.7692]]],[[[76.0529,10.7693],[76.053,10.7694],[76.0535,10.7697],[76.0529,10.7693]]],[[[76.0539,10.77],[76.0542,10.7702],[76.0535,10.7697],[76.0539,10.77]]],[[[76.0546,10.7705],[76.0547,10.7705],[76.0545,10.7703],[76.0546,10.7705]]],[[[76.0548,10.7705],[76.0549,10.7712],[76.055,10.7712],[76.055,10.7706],[76.0548,10.7705]]]]}},{"type":"Feature","properties":{"system":"Inland Wetlands","origin":"Man-Made","kind":"Tanks/Ponds","areaHa":0.15,"shedId":"RB19"},"geometry":{"type":"Polygon","coordinates":[[[76.0895,10.742],[76.0892,10.742],[76.0893,10.7424],[76.0896,10.7424],[76.0895,10.742]]]}},{"type":"Feature","properties":{"system":"Inland Wetlands","origin":"Man-Made","kind":"Tanks/Ponds","areaHa":0.07,"shedId":"RB19"},"geometry":{"type":"Polygon","coordinates":[[[76.1513,10.7317],[76.1511,10.7313],[76.151,10.7317],[76.1513,10.7317]]]}},{"type":"Feature","properties":{"system":"Inland Wetlands","origin":"Man-Made","kind":"Tanks/Ponds","areaHa":0.17,"shedId":"RB19"},"geometry":{"type":"Polygon","coordinates":[[[76.1351,10.7543],[76.1347,10.7541],[76.1346,10.7546],[76.1348,10.7546],[76.1351,10.7543]]]}},{"type":"Feature","properties":{"system":"Inland Wetlands","origin":"Natural","kind":"River/Stream","areaHa":0.87,"shedId":"RB19"},"geometry":{"type":"MultiPolygon","coordinates":[[[[76.1282,10.7428],[76.1281,10.7427],[76.1281,10.7428],[76.1282,10.7428]]],[[[76.1286,10.7428],[76.1287,10.7429],[76.1287,10.7428],[76.1286,10.7428]]],[[[76.1285,10.743],[76.1286,10.7435],[76.1296,10.7439],[76.1297,10.7442],[76.1299,10.7442],[76.1296,10.7438],[76.1286,10.7434],[76.1286,10.7429],[76.1285,10.743]]],[[[76.13,10.7442],[76.1301,10.7443],[76.1301,10.7442],[76.13,10.7442]]],[[[76.1301,10.7443],[76.1304,10.7444],[76.1305,10.7443],[76.1301,10.7443]]],[[[76.1305,10.7443],[76.1307,10.7445],[76.1308,10.7445],[76.1307,10.7443],[76.1305,10.7443]]],[[[76.1308,10.7446],[76.1309,10.7446],[76.131,10.7447],[76.1309,10.7445],[76.1308,10.7446]]],[[[76.131,10.7448],[76.1312,10.7451],[76.1314,10.7451],[76.131,10.7448]]],[[[76.1314,10.7451],[76.1316,10.7454],[76.1317,10.7454],[76.1316,10.7452],[76.1314,10.7451]]],[[[76.1317,10.7454],[76.1319,10.7455],[76.132,10.7455],[76.1317,10.7454]]],[[[76.1321,10.7455],[76.1327,10.746],[76.1329,10.7465],[76.1328,10.746],[76.1321,10.7455]]],[[[76.1331,10.7466],[76.1333,10.7467],[76.1333,10.7466],[76.1331,10.7466]]],[[[76.1333,10.7468],[76.1334,10.7469],[76.1336,10.7468],[76.1336,10.7465],[76.1335,10.7468],[76.1333,10.7468]]],[[[76.1336,10.7465],[76.1341,10.7467],[76.134,10.7472],[76.1342,10.7466],[76.1336,10.7465]]],[[[76.134,10.7472],[76.1339,10.7477],[76.1338,10.7484],[76.134,10.7472]]],[[[76.1343,10.7465],[76.1344,10.7464],[76.1342,10.7465],[76.1343,10.7465]]],[[[76.1345,10.7464],[76.1346,10.7462],[76.1344,10.7464],[76.1345,10.7464]]],[[[76.1346,10.7462],[76.1347,10.746],[76.1346,10.746],[76.1346,10.7462]]],[[[76.1348,10.746],[76.135,10.746],[76.135,10.7459],[76.1348,10.746]]],[[[76.1351,10.7456],[76.1353,10.7454],[76.1354,10.7453],[76.1351,10.7455],[76.1351,10.7456]]],[[[76.1354,10.7451],[76.1357,10.7452],[76.1358,10.7452],[76.1354,10.7451]]],[[[76.1362,10.7451],[76.1363,10.745],[76.1361,10.7452],[76.1362,10.7451]]],[[[76.1364,10.745],[76.1363,10.7449],[76.1363,10.745],[76.1364,10.745]]],[[[76.1351,10.7461],[76.1352,10.746],[76.135,10.746],[76.1351,10.7461]]],[[[76.1352,10.746],[76.1355,10.746],[76.1355,10.7459],[76.1352,10.746]]],[[[76.134,10.7484],[76.1341,10.7484],[76.1339,10.7483],[76.134,10.7484]]],[[[76.1345,10.7484],[76.1345,10.7487],[76.1346,10.7487],[76.1345,10.7484]]],[[[76.1347,10.7489],[76.1347,10.7488],[76.1346,10.7488],[76.1347,10.7489]]],[[[76.1354,10.7489],[76.1356,10.749],[76.1356,10.7489],[76.1354,10.7489]]],[[[76.1355,10.7491],[76.1355,10.7492],[76.1356,10.7491],[76.1355,10.7491]]],[[[76.1354,10.7498],[76.1355,10.7499],[76.1355,10.7497],[76.1354,10.7498]]],[[[76.1354,10.7502],[76.1354,10.7503],[76.1355,10.7502],[76.1354,10.7502]]],[[[76.1354,10.7505],[76.1353,10.7506],[76.1355,10.7504],[76.1354,10.7505]]],[[[76.1354,10.7511],[76.1353,10.7512],[76.1354,10.7513],[76.1354,10.7511]]],[[[76.1353,10.7514],[76.1353,10.7515],[76.1354,10.7514],[76.1353,10.7514]]],[[[76.1354,10.7517],[76.1353,10.7519],[76.1354,10.7522],[76.1354,10.7517]]],[[[76.1353,10.7524],[76.1351,10.753],[76.1351,10.7533],[76.1353,10.7524]]],[[[76.135,10.754],[76.1351,10.7541],[76.1351,10.7538],[76.135,10.754]]],[[[76.1352,10.7542],[76.1351,10.7544],[76.1352,10.7544],[76.1352,10.7542]]],[[[76.1352,10.7544],[76.1355,10.7545],[76.1355,10.7544],[76.1352,10.7544]]]]}},{"type":"Feature","properties":{"system":"Inland Wetlands","origin":"Natural","kind":"River/Stream","areaHa":1.19,"shedId":"RB19"},"geometry":{"type":"MultiPolygon","coordinates":[[[[76.0781,10.7674],[76.078,10.7674],[76.078,10.7675],[76.0781,10.7674]]],[[[76.0781,10.7671],[76.0782,10.7672],[76.0782,10.767],[76.0781,10.7671]]],[[[76.0782,10.7668],[76.0781,10.7669],[76.0782,10.7669],[76.0782,10.7668]]],[[[76.0782,10.7659],[76.0783,10.7657],[76.0782,10.7655],[76.0782,10.7659]]],[[[76.0783,10.7653],[76.0782,10.7654],[76.0782,10.7655],[76.0783,10.7653]]],[[[76.0783,10.7653],[76.0784,10.7651],[76.0787,10.7647],[76.0783,10.7651],[76.0783,10.7653]]],[[[76.0787,10.7647],[76.0789,10.7645],[76.079,10.7644],[76.0787,10.7647]]],[[[76.0791,10.7643],[76.0791,10.7642],[76.079,10.7644],[76.0791,10.7643]]],[[[76.0791,10.7642],[76.0793,10.7641],[76.0793,10.764],[76.0791,10.7642]]],[[[76.0795,10.7639],[76.0794,10.7639],[76.0794,10.764],[76.0795,10.7639]]],[[[76.0796,10.7638],[76.0796,10.7637],[76.0795,10.7639],[76.0796,10.7638]]],[[[76.0797,10.7635],[76.0797,10.7634],[76.0796,10.7636],[76.0797,10.7635]]],[[[76.0798,10.7633],[76.0797,10.7632],[76.0797,10.7634],[76.0798,10.7633]]],[[[76.0798,10.7629],[76.0798,10.7628],[76.0797,10.763],[76.0798,10.7629]]],[[[76.0799,10.7627],[76.0798,10.7627],[76.0798,10.7628],[76.0799,10.7627]]],[[[76.08,10.7627],[76.0802,10.7626],[76.0802,10.7619],[76.0801,10.7626],[76.08,10.7627]]],[[[76.0802,10.7619],[76.0803,10.7615],[76.0803,10.7614],[76.0802,10.7619]]],[[[76.0803,10.7614],[76.0804,10.7611],[76.0804,10.761],[76.0802,10.7613],[76.0803,10.7614]]],[[[76.0804,10.761],[76.0805,10.7607],[76.0805,10.7605],[76.0804,10.761]]],[[[76.0806,10.7599],[76.0806,10.7598],[76.0805,10.7601],[76.0806,10.7599]]],[[[76.0807,10.7598],[76.0807,10.7597],[76.0806,10.7598],[76.0807,10.7598]]],[[[76.0808,10.7596],[76.0807,10.7596],[76.0807,10.7597],[76.0808,10.7596]]],[[[76.0808,10.7596],[76.081,10.7594],[76.0809,10.7591],[76.0808,10.7596]]],[[[76.0809,10.7589],[76.0808,10.759],[76.0809,10.759],[76.0809,10.7589]]],[[[76.0809,10.7587],[76.081,10.7584],[76.081,10.7582],[76.0809,10.7587]]],[[[76.081,10.7578],[76.0811,10.7573],[76.081,10.7573],[76.081,10.7578]]],[[[76.081,10.7573],[76.081,10.757],[76.0809,10.757],[76.081,10.7573]]],[[[76.081,10.7569],[76.081,10.7567],[76.0809,10.7565],[76.081,10.7569]]],[[[76.0809,10.7563],[76.0809,10.756],[76.0808,10.7559],[76.0809,10.7563]]],[[[76.0808,10.7557],[76.0808,10.7555],[76.0807,10.7554],[76.0808,10.7557]]],[[[76.0806,10.7549],[76.0806,10.7551],[76.0807,10.7551],[76.0806,10.7549]]],[[[76.0806,10.7546],[76.0805,10.7546],[76.0806,10.7547],[76.0806,10.7546]]],[[[76.0805,10.7544],[76.0804,10.7545],[76.0805,10.7545],[76.0805,10.7544]]],[[[76.0804,10.7542],[76.0804,10.7543],[76.0805,10.7543],[76.0804,10.7542]]],[[[76.0804,10.7542],[76.0804,10.754],[76.0803,10.7542],[76.0804,10.7542]]],[[[76.0804,10.7538],[76.0803,10.7537],[76.0803,10.7538],[76.0804,10.7538]]],[[[76.0803,10.7536],[76.0803,10.7534],[76.0802,10.7534],[76.0803,10.7536]]],[[[76.0802,10.7533],[76.0801,10.7533],[76.0802,10.7534],[76.0802,10.7533]]],[[[76.0801,10.7531],[76.0802,10.7528],[76.0801,10.7528],[76.0801,10.7531]]],[[[76.0801,10.7527],[76.08,10.7528],[76.0801,10.7528],[76.0801,10.7527]]],[[[76.0801,10.7527],[76.0802,10.7525],[76.0801,10.7524],[76.0801,10.7527]]],[[[76.0801,10.7523],[76.0801,10.752],[76.08,10.752],[76.0801,10.7523]]],[[[76.0801,10.7519],[76.0801,10.7516],[76.08,10.7515],[76.0801,10.7519]]],[[[76.08,10.7514],[76.0799,10.7513],[76.08,10.7515],[76.08,10.7514]]],[[[76.0796,10.7513],[76.0794,10.7511],[76.0794,10.7514],[76.0796,10.7513]]],[[[76.0795,10.751],[76.0795,10.7509],[76.0794,10.7511],[76.0795,10.751]]],[[[76.0797,10.7506],[76.0796,10.7505],[76.0796,10.7507],[76.0797,10.7506]]],[[[76.0796,10.7504],[76.0796,10.7502],[76.0796,10.7501],[76.0795,10.7502],[76.0796,10.7504]]],[[[76.0796,10.7499],[76.0797,10.7498],[76.0795,10.7499],[76.0796,10.7499]]],[[[76.0798,10.7496],[76.0799,10.7492],[76.0801,10.7491],[76.0798,10.7492],[76.0797,10.7495],[76.0798,10.7496]]],[[[76.0801,10.7488],[76.0801,10.7489],[76.0802,10.749],[76.0801,10.7488]]],[[[76.0801,10.7488],[76.0803,10.7487],[76.0803,10.7485],[76.0801,10.7488]]],[[[76.0803,10.7484],[76.0802,10.7483],[76.0803,10.7485],[76.0803,10.7484]]],[[[76.0803,10.7478],[76.0804,10.7476],[76.0804,10.7475],[76.0803,10.7478]]],[[[76.0805,10.7474],[76.0804,10.7473],[76.0804,10.7474],[76.0805,10.7474]]],[[[76.0807,10.7472],[76.0806,10.7471],[76.0806,10.7474],[76.0807,10.7472]]],[[[76.0807,10.7469],[76.0807,10.7467],[76.0806,10.747],[76.0807,10.7469]]],[[[76.0807,10.7466],[76.0808,10.7464],[76.0808,10.7463],[76.0807,10.7466]]],[[[76.0808,10.7461],[76.0807,10.7461],[76.0808,10.7462],[76.0808,10.7461]]],[[[76.0807,10.746],[76.0806,10.7461],[76.0807,10.7461],[76.0807,10.746]]],[[[76.0807,10.7456],[76.0807,10.7453],[76.0807,10.7452],[76.0806,10.7453],[76.0807,10.7456]]],[[[76.0803,10.7451],[76.08,10.7451],[76.08,10.7452],[76.0803,10.7451]]],[[[76.0812,10.7451],[76.0812,10.745],[76.0811,10.7451],[76.0812,10.7451]]],[[[76.0794,10.7514],[76.0792,10.7518],[76.0792,10.7521],[76.0794,10.7514]]],[[[76.0793,10.7525],[76.0793,10.7524],[76.0792,10.7523],[76.0793,10.7525]]],[[[76.0793,10.7525],[76.0792,10.7526],[76.0793,10.7526],[76.0793,10.7525]]],[[[76.078,10.7677],[76.0781,10.7678],[76.078,10.7676],[76.078,10.7677]]],[[[76.0781,10.7681],[76.0782,10.7681],[76.0781,10.768],[76.0781,10.7681]]],[[[76.0782,10.7681],[76.0784,10.7681],[76.0785,10.768],[76.0782,10.7681]]],[[[76.0786,10.7679],[76.0786,10.7678],[76.0785,10.768],[76.0786,10.7679]]],[[[76.0788,10.7681],[76.0789,10.7681],[76.079,10.7682],[76.0789,10.768],[76.0788,10.7681]]],[[[76.0791,10.7683],[76.0792,10.7683],[76.079,10.7682],[76.0791,10.7683]]],[[[76.0796,10.7683],[76.0799,10.7683],[76.0799,10.7682],[76.0796,10.7683]]],[[[76.0799,10.7684],[76.0801,10.7685],[76.0801,10.7684],[76.0799,10.7684]]],[[[76.0805,10.7684],[76.0806,10.7683],[76.0804,10.7684],[76.0805,10.7684]]],[[[76.0807,10.7683],[76.0808,10.7682],[76.0806,10.7683],[76.0807,10.7683]]],[[[76.0805,10.7689],[76.0805,10.7688],[76.0804,10.7688],[76.0805,10.7689]]],[[[76.0805,10.769],[76.0805,10.7692],[76.0806,10.7691],[76.0805,10.769]]],[[[76.0804,10.7693],[76.0804,10.7694],[76.0805,10.7693],[76.0804,10.7693]]],[[[76.0804,10.7694],[76.0802,10.7695],[76.0802,10.7696],[76.0804,10.7694]]],[[[76.0801,10.7696],[76.0801,10.7697],[76.0802,10.7696],[76.0801,10.7696]]],[[[76.08,10.7697],[76.0799,10.7698],[76.0801,10.7697],[76.08,10.7697]]],[[[76.0798,10.7698],[76.0797,10.7699],[76.0799,10.7698],[76.0798,10.7698]]],[[[76.0797,10.7699],[76.0796,10.77],[76.0797,10.7701],[76.0797,10.7699]]],[[[76.0796,10.7702],[76.0796,10.7703],[76.0797,10.7701],[76.0796,10.7702]]],[[[76.0796,10.7706],[76.0797,10.7706],[76.0796,10.7705],[76.0796,10.7706]]],[[[76.0801,10.7707],[76.0802,10.7707],[76.08,10.7706],[76.0801,10.7707]]],[[[76.0803,10.7708],[76.0804,10.7709],[76.0802,10.7707],[76.0803,10.7708]]],[[[76.0804,10.7709],[76.0805,10.7711],[76.0806,10.7711],[76.0804,10.7709]]],[[[76.0806,10.7711],[76.0807,10.7712],[76.0807,10.7711],[76.0806,10.7711]]],[[[76.0809,10.7711],[76.081,10.771],[76.0808,10.7711],[76.0809,10.7711]]],[[[76.081,10.771],[76.081,10.7713],[76.0811,10.7714],[76.081,10.771]]],[[[76.0811,10.7715],[76.0814,10.7716],[76.0818,10.7717],[76.0811,10.7715]]],[[[76.0819,10.7718],[76.082,10.7718],[76.0818,10.7717],[76.0819,10.7718]]],[[[76.0821,10.772],[76.0821,10.7718],[76.082,10.7718],[76.0821,10.772]]],[[[76.0822,10.7722],[76.0822,10.7721],[76.0821,10.772],[76.0822,10.7722]]],[[[76.082,10.7725],[76.0821,10.7725],[76.0822,10.7722],[76.082,10.7725]]],[[[76.0819,10.7726],[76.082,10.7726],[76.082,10.7725],[76.0819,10.7726]]],[[[76.0817,10.7728],[76.0818,10.7728],[76.0818,10.7727],[76.0817,10.7728]]]]}},{"type":"Feature","properties":{"system":"Inland Wetlands","origin":"Natural","kind":"River/Stream","areaHa":1.19,"shedId":"RB19"},"geometry":{"type":"MultiPolygon","coordinates":[[[[76.0853,10.7478],[76.0853,10.748],[76.0854,10.748],[76.0853,10.7478]]],[[[76.0854,10.7481],[76.0855,10.7484],[76.0857,10.7485],[76.0854,10.7481]]],[[[76.0857,10.7485],[76.0858,10.7486],[76.086,10.7488],[76.0859,10.7486],[76.0857,10.7485]]],[[[76.086,10.7488],[76.0861,10.7489],[76.0861,10.7488],[76.086,10.7488]]],[[[76.0861,10.749],[76.0862,10.7491],[76.0863,10.7491],[76.0862,10.7489],[76.0861,10.749]]],[[[76.0863,10.7492],[76.0865,10.7493],[76.0866,10.7492],[76.0863,10.7492]]],[[[76.0867,10.7492],[76.0867,10.7491],[76.0866,10.7492],[76.0867,10.7492]]],[[[76.0868,10.749],[76.0867,10.749],[76.0867,10.7491],[76.0868,10.749]]],[[[76.0868,10.749],[76.0869,10.7488],[76.0867,10.7487],[76.0868,10.749]]],[[[76.0866,10.7486],[76.0866,10.7487],[76.0867,10.7487],[76.0866,10.7486]]],[[[76.0866,10.7484],[76.0866,10.7482],[76.0865,10.7481],[76.0866,10.7484]]],[[[76.0865,10.7481],[76.0864,10.748],[76.0864,10.7481],[76.0865,10.7481]]],[[[76.0875,10.749],[76.0877,10.749],[76.0873,10.7489],[76.0875,10.749]]],[[[76.0877,10.749],[76.088,10.7491],[76.0882,10.7492],[76.0879,10.749],[76.0877,10.749]]],[[[76.0887,10.7492],[76.0888,10.7491],[76.0886,10.7492],[76.0887,10.7492]]],[[[76.089,10.7491],[76.0891,10.749],[76.0888,10.7491],[76.089,10.7491]]],[[[76.0892,10.7489],[76.0891,10.7489],[76.0891,10.749],[76.0892,10.7489]]],[[[76.0893,10.7489],[76.0894,10.7488],[76.0892,10.7488],[76.0893,10.7489]]],[[[76.0895,10.7487],[76.0897,10.7485],[76.09,10.7484],[76.0896,10.7485],[76.0895,10.7487]]],[[[76.09,10.7483],[76.0902,10.7484],[76.0903,10.7484],[76.09,10.7483]]],[[[76.0907,10.7484],[76.0909,10.7485],[76.0911,10.7485],[76.0907,10.7484]]],[[[76.0912,10.7485],[76.0913,10.7484],[76.0911,10.7485],[76.0912,10.7485]]],[[[76.0917,10.7485],[76.0918,10.7485],[76.0919,10.7485],[76.0918,10.7484],[76.0917,10.7485]]],[[[76.092,10.7486],[76.0921,10.7486],[76.092,10.7485],[76.092,10.7486]]],[[[76.0926,10.7486],[76.0926,10.7485],[76.0925,10.7486],[76.0926,10.7486]]],[[[76.093,10.7486],[76.0931,10.7485],[76.0929,10.7486],[76.093,10.7486]]],[[[76.0937,10.7485],[76.0938,10.7485],[76.0938,10.7484],[76.0937,10.7485]]],[[[76.0937,10.7491],[76.0938,10.7492],[76.0938,10.7491],[76.0937,10.7491]]],[[[76.0939,10.7493],[76.094,10.7494],[76.0938,10.7492],[76.0939,10.7493]]],[[[76.0944,10.7493],[76.0943,10.7493],[76.0942,10.7494],[76.0944,10.7493]]],[[[76.0947,10.7493],[76.0949,10.7494],[76.0952,10.7494],[76.0947,10.7493]]],[[[76.0953,10.7494],[76.0956,10.7493],[76.0952,10.7493],[76.0953,10.7494]]],[[[76.0965,10.7491],[76.0966,10.749],[76.0964,10.7491],[76.0965,10.7491]]],[[[76.097,10.749],[76.097,10.7489],[76.0969,10.7489],[76.097,10.749]]],[[[76.097,10.7491],[76.097,10.7493],[76.0971,10.7493],[76.097,10.7491]]],[[[76.0979,10.7492],[76.0982,10.7491],[76.0984,10.749],[76.0979,10.7492]]],[[[76.0987,10.749],[76.099,10.7491],[76.0993,10.7492],[76.099,10.749],[76.0987,10.749]]],[[[76.0996,10.7493],[76.0999,10.7496],[76.1,10.7496],[76.0996,10.7493]]],[[[76.1004,10.7498],[76.1005,10.7498],[76.1003,10.7497],[76.1004,10.7498]]],[[[76.1008,10.7499],[76.1011,10.7501],[76.1012,10.7501],[76.1008,10.7499]]],[[[76.1013,10.7502],[76.1014,10.7502],[76.1017,10.7504],[76.1014,10.7501],[76.1013,10.7502]]],[[[76.094,10.7485],[76.0941,10.7486],[76.0941,10.7485],[76.094,10.7485]]],[[[76.0865,10.7496],[76.0866,10.7496],[76.0865,10.7495],[76.0865,10.7496]]],[[[76.0866,10.7498],[76.0867,10.75],[76.0867,10.7497],[76.0866,10.7498]]],[[[76.0869,10.7502],[76.0868,10.7504],[76.0869,10.7504],[76.0869,10.7502]]],[[[76.0867,10.7508],[76.0868,10.751],[76.0868,10.7506],[76.0867,10.7508]]],[[[76.087,10.7512],[76.087,10.7511],[76.0869,10.7511],[76.087,10.7512]]],[[[76.087,10.7514],[76.087,10.7518],[76.0871,10.7516],[76.087,10.7514]]],[[[76.087,10.7524],[76.0871,10.7523],[76.087,10.7522],[76.087,10.7524]]],[[[76.0869,10.7533],[76.0867,10.7533],[76.0867,10.7535],[76.0869,10.7533]]],[[[76.0867,10.7537],[76.0865,10.7541],[76.0866,10.7542],[76.0867,10.7537]]],[[[76.0865,10.7543],[76.0866,10.7543],[76.0866,10.7542],[76.0865,10.7543]]],[[[76.0865,10.7544],[76.0865,10.7546],[76.0866,10.7544],[76.0865,10.7544]]],[[[76.0865,10.7546],[76.0866,10.7547],[76.0867,10.7546],[76.0865,10.7546]]],[[[76.0871,10.7546],[76.0872,10.755],[76.0873,10.7551],[76.0873,10.7547],[76.0871,10.7546]]],[[[76.0874,10.7556],[76.0872,10.7556],[76.0872,10.7557],[76.0874,10.7556]]],[[[76.0872,10.7557],[76.0869,10.7558],[76.0869,10.7561],[76.0872,10.7557]]],[[[76.0868,10.7566],[76.0868,10.7567],[76.0869,10.7564],[76.0868,10.7566]]],[[[76.0867,10.7571],[76.0868,10.7572],[76.0868,10.7569],[76.0867,10.7571]]],[[[76.0869,10.7573],[76.0868,10.7576],[76.0873,10.7576],[76.0874,10.7579],[76.0876,10.7581],[76.0873,10.7575],[76.0869,10.7575],[76.0869,10.7573]]],[[[76.0876,10.7581],[76.0878,10.7583],[76.0879,10.7583],[76.0876,10.7581]]],[[[76.088,10.7584],[76.0881,10.7583],[76.0879,10.7583],[76.088,10.7584]]],[[[76.0883,10.7583],[76.0885,10.7582],[76.0881,10.7583],[76.0883,10.7583]]],[[[76.0881,10.7587],[76.0881,10.7586],[76.088,10.7586],[76.0881,10.7587]]],[[[76.0881,10.7591],[76.0883,10.7592],[76.0884,10.7592],[76.0881,10.7591]]],[[[76.0888,10.7594],[76.0889,10.7594],[76.0888,10.7593],[76.0888,10.7594]]],[[[76.089,10.7597],[76.0891,10.7598],[76.089,10.7596],[76.089,10.7597]]],[[[76.089,10.7601],[76.089,10.7602],[76.0891,10.76],[76.089,10.7601]]],[[[76.089,10.7607],[76.0891,10.7607],[76.089,10.7606],[76.089,10.7607]]],[[[76.089,10.7608],[76.0891,10.7608],[76.0891,10.7607],[76.089,10.7608]]],[[[76.0889,10.7608],[76.0889,10.7609],[76.089,10.7608],[76.0889,10.7608]]],[[[76.0889,10.7619],[76.0889,10.762],[76.089,10.7618],[76.0889,10.7619]]],[[[76.0889,10.7625],[76.089,10.7625],[76.0889,10.7624],[76.0889,10.7625]]],[[[76.089,10.7627],[76.0891,10.7629],[76.0891,10.7626],[76.089,10.7627]]],[[[76.0891,10.763],[76.0892,10.763],[76.0891,10.7629],[76.0891,10.763]]],[[[76.0892,10.7632],[76.0893,10.7634],[76.0892,10.7631],[76.0892,10.7632]]],[[[76.0893,10.7635],[76.0894,10.7636],[76.0893,10.7634],[76.0893,10.7635]]],[[[76.0893,10.7636],[76.0894,10.7637],[76.0894,10.7636],[76.0893,10.7636]]],[[[76.0894,10.7639],[76.0895,10.764],[76.0894,10.7638],[76.0894,10.7639]]],[[[76.089,10.7643],[76.0891,10.7645],[76.0893,10.7649],[76.0891,10.7643],[76.08925,10.76415],[76.089,10.7643]]],[[[76.0895,10.7652],[76.0896,10.7655],[76.0895,10.7651],[76.0895,10.7652]]],[[[76.0897,10.7658],[76.0899,10.7666],[76.09,10.7668],[76.0897,10.7658]]],[[[76.09,10.7669],[76.0901,10.7669],[76.09,10.7668],[76.09,10.7669]]]]}},{"type":"Feature","properties":{"system":"Inland Wetlands","origin":"Natural","kind":"River/Stream","areaHa":0.15,"shedId":"RB19"},"geometry":{"type":"MultiPolygon","coordinates":[[[[76.0901,10.7669],[76.09,10.7669],[76.0901,10.767],[76.0901,10.7669]]],[[[76.0902,10.7675],[76.09035,10.7677],[76.0902,10.76745],[76.0902,10.7675]]],[[[76.09052,10.76798],[76.0907,10.7684],[76.091,10.7687],[76.09052,10.76798]]],[[[76.091,10.7687],[76.0915,10.7691],[76.0916,10.769],[76.091,10.7687]]],[[[76.0915,10.7691],[76.0914,10.7697],[76.0915,10.7697],[76.0915,10.7691]]],[[[76.0913,10.7698],[76.0914,10.7698],[76.0914,10.7697],[76.0913,10.7698]]]]}},{"type":"Feature","properties":{"system":"Inland Wetlands","origin":"Natural","kind":"River/Stream","areaHa":0.25,"shedId":"RB19"},"geometry":{"type":"MultiPolygon","coordinates":[[[[76.0749,10.7344],[76.0748,10.7339],[76.0746,10.7335],[76.0747,10.734],[76.0749,10.7344]]],[[[76.075,10.7347],[76.075,10.7346],[76.07493,10.73453],[76.075,10.7347]]],[[[76.075,10.7349],[76.0751,10.7353],[76.0753,10.7357],[76.075,10.7349]]],[[[76.0753,10.7358],[76.0753,10.7362],[76.0752,10.7364],[76.0754,10.7361],[76.0753,10.7358]]],[[[76.0752,10.7364],[76.0752,10.7369],[76.0752,10.7374],[76.0753,10.7373],[76.0752,10.7364]]],[[[76.0752,10.7377],[76.0751,10.7385],[76.0752,10.7387],[76.0752,10.7377]]]]}},{"type":"Feature","properties":{"system":"Inland Wetlands","origin":"Natural","kind":"River/Stream","areaHa":1.08,"shedId":"RB19"},"geometry":{"type":"MultiPolygon","coordinates":[[[[76.0899,10.7849],[76.0901,10.785],[76.0901,10.7849],[76.0899,10.7849]]],[[[76.0899,10.7849],[76.0897,10.7848],[76.0896,10.7848],[76.0899,10.7849]]],[[[76.0902,10.7847],[76.0902,10.7846],[76.0901,10.7848],[76.0902,10.7847]]],[[[76.0903,10.7845],[76.0902,10.7845],[76.0902,10.7846],[76.0903,10.7845]]],[[[76.0902,10.7845],[76.0903,10.7843],[76.0902,10.7843],[76.0902,10.7845]]],[[[76.0905,10.7843],[76.0905,10.7842],[76.0904,10.7843],[76.0905,10.7843]]],[[[76.0908,10.7842],[76.0911,10.7841],[76.0907,10.7842],[76.0908,10.7842]]],[[[76.0913,10.7841],[76.0913,10.7839],[76.0914,10.7837],[76.0912,10.784],[76.0913,10.7841]]],[[[76.0915,10.7836],[76.0915,10.7835],[76.0914,10.7837],[76.0915,10.7836]]],[[[76.0915,10.7835],[76.0916,10.7833],[76.0917,10.7831],[76.0915,10.7835]]],[[[76.0917,10.7831],[76.0932,10.7804],[76.0932,10.7801],[76.0921,10.782],[76.0917,10.7831]]],[[[76.0932,10.7801],[76.0934,10.7795],[76.0932,10.7793],[76.0933,10.7796],[76.0932,10.7801]]],[[[76.0934,10.7795],[76.0935,10.7793],[76.0935,10.7792],[76.0934,10.7795]]],[[[76.0935,10.7792],[76.0936,10.7791],[76.0936,10.779],[76.0935,10.7792]]],[[[76.0938,10.7788],[76.0937,10.7788],[76.0937,10.7789],[76.0938,10.7788]]],[[[76.0939,10.7788],[76.094,10.7787],[76.0938,10.7788],[76.0939,10.7788]]],[[[76.0943,10.7786],[76.0944,10.7785],[76.094,10.7787],[76.0943,10.7786]]],[[[76.0949,10.7781],[76.0949,10.778],[76.0948,10.7782],[76.0949,10.7781]]],[[[76.0958,10.7771],[76.0957,10.7771],[76.0957,10.7772],[76.0958,10.7771]]],[[[76.096,10.7769],[76.0959,10.7769],[76.0959,10.777],[76.096,10.7769]]],[[[76.0961,10.7768],[76.0961,10.7767],[76.096,10.7768],[76.0961,10.7768]]],[[[76.0964,10.7762],[76.0966,10.7762],[76.0963,10.7761],[76.0964,10.7762]]],[[[76.0967,10.7763],[76.0968,10.7763],[76.0966,10.7762],[76.0967,10.7763]]],[[[76.0971,10.7764],[76.0971,10.7763],[76.097,10.7763],[76.0971,10.7764]]],[[[76.0931,10.7793],[76.0931,10.7792],[76.093,10.779],[76.093,10.7792],[76.0931,10.7793]]],[[[76.093,10.779],[76.093,10.7788],[76.0929,10.7787],[76.093,10.779]]],[[[76.0928,10.7787],[76.0929,10.7785],[76.0929,10.7784],[76.0928,10.7787]]],[[[76.0929,10.7784],[76.0933,10.7777],[76.0934,10.7768],[76.0929,10.7784]]],[[[76.0934,10.7768],[76.0935,10.7762],[76.0936,10.7757],[76.0934,10.7765],[76.0934,10.7768]]],[[[76.0936,10.7757],[76.0941,10.7749],[76.094,10.7748],[76.0936,10.7757]]],[[[76.0942,10.775],[76.0942,10.7749],[76.0941,10.7749],[76.0942,10.775]]]]}},{"type":"Feature","properties":{"system":"Inland Wetlands","origin":"Man-Made","kind":"Tanks/Ponds","areaHa":0.18,"shedId":"RB19"},"geometry":{"type":"Polygon","coordinates":[[[76.1166,10.7403],[76.1171,10.74],[76.117,10.7398],[76.1166,10.7399],[76.1166,10.7403]]]}},{"type":"Feature","properties":{"system":"Inland Wetlands","origin":"Man-Made","kind":"Tanks/Ponds","areaHa":0.1,"shedId":"RB19"},"geometry":{"type":"Polygon","coordinates":[[[76.1156,10.7397],[76.1155,10.7401],[76.1154,10.7402],[76.1157,10.7401],[76.1158,10.7398],[76.1156,10.7397]]]}},{"type":"Feature","properties":{"system":"Inland Wetlands","origin":"Man-Made","kind":"Tanks/Ponds","areaHa":0.19,"shedId":"RB19"},"geometry":{"type":"Polygon","coordinates":[[[76.1139,10.74],[76.1138,10.7404],[76.1142,10.7405],[76.1143,10.7402],[76.1139,10.74]]]}},{"type":"Feature","properties":{"system":"Inland Wetlands","origin":"Man-Made","kind":"Tanks/Ponds","areaHa":0.08,"shedId":"RB19"},"geometry":{"type":"Polygon","coordinates":[[[76.1134,10.74],[76.1132,10.74],[76.1131,10.7398],[76.113,10.7401],[76.1133,10.7402],[76.1134,10.74]]]}},{"type":"Feature","properties":{"system":"Inland Wetlands","origin":"Man-Made","kind":"Tanks/Ponds","areaHa":0.39,"shedId":"RB19"},"geometry":{"type":"Polygon","coordinates":[[[76.1124,10.7397],[76.112,10.7396],[76.1117,10.7399],[76.1117,10.7401],[76.1119,10.7403],[76.1123,10.7402],[76.1122,10.74],[76.1119,10.74],[76.1124,10.7399],[76.1124,10.7397]]]}},{"type":"Feature","properties":{"system":"Inland Wetlands","origin":"Man-Made","kind":"Tanks/Ponds","areaHa":0.1,"shedId":"RB19"},"geometry":{"type":"Polygon","coordinates":[[[76.1302,10.7408],[76.1299,10.7408],[76.1299,10.7412],[76.1301,10.7411],[76.1302,10.7408]]]}},{"type":"Feature","properties":{"system":"Inland Wetlands","origin":"Man-Made","kind":"Tanks/Ponds","areaHa":0.12,"shedId":"RB19"},"geometry":{"type":"Polygon","coordinates":[[[76.1413,10.7422],[76.1413,10.7426],[76.1415,10.7426],[76.1416,10.7422],[76.1413,10.7422]]]}},{"type":"Feature","properties":{"system":"Inland Wetlands","origin":"Man-Made","kind":"Tanks/Ponds","areaHa":0.11,"shedId":"RB19"},"geometry":{"type":"Polygon","coordinates":[[[76.1201,10.7568],[76.1198,10.7568],[76.1195,10.7571],[76.1198,10.7571],[76.1201,10.7568]]]}},{"type":"Feature","properties":{"system":"Inland Wetlands","origin":"Man-Made","kind":"Tanks/Ponds","areaHa":0.16,"shedId":"RB19"},"geometry":{"type":"Polygon","coordinates":[[[76.0639,10.7778],[76.0639,10.7775],[76.0635,10.7775],[76.0633,10.7777],[76.0639,10.7778]]]}},{"type":"Feature","properties":{"system":"Inland Wetlands","origin":"Man-Made","kind":"Tanks/Ponds","areaHa":0.08,"shedId":"RB19"},"geometry":{"type":"Polygon","coordinates":[[[76.0636,10.7769],[76.0631,10.7769],[76.0631,10.7771],[76.0633,10.7771],[76.0636,10.7769]]]}},{"type":"Feature","properties":{"system":"Inland Wetlands","origin":"Man-Made","kind":"Tanks/Ponds","areaHa":0.2,"shedId":"RB19"},"geometry":{"type":"Polygon","coordinates":[[[76.0553,10.8019],[76.0558,10.8016],[76.0555,10.8014],[76.0551,10.8017],[76.0553,10.8019]]]}},{"type":"Feature","properties":{"system":"Inland Wetlands","origin":"Man-Made","kind":"Tanks/Ponds","areaHa":0.21,"shedId":"RB19"},"geometry":{"type":"Polygon","coordinates":[[[76.0685,10.7914],[76.0682,10.7915],[76.0683,10.7921],[76.0686,10.7918],[76.0685,10.7914]]]}},{"type":"Feature","properties":{"system":"Inland Wetlands","origin":"Manmade","kind":"Tanks/Ponds","areaHa":0.07,"shedId":"RB19"},"geometry":{"type":"Polygon","coordinates":[[[76.073,10.7638],[76.0735,10.7636],[76.0729,10.7636],[76.073,10.7638]]]}},{"type":"Feature","properties":{"system":"Inland Wetlands","origin":"Manmade","kind":"Tanks/Ponds","areaHa":0.1,"shedId":"RB19"},"geometry":{"type":"Polygon","coordinates":[[[76.1596,10.7142],[76.1595,10.7145],[76.1597,10.7146],[76.1599,10.7144],[76.1596,10.7142]]]}},{"type":"Feature","properties":{"system":"Inland Wetlands","origin":"Manmade","kind":"Tanks/Ponds","areaHa":0.36,"shedId":"RB19"},"geometry":{"type":"MultiPolygon","coordinates":[[[[76.1284,10.7157],[76.1281,10.7159],[76.1281,10.7163],[76.1286,10.7163],[76.1284,10.7157]]],[[[76.1269,10.7169],[76.1265,10.7169],[76.1265,10.7171],[76.1268,10.7172],[76.1269,10.7169]]]]}}]}