{"nvdm":"1.0","dataset":"basins/wetlands","scope":{"kind":"basin","id":"palakkad-rivers"},"provenance":{"sources":[{"id":"ksrec-open-geoserver","title":"KSREC GeoServer (WFS): local-body boundaries, watershed atlas, wetlands, paddy, notified wetland parcels, flood extents and quarries of Kerala","publisher":"Kerala State Remote Sensing and Environment Centre (KSREC)","license":"No licence or terms are stated on the GeoServer (WFS capabilities: AccessConstraints NONE). Served with attribution to KSREC by the maintainer's decision; layers KSREC derived from OpenStreetMap (quarries, waterbodies) carry ODbL 1.0.","role":"input","url":"http://ksrec.in:9090/geoserver/ows"}],"method":"derived","produced_at":"2026-09-29","produced_by":"scripts/build_palakkad_rivers_basin.py","note":"Palakkad district's rivers, reservoirs, wetlands and groundwater (scope palakkad-rivers; the district's own scope id is kl-palakkad). The district is the union of its local bodies in KSREC's layer and the catchments (shedId) are the river basins of KSREC's watershed atlas cut to it. KSREC publishes no licence and its layers are served with attribution; its quarry layer is OpenStreetMap's (ODbL)."},"type":"FeatureCollection","features":[{"type":"Feature","properties":{"system":"Inland Wetlands","origin":"Natural","kind":"River/Stream","areaHa":0.41,"shedId":"RB22"},"geometry":{"type":"Polygon","coordinates":[[[76.7162,11.2298],[76.7173,11.2287],[76.7182,11.2279],[76.7177,11.2281],[76.7163,11.2296],[76.7154,11.2303],[76.7162,11.2298]]]}},{"type":"Feature","properties":{"system":"Inland Wetlands","origin":"Natural","kind":"River/Stream","areaHa":0.07,"shedId":"RB22"},"geometry":{"type":"Polygon","coordinates":[[[76.7199,11.2261],[76.7206,11.225],[76.7212,11.2244],[76.7208,11.2247],[76.7205,11.2251],[76.7199,11.2261]]]}},{"type":"Feature","properties":{"system":"Inland Wetlands","origin":"Natural","kind":"River/Stream","areaHa":2.49,"shedId":"RB22"},"geometry":{"type":"MultiPolygon","coordinates":[[[[76.7086,11.2268],[76.7102,11.2269],[76.7106,11.2271],[76.711,11.2271],[76.7116,11.2267],[76.7122,11.2268],[76.7132,11.2265],[76.7143,11.2271],[76.7148,11.2271],[76.7153,11.227],[76.7157,11.2266],[76.7152,11.2269],[76.7142,11.227],[76.7132,11.2264],[76.713,11.2264],[76.7126,11.2266],[76.7116,11.2266],[76.711,11.227],[76.7106,11.227],[76.7113,11.2264],[76.7117,11.2264],[76.7113,11.2263],[76.7107,11.2267],[76.7086,11.2268]]],[[[76.7086,11.2268],[76.708,11.2262],[76.7073,11.2261],[76.7065,11.2265],[76.7056,11.2266],[76.7056,11.227],[76.7071,11.2263],[76.7078,11.2264],[76.7082,11.2267],[76.7086,11.2268]]],[[[76.7157,11.2266],[76.7172,11.2265],[76.7181,11.2271],[76.7188,11.2273],[76.7189,11.2272],[76.7182,11.227],[76.7176,11.2265],[76.7172,11.2264],[76.7158,11.2264],[76.7157,11.2266]]]]}},{"type":"Feature","properties":{"system":"Inland Wetlands","origin":"Natural","kind":"River/Stream","areaHa":0.65,"shedId":"RB22"},"geometry":{"type":"Polygon","coordinates":[[[76.7252,11.2196],[76.7255,11.2184],[76.7259,11.2182],[76.7264,11.2182],[76.7261,11.2176],[76.7258,11.2176],[76.7253,11.2185],[76.7252,11.2196]]]}},{"type":"Feature","properties":{"system":"Inland Wetlands","origin":"Natural","kind":"River/Stream","areaHa":2.61,"shedId":"RB22"},"geometry":{"type":"MultiPolygon","coordinates":[[[[76.7095,11.2119],[76.7095,11.2118],[76.7094,11.2119],[76.7095,11.2119]]],[[[76.7094,11.2119],[76.709,11.2121],[76.7082,11.2119],[76.7077,11.2119],[76.7067,11.2125],[76.7055,11.2127],[76.7055,11.2129],[76.7065,11.2127],[76.7078,11.212],[76.7084,11.212],[76.7091,11.2123],[76.7094,11.2121],[76.7094,11.2119]]],[[[76.7096,11.2118],[76.7107,11.2115],[76.7122,11.2115],[76.7125,11.21173],[76.7125,11.2116],[76.7122,11.2114],[76.7109,11.2114],[76.7096,11.2116],[76.7096,11.2118]]],[[[76.71262,11.21186],[76.7131,11.2125],[76.7135,11.2133],[76.7144,11.2136],[76.7165,11.2135],[76.7172,11.2131],[76.7178,11.2133],[76.7187,11.2126],[76.718,11.2129],[76.7178,11.2132],[76.7172,11.213],[76.716,11.2135],[76.7144,11.2135],[76.7136,11.2132],[76.7136,11.2131],[76.71262,11.21186]]],[[[76.7188,11.2126],[76.719,11.2127],[76.7191,11.2127],[76.7188,11.2126]]],[[[76.7191,11.2126],[76.7193,11.2127],[76.7205,11.2127],[76.7191,11.2126]]],[[[76.7206,11.2128],[76.7206,11.2127],[76.7205,11.2127],[76.7206,11.2128]]],[[[76.7205,11.2131],[76.7207,11.2137],[76.7215,11.2143],[76.7219,11.2142],[76.7223,11.2144],[76.723,11.2144],[76.7238,11.2139],[76.7231,11.2142],[76.7215,11.2141],[76.721,11.2138],[76.7206,11.2133],[76.7207,11.2129],[76.7205,11.2131]]],[[[76.724,11.214],[76.7246,11.2141],[76.7238,11.2139],[76.724,11.214]]]]}},{"type":"Feature","properties":{"system":"Inland Wetlands","origin":"Natural","kind":"River/Stream","areaHa":0.74,"shedId":"RB22"},"geometry":{"type":"MultiPolygon","coordinates":[[[[76.7494,11.0931],[76.7493,11.0931],[76.7494,11.09315],[76.7494,11.0931]]],[[[76.7458,11.0947],[76.7463,11.0927],[76.7466,11.0923],[76.7483,11.0923],[76.748,11.0921],[76.7466,11.0921],[76.7462,11.0927],[76.7458,11.094],[76.7458,11.0947]]]]}},{"type":"Feature","properties":{"system":"Inland Wetlands","origin":"Natural","kind":"River/Stream","areaHa":0.4,"shedId":"RB22"},"geometry":{"type":"MultiPolygon","coordinates":[[[[76.6954,11.1516],[76.6954,11.1513],[76.6957,11.1508],[76.6954,11.1512],[76.6953,11.1515],[76.6954,11.1516]]],[[[76.6957,11.1508],[76.6961,11.15],[76.6973,11.1493],[76.6982,11.1492],[76.6988,11.1496],[76.6989,11.1495],[76.6981,11.1491],[76.6973,11.1492],[76.6961,11.1499],[76.6957,11.1508]]]]}},{"type":"Feature","properties":{"system":"Inland Wetlands","origin":"Natural","kind":"River/Stream","areaHa":0.92,"shedId":"RB22"},"geometry":{"type":"Polygon","coordinates":[[[76.7285,11.1326],[76.7279,11.1305],[76.7279,11.1302],[76.7283,11.1299],[76.7287,11.1299],[76.7317,11.1312],[76.7303,11.1304],[76.7284,11.1298],[76.7279,11.1299],[76.7277,11.1303],[76.7284,11.1327],[76.7285,11.1326]]]}},{"type":"Feature","properties":{"system":"Inland Wetlands","origin":"Natural","kind":"River/Stream","areaHa":0.52,"shedId":"RB22"},"geometry":{"type":"MultiPolygon","coordinates":[[[[76.7451,11.1301],[76.7452,11.1303],[76.7452,11.13],[76.7451,11.1301]]],[[[76.74525,11.1298],[76.7457,11.1289],[76.7462,11.1268],[76.746,11.1271],[76.74525,11.1298]]],[[[76.7452,11.1304],[76.7453,11.1304],[76.7452,11.1303],[76.7452,11.1304]]],[[[76.746,11.1302],[76.7459,11.13037],[76.74605,11.13017],[76.746,11.1302]]],[[[76.7458,11.1305],[76.74587,11.1304],[76.7458,11.1304],[76.7458,11.1305]]]]}},{"type":"Feature","properties":{"system":"Inland Wetlands","origin":"Man-Made","kind":"Tanks/Ponds","areaHa":0.11,"shedId":"RB22"},"geometry":{"type":"Polygon","coordinates":[[[76.6404,11.0971],[76.6402,11.0972],[76.6401,11.0974],[76.6404,11.0975],[76.6405,11.0973],[76.6404,11.0971]]]}},{"type":"Feature","properties":{"system":"Inland Wetlands","origin":"Man-Made","kind":"Tanks/Ponds","areaHa":0.12,"shedId":"RB22"},"geometry":{"type":"Polygon","coordinates":[[[76.711,11.0776],[76.7107,11.0776],[76.7106,11.0779],[76.7111,11.0778],[76.711,11.0776]]]}},{"type":"Feature","properties":{"system":"Inland Wetlands","origin":"Natural","kind":"River/Stream","areaHa":0.4,"shedId":"RB22"},"geometry":{"type":"Polygon","coordinates":[[[76.5837,11.1616],[76.5842,11.1621],[76.5844,11.1621],[76.5838,11.1615],[76.5827,11.1617],[76.5822,11.1621],[76.5837,11.1616]]]}},{"type":"Feature","properties":{"system":"Inland Wetlands","origin":"Natural","kind":"River/Stream","areaHa":135.41,"shedId":"RB22"},"geometry":{"type":"MultiPolygon","coordinates":[[[[76.7132,11.1884],[76.7141,11.1878],[76.7157,11.1861],[76.7163,11.1861],[76.7168,11.1863],[76.7176,11.1861],[76.719,11.1864],[76.7199,11.1869],[76.7203,11.1878],[76.7202,11.1882],[76.7204,11.1884],[76.7206,11.1881],[76.7199,11.1867],[76.7196,11.1865],[76.7179,11.186],[76.7161,11.1859],[76.7157,11.186],[76.7139,11.1877],[76.7133,11.188],[76.7128,11.1881],[76.7109,11.1878],[76.7112,11.1881],[76.7118,11.1883],[76.7132,11.1884]]],[[[76.7204,11.1885],[76.7208,11.1903],[76.7211,11.1903],[76.7207,11.1895],[76.7205,11.1884],[76.7204,11.1885]]],[[[76.7209,11.1904],[76.721,11.1905],[76.721,11.1904],[76.7209,11.1904]]],[[[76.7211,11.1906],[76.721,11.1907],[76.7211,11.1907],[76.7211,11.1906]]],[[[76.7211,11.1907],[76.7214,11.1908],[76.7214,11.1907],[76.7211,11.1907]]],[[[76.7214,11.1908],[76.7221,11.1911],[76.7224,11.1914],[76.7233,11.1917],[76.7217,11.1908],[76.7214,11.1908]]],[[[76.7215,11.1907],[76.7214,11.1906],[76.7213,11.1905],[76.7214,11.1907],[76.7215,11.1907]]],[[[76.7212,11.1904],[76.7212,11.1905],[76.7213,11.1905],[76.7212,11.1904]]],[[[76.7234,11.1918],[76.7236,11.192],[76.7248,11.192],[76.7253,11.1914],[76.7255,11.1914],[76.7259,11.191],[76.7276,11.1911],[76.728,11.1909],[76.7258,11.1909],[76.7247,11.1919],[76.7234,11.1918]]],[[[76.7075,11.1793],[76.7068,11.1789],[76.7063,11.1789],[76.7052,11.1795],[76.7043,11.1804],[76.7031,11.1811],[76.7015,11.1816],[76.7008,11.1816],[76.7001,11.1814],[76.6997,11.181],[76.69979,11.17901],[76.6995,11.1799],[76.6995,11.181],[76.6998,11.1814],[76.7015,11.1819],[76.7023,11.1815],[76.7036,11.1813],[76.7038,11.1809],[76.7045,11.1805],[76.7054,11.1796],[76.7064,11.1791],[76.7071,11.1791],[76.70776,11.17975],[76.7075,11.1793]]],[[[76.70785,11.18],[76.7079,11.1805],[76.7085,11.1818],[76.709,11.1824],[76.7089,11.1824],[76.7091,11.1828],[76.7093,11.1829],[76.7092,11.1829],[76.7095,11.184],[76.7093,11.1862],[76.7095,11.187],[76.7097,11.187],[76.7096,11.1873],[76.7098,11.1873],[76.7099,11.1875],[76.7098,11.1875],[76.7101,11.1876],[76.7101,11.1878],[76.7103,11.1878],[76.7102,11.1877],[76.7103,11.1876],[76.7099,11.1873],[76.7096,11.1862],[76.7097,11.1857],[76.7095,11.1831],[76.7083,11.1812],[76.70785,11.18]]],[[[76.6782,11.1621],[76.6784,11.1632],[76.6789,11.1641],[76.6801,11.1645],[76.6817,11.1654],[76.6826,11.1652],[76.6828,11.1649],[76.6834,11.1646],[76.6836,11.1647],[76.6836,11.1645],[76.6848,11.1637],[76.685,11.1634],[76.6832,11.1646],[76.6822,11.1651],[76.6816,11.1652],[76.6791,11.164],[76.6784,11.1629],[76.6784,11.1621],[76.6782,11.1621]]],[[[76.6782,11.162],[76.6768,11.1604],[76.6765,11.1598],[76.6765,11.16],[76.6773,11.1612],[76.6782,11.162]]],[[[76.685,11.1634],[76.687,11.1626],[76.688,11.1627],[76.6884,11.1629],[76.6895,11.1628],[76.6914,11.1632],[76.692,11.164],[76.6926,11.1661],[76.6927,11.1676],[76.6925,11.1682],[76.6927,11.1685],[76.6926,11.1697],[76.6927,11.1706],[76.6928,11.1666],[76.6921,11.1637],[76.6916,11.163],[76.6898,11.1627],[76.6883,11.1627],[76.6875,11.1624],[76.6868,11.1624],[76.685,11.1634]]],[[[76.6927,11.171],[76.6927,11.1721],[76.693,11.1725],[76.6945,11.1733],[76.6949,11.1738],[76.695,11.1742],[76.6954,11.1747],[76.6957,11.1748],[76.6946,11.1732],[76.6932,11.1725],[76.6927,11.171]]],[[[76.6957,11.1748],[76.6961,11.1751],[76.697,11.1754],[76.6986,11.1754],[76.7003,11.1751],[76.6997,11.175],[76.6971,11.1753],[76.6957,11.1748]]],[[[76.7004,11.1751],[76.7008,11.1752],[76.7013,11.1757],[76.701,11.1752],[76.7004,11.1751]]],[[[76.7014,11.1762],[76.7007,11.1767],[76.7002,11.1773],[76.7002,11.1777],[76.6999,11.1781],[76.6998,11.1788],[76.7003,11.1776],[76.7014,11.1762]]],[[[76.6754,11.1585],[76.6754,11.1587],[76.6759,11.1591],[76.6754,11.1585]]],[[[76.6711,11.1567],[76.6716,11.1567],[76.6709,11.1566],[76.6711,11.1567]]],[[[76.6716,11.1567],[76.6724,11.1572],[76.6739,11.1574],[76.6747,11.1578],[76.6741,11.1574],[76.6723,11.157],[76.6716,11.1567]]],[[[76.6747,11.1578],[76.675,11.1582],[76.6752,11.1583],[76.6751,11.1581],[76.6747,11.1578]]],[[[76.6752,11.1584],[76.6753,11.1585],[76.6752,11.1583],[76.6752,11.1584]]],[[[76.6663,11.1526],[76.6664,11.1524],[76.6662,11.1527],[76.6663,11.1526]]],[[[76.6661,11.153],[76.6662,11.1546],[76.6669,11.1558],[76.6689,11.1569],[76.6697,11.1572],[76.6698,11.1569],[76.6702,11.1568],[76.6699,11.1568],[76.6696,11.157],[76.6689,11.1568],[76.6691,11.1567],[76.6683,11.1563],[76.6681,11.156],[76.668,11.1561],[76.6671,11.1557],[76.6666,11.155],[76.6662,11.1539],[76.6662,11.1529],[76.6661,11.153]]],[[[76.6663,11.1498],[76.6663,11.15],[76.6669,11.1504],[76.6674,11.1513],[76.667,11.1504],[76.6663,11.1498]]],[[[76.6674,11.1514],[76.667,11.152],[76.6674,11.1517],[76.6674,11.1514]]],[[[76.6669,11.152],[76.6665,11.1522],[76.6665,11.1524],[76.6666,11.1523],[76.6669,11.152]]],[[[76.6648,11.1488],[76.6655,11.1493],[76.666,11.1496],[76.665,11.1488],[76.6648,11.1488]]],[[[76.6625,11.149],[76.6631,11.1491],[76.6643,11.1486],[76.6625,11.149]]],[[[76.607,11.154],[76.6075,11.1541],[76.6081,11.1537],[76.6075,11.154],[76.6072,11.1539],[76.607,11.154]]],[[[76.607,11.154],[76.6064,11.1541],[76.6061,11.1545],[76.606,11.1559],[76.6053,11.1564],[76.6042,11.1577],[76.6029,11.1589],[76.6026,11.1593],[76.6024,11.1602],[76.6015,11.1607],[76.601,11.1614],[76.5992,11.1618],[76.5987,11.1621],[76.5969,11.1626],[76.5964,11.1625],[76.5957,11.162],[76.5947,11.1618],[76.5947,11.162],[76.5968,11.1627],[76.5976,11.1626],[76.5991,11.1621],[76.5993,11.1619],[76.6005,11.1618],[76.6009,11.1616],[76.6013,11.1613],[76.6015,11.1609],[76.603,11.1601],[76.6026,11.1598],[76.6028,11.1592],[76.604,11.1579],[76.6045,11.1576],[76.6057,11.1562],[76.606,11.1561],[76.6062,11.1557],[76.6062,11.1547],[76.6064,11.1543],[76.607,11.154]]],[[[76.6083,11.1536],[76.61,11.1528],[76.6114,11.1525],[76.6104,11.1525],[76.6083,11.1536]]],[[[76.6117,11.1527],[76.6116,11.1526],[76.6114,11.1526],[76.6117,11.1527]]],[[[76.6117,11.1527],[76.6119,11.1529],[76.6119,11.1528],[76.6118,11.1527],[76.6117,11.1527]]],[[[76.6119,11.1529],[76.612,11.1531],[76.6127,11.1531],[76.6119,11.1529]]],[[[76.6127,11.1531],[76.6147,11.153],[76.6153,11.1534],[76.6162,11.1538],[76.617,11.1539],[76.6177,11.1538],[76.6188,11.1534],[76.6206,11.1523],[76.6208,11.1521],[76.6209,11.1509],[76.6219,11.1499],[76.6226,11.1496],[76.6247,11.1494],[76.6256,11.1498],[76.6263,11.1504],[76.6284,11.1503],[76.6302,11.1517],[76.6312,11.1521],[76.6317,11.152],[76.633,11.153],[76.6334,11.1539],[76.633,11.1528],[76.6321,11.1523],[76.6318,11.1519],[76.6308,11.1518],[76.6287,11.1503],[76.6281,11.1501],[76.6262,11.1502],[76.6249,11.1493],[76.6232,11.1493],[76.6221,11.1495],[76.6208,11.1508],[76.6207,11.1518],[76.6202,11.1525],[76.619,11.1531],[76.6187,11.1534],[76.6179,11.1537],[76.6169,11.1538],[76.6156,11.1535],[76.6147,11.1529],[76.6127,11.1531]]],[[[76.6334,11.154],[76.6337,11.15435],[76.6337,11.1541],[76.6334,11.154]]],[[[76.6339,11.1546],[76.6343,11.1549],[76.6349,11.155],[76.6339,11.1546]]],[[[76.6349,11.1548],[76.6351,11.1549],[76.6354,11.1549],[76.6349,11.1548]]],[[[76.6364,11.155],[76.6372,11.1554],[76.6375,11.1558],[76.6375,11.1556],[76.6371,11.1552],[76.6365,11.1549],[76.6354,11.1549],[76.6364,11.155]]],[[[76.6376,11.156],[76.6381,11.1563],[76.6389,11.1563],[76.6393,11.156],[76.6397,11.1553],[76.6384,11.1561],[76.6377,11.156],[76.6375,11.1558],[76.6376,11.156]]],[[[76.6398,11.1553],[76.6421,11.1546],[76.6431,11.154],[76.6441,11.1525],[76.6445,11.1523],[76.6457,11.1504],[76.6462,11.1501],[76.6467,11.15],[76.6474,11.1504],[76.6485,11.1504],[76.6501,11.1508],[76.6513,11.1508],[76.6524,11.1506],[76.6537,11.1508],[76.6551,11.1507],[76.6556,11.1502],[76.6555,11.15],[76.6557,11.1479],[76.6564,11.1472],[76.6581,11.1481],[76.6589,11.1493],[76.6596,11.1497],[76.6606,11.1498],[76.6618,11.149],[76.6607,11.1496],[76.6597,11.1496],[76.6591,11.1493],[76.6583,11.1482],[76.6566,11.147],[76.6555,11.1457],[76.655,11.1455],[76.6541,11.1456],[76.653,11.146],[76.6524,11.146],[76.6512,11.1455],[76.6523,11.1462],[76.6535,11.146],[76.6537,11.1458],[76.6544,11.1456],[76.6551,11.1456],[76.6555,11.1458],[76.6562,11.1468],[76.6557,11.1475],[76.6555,11.1481],[76.6553,11.1502],[76.655,11.1505],[76.6539,11.1507],[76.6528,11.1502],[76.651,11.1507],[76.6479,11.1503],[76.6473,11.1501],[76.647,11.1498],[76.6461,11.1497],[76.6457,11.15],[76.6444,11.1521],[76.643,11.1538],[76.642,11.1545],[76.6405,11.1549],[76.6398,11.1553]]],[[[76.6512,11.1455],[76.6502,11.1449],[76.6498,11.1445],[76.6499,11.1448],[76.6512,11.1455]]],[[[76.6498,11.1445],[76.6477,11.1418],[76.6477,11.142],[76.6475,11.1419],[76.6479,11.1422],[76.6482,11.1429],[76.6489,11.1435],[76.6493,11.1441],[76.6498,11.1445]]],[[[76.6475,11.1419],[76.6473,11.1416],[76.6476,11.1416],[76.6472,11.1414],[76.6472,11.141],[76.6469,11.1407],[76.6469,11.1405],[76.6468,11.1406],[76.6469,11.1411],[76.6473,11.1418],[76.6475,11.1419]]],[[[76.6469,11.1403],[76.647,11.1404],[76.6472,11.14],[76.6469,11.1403]]],[[[76.6473,11.1399],[76.6472,11.1399],[76.6472,11.14],[76.6473,11.1399]]],[[[76.6473,11.1399],[76.6475,11.1399],[76.6479,11.1396],[76.6477,11.1396],[76.6473,11.1399]]],[[[76.6479,11.1395],[76.6483,11.1397],[76.6486,11.1393],[76.6486,11.1387],[76.6483,11.1383],[76.6478,11.1379],[76.6485,11.1387],[76.6482,11.1394],[76.6479,11.1395]]],[[[76.6476,11.1378],[76.6477,11.1379],[76.6478,11.1379],[76.6476,11.1378]]],[[[76.6474,11.1377],[76.6474,11.1378],[76.6476,11.1378],[76.6474,11.1377]]],[[[76.6463,11.1372],[76.6458,11.1371],[76.64718,11.1376],[76.6463,11.1372]]],[[[76.6456,11.1369],[76.6454,11.1352],[76.6453,11.1349],[76.6449,11.1344],[76.6453,11.135],[76.6453,11.1365],[76.6454,11.1368],[76.6456,11.1369]]],[[[76.6449,11.1344],[76.6445,11.134],[76.6446,11.1342],[76.6449,11.1344]]],[[[76.6445,11.134],[76.6439,11.1334],[76.6435,11.1325],[76.6436,11.1331],[76.6439,11.1336],[76.6443,11.134],[76.6445,11.134]]],[[[76.6435,11.1325],[76.6431,11.1318],[76.6428,11.1312],[76.6434,11.1325],[76.6435,11.1325]]],[[[76.6426,11.1309],[76.6427,11.1311],[76.6428,11.1312],[76.6426,11.1309]]],[[[76.6477,11.1402],[76.6474,11.1402],[76.6473,11.1403],[76.6477,11.1402]]],[[[76.6474,11.1411],[76.6474,11.1408],[76.6474,11.1407],[76.6473,11.1408],[76.6474,11.1411]]],[[[76.6425,11.1307],[76.6426,11.1308],[76.6424,11.1305],[76.6425,11.1307]]],[[[76.6411,11.1293],[76.6412,11.1295],[76.64127,11.12956],[76.6411,11.1293]]],[[[76.6422,11.1302],[76.6419,11.13],[76.6417,11.1299],[76.6422,11.1302]]],[[[76.6255,11.1259],[76.6251,11.1256],[76.6247,11.1253],[76.6247,11.1254],[76.6255,11.1259]]],[[[76.6256,11.1261],[76.6264,11.1272],[76.6265,11.1278],[76.6269,11.1286],[76.6276,11.1289],[76.627,11.1284],[76.6266,11.1275],[76.6261,11.1266],[76.6256,11.1261]]],[[[76.6276,11.129],[76.6285,11.1291],[76.6287,11.129],[76.6287,11.1288],[76.6291,11.1288],[76.6293,11.1285],[76.6298,11.1284],[76.6329,11.1285],[76.6332,11.1288],[76.6335,11.1309],[76.6337,11.1312],[76.6352,11.1318],[76.6358,11.1318],[76.6361,11.1315],[76.6364,11.1315],[76.6376,11.1302],[76.6385,11.1297],[76.6388,11.1293],[76.6362,11.1311],[76.6352,11.1316],[76.6347,11.1314],[76.6339,11.1306],[76.6331,11.1285],[76.632,11.1283],[76.6298,11.1283],[76.6283,11.1289],[76.6276,11.129]]],[[[76.61347,11.12319],[76.6142,11.1241],[76.6144,11.1241],[76.61347,11.12319]]],[[[76.6145,11.1241],[76.6153,11.1242],[76.6162,11.124],[76.6168,11.1237],[76.6175,11.1224],[76.6176,11.1219],[76.618,11.1214],[76.6192,11.1211],[76.6198,11.1212],[76.6212,11.1221],[76.6228,11.1235],[76.6241,11.1249],[76.6236,11.1242],[76.6217,11.1224],[76.6202,11.1213],[76.6193,11.1209],[76.6187,11.1209],[76.6179,11.1212],[76.6171,11.1221],[76.6162,11.1238],[76.6156,11.1241],[76.6145,11.1241]]],[[[76.6122,11.1211],[76.6124,11.1214],[76.6119,11.1208],[76.6122,11.1211]]],[[[76.6093,11.1178],[76.6086,11.116],[76.6082,11.1154],[76.6083,11.1152],[76.6082,11.1148],[76.6079,11.1145],[76.6076,11.1138],[76.6067,11.1134],[76.6041,11.1127],[76.6029,11.1128],[76.6049,11.113],[76.6057,11.1134],[76.6063,11.1134],[76.6072,11.1138],[76.6074,11.1146],[76.6082,11.1159],[76.6083,11.1166],[76.6087,11.117],[76.6092,11.1186],[76.6089,11.1185],[76.6088,11.1182],[76.6086,11.1183],[76.609,11.1187],[76.6093,11.1187],[76.6096,11.1195],[76.6101,11.12],[76.6095,11.119],[76.6093,11.1178]]],[[[76.5972,11.1084],[76.5981,11.1094],[76.598,11.1099],[76.5987,11.1108],[76.5988,11.1117],[76.5991,11.1121],[76.5996,11.1135],[76.5998,11.1135],[76.6001,11.1139],[76.6005,11.1141],[76.601,11.1141],[76.6012,11.1138],[76.6002,11.1138],[76.5996,11.1129],[76.5993,11.1118],[76.599,11.1116],[76.5991,11.1113],[76.599,11.1107],[76.5982,11.1095],[76.5982,11.1088],[76.5975,11.1084],[76.5972,11.1084]]],[[[76.596,11.1089],[76.5961,11.109],[76.5963,11.1087],[76.596,11.1089]]],[[[76.5957,11.1092],[76.5954,11.1095],[76.5953,11.1096],[76.5957,11.1092]]],[[[76.5947,11.1098],[76.5938,11.1099],[76.5941,11.11],[76.5947,11.1098]]],[[[76.5905,11.1064],[76.5903,11.1074],[76.5906,11.1075],[76.5912,11.1082],[76.5919,11.1085],[76.5928,11.1095],[76.5932,11.1097],[76.5934,11.1096],[76.5906,11.1072],[76.5908,11.1059],[76.5912,11.1051],[76.591,11.1051],[76.5911,11.1048],[76.5908,11.1048],[76.5909,11.1051],[76.5907,11.1059],[76.5904,11.1062],[76.5905,11.1064]]],[[[76.5724,11.0791],[76.5725,11.0792],[76.57278,11.07894],[76.5724,11.0791]]],[[[76.5729,11.0789],[76.5737,11.079],[76.574,11.0787],[76.5749,11.0793],[76.5758,11.0796],[76.5763,11.08],[76.5764,11.0812],[76.5769,11.0821],[76.577,11.0827],[76.5768,11.0837],[76.5763,11.0841],[76.5762,11.0849],[76.5775,11.0859],[76.5794,11.0869],[76.5818,11.0875],[76.5835,11.0872],[76.5844,11.0869],[76.5827,11.0873],[76.581,11.0872],[76.579,11.0866],[76.5774,11.0855],[76.5772,11.0855],[76.5772,11.0853],[76.5769,11.085],[76.5764,11.085],[76.5763,11.0849],[76.5764,11.0843],[76.5766,11.084],[76.5768,11.084],[76.5769,11.0842],[76.5769,11.0839],[76.5773,11.0833],[76.577,11.0817],[76.5762,11.0796],[76.5742,11.0786],[76.5729,11.0789]]],[[[76.5846,11.0868],[76.5858,11.0867],[76.5863,11.0872],[76.5865,11.0879],[76.5861,11.0889],[76.5861,11.0896],[76.5863,11.0898],[76.5862,11.0902],[76.5865,11.0911],[76.5864,11.0916],[76.5871,11.0922],[76.5876,11.0933],[76.588,11.0936],[76.5894,11.0939],[76.5919,11.0932],[76.5894,11.0937],[76.5884,11.0936],[76.5881,11.0934],[76.5878,11.0931],[76.5875,11.0924],[76.5868,11.0916],[76.5866,11.0916],[76.5864,11.0899],[76.5865,11.0888],[76.5862,11.0891],[76.5867,11.0883],[76.5864,11.087],[76.5862,11.0868],[76.5856,11.0866],[76.5846,11.0868]]],[[[76.5922,11.0931],[76.5926,11.0937],[76.5925,11.0956],[76.5928,11.096],[76.5929,11.0955],[76.593,11.0962],[76.5927,11.0969],[76.5927,11.0973],[76.5924,11.0977],[76.5925,11.0982],[76.5921,11.0991],[76.5923,11.0994],[76.5921,11.0997],[76.5922,11.1012],[76.592,11.1022],[76.5922,11.1024],[76.5921,11.1027],[76.5918,11.1027],[76.5918,11.1031],[76.5913,11.104],[76.5913,11.1043],[76.5911,11.1044],[76.5913,11.1045],[76.5913,11.1049],[76.5923,11.1024],[76.5923,11.1017],[76.5925,11.1013],[76.5925,11.1],[76.5923,11.0996],[76.5928,11.0972],[76.5931,11.0967],[76.593,11.0953],[76.5928,11.095],[76.5928,11.0939],[76.593,11.094],[76.593,11.0937],[76.5926,11.0932],[76.5922,11.0931]]],[[[76.5645,11.0755],[76.5652,11.0757],[76.5655,11.0761],[76.5655,11.0764],[76.5673,11.0778],[76.5675,11.0787],[76.5674,11.0792],[76.5678,11.08],[76.5683,11.0804],[76.5689,11.0802],[76.569,11.0801],[76.5682,11.0801],[76.5677,11.0795],[76.5676,11.0778],[76.5659,11.0765],[76.5655,11.0756],[76.5648,11.0754],[76.5645,11.0755]]],[[[76.56937,11.08],[76.5695,11.08],[76.5695,11.07992],[76.56937,11.08]]],[[[76.5696,11.0799],[76.5718,11.0795],[76.5722,11.0798],[76.5719,11.0795],[76.5723,11.0792],[76.5696,11.0799]]],[[[76.5713,11.0796],[76.5712,11.0799],[76.5714,11.08],[76.5713,11.0796]]],[[[76.5632,11.0762],[76.5631,11.0763],[76.5637,11.0759],[76.5632,11.0762]]],[[[76.5626,11.0766],[76.5625,11.0767],[76.5628,11.0765],[76.5626,11.0766]]],[[[76.5609,11.0771],[76.5592,11.0771],[76.5581,11.0762],[76.5578,11.0762],[76.5575,11.0757],[76.5574,11.0754],[76.5575,11.0749],[76.5579,11.0744],[76.5578,11.0736],[76.5576,11.0734],[76.5575,11.0723],[76.5576,11.071],[76.5572,11.0723],[76.5572,11.0728],[76.5575,11.0733],[76.5572,11.0733],[76.5572,11.0735],[76.5575,11.0738],[76.5573,11.0758],[76.5578,11.0763],[76.5587,11.0768],[76.559,11.0772],[76.5601,11.0773],[76.5609,11.0771]]],[[[76.5611,11.0771],[76.5613,11.0771],[76.56137,11.07703],[76.5611,11.0771]]],[[[76.54338,11.06916],[76.546,11.0697],[76.546,11.0699],[76.5469,11.0699],[76.5475,11.0706],[76.5487,11.0714],[76.5499,11.0712],[76.55,11.0713],[76.5501,11.0712],[76.55,11.0714],[76.5501,11.0714],[76.5507,11.0711],[76.5506,11.0708],[76.5525,11.07],[76.5527,11.0697],[76.5533,11.0695],[76.554,11.0687],[76.5546,11.0683],[76.5538,11.0686],[76.5537,11.069],[76.5534,11.0693],[76.5527,11.0695],[76.5525,11.0697],[76.5524,11.0696],[76.5518,11.0702],[76.5517,11.07],[76.5501,11.071],[76.5494,11.0711],[76.5485,11.0711],[76.5482,11.0707],[76.5465,11.0696],[76.54338,11.06916]],[[76.5501,11.0711],[76.5503,11.0709],[76.5505,11.0709],[76.5504,11.0711],[76.5501,11.0711]]],[[[76.5546,11.0683],[76.5552,11.0685],[76.5558,11.0691],[76.5565,11.0694],[76.557,11.0699],[76.5572,11.0704],[76.5576,11.0707],[76.5571,11.0699],[76.5557,11.0685],[76.555,11.0682],[76.5546,11.0683]]],[[[76.5401,11.0677],[76.5408,11.068],[76.5399,11.0676],[76.5401,11.0677]]],[[[76.4724,11.1897],[76.4728,11.1893],[76.4733,11.1893],[76.4736,11.1895],[76.4736,11.1894],[76.4733,11.1892],[76.4728,11.1892],[76.4724,11.1897]]],[[[76.4737,11.1896],[76.4737,11.1898],[76.4738,11.1899],[76.4737,11.1896]]],[[[76.4738,11.1901],[76.4738,11.1903],[76.474,11.1904],[76.4738,11.1901]]],[[[76.474,11.1904],[76.4742,11.1907],[76.4744,11.1907],[76.474,11.1904]]],[[[76.4745,11.1908],[76.4746,11.1908],[76.4744,11.1907],[76.4745,11.1908]]],[[[76.4746,11.1908],[76.475,11.191],[76.4753,11.1916],[76.4752,11.1911],[76.4746,11.1908]]],[[[76.4753,11.1916],[76.4751,11.1923],[76.4751,11.1927],[76.4753,11.1929],[76.4752,11.1925],[76.4754,11.1921],[76.4753,11.1916]]],[[[76.4754,11.193],[76.4759,11.1933],[76.4767,11.1935],[76.4762,11.1932],[76.4754,11.193]]],[[[76.4767,11.1935],[76.4777,11.1945],[76.4786,11.1948],[76.4791,11.1959],[76.4798,11.1967],[76.4802,11.1969],[76.4807,11.1975],[76.4814,11.1977],[76.4814,11.198],[76.4817,11.1982],[76.4814,11.1976],[76.4809,11.1974],[76.4792,11.1958],[76.479,11.195],[76.4783,11.1946],[76.4776,11.1943],[76.4767,11.1935]]],[[[76.4819,11.1984],[76.4824,11.199],[76.4838,11.1996],[76.4823,11.1988],[76.4819,11.1984]]],[[[76.4839,11.1997],[76.48396,11.1997],[76.4838,11.1996],[76.4839,11.1997]]],[[[76.4842,11.2],[76.4854,11.2007],[76.4859,11.2006],[76.4871,11.2012],[76.4878,11.2007],[76.4883,11.2006],[76.4887,11.2011],[76.4889,11.2017],[76.4907,11.2021],[76.4922,11.2028],[76.4917,11.2024],[76.4906,11.2019],[76.4891,11.2016],[76.4888,11.2012],[76.4886,11.2005],[76.4884,11.2004],[76.4881,11.2004],[76.4872,11.201],[76.4869,11.201],[76.486,11.2005],[76.4851,11.2004],[76.48403,11.19974],[76.4842,11.2]]],[[[76.4922,11.2028],[76.4932,11.2037],[76.4936,11.2036],[76.4936,11.2032],[76.494,11.2028],[76.4946,11.2024],[76.4951,11.2024],[76.4966,11.2028],[76.4979,11.2038],[76.4993,11.2035],[76.5007,11.204],[76.5024,11.206],[76.5035,11.2068],[76.5037,11.2073],[76.5035,11.2079],[76.5033,11.2079],[76.5024,11.2086],[76.5025,11.2098],[76.5028,11.2098],[76.5027,11.2089],[76.5038,11.2076],[76.5037,11.2069],[76.5034,11.2063],[76.5028,11.2061],[76.5025,11.2057],[76.502,11.2054],[76.5016,11.2046],[76.501,11.2041],[76.501,11.2039],[76.5021,11.2033],[76.5028,11.2025],[76.5033,11.201],[76.5038,11.2004],[76.5039,11.2],[76.5036,11.1993],[76.5037,11.199],[76.5059,11.1972],[76.506,11.1967],[76.5059,11.1954],[76.5054,11.1932],[76.5055,11.193],[76.5054,11.1924],[76.5056,11.1922],[76.5055,11.1919],[76.5059,11.1909],[76.5065,11.1902],[76.5067,11.1895],[76.5076,11.1885],[76.508,11.1878],[76.508,11.187],[76.5086,11.1848],[76.5083,11.184],[76.509,11.182],[76.5092,11.1802],[76.5097,11.1793],[76.5106,11.1789],[76.5115,11.1771],[76.5114,11.1767],[76.5115,11.1765],[76.5122,11.1759],[76.5122,11.1756],[76.5125,11.1753],[76.5126,11.1746],[76.5135,11.1739],[76.5136,11.1733],[76.5129,11.1719],[76.5128,11.1708],[76.5134,11.1689],[76.5138,11.1682],[76.5145,11.1658],[76.5151,11.1649],[76.5162,11.164],[76.5164,11.1628],[76.5171,11.1621],[76.5173,11.1613],[76.5177,11.1608],[76.519,11.1609],[76.5205,11.1607],[76.5211,11.1603],[76.5218,11.1587],[76.5218,11.158],[76.5223,11.157],[76.5232,11.1568],[76.5237,11.1565],[76.5249,11.1552],[76.5253,11.1542],[76.5259,11.1537],[76.5262,11.1532],[76.5262,11.1517],[76.5265,11.1509],[76.5265,11.1492],[76.5267,11.1483],[76.5262,11.1476],[76.5261,11.1471],[76.526,11.1461],[76.5262,11.1449],[76.526,11.1443],[76.5255,11.1436],[76.524,11.1422],[76.5239,11.1414],[76.5244,11.1406],[76.5255,11.1398],[76.5258,11.1394],[76.5262,11.1388],[76.5267,11.1373],[76.527,11.1343],[76.5265,11.1329],[76.5275,11.132],[76.5288,11.1313],[76.5296,11.1306],[76.5296,11.1297],[76.5282,11.1282],[76.5274,11.1267],[76.5259,11.1259],[76.5258,11.1252],[76.5243,11.124],[76.5219,11.1229],[76.5213,11.1219],[76.5212,11.1211],[76.5219,11.1198],[76.522,11.1194],[76.5219,11.119],[76.5228,11.1176],[76.5234,11.1175],[76.5239,11.1179],[76.5248,11.1182],[76.5261,11.1182],[76.5271,11.1179],[76.5276,11.1175],[76.5289,11.1175],[76.5294,11.1171],[76.5301,11.1159],[76.5317,11.1144],[76.5334,11.1111],[76.533,11.1092],[76.5321,11.1071],[76.5316,11.1042],[76.5314,11.104],[76.5322,11.1032],[76.533,11.1031],[76.5337,11.1028],[76.536,11.1031],[76.5365,11.1028],[76.5372,11.102],[76.5374,11.1013],[76.5369,11.0989],[76.5358,11.0965],[76.5351,11.0943],[76.5343,11.0937],[76.5336,11.0936],[76.533,11.0933],[76.5325,11.0933],[76.5316,11.0927],[76.5311,11.0926],[76.5303,11.0918],[76.5304,11.091],[76.53,11.0896],[76.53,11.0883],[76.5297,11.0874],[76.5297,11.0865],[76.5294,11.0861],[76.5294,11.085],[76.5297,11.0841],[76.5304,11.0832],[76.5307,11.0819],[76.5308,11.0809],[76.5307,11.0809],[76.5312,11.0801],[76.5307,11.0803],[76.5305,11.0808],[76.5304,11.0826],[76.5302,11.0832],[76.53,11.0832],[76.5295,11.0841],[76.5292,11.0853],[76.5292,11.0861],[76.5295,11.0871],[76.53,11.0905],[76.5302,11.0909],[76.5301,11.092],[76.5305,11.0924],[76.5316,11.093],[76.5327,11.0935],[76.5331,11.0935],[76.5337,11.094],[76.5341,11.094],[76.5353,11.0952],[76.5353,11.0961],[76.5364,11.0985],[76.5366,11.0994],[76.5365,11.1004],[76.5368,11.1008],[76.537,11.1016],[76.5365,11.1022],[76.5352,11.1028],[76.5345,11.1025],[76.5335,11.1025],[76.5317,11.103],[76.5312,11.1035],[76.5312,11.1038],[76.531,11.1038],[76.5322,11.109],[76.5328,11.1099],[76.5329,11.1103],[76.5329,11.1114],[76.532,11.1136],[76.5295,11.1162],[76.5294,11.1168],[76.5291,11.1168],[76.5286,11.1172],[76.5274,11.1173],[76.5257,11.118],[76.5233,11.1173],[76.5226,11.1175],[76.5221,11.1181],[76.5215,11.1198],[76.521,11.1205],[76.521,11.1209],[76.5208,11.1211],[76.5213,11.1229],[76.5235,11.1239],[76.5251,11.1249],[76.5254,11.1253],[76.5255,11.1259],[76.5273,11.1269],[76.5278,11.1276],[76.5278,11.1281],[76.5293,11.1297],[76.5292,11.1304],[76.5285,11.1312],[76.5266,11.1322],[76.5264,11.1328],[76.5264,11.1337],[76.5268,11.1344],[76.5268,11.1347],[76.5266,11.1351],[76.5266,11.1358],[76.5264,11.1363],[76.5265,11.1367],[76.5262,11.1378],[76.5258,11.1388],[76.5254,11.1392],[76.5252,11.1397],[76.5246,11.1403],[76.5239,11.1405],[76.5235,11.1414],[76.5235,11.1418],[76.5241,11.1427],[76.5257,11.1443],[76.5258,11.1448],[76.5256,11.1463],[76.5257,11.1473],[76.5264,11.1486],[76.5263,11.1498],[76.526,11.1504],[76.5259,11.1532],[76.5247,11.155],[76.5236,11.1562],[76.5223,11.1568],[76.5216,11.1578],[76.5212,11.1595],[76.5205,11.1603],[76.5199,11.1606],[76.5188,11.1607],[76.5185,11.1605],[76.5177,11.1605],[76.5174,11.1608],[76.517,11.1616],[76.5164,11.1622],[76.5156,11.1641],[76.5149,11.1648],[76.5143,11.1657],[76.514,11.1671],[76.5137,11.1675],[76.5125,11.1703],[76.5127,11.1711],[76.5126,11.1722],[76.5132,11.1732],[76.5132,11.1735],[76.513,11.1739],[76.5125,11.1741],[76.5122,11.1751],[76.5117,11.176],[76.5112,11.1763],[76.5109,11.1775],[76.5105,11.1783],[76.5098,11.1787],[76.5091,11.1799],[76.5088,11.1808],[76.5089,11.1818],[76.5087,11.1821],[76.5084,11.1822],[76.5082,11.1833],[76.508,11.1836],[76.5081,11.1852],[76.5079,11.1868],[76.5075,11.1878],[76.5068,11.1887],[76.5067,11.1892],[76.5058,11.1909],[76.5055,11.1911],[76.5053,11.1917],[76.5052,11.193],[76.5058,11.1956],[76.5057,11.197],[76.5044,11.1983],[76.5039,11.1985],[76.5034,11.1991],[76.5034,11.1997],[76.5037,11.2003],[76.5032,11.201],[76.5024,11.2026],[76.501,11.2037],[76.5002,11.2036],[76.4996,11.2033],[76.4989,11.2033],[76.4984,11.2036],[76.4981,11.2036],[76.4969,11.203],[76.4966,11.2027],[76.4955,11.2025],[76.4949,11.2022],[76.4945,11.2022],[76.4932,11.2034],[76.4927,11.2032],[76.4924,11.2028],[76.4922,11.2028]]],[[[76.4725,11.1898],[76.4721,11.1907],[76.4717,11.1909],[76.4711,11.1916],[76.4707,11.1923],[76.4708,11.1924],[76.4714,11.1914],[76.4725,11.1903],[76.4726,11.1901],[76.4725,11.1898]]],[[[76.5351,11.076],[76.5355,11.0749],[76.5355,11.0744],[76.5361,11.0733],[76.5362,11.0728],[76.5363,11.0722],[76.5359,11.0716],[76.5358,11.0718],[76.536,11.072],[76.5359,11.0723],[76.536,11.0728],[76.5357,11.0739],[76.5355,11.0741],[76.5353,11.0753],[76.5349,11.0761],[76.5351,11.076]]],[[[76.5359,11.0714],[76.5357,11.0686],[76.5358,11.0677],[76.5361,11.0666],[76.5371,11.0657],[76.5362,11.0662],[76.5356,11.0678],[76.5357,11.0691],[76.5356,11.0711],[76.5359,11.0714]]],[[[76.534,11.0768],[76.5335,11.0776],[76.5334,11.0787],[76.5342,11.0768],[76.534,11.0768]]],[[[76.5317,11.08],[76.532,11.08],[76.5322,11.0799],[76.5317,11.08]]]]}},{"type":"Feature","properties":{"system":"Inland Wetlands","origin":"Natural","kind":"River/Stream","areaHa":49.41,"shedId":"RB22"},"geometry":{"type":"MultiPolygon","coordinates":[[[[76.6891,11.1627],[76.6896,11.1627],[76.6895,11.1626],[76.6891,11.1627]]],[[[76.6898,11.1627],[76.6913,11.163],[76.6916,11.163],[76.6907,11.1627],[76.6898,11.1627]]],[[[76.67865,11.16335],[76.6788,11.1637],[76.6793,11.1641],[76.67865,11.16335]]],[[[76.6797,11.1643],[76.6795,11.1642],[76.6793,11.1641],[76.6797,11.1643]]],[[[76.6797,11.1643],[76.6816,11.1652],[76.6819,11.1652],[76.6822,11.1651],[76.6824,11.16495],[76.6818,11.1651],[76.681,11.1648],[76.6807,11.1645],[76.68,11.1643],[76.6797,11.1643]]],[[[76.6832,11.1646],[76.6854,11.1631],[76.6868,11.1624],[76.6875,11.1624],[76.6885,11.1627],[76.688,11.1624],[76.6873,11.1623],[76.6876,11.162],[76.6872,11.162],[76.6849,11.1632],[76.684,11.164],[76.6834,11.1641],[76.6826,11.1648],[76.6832,11.1646]]],[[[76.6733,11.1572],[76.6745,11.1576],[76.6751,11.1581],[76.6753,11.1585],[76.6763,11.1594],[76.6768,11.1604],[76.6784,11.1621],[76.6784,11.1625],[76.6786,11.1626],[76.6787,11.1624],[76.6786,11.1621],[76.6783,11.1619],[76.6779,11.1612],[76.6772,11.1608],[76.6772,11.1605],[76.6768,11.1601],[76.6764,11.1592],[76.6754,11.1583],[76.675,11.1577],[76.6742,11.1572],[76.6733,11.1572]]],[[[76.6697,11.1569],[76.6705,11.1566],[76.6712,11.1566],[76.6729,11.1571],[76.6727,11.157],[76.6729,11.1568],[76.6713,11.1564],[76.6695,11.1566],[76.6697,11.1569]]],[[[76.6689,11.1566],[76.6694,11.1567],[76.6694,11.1566],[76.6689,11.1566]]],[[[76.6683,11.1562],[76.6685,11.1561],[76.6684,11.1558],[76.6681,11.156],[76.6683,11.1562]]],[[[76.6486,11.1429],[76.6502,11.1449],[76.6521,11.1459],[76.653,11.146],[76.6541,11.1456],[76.655,11.1455],[76.6555,11.1457],[76.6566,11.147],[76.6583,11.1482],[76.6586,11.1482],[76.6595,11.1488],[76.6597,11.14925],[76.6595,11.1487],[76.6593,11.1485],[76.6581,11.1479],[76.6581,11.1474],[76.6588,11.1473],[76.658,11.1474],[76.6571,11.1471],[76.6563,11.1465],[76.6556,11.1455],[76.6544,11.1453],[76.6538,11.1454],[76.6534,11.1458],[76.652,11.1457],[76.65,11.1445],[76.6492,11.1433],[76.6486,11.1429]]],[[[76.659,11.1473],[76.6593,11.1475],[76.6602,11.1474],[76.6618,11.1478],[76.6617,11.1474],[76.6622,11.1472],[76.6609,11.1474],[76.6605,11.1474],[76.6602,11.1472],[76.659,11.1473]]],[[[76.6624,11.1472],[76.6632,11.1473],[76.6637,11.1478],[76.662,11.1478],[76.6641,11.1481],[76.6643,11.1482],[76.6643,11.1484],[76.6636,11.1488],[76.6647,11.1486],[76.666,11.1495],[76.6661,11.1494],[76.6666,11.1498],[76.6665,11.1499],[76.667,11.1504],[76.6674,11.1512],[76.6674,11.1517],[76.6669,11.1522],[76.6673,11.1523],[76.6673,11.1521],[76.6677,11.152],[76.6676,11.1509],[76.6671,11.15],[76.6647,11.1484],[76.6632,11.1471],[76.6624,11.1472]]],[[[76.6669,11.1522],[76.6664,11.1524],[76.6662,11.1527],[76.6662,11.1539],[76.6668,11.1554],[76.6671,11.1557],[76.6677,11.1559],[76.6677,11.1554],[76.6673,11.1554],[76.667,11.1551],[76.6665,11.1541],[76.6664,11.1527],[76.6669,11.1522]]],[[[76.6636,11.1488],[76.6619,11.1488],[76.6613,11.149],[76.6609,11.1494],[76.6618,11.149],[76.6636,11.1488]]],[[[76.6607,11.1495],[76.6606,11.1496],[76.6609,11.1494],[76.6607,11.1495]]],[[[76.6602,11.1496],[76.6598,11.1494],[76.65973,11.14933],[76.6598,11.1495],[76.6602,11.1496]]],[[[76.6091,11.1173],[76.6095,11.119],[76.6101,11.12],[76.6121,11.1209],[76.6134,11.1231],[76.6142,11.124],[76.6156,11.1241],[76.6162,11.1238],[76.6171,11.1221],[76.6179,11.1212],[76.6187,11.1209],[76.6196,11.121],[76.6217,11.1224],[76.6236,11.1242],[76.6241,11.1249],[76.6254,11.1258],[76.6261,11.1266],[76.627,11.1284],[76.6276,11.1289],[76.6283,11.1289],[76.6298,11.1283],[76.632,11.1283],[76.6331,11.1285],[76.6339,11.1306],[76.6347,11.1314],[76.6352,11.1316],[76.6362,11.1311],[76.6389,11.1292],[76.639,11.129],[76.6396,11.1287],[76.64,11.1287],[76.6411,11.1293],[76.6415,11.1298],[76.6422,11.1302],[76.6439,11.1334],[76.6453,11.1349],[76.6456,11.137],[76.6461,11.1371],[76.648,11.138],[76.6485,11.1385],[76.6486,11.1393],[76.6483,11.1398],[76.6476,11.1403],[76.6478,11.1406],[76.6475,11.1411],[76.6476,11.1412],[76.6475,11.1415],[76.6482,11.1424],[76.6477,11.1412],[76.6481,11.1406],[76.6481,11.1403],[76.6484,11.1402],[76.6489,11.1392],[76.6488,11.1385],[76.6482,11.1379],[76.6472,11.1374],[76.6471,11.1372],[76.6459,11.1369],[76.6457,11.1366],[76.6457,11.1357],[76.6455,11.1353],[76.6457,11.1353],[76.6456,11.1347],[76.6452,11.1342],[76.6449,11.1342],[76.6442,11.1336],[76.6443,11.1334],[76.6446,11.1335],[76.6446,11.1334],[76.644,11.133],[76.644,11.1327],[76.6428,11.1308],[76.6426,11.1301],[76.6405,11.1286],[76.64,11.1286],[76.6398,11.1284],[76.6393,11.1286],[76.6388,11.1289],[76.6379,11.1299],[76.6368,11.1299],[76.636,11.1311],[76.6355,11.1313],[76.6349,11.1312],[76.6342,11.1306],[76.6339,11.1301],[76.6335,11.1286],[76.6331,11.1284],[76.633,11.1281],[76.6297,11.1281],[76.6287,11.1286],[76.6271,11.1283],[76.6269,11.128],[76.6269,11.1275],[76.6259,11.1259],[76.6255,11.1255],[76.6251,11.1254],[76.6243,11.1248],[76.6243,11.1245],[76.6239,11.1242],[76.6236,11.1236],[76.6221,11.1225],[76.6218,11.122],[76.6203,11.121],[76.6199,11.1209],[76.6198,11.1207],[76.6184,11.1207],[76.6178,11.1212],[76.6171,11.1214],[76.6167,11.1219],[76.6162,11.1236],[76.6159,11.1238],[76.615,11.1239],[76.6142,11.1236],[76.6138,11.1232],[76.6133,11.1221],[76.6124,11.1209],[76.6103,11.1198],[76.6099,11.1194],[76.6095,11.1173],[76.6091,11.1173]]],[[[76.6081,11.1147],[76.6083,11.1152],[76.6085,11.115],[76.6081,11.1147]]],[[[76.6012,11.1135],[76.6009,11.1135],[76.6012,11.1132],[76.602,11.1127],[76.6041,11.1127],[76.6053,11.1129],[76.6049,11.1125],[76.6048,11.1127],[76.6041,11.1125],[76.6019,11.1125],[76.6017,11.1126],[76.6016,11.1129],[76.601,11.1131],[76.6007,11.1135],[76.6004,11.1135],[76.5999,11.1133],[76.5993,11.1118],[76.5996,11.1129],[76.6002,11.1138],[76.6012,11.1138],[76.6012,11.1135]]],[[[76.6014,11.1133],[76.6015,11.1132],[76.6012,11.1135],[76.6014,11.1133]]],[[[76.6053,11.113],[76.6073,11.1136],[76.6076,11.1138],[76.6074,11.1136],[76.6065,11.1132],[76.6053,11.113]]],[[[76.5984,11.1097],[76.5985,11.11],[76.599,11.1107],[76.599,11.1105],[76.5984,11.1097]]],[[[76.5934,11.1096],[76.5939,11.1096],[76.5939,11.1098],[76.5949,11.1098],[76.5956,11.1093],[76.5958,11.1089],[76.596,11.109],[76.5968,11.1084],[76.5975,11.1084],[76.5982,11.1088],[76.5977,11.1083],[76.5968,11.1081],[76.5964,11.1082],[76.5963,11.1084],[76.5962,11.1083],[76.5949,11.1095],[76.5945,11.1095],[76.5943,11.1097],[76.5932,11.1092],[76.5931,11.1093],[76.5934,11.1096]]],[[[76.5931,11.0963],[76.5929,11.0971],[76.5932,11.0968],[76.5931,11.0963]]],[[[76.5884,11.0936],[76.5894,11.0937],[76.5921,11.0931],[76.5926,11.0932],[76.5929,11.0935],[76.5926,11.0928],[76.5925,11.093],[76.5921,11.0928],[76.5916,11.0928],[76.5911,11.0932],[76.5908,11.0931],[76.5899,11.0935],[76.5881,11.0934],[76.5884,11.0936]]],[[[76.593,11.0937],[76.593,11.0936],[76.5929,11.0935],[76.593,11.0937]]],[[[76.59143,11.1079],[76.5921,11.1084],[76.5927,11.1089],[76.5917,11.1079],[76.59143,11.1079]]],[[[76.5914,11.1046],[76.5913,11.105],[76.5911,11.1053],[76.5914,11.105],[76.5914,11.1046]]],[[[76.591,11.1076],[76.591,11.1075],[76.5909,11.1075],[76.591,11.1076]]],[[[76.5912,11.1078],[76.5912,11.1077],[76.591,11.1076],[76.5912,11.1078]]],[[[76.5872,11.0921],[76.5873,11.0922],[76.587,11.0918],[76.5872,11.0921]]],[[[76.5865,11.0891],[76.5866,11.089],[76.5866,11.0889],[76.5865,11.0889],[76.5865,11.0891]]],[[[76.5787,11.0864],[76.581,11.0872],[76.582,11.0873],[76.5827,11.0873],[76.5852,11.0866],[76.5862,11.0868],[76.5864,11.087],[76.5862,11.0866],[76.5857,11.0863],[76.585,11.0864],[76.5833,11.0871],[76.5813,11.0871],[76.5787,11.0864]]],[[[76.5865,11.0874],[76.5865,11.0873],[76.5864,11.087],[76.5865,11.0874]]],[[[76.5774,11.0856],[76.57787,11.08587],[76.5774,11.0855],[76.5774,11.0856]]],[[[76.5781,11.086],[76.578,11.0859],[76.57793,11.0859],[76.5781,11.086]]],[[[76.5772,11.0835],[76.5771,11.0837],[76.5773,11.0833],[76.5772,11.0835]]],[[[76.5771,11.0821],[76.5771,11.082],[76.577,11.0817],[76.5771,11.0821]]],[[[76.5766,11.0806],[76.5767,11.0807],[76.5766,11.0805],[76.5766,11.0806]]],[[[76.5686,11.0801],[76.5718,11.0794],[76.5731,11.0788],[76.5742,11.0786],[76.5732,11.0784],[76.5725,11.0786],[76.5717,11.0793],[76.5694,11.0795],[76.5686,11.0801]]],[[[76.5742,11.0786],[76.5759,11.0795],[76.5762,11.0796],[76.5742,11.0786]]],[[[76.5659,11.0765],[76.5668,11.0771],[76.5659,11.0764],[76.5659,11.0765]]],[[[76.5668,11.0771],[76.5676,11.0778],[76.5671,11.0772],[76.5668,11.0771]]],[[[76.5611,11.0771],[76.5619,11.0768],[76.5619,11.0765],[76.5623,11.0765],[76.5625,11.0767],[76.5642,11.0755],[76.5648,11.0754],[76.5655,11.0756],[76.5644,11.0752],[76.5639,11.0754],[76.5635,11.0759],[76.5632,11.0758],[76.5626,11.0763],[76.5626,11.0765],[76.5622,11.0762],[76.5624,11.076],[76.5621,11.0759],[76.5613,11.0769],[76.5597,11.0768],[76.5597,11.077],[76.5601,11.0771],[76.5611,11.0771]]],[[[76.5578,11.0738],[76.5579,11.0744],[76.558,11.074],[76.5578,11.0738]]],[[[76.556,11.0688],[76.5568,11.0696],[76.55723,11.07007],[76.557,11.0696],[76.556,11.0688]]],[[[76.5574,11.07028],[76.5577,11.0709],[76.5576,11.071],[76.5577,11.072],[76.5579,11.0708],[76.5574,11.07028]]],[[[76.5576,11.0726],[76.5577,11.0727],[76.5576,11.0724],[76.5576,11.0726]]],[[[76.5538,11.0686],[76.555,11.0682],[76.5556,11.0684],[76.5555,11.068],[76.555,11.0677],[76.5546,11.0678],[76.5546,11.0681],[76.5532,11.0688],[76.5532,11.069],[76.5538,11.0686]]],[[[76.5492,11.0711],[76.5501,11.071],[76.5517,11.07],[76.5514,11.07],[76.5518,11.0695],[76.5523,11.0692],[76.5518,11.0694],[76.5513,11.0701],[76.5507,11.0705],[76.5506,11.0701],[76.5503,11.0704],[76.5506,11.0705],[76.5501,11.0709],[76.5492,11.0711]]],[[[76.5523,11.0692],[76.5528,11.069],[76.5531,11.0687],[76.5526,11.0687],[76.5523,11.0692]]],[[[76.5523,11.0696],[76.5523,11.0697],[76.5524,11.0696],[76.5523,11.0696]]],[[[76.5366,11.0659],[76.5365,11.0659],[76.5365,11.06595],[76.5366,11.0659]]],[[[76.5369,11.0657],[76.5366,11.0658],[76.5366,11.0659],[76.5369,11.0657]]],[[[76.5371,11.0657],[76.5378,11.0661],[76.5384,11.0671],[76.5396,11.0674],[76.5431,11.0691],[76.5465,11.0696],[76.5475,11.0702],[76.5466,11.0694],[76.5466,11.0691],[76.5464,11.0689],[76.5459,11.0689],[76.5459,11.0692],[76.5448,11.0692],[76.5415,11.0682],[76.5402,11.0675],[76.5386,11.067],[76.5373,11.0654],[76.5369,11.0657],[76.5371,11.0657]]],[[[76.5359,11.0726],[76.5359,11.0724],[76.5358,11.0727],[76.5359,11.0726]]],[[[76.5345,11.0944],[76.5351,11.0951],[76.5354,11.096],[76.5353,11.0952],[76.5349,11.0947],[76.5345,11.0944]]],[[[76.5339,11.0769],[76.5347,11.0764],[76.5349,11.0761],[76.5345,11.0763],[76.5342,11.0761],[76.5339,11.0769]]],[[[76.53083,11.08023],[76.5323,11.0799],[76.5326,11.0797],[76.5334,11.0787],[76.5334,11.0783],[76.5327,11.0793],[76.5319,11.0798],[76.5312,11.0799],[76.53083,11.08023]]]]}},{"type":"Feature","properties":{"system":"Inland Wetlands","origin":"Man-Made","kind":"Tanks/Ponds","areaHa":0.13,"shedId":"RB22"},"geometry":{"type":"Polygon","coordinates":[[[76.6981,11.1326],[76.6977,11.1325],[76.6976,11.1328],[76.698,11.1328],[76.6981,11.1326]]]}},{"type":"Feature","properties":{"system":"Inland Wetlands","origin":"Man-Made","kind":"Tanks/Ponds","areaHa":0.1,"shedId":"RB22"},"geometry":{"type":"Polygon","coordinates":[[[76.6985,11.1322],[76.6983,11.1324],[76.6985,11.1326],[76.6987,11.1323],[76.6985,11.1322]]]}},{"type":"Feature","properties":{"system":"Inland Wetlands","origin":"Man-Made","kind":"Tanks/Ponds","areaHa":0.12,"shedId":"RB22"},"geometry":{"type":"Polygon","coordinates":[[[76.6989,11.1324],[76.6988,11.1327],[76.6991,11.1329],[76.6992,11.1327],[76.6989,11.1324]]]}},{"type":"Feature","properties":{"system":"Inland Wetlands","origin":"Natural","kind":"River/Stream","areaHa":0.27,"shedId":"RB22"},"geometry":{"type":"MultiPolygon","coordinates":[[[[76.70905,11.23447],[76.70926,11.234],[76.7085,11.2352],[76.70905,11.23447]]],[[[76.70931,11.2339],[76.7093,11.2339],[76.7093,11.23392],[76.70931,11.2339]]],[[[76.70942,11.2337],[76.7094,11.2337],[76.7094,11.23374],[76.70942,11.2337]]],[[[76.7095,11.23356],[76.71,11.2324],[76.71005,11.2323],[76.7098,11.2326],[76.7095,11.23356]]],[[[76.71014,11.23218],[76.7106,11.2318],[76.7115,11.232],[76.7107,11.2317],[76.7103,11.2319],[76.71014,11.23218]]]]}},{"type":"Feature","properties":{"system":"Inland Wetlands","origin":"Man-Made","kind":"Tanks/Ponds","areaHa":0.11,"shedId":"RB22"},"geometry":{"type":"Polygon","coordinates":[[[76.6048,11.1116],[76.6046,11.1117],[76.6048,11.1119],[76.6052,11.1119],[76.6048,11.1116]]]}},{"type":"Feature","properties":{"system":"Inland Wetlands","origin":"Natural","kind":"Waterlogged","areaHa":0.75,"shedId":"RB22"},"geometry":{"type":"Polygon","coordinates":[[[76.6828,11.1313],[76.6821,11.1309],[76.6818,11.1314],[76.6818,11.1317],[76.6825,11.1319],[76.6828,11.1313]]]}},{"type":"Feature","properties":{"system":"Inland Wetlands","origin":"Man-Made","kind":"Reservoir","areaHa":103.12,"shedId":"RB22"},"geometry":{"type":"MultiPolygon","coordinates":[[[[76.6325,10.9717],[76.6327,10.9719],[76.6327,10.9718],[76.6325,10.9717]]],[[[76.6328,10.9719],[76.6326,10.9721],[76.6326,10.9723],[76.6328,10.9724],[76.6327,10.9726],[76.633,10.9727],[76.6327,10.9728],[76.6327,10.9731],[76.6329,10.9732],[76.634,10.973],[76.6343,10.9727],[76.6353,10.9731],[76.6355,10.9735],[76.6358,10.9735],[76.6359,10.9738],[76.636,10.9733],[76.6363,10.9733],[76.6369,10.9738],[76.6368,10.9741],[76.637,10.9743],[76.6367,10.9746],[76.6369,10.9748],[76.6374,10.9746],[76.6378,10.974],[76.6382,10.9738],[76.6386,10.9741],[76.6386,10.9743],[76.6381,10.9748],[76.639,10.9756],[76.6394,10.9756],[76.6401,10.9759],[76.6408,10.9759],[76.6413,10.9757],[76.6416,10.9758],[76.6417,10.9759],[76.6412,10.9764],[76.6413,10.9771],[76.641,10.9776],[76.6412,10.9777],[76.6417,10.9769],[76.6427,10.9768],[76.6434,10.9758],[76.6433,10.9753],[76.643,10.9749],[76.6432,10.9745],[76.6431,10.9741],[76.6434,10.9738],[76.6438,10.9738],[76.6444,10.9741],[76.6447,10.9737],[76.6446,10.9733],[76.6443,10.9732],[76.6443,10.9729],[76.645,10.9727],[76.6454,10.973],[76.6463,10.9731],[76.6466,10.9728],[76.6475,10.9728],[76.6478,10.9731],[76.648,10.9731],[76.6479,10.9728],[76.6487,10.9724],[76.6489,10.972],[76.6488,10.9716],[76.649,10.9714],[76.6495,10.9712],[76.6498,10.9714],[76.6497,10.971],[76.6499,10.9708],[76.6506,10.9707],[76.6507,10.9705],[76.6511,10.9706],[76.6516,10.9702],[76.6519,10.9695],[76.6524,10.969],[76.6528,10.9689],[76.6524,10.9686],[76.6523,10.9683],[76.6525,10.9681],[76.6525,10.9674],[76.6522,10.9668],[76.6517,10.9663],[76.6514,10.9656],[76.6516,10.9652],[76.6515,10.965],[76.6521,10.9643],[76.6521,10.964],[76.6523,10.9638],[76.653,10.9646],[76.6532,10.9652],[76.6541,10.9659],[76.6536,10.9667],[76.6542,10.9671],[76.6541,10.967],[76.6543,10.9668],[76.6541,10.9666],[76.6549,10.9666],[76.6543,10.9662],[76.654,10.9649],[76.6548,10.9647],[76.6548,10.9645],[76.6551,10.9644],[76.6553,10.9641],[76.6553,10.9638],[76.6561,10.9636],[76.6564,10.9633],[76.6572,10.963],[76.6575,10.9633],[76.6578,10.9632],[76.6581,10.9636],[76.6582,10.9635],[76.6577,10.9631],[76.6576,10.9627],[76.6568,10.9625],[76.6566,10.9622],[76.6566,10.9618],[76.6563,10.9614],[76.6561,10.962],[76.6559,10.9621],[76.656,10.9622],[76.6554,10.9625],[76.6552,10.9631],[76.6546,10.9637],[76.6542,10.9639],[76.6535,10.9638],[76.6534,10.963],[76.6537,10.9628],[76.6537,10.9624],[76.6533,10.9621],[76.653,10.9616],[76.653,10.9612],[76.6533,10.9602],[76.6538,10.9598],[76.6537,10.9591],[76.6535,10.959],[76.6531,10.9596],[76.6525,10.9596],[76.6521,10.9594],[76.6519,10.9581],[76.6515,10.9578],[76.6516,10.9572],[76.6518,10.9571],[76.6518,10.9567],[76.6509,10.9559],[76.6516,10.9569],[76.6514,10.9576],[76.6511,10.958],[76.6511,10.9583],[76.6513,10.9586],[76.6518,10.9588],[76.6518,10.959],[76.6516,10.9594],[76.6512,10.9596],[76.651,10.9605],[76.6506,10.9609],[76.65,10.9609],[76.6497,10.9612],[76.65,10.9612],[76.6502,10.9614],[76.6508,10.9614],[76.6513,10.9618],[76.6512,10.962],[76.6513,10.9625],[76.6515,10.9626],[76.6516,10.963],[76.6515,10.9633],[76.6513,10.9635],[76.6508,10.9635],[76.6508,10.9637],[76.65,10.9637],[76.6498,10.9633],[76.6496,10.9633],[76.6493,10.963],[76.649,10.9633],[76.6486,10.9632],[76.6482,10.9636],[76.6476,10.9637],[76.6477,10.9635],[76.647,10.9629],[76.6469,10.963],[76.6466,10.9627],[76.6461,10.9628],[76.6456,10.9626],[76.6462,10.9629],[76.6463,10.9633],[76.6467,10.9637],[76.6471,10.9645],[76.6477,10.9647],[76.6475,10.965],[76.6476,10.9651],[76.6482,10.9651],[76.6487,10.9645],[76.6493,10.9641],[76.6497,10.9643],[76.6503,10.9643],[76.6506,10.9646],[76.6506,10.9649],[76.6504,10.965],[76.6504,10.9659],[76.6506,10.9661],[76.6507,10.9667],[76.6503,10.9672],[76.6498,10.9672],[76.6499,10.9675],[76.6496,10.9679],[76.6493,10.968],[76.649,10.9678],[76.6491,10.9676],[76.6489,10.9676],[76.6485,10.968],[76.648,10.968],[76.647,10.9689],[76.647,10.9695],[76.6467,10.9697],[76.6457,10.9689],[76.6457,10.9686],[76.6461,10.968],[76.6458,10.9678],[76.6453,10.9679],[76.6453,10.9681],[76.6451,10.968],[76.6446,10.9682],[76.6444,10.968],[76.644,10.968],[76.6435,10.9683],[76.6428,10.9684],[76.6429,10.9686],[76.6437,10.9685],[76.6436,10.9689],[76.6449,10.97],[76.6448,10.9703],[76.6443,10.9701],[76.6443,10.9703],[76.6438,10.9707],[76.6445,10.9709],[76.6445,10.9719],[76.6431,10.9724],[76.6429,10.9726],[76.6426,10.9726],[76.6422,10.9723],[76.6421,10.9724],[76.6418,10.9721],[76.6416,10.9725],[76.6412,10.9728],[76.6409,10.9736],[76.6407,10.9737],[76.6397,10.9733],[76.6391,10.9736],[76.6385,10.9733],[76.6386,10.9729],[76.6382,10.9726],[76.6382,10.9724],[76.6378,10.9724],[76.6379,10.972],[76.6377,10.972],[76.6378,10.9719],[76.6376,10.9718],[76.6369,10.9719],[76.6366,10.9722],[76.6364,10.9721],[76.6363,10.9712],[76.6366,10.9709],[76.6362,10.9708],[76.6361,10.9705],[76.6357,10.9705],[76.6359,10.9713],[76.6353,10.9719],[76.6354,10.9722],[76.6345,10.9719],[76.6337,10.9721],[76.633,10.9721],[76.6328,10.9719]]],[[[76.6411,10.9728],[76.6413,10.9726],[76.6411,10.9725],[76.6411,10.9728]]],[[[76.6329,10.9717],[76.6328,10.9717],[76.6328,10.9718],[76.6329,10.9717]]]]}},{"type":"Feature","properties":{"system":"Inland Wetlands","origin":"Natural","kind":"River/Stream","areaHa":0.38,"shedId":"RB22"},"geometry":{"type":"MultiPolygon","coordinates":[[[[76.6546,10.967],[76.6548,10.9673],[76.655,10.9673],[76.6546,10.967]]],[[[76.6546,10.967],[76.6547,10.9668],[76.6546,10.9668],[76.6546,10.967]]],[[[76.655,10.9674],[76.6551,10.9674],[76.6552,10.9674],[76.6551,10.9673],[76.655,10.9674]]],[[[76.6554,10.9675],[76.6555,10.9675],[76.6553,10.9674],[76.6554,10.9675]]],[[[76.6555,10.9675],[76.6559,10.9676],[76.6562,10.9673],[76.6559,10.9675],[76.6555,10.9675]]],[[[76.6562,10.9673],[76.6567,10.9674],[76.6568,10.9673],[76.6566,10.9672],[76.6562,10.9673]]],[[[76.6566,10.9674],[76.6568,10.9679],[76.6566,10.9681],[76.6568,10.9681],[76.6569,10.9679],[76.6566,10.9674]]],[[[76.6565,10.9681],[76.6565,10.9682],[76.6566,10.9681],[76.6565,10.9681]]],[[[76.6564,10.9683],[76.6563,10.9682],[76.6562,10.9682],[76.6564,10.9683]]],[[[76.656,10.9681],[76.6559,10.968],[76.6559,10.9681],[76.656,10.9681]]],[[[76.6559,10.9681],[76.6558,10.9682],[76.6559,10.9682],[76.6559,10.9681]]],[[[76.6557,10.9683],[76.6557,10.9684],[76.6558,10.9683],[76.6557,10.9683]]],[[[76.6557,10.9684],[76.6556,10.9686],[76.6557,10.9687],[76.6557,10.9684]]],[[[76.6556,10.9689],[76.6557,10.9689],[76.6557,10.9688],[76.6556,10.9689]]],[[[76.6555,10.969],[76.6555,10.9691],[76.65555,10.969],[76.6555,10.969]]],[[[76.6554,10.9691],[76.6552,10.9692],[76.6551,10.9693],[76.6554,10.9691]]],[[[76.6551,10.9695],[76.6552,10.9695],[76.6551,10.9694],[76.6551,10.9695]]],[[[76.655,10.9696],[76.655,10.9698],[76.655,10.9699],[76.6551,10.9697],[76.655,10.9696]]],[[[76.6549,10.9701],[76.655,10.9701],[76.655,10.9699],[76.6549,10.9701]]],[[[76.655,10.9703],[76.6551,10.9704],[76.6551,10.9702],[76.655,10.9703]]],[[[76.6548,10.9705],[76.6548,10.9706],[76.6549,10.9705],[76.6548,10.9705]]],[[[76.6549,10.971],[76.6548,10.9712],[76.6549,10.9712],[76.6549,10.971]]],[[[76.6547,10.9713],[76.6548,10.9713],[76.6548,10.9712],[76.6547,10.9713]]]]}},{"type":"Feature","properties":{"system":"Inland Wetlands","origin":"Man-Made","kind":"Tanks/Ponds","areaHa":0.19,"shedId":"RB22"},"geometry":{"type":"Polygon","coordinates":[[[76.6929,11.0455],[76.6929,11.0458],[76.6934,11.0459],[76.6933,11.0455],[76.6929,11.0455]]]}}]}