{"nvdm":"1.0","dataset":"basins/wetlands","scope":{"kind":"basin","id":"palakkad-rivers"},"provenance":{"sources":[{"id":"ksrec-open-geoserver","title":"KSREC GeoServer (WFS): local-body boundaries, watershed atlas, wetlands, paddy, notified wetland parcels, flood extents and quarries of Kerala","publisher":"Kerala State Remote Sensing and Environment Centre (KSREC)","license":"No licence or terms are stated on the GeoServer (WFS capabilities: AccessConstraints NONE). Served with attribution to KSREC by the maintainer's decision; layers KSREC derived from OpenStreetMap (quarries, waterbodies) carry ODbL 1.0.","role":"input","url":"http://ksrec.in:9090/geoserver/ows"}],"method":"derived","produced_at":"2026-09-29","produced_by":"scripts/build_palakkad_rivers_basin.py","note":"Palakkad district's rivers, reservoirs, wetlands and groundwater (scope palakkad-rivers; the district's own scope id is kl-palakkad). The district is the union of its local bodies in KSREC's layer and the catchments (shedId) are the river basins of KSREC's watershed atlas cut to it. KSREC publishes no licence and its layers are served with attribution; its quarry layer is OpenStreetMap's (ODbL)."},"type":"FeatureCollection","features":[{"type":"Feature","properties":{"name":"Velli Ar","system":"Inland Wetlands","origin":"Natural","kind":"River/Stream","areaHa":1.69,"shedId":"RB23"},"geometry":{"type":"MultiPolygon","coordinates":[[[[76.3098,11.0467],[76.3099,11.0466],[76.3097,11.0467],[76.3098,11.0467]]],[[[76.31,11.0466],[76.3101,11.0465],[76.3099,11.0466],[76.31,11.0466]]],[[[76.3102,11.0465],[76.3102,11.0464],[76.3101,11.0465],[76.3102,11.0465]]],[[[76.3064,11.0471],[76.3063,11.0472],[76.3065,11.0471],[76.3064,11.0471]]],[[[76.3067,11.047],[76.3066,11.047],[76.3065,11.0471],[76.3067,11.047]]],[[[76.3068,11.047],[76.3069,11.0469],[76.307,11.0468],[76.3067,11.0468],[76.3068,11.047]]],[[[76.3072,11.0468],[76.3074,11.0468],[76.3075,11.0467],[76.3072,11.0468]]],[[[76.3076,11.0467],[76.3078,11.0467],[76.3079,11.0467],[76.3078,11.0466],[76.3076,11.0467]]],[[[76.308,11.0467],[76.3082,11.0468],[76.3086,11.0468],[76.308,11.0467]]],[[[76.306,11.0473],[76.306,11.0474],[76.3061,11.0473],[76.306,11.0473]]],[[[76.3056,11.0477],[76.3057,11.0476],[76.3056,11.0476],[76.3056,11.0477]]],[[[76.3049,11.0485],[76.3048,11.0485],[76.30453,11.04877],[76.3048,11.0487],[76.3049,11.0485]]],[[[76.295,11.0503],[76.2977,11.0495],[76.2993,11.0496],[76.2997,11.0495],[76.301,11.0487],[76.3019,11.0485],[76.3037,11.0488],[76.3036,11.0486],[76.3027,11.0484],[76.3012,11.0485],[76.3006,11.0487],[76.2996,11.0495],[76.2978,11.0493],[76.2958,11.05],[76.2953,11.05],[76.295,11.0503]]]]}},{"type":"Feature","properties":{"system":"Inland Wetlands","origin":"Natural","kind":"River/Stream","areaHa":0.09,"shedId":"RB23"},"geometry":{"type":"MultiPolygon","coordinates":[[[[76.3282,11.0202],[76.32833,11.02087],[76.3284,11.021],[76.3283,11.0202],[76.3282,11.0202]]],[[[76.3285,11.0214],[76.3284,11.0212],[76.3284,11.0215],[76.3285,11.0214]]],[[[76.3285,11.0223],[76.3286,11.0225],[76.3284,11.022],[76.3285,11.0223]]],[[[76.3286,11.0226],[76.3287,11.0226],[76.3286,11.0226],[76.3286,11.0226]]]]}},{"type":"Feature","properties":{"system":"Inland Wetlands","origin":"Natural","kind":"River/Stream","areaHa":0.23,"shedId":"RB23"},"geometry":{"type":"MultiPolygon","coordinates":[[[[76.3262,11.0161],[76.3263,11.0161],[76.3262,11.016],[76.3262,11.0161]]],[[[76.3265,11.0164],[76.3266,11.0164],[76.3264,11.0162],[76.3265,11.0164]]],[[[76.3266,11.0164],[76.3266,11.0166],[76.327,11.0171],[76.3266,11.0164]]],[[[76.32707,11.0173],[76.3272,11.0175],[76.327,11.0171],[76.32707,11.0173]]],[[[76.3273,11.0177],[76.3272,11.0175],[76.3272,11.0176],[76.3273,11.0177]]],[[[76.3273,11.0177],[76.3273,11.0179],[76.3274,11.018],[76.3273,11.0177]]],[[[76.3274,11.0181],[76.3274,11.0183],[76.3276,11.0187],[76.3274,11.0181]]],[[[76.3275,11.0188],[76.3276,11.0191],[76.3282,11.0192],[76.3277,11.019],[76.3276,11.0187],[76.3275,11.0188]]],[[[76.3285,11.0193],[76.3285,11.0192],[76.3282,11.0192],[76.3285,11.0193]]]]}},{"type":"Feature","properties":{"system":"Inland Wetlands","origin":"Natural","kind":"River/Stream","areaHa":0.37,"shedId":"RB23"},"geometry":{"type":"MultiPolygon","coordinates":[[[[76.3245,11.0105],[76.3246,11.0107],[76.3245,11.0104],[76.3245,11.0105]]],[[[76.3246,11.0103],[76.3247,11.0101],[76.3245,11.0104],[76.3246,11.0103]]],[[[76.3246,11.0108],[76.3244,11.011],[76.3245,11.0123],[76.3246,11.0108]]],[[[76.3246,11.0127],[76.3251,11.013],[76.3254,11.0135],[76.3259,11.0134],[76.3254,11.0134],[76.3251,11.0129],[76.3248,11.0128],[76.3245,11.0123],[76.3246,11.0127]]],[[[76.3259,11.0134],[76.3267,11.0134],[76.3269,11.0135],[76.3266,11.0133],[76.3259,11.0134]]]]}},{"type":"Feature","properties":{"system":"Inland Wetlands","origin":"Natural","kind":"River/Stream","areaHa":0.13,"shedId":"RB23"},"geometry":{"type":"MultiPolygon","coordinates":[[[[76.324,11.0072],[76.3245,11.0077],[76.3246,11.0081],[76.3247,11.0078],[76.324,11.0072]]],[[[76.3246,11.0082],[76.3245,11.0086],[76.3246,11.0087],[76.3246,11.0082]]],[[[76.3247,11.0088],[76.3249,11.0091],[76.3249,11.0089],[76.3247,11.0088]]]]}},{"type":"Feature","properties":{"system":"Inland Wetlands","origin":"Man-Made","kind":"Tanks/Ponds","areaHa":0.29,"shedId":"RB23"},"geometry":{"type":"Polygon","coordinates":[[[76.3456,11.0589],[76.3452,11.0593],[76.3456,11.0596],[76.3458,11.0594],[76.3458,11.0591],[76.3456,11.0589]]]}},{"type":"Feature","properties":{"system":"Inland Wetlands","origin":"Man-Made","kind":"Tanks/Ponds","areaHa":0.34,"shedId":"RB23"},"geometry":{"type":"Polygon","coordinates":[[[76.3531,11.0707],[76.3535,11.0704],[76.3535,11.0701],[76.3533,11.07],[76.3531,11.0703],[76.3528,11.0703],[76.3529,11.0707],[76.3531,11.0707]]]}},{"type":"Feature","properties":{"system":"Inland Wetlands","origin":"Natural","kind":"River/Stream","areaHa":1.45,"shedId":"RB23"},"geometry":{"type":"MultiPolygon","coordinates":[[[[76.4099,11.0887],[76.4106,11.0895],[76.4108,11.0904],[76.4109,11.091],[76.4101,11.092],[76.4101,11.0924],[76.411,11.0939],[76.4117,11.0959],[76.4117,11.0962],[76.4114,11.0966],[76.4115,11.0971],[76.4118,11.0963],[76.4118,11.0958],[76.4113,11.0947],[76.4112,11.094],[76.4102,11.0924],[76.4102,11.0922],[76.4104,11.0921],[76.411,11.0911],[76.411,11.0904],[76.4108,11.0898],[76.4103,11.0889],[76.4099,11.0887]]],[[[76.4115,11.0971],[76.4115,11.0974],[76.4116,11.0973],[76.4115,11.0971]]]]}},{"type":"Feature","properties":{"system":"Inland Wetlands","origin":"Natural","kind":"River/Stream","areaHa":7.88,"shedId":"RB23"},"geometry":{"type":"MultiPolygon","coordinates":[[[[76.3623,11.0478],[76.3624,11.0479],[76.3624,11.0477],[76.3623,11.0478]]],[[[76.3624,11.0476],[76.3626,11.0473],[76.3625,11.0469],[76.3624,11.0476]]],[[[76.3625,11.0469],[76.3626,11.0463],[76.3631,11.0459],[76.3637,11.0451],[76.3624,11.0464],[76.3625,11.0469]]],[[[76.3637,11.0451],[76.3638,11.0449],[76.364,11.0447],[76.3637,11.0449],[76.3637,11.0451]]],[[[76.364,11.0447],[76.3642,11.0445],[76.3642,11.0443],[76.364,11.0447]]],[[[76.3642,11.0443],[76.3648,11.0435],[76.3648,11.0434],[76.3642,11.0443]]],[[[76.3649,11.0434],[76.365,11.0432],[76.3645,11.0428],[76.3644,11.0429],[76.3649,11.0434]]],[[[76.3623,11.0483],[76.3625,11.0489],[76.3629,11.0492],[76.3639,11.0488],[76.3638,11.0487],[76.3635,11.0489],[76.3629,11.0489],[76.3623,11.0483]]],[[[76.3639,11.0487],[76.3642,11.0483],[76.3643,11.0475],[76.3645,11.0472],[76.3646,11.0467],[76.3645,11.0465],[76.3644,11.0467],[76.3645,11.047],[76.3643,11.047],[76.3644,11.0472],[76.3642,11.0475],[76.3641,11.0484],[76.3639,11.0487]]],[[[76.3644,11.0465],[76.3645,11.0463],[76.3644,11.0463],[76.3643,11.0463],[76.3644,11.0465]]],[[[76.3644,11.0463],[76.3646,11.0462],[76.3649,11.0462],[76.3644,11.0461],[76.3644,11.0463]]],[[[76.3649,11.0463],[76.365,11.0463],[76.3649,11.0462],[76.3649,11.0463]]],[[[76.3653,11.0464],[76.3653,11.0463],[76.3652,11.0464],[76.3653,11.0464]]],[[[76.3654,11.0465],[76.3655,11.0465],[76.3658,11.0467],[76.3656,11.0464],[76.3654,11.0465]]],[[[76.3658,11.0468],[76.3661,11.0471],[76.3661,11.0474],[76.3662,11.0472],[76.366,11.0468],[76.3658,11.0468]]],[[[76.3661,11.0474],[76.3662,11.0476],[76.3663,11.0476],[76.3661,11.0474]]],[[[76.3663,11.0476],[76.3666,11.0478],[76.3668,11.0478],[76.3663,11.0476]]],[[[76.3672,11.0477],[76.3674,11.0478],[76.3675,11.0477],[76.3672,11.0477]]],[[[76.3678,11.0475],[76.3676,11.0476],[76.3675,11.0477],[76.3678,11.0475]]],[[[76.368,11.0474],[76.368,11.0473],[76.3679,11.0474],[76.368,11.0474]]],[[[76.368,11.0473],[76.3688,11.0474],[76.3698,11.0474],[76.3686,11.0472],[76.368,11.0473]]],[[[76.3699,11.0474],[76.3706,11.0474],[76.3706,11.0473],[76.3699,11.0474]]],[[[76.3707,11.0474],[76.3706,11.0478],[76.3708,11.0481],[76.3707,11.0474]]],[[[76.3709,11.0481],[76.3708,11.0484],[76.3709,11.0484],[76.3709,11.0481]]],[[[76.3709,11.0485],[76.3706,11.0489],[76.3707,11.0492],[76.3709,11.0485]]],[[[76.3708,11.0494],[76.3716,11.0498],[76.3717,11.0498],[76.3707,11.0492],[76.3708,11.0494]]],[[[76.3717,11.0498],[76.3718,11.0501],[76.3728,11.0508],[76.3717,11.0498]]],[[[76.3728,11.0509],[76.3733,11.0514],[76.3734,11.0519],[76.3734,11.0512],[76.3728,11.0509]]],[[[76.3735,11.0521],[76.3735,11.052],[76.3734,11.0519],[76.3735,11.0521]]],[[[76.3735,11.0521],[76.3736,11.0524],[76.374,11.0529],[76.3736,11.0521],[76.3735,11.0521]]],[[[76.3741,11.0529],[76.374,11.0535],[76.3741,11.0536],[76.3741,11.0529]]],[[[76.3741,11.0537],[76.3745,11.0546],[76.3751,11.0549],[76.3758,11.056],[76.3756,11.0554],[76.3754,11.0553],[76.375,11.0546],[76.3746,11.0545],[76.3741,11.0537]]],[[[76.3758,11.056],[76.3761,11.0562],[76.3762,11.0563],[76.3762,11.0561],[76.3758,11.056]]],[[[76.3762,11.0563],[76.3763,11.0569],[76.3764,11.057],[76.3762,11.0563]]],[[[76.3764,11.0571],[76.3762,11.0571],[76.3762,11.0578],[76.3764,11.0571]]],[[[76.3762,11.0581],[76.3763,11.0587],[76.3764,11.0587],[76.3762,11.0581]]],[[[76.3765,11.0588],[76.3775,11.0598],[76.3783,11.0604],[76.3775,11.0595],[76.3765,11.0588]]],[[[76.3783,11.0604],[76.3787,11.0606],[76.3786,11.0604],[76.3783,11.0604]]],[[[76.379,11.0607],[76.3792,11.0607],[76.3789,11.0606],[76.379,11.0607]]],[[[76.3792,11.0607],[76.3796,11.0608],[76.3797,11.0606],[76.3792,11.0607]]],[[[76.3797,11.0605],[76.3799,11.0606],[76.38,11.0607],[76.3799,11.0605],[76.3797,11.0605]]],[[[76.3801,11.0607],[76.38,11.0609],[76.3801,11.061],[76.3801,11.0607]]],[[[76.3802,11.061],[76.3801,11.0614],[76.3802,11.0615],[76.3802,11.061]]],[[[76.3801,11.0617],[76.3801,11.0618],[76.3802,11.0615],[76.3801,11.0617]]],[[[76.38,11.0621],[76.3801,11.0621],[76.3801,11.062],[76.38,11.0621]]],[[[76.3801,11.0622],[76.3802,11.0623],[76.3801,11.0621],[76.3801,11.0622]]],[[[76.3803,11.0624],[76.3803,11.0623],[76.3802,11.0623],[76.3803,11.0624]]],[[[76.3803,11.0624],[76.3808,11.0627],[76.3814,11.0628],[76.3805,11.0624],[76.3803,11.0624]]],[[[76.3819,11.0629],[76.382,11.0629],[76.3818,11.0628],[76.3819,11.0629]]],[[[76.3824,11.0634],[76.3826,11.0637],[76.3821,11.063],[76.3824,11.0634]]],[[[76.3826,11.0637],[76.3827,11.0638],[76.3827,11.0637],[76.3826,11.0637]]],[[[76.3827,11.0638],[76.3831,11.0643],[76.3832,11.0643],[76.3827,11.0638]]],[[[76.3834,11.0645],[76.3843,11.0652],[76.385,11.0655],[76.3849,11.0653],[76.3842,11.0651],[76.384,11.0648],[76.3834,11.0645]]],[[[76.3848,11.0657],[76.3847,11.0659],[76.3848,11.0661],[76.3849,11.0659],[76.3848,11.0657]]],[[[76.3849,11.0663],[76.3849,11.0662],[76.3848,11.0662],[76.3849,11.0663]]],[[[76.3849,11.0663],[76.3852,11.0664],[76.385,11.0663],[76.3849,11.0663]]],[[[76.3855,11.0665],[76.3856,11.0665],[76.3852,11.0664],[76.3855,11.0665]]],[[[76.3856,11.0665],[76.3867,11.0664],[76.3869,11.0663],[76.3856,11.0665]]],[[[76.3872,11.0662],[76.3871,11.0662],[76.387,11.0663],[76.3872,11.0662]]],[[[76.3875,11.0662],[76.3878,11.0661],[76.3874,11.0661],[76.3875,11.0662]]],[[[76.3879,11.0661],[76.3881,11.066],[76.3886,11.0662],[76.3885,11.066],[76.3877,11.0659],[76.3879,11.0661]]],[[[76.3886,11.0662],[76.3887,11.0663],[76.3887,11.0662],[76.3886,11.0662]]],[[[76.3887,11.0664],[76.3888,11.0664],[76.3892,11.0665],[76.3889,11.0663],[76.3887,11.0664]]],[[[76.3895,11.0673],[76.3896,11.0674],[76.3897,11.0675],[76.3896,11.0672],[76.3895,11.0673]]],[[[76.3897,11.0675],[76.3897,11.0679],[76.39,11.0682],[76.3897,11.0675]]],[[[76.3899,11.0684],[76.39,11.0685],[76.39,11.0683],[76.3899,11.0684]]],[[[76.3901,11.0685],[76.39,11.0687],[76.3905,11.0689],[76.3901,11.0685]]],[[[76.3905,11.0689],[76.3909,11.0691],[76.3914,11.0691],[76.3905,11.0689]]],[[[76.3914,11.0692],[76.3915,11.0692],[76.3914,11.0691],[76.3914,11.0692]]],[[[76.3915,11.0693],[76.3916,11.0694],[76.3915,11.0692],[76.3915,11.0693]]],[[[76.3917,11.0695],[76.3916,11.0697],[76.3917,11.0697],[76.3917,11.0695]]],[[[76.3917,11.0697],[76.3918,11.0699],[76.3919,11.07],[76.3917,11.0697]]],[[[76.3919,11.0701],[76.392,11.0702],[76.3919,11.07],[76.3919,11.0701]]],[[[76.3921,11.0703],[76.3922,11.0703],[76.3921,11.0702],[76.3921,11.0703]]],[[[76.3922,11.0704],[76.3923,11.0704],[76.3924,11.0704],[76.3923,11.0703],[76.3922,11.0704]]],[[[76.3924,11.0704],[76.3926,11.0705],[76.3927,11.0704],[76.3924,11.0704]]],[[[76.3928,11.0703],[76.3929,11.0704],[76.3931,11.0704],[76.3928,11.0703]]],[[[76.3931,11.0704],[76.3932,11.0705],[76.3932,11.0704],[76.3931,11.0704]]],[[[76.3932,11.0705],[76.3936,11.0709],[76.3937,11.0709],[76.3935,11.0706],[76.3932,11.0705]]],[[[76.3938,11.071],[76.3939,11.071],[76.3937,11.0709],[76.3938,11.071]]],[[[76.3939,11.0711],[76.3941,11.0713],[76.3942,11.0713],[76.3939,11.0711]]],[[[76.3943,11.0713],[76.3949,11.0715],[76.3953,11.0718],[76.3949,11.0714],[76.3943,11.0713]]],[[[76.3954,11.0718],[76.3952,11.0723],[76.3953,11.0724],[76.3946,11.0731],[76.3943,11.0736],[76.3944,11.0737],[76.3946,11.0733],[76.3954,11.0725],[76.3955,11.0721],[76.3954,11.0718]]],[[[76.3945,11.0742],[76.3947,11.0743],[76.3944,11.0737],[76.3945,11.0742]]],[[[76.3947,11.0743],[76.3955,11.0746],[76.396,11.0749],[76.3958,11.0746],[76.3947,11.0743]]],[[[76.396,11.0749],[76.3961,11.0752],[76.3963,11.0753],[76.396,11.0749]]],[[[76.3963,11.0753],[76.3967,11.0759],[76.3967,11.0763],[76.397,11.0768],[76.3975,11.077],[76.3979,11.0769],[76.3987,11.0771],[76.3994,11.0779],[76.4,11.0781],[76.3993,11.0777],[76.399,11.0774],[76.399,11.0772],[76.3986,11.0769],[76.3971,11.0767],[76.3968,11.0763],[76.3968,11.0757],[76.3963,11.0753]]],[[[76.4001,11.0782],[76.4003,11.0785],[76.4016,11.0791],[76.4019,11.0795],[76.4021,11.0796],[76.4021,11.0802],[76.4023,11.0807],[76.4022,11.08],[76.4023,11.0798],[76.4016,11.0789],[76.4001,11.0782]]],[[[76.4023,11.0807],[76.4024,11.081],[76.4028,11.0813],[76.4023,11.0807]]],[[[76.4028,11.0813],[76.4032,11.0814],[76.4049,11.0828],[76.4036,11.0815],[76.4032,11.0813],[76.4028,11.0813]]],[[[76.405,11.083],[76.4051,11.08315],[76.4049,11.0828],[76.405,11.083]]],[[[76.4052,11.0833],[76.4057,11.0844],[76.4059,11.0847],[76.4057,11.084],[76.4052,11.0833]]],[[[76.4058,11.0848],[76.4062,11.0852],[76.4069,11.0867],[76.4085,11.0874],[76.4088,11.088],[76.4101,11.0887],[76.4097,11.0883],[76.409,11.088],[76.4089,11.0876],[76.4086,11.0873],[76.4077,11.0868],[76.4072,11.0867],[76.4068,11.0863],[76.4061,11.0849],[76.4059,11.0847],[76.4058,11.0848]]]]}},{"type":"Feature","properties":{"system":"Inland Wetlands","origin":"Natural","kind":"River/Stream","areaHa":9.32,"shedId":"RB23"},"geometry":{"type":"MultiPolygon","coordinates":[[[[76.3098,11.0466],[76.3099,11.0465],[76.3097,11.0466],[76.3098,11.0466]]],[[[76.3102,11.0464],[76.3104,11.0463],[76.3105,11.0461],[76.3102,11.0462],[76.3102,11.0464]]],[[[76.3105,11.046],[76.3108,11.046],[76.3108,11.0459],[76.3105,11.046]]],[[[76.3109,11.0459],[76.311,11.0458],[76.3108,11.0459],[76.3109,11.0459]]],[[[76.3111,11.0458],[76.3112,11.0456],[76.311,11.0457],[76.3111,11.0458]]],[[[76.3112,11.0456],[76.3114,11.0455],[76.3114,11.0454],[76.3112,11.0456]]],[[[76.3115,11.0454],[76.3119,11.0452],[76.3119,11.0451],[76.3114,11.0453],[76.3115,11.0454]]],[[[76.3119,11.0451],[76.3122,11.0451],[76.3124,11.0449],[76.3119,11.0451]]],[[[76.3124,11.0449],[76.3127,11.0447],[76.3129,11.0445],[76.3124,11.0449]]],[[[76.313,11.0445],[76.313,11.0444],[76.3129,11.0445],[76.313,11.0445]]],[[[76.313,11.0444],[76.3137,11.0439],[76.3137,11.0437],[76.313,11.0444]]],[[[76.3137,11.0437],[76.3146,11.043],[76.3154,11.043],[76.3145,11.0429],[76.3138,11.0435],[76.3137,11.0437]]],[[[76.3155,11.0431],[76.3164,11.0431],[76.3168,11.0429],[76.3168,11.0427],[76.3163,11.043],[76.3155,11.0431]]],[[[76.3168,11.0427],[76.3169,11.0422],[76.3167,11.0419],[76.3166,11.0421],[76.3168,11.0427]]],[[[76.3167,11.0418],[76.3161,11.0408],[76.3163,11.0399],[76.3162,11.0392],[76.316,11.0409],[76.3165,11.0418],[76.3167,11.0418]]],[[[76.3163,11.0392],[76.3166,11.0391],[76.3166,11.039],[76.3163,11.0392]]],[[[76.3166,11.039],[76.3168,11.039],[76.3169,11.0389],[76.3166,11.039]]],[[[76.3169,11.0389],[76.3177,11.039],[76.3179,11.0388],[76.3169,11.0389]]],[[[76.318,11.0388],[76.3185,11.0389],[76.3188,11.0388],[76.3184,11.0387],[76.318,11.0388]]],[[[76.3188,11.0388],[76.319,11.0388],[76.3189,11.0387],[76.3188,11.0388]]],[[[76.319,11.0388],[76.3194,11.0389],[76.3194,11.0388],[76.319,11.0387],[76.319,11.0388]]],[[[76.3195,11.0389],[76.3197,11.039],[76.32,11.0388],[76.3195,11.0389]]],[[[76.32,11.0388],[76.3202,11.0388],[76.3203,11.0386],[76.32,11.0388]]],[[[76.3204,11.0385],[76.3207,11.0386],[76.3208,11.0385],[76.3204,11.0385]]],[[[76.3208,11.0385],[76.321,11.0385],[76.321,11.0384],[76.3208,11.0385]]],[[[76.321,11.0383],[76.3212,11.0384],[76.3214,11.0383],[76.321,11.0383]]],[[[76.3215,11.0383],[76.3217,11.0385],[76.3218,11.0383],[76.3215,11.0383]]],[[[76.322,11.0383],[76.3222,11.0383],[76.3224,11.0382],[76.322,11.0383]]],[[[76.3226,11.0382],[76.3229,11.0381],[76.3233,11.0374],[76.3233,11.0365],[76.3231,11.0375],[76.3228,11.0381],[76.3226,11.0382]]],[[[76.3234,11.0365],[76.3236,11.0362],[76.3236,11.036],[76.3233,11.0364],[76.3234,11.0365]]],[[[76.3236,11.0359],[76.3241,11.0359],[76.3244,11.0357],[76.3238,11.0358],[76.3236,11.0359]]],[[[76.3245,11.0357],[76.3245,11.0356],[76.3244,11.0357],[76.3245,11.0357]]],[[[76.3245,11.0356],[76.3248,11.0355],[76.3249,11.0353],[76.3246,11.0354],[76.3245,11.0356]]],[[[76.3249,11.0352],[76.3251,11.0352],[76.3253,11.0351],[76.3249,11.0352]]],[[[76.3253,11.035],[76.3256,11.035],[76.3257,11.0349],[76.3253,11.035]]],[[[76.3257,11.0348],[76.3265,11.0349],[76.3265,11.0348],[76.3257,11.0348]]],[[[76.3265,11.0349],[76.3274,11.0352],[76.3278,11.0351],[76.3265,11.0349]]],[[[76.3278,11.035],[76.3281,11.0349],[76.328,11.0343],[76.328,11.0348],[76.3278,11.035]]],[[[76.328,11.0343],[76.328,11.0339],[76.3279,11.0339],[76.328,11.0343]]],[[[76.3279,11.0338],[76.328,11.0337],[76.3279,11.0337],[76.3279,11.0338]]],[[[76.328,11.0337],[76.3281,11.0335],[76.328,11.0335],[76.328,11.0337]]],[[[76.3282,11.0335],[76.3284,11.0333],[76.3292,11.0335],[76.3289,11.0332],[76.3282,11.0332],[76.3282,11.0335]]],[[[76.3292,11.0336],[76.3297,11.0345],[76.3297,11.0347],[76.3295,11.0348],[76.3296,11.0351],[76.3299,11.0352],[76.3302,11.0359],[76.3307,11.0361],[76.3313,11.0358],[76.3311,11.0357],[76.3309,11.0359],[76.3306,11.0359],[76.3303,11.0357],[76.3299,11.035],[76.3297,11.0339],[76.3293,11.0335],[76.3292,11.0336]]],[[[76.3313,11.0356],[76.3315,11.0356],[76.332,11.0355],[76.3314,11.0355],[76.3313,11.0356]]],[[[76.332,11.0355],[76.3327,11.0354],[76.3329,11.0352],[76.332,11.0355]]],[[[76.333,11.0352],[76.3333,11.0347],[76.3337,11.0346],[76.3332,11.0346],[76.3329,11.0351],[76.333,11.0352]]],[[[76.3337,11.0346],[76.3339,11.0346],[76.3339,11.0345],[76.3337,11.0346]]],[[[76.3339,11.0345],[76.3343,11.0345],[76.3343,11.0344],[76.3339,11.0345]]],[[[76.3344,11.0345],[76.3346,11.0346],[76.3347,11.0345],[76.3345,11.0344],[76.3344,11.0345]]],[[[76.3348,11.0345],[76.3351,11.0344],[76.3348,11.0344],[76.3348,11.0345]]],[[[76.3354,11.0345],[76.336,11.0344],[76.3364,11.034],[76.3354,11.0345]]],[[[76.3365,11.034],[76.3366,11.0338],[76.3365,11.0337],[76.3364,11.0338],[76.3365,11.034]]],[[[76.3365,11.0337],[76.3367,11.0336],[76.3366,11.0331],[76.3365,11.0337]]],[[[76.3367,11.033],[76.3367,11.0329],[76.3366,11.0331],[76.3367,11.033]]],[[[76.3367,11.0328],[76.3369,11.0328],[76.3372,11.0328],[76.3371,11.0327],[76.3367,11.0328]]],[[[76.3373,11.0328],[76.3371,11.0329],[76.3381,11.033],[76.3373,11.0328]]],[[[76.3382,11.033],[76.3387,11.033],[76.3389,11.0329],[76.3382,11.033]]],[[[76.3389,11.0329],[76.3405,11.0328],[76.3416,11.0319],[76.3422,11.0318],[76.3428,11.0315],[76.3421,11.0316],[76.3419,11.0318],[76.3411,11.032],[76.3408,11.0324],[76.3404,11.0326],[76.3389,11.0329]]],[[[76.3429,11.0315],[76.343,11.0314],[76.3428,11.0315],[76.3429,11.0315]]],[[[76.3431,11.0314],[76.3438,11.0308],[76.3448,11.0309],[76.345,11.0307],[76.3437,11.0307],[76.343,11.0313],[76.3431,11.0314]]],[[[76.3452,11.0306],[76.3455,11.0308],[76.3459,11.0306],[76.3452,11.0306]]],[[[76.3459,11.0306],[76.3461,11.0306],[76.3463,11.0305],[76.3459,11.0306]]],[[[76.3463,11.0305],[76.3467,11.0305],[76.3471,11.0303],[76.3463,11.0305]]],[[[76.3471,11.0303],[76.3473,11.0303],[76.3474,11.0302],[76.3471,11.0303]]],[[[76.3474,11.0302],[76.3482,11.0298],[76.3482,11.0297],[76.3474,11.0302]]],[[[76.3482,11.0297],[76.3487,11.0294],[76.3487,11.0293],[76.3483,11.0294],[76.3482,11.0297]]],[[[76.3488,11.0293],[76.3488,11.0292],[76.3487,11.0293],[76.3488,11.0293]]],[[[76.3488,11.0292],[76.349,11.0291],[76.349,11.029],[76.3488,11.0292]]],[[[76.349,11.029],[76.3491,11.0289],[76.3491,11.0288],[76.349,11.029]]],[[[76.3491,11.0288],[76.3495,11.0282],[76.3493,11.0282],[76.3493,11.028],[76.3496,11.0278],[76.3498,11.0273],[76.349,11.0282],[76.3492,11.0285],[76.3491,11.0288]]],[[[76.3498,11.0273],[76.3499,11.0272],[76.3498,11.0272],[76.3498,11.0273]]],[[[76.3499,11.0272],[76.3503,11.0269],[76.35,11.027],[76.3499,11.0272]]],[[[76.3503,11.0269],[76.3507,11.0268],[76.3508,11.0267],[76.3505,11.0267],[76.3503,11.0269]]],[[[76.3508,11.0267],[76.3512,11.0267],[76.3513,11.0266],[76.3508,11.0267]]],[[[76.3514,11.0265],[76.3521,11.0265],[76.3526,11.0259],[76.3536,11.0255],[76.3532,11.0255],[76.3524,11.0259],[76.3521,11.0263],[76.3514,11.0265]]],[[[76.3538,11.0255],[76.3542,11.0255],[76.3543,11.0254],[76.3538,11.0255]]],[[[76.3543,11.0254],[76.3552,11.0252],[76.3559,11.0252],[76.3551,11.0251],[76.3543,11.0254]]],[[[76.3559,11.0252],[76.3567,11.0257],[76.3569,11.0262],[76.3582,11.0277],[76.3585,11.0279],[76.3589,11.0279],[76.357,11.0262],[76.357,11.0261],[76.3565,11.0254],[76.3559,11.0252]]],[[[76.359,11.0279],[76.3594,11.0279],[76.3596,11.0277],[76.3599,11.0279],[76.36,11.0278],[76.3598,11.0276],[76.3595,11.0276],[76.359,11.0279]]],[[[76.36,11.028],[76.3602,11.0284],[76.3602,11.0286],[76.3603,11.0284],[76.36,11.028]]],[[[76.3602,11.0287],[76.3602,11.0294],[76.3603,11.0294],[76.3602,11.0287]]],[[[76.3602,11.0298],[76.36,11.0302],[76.36,11.0305],[76.3603,11.03],[76.3602,11.0298]]],[[[76.3599,11.0305],[76.3599,11.0308],[76.3598,11.0311],[76.36,11.0307],[76.3599,11.0305]]],[[[76.3598,11.0311],[76.3596,11.0315],[76.3597,11.0316],[76.3598,11.0311]]],[[[76.3597,11.0316],[76.359,11.0329],[76.359,11.0331],[76.3597,11.032],[76.3597,11.0316]]],[[[76.3589,11.03315],[76.3586,11.0335],[76.3586,11.0336],[76.3589,11.03315]]],[[[76.3585,11.0336],[76.3582,11.0345],[76.3585,11.0351],[76.3583,11.0345],[76.3585,11.0336]]],[[[76.3585,11.0351],[76.3583,11.0353],[76.3585,11.0359],[76.3585,11.0351]]],[[[76.3585,11.036],[76.3581,11.037],[76.3577,11.0375],[76.3577,11.0378],[76.3584,11.0386],[76.3591,11.0389],[76.3593,11.0392],[76.3599,11.0391],[76.3604,11.0395],[76.36,11.039],[76.3593,11.039],[76.3578,11.0379],[76.3578,11.0376],[76.3586,11.0363],[76.3585,11.036]]],[[[76.3605,11.0396],[76.3605,11.0395],[76.3604,11.0395],[76.3605,11.0396]]],[[[76.3605,11.0397],[76.3609,11.0404],[76.3612,11.0408],[76.3612,11.0405],[76.3605,11.0397]]],[[[76.3612,11.0408],[76.3614,11.0413],[76.3621,11.0421],[76.3625,11.0423],[76.363,11.0424],[76.3621,11.042],[76.3612,11.0408]]],[[[76.3632,11.0424],[76.3636,11.0425],[76.3644,11.0429],[76.3645,11.0428],[76.3636,11.0424],[76.3632,11.0424]]],[[[76.3061,11.0473],[76.3062,11.0473],[76.3062,11.0472],[76.3061,11.0473]]],[[[76.306,11.0475],[76.3057,11.0477],[76.3057,11.04778],[76.306,11.0475]]],[[[76.30497,11.0484],[76.3052,11.0482],[76.3052,11.0481],[76.30497,11.0484]]],[[[76.3053,11.048],[76.3055,11.0479],[76.3055,11.0478],[76.3053,11.048]]]]}},{"type":"Feature","properties":{"system":"Inland Wetlands","origin":"Man-Made","kind":"Tanks/Ponds","areaHa":0.09,"shedId":"RB23"},"geometry":{"type":"Polygon","coordinates":[[[76.3148,11.0453],[76.3147,11.0455],[76.3151,11.0456],[76.3151,11.0454],[76.3148,11.0453]]]}},{"type":"Feature","properties":{"system":"Inland Wetlands","origin":"Man-Made","kind":"Tanks/Ponds","areaHa":0.12,"shedId":"RB23"},"geometry":{"type":"Polygon","coordinates":[[[76.3259,11.0428],[76.3255,11.0428],[76.3257,11.0432],[76.3258,11.0432],[76.3259,11.0428]]]}},{"type":"Feature","properties":{"system":"Inland Wetlands","origin":"Man-Made","kind":"Tanks/Ponds","areaHa":0.12,"shedId":"RB23"},"geometry":{"type":"Polygon","coordinates":[[[76.3384,11.0385],[76.3382,11.0388],[76.3383,11.0389],[76.3386,11.0388],[76.3386,11.0386],[76.3384,11.0385]]]}},{"type":"Feature","properties":{"system":"Inland Wetlands","origin":"Man-Made","kind":"Tanks/Ponds","areaHa":0.1,"shedId":"RB23"},"geometry":{"type":"Polygon","coordinates":[[[76.3297,11.0236],[76.3295,11.0238],[76.3297,11.0239],[76.3297,11.0241],[76.3299,11.0241],[76.3297,11.0236]]]}},{"type":"Feature","properties":{"system":"Inland Wetlands","origin":"Man-Made","kind":"Tanks/Ponds","areaHa":0.11,"shedId":"RB23"},"geometry":{"type":"Polygon","coordinates":[[[76.3706,11.0521],[76.3702,11.0522],[76.3703,11.0524],[76.3707,11.0523],[76.3706,11.0521]]]}},{"type":"Feature","properties":{"system":"Inland Wetlands","origin":"Man-Made","kind":"Tanks/Ponds","areaHa":0.11,"shedId":"RB23"},"geometry":{"type":"Polygon","coordinates":[[[76.3756,11.0353],[76.3753,11.0356],[76.3754,11.0358],[76.3757,11.0355],[76.3756,11.0353]]]}},{"type":"Feature","properties":{"system":"Inland Wetlands","origin":"Man-Made","kind":"Tanks/Ponds","areaHa":0.13,"shedId":"RB23"},"geometry":{"type":"Polygon","coordinates":[[[76.3936,11.0468],[76.3932,11.0467],[76.3933,11.0471],[76.3936,11.047],[76.3936,11.0468]]]}},{"type":"Feature","properties":{"system":"Inland Wetlands","origin":"Man-Made","kind":"Tanks/Ponds","areaHa":0.18,"shedId":"RB23"},"geometry":{"type":"Polygon","coordinates":[[[76.3407,11.0073],[76.3407,11.0076],[76.3412,11.0076],[76.3412,11.0073],[76.3407,11.0073]]]}},{"type":"Feature","properties":{"system":"Inland Wetlands","origin":"Man-Made","kind":"Tanks/Ponds","areaHa":0.19,"shedId":"RB23"},"geometry":{"type":"Polygon","coordinates":[[[76.3632,11.0013],[76.3628,11.0013],[76.3628,11.0017],[76.3632,11.0017],[76.3632,11.0013]]]}},{"type":"Feature","properties":{"system":"Inland Wetlands","origin":"Man-Made","kind":"Tanks/Ponds","areaHa":0.33,"shedId":"RB23"},"geometry":{"type":"Polygon","coordinates":[[[76.3863,10.9998],[76.3867,10.9993],[76.3864,10.9991],[76.386,10.9994],[76.386,10.9996],[76.3863,10.9998]]]}},{"type":"Feature","properties":{"system":"Inland Wetlands","origin":"Man-Made","kind":"Tanks/Ponds","areaHa":0.1,"shedId":"RB23"},"geometry":{"type":"Polygon","coordinates":[[[76.3871,10.9951],[76.3872,10.9952],[76.3871,10.9955],[76.3873,10.9956],[76.3874,10.9952],[76.3871,10.9951]]]}},{"type":"Feature","properties":{"system":"Inland Wetlands","origin":"Man-Made","kind":"Tanks/Ponds","areaHa":0.1,"shedId":"RB23"},"geometry":{"type":"MultiPolygon","coordinates":[[[[76.3868,10.9952],[76.3867,10.9953],[76.3868,10.9953],[76.3868,10.9952]]],[[[76.3868,10.9954],[76.3866,10.9954],[76.3866,10.9957],[76.3869,10.9957],[76.3868,10.9954]]]]}},{"type":"Feature","properties":{"system":"Inland Wetlands","origin":"Man-Made","kind":"Tanks/Ponds","areaHa":0.48,"shedId":"RB23"},"geometry":{"type":"Polygon","coordinates":[[[76.3701,11.0115],[76.3695,11.0113],[76.3693,11.0115],[76.3693,11.0119],[76.3699,11.012],[76.3701,11.0115]]]}},{"type":"Feature","properties":{"system":"Inland Wetlands","origin":"Man-Made","kind":"Tanks/Ponds","areaHa":0.25,"shedId":"RB23"},"geometry":{"type":"Polygon","coordinates":[[[76.3865,11.0074],[76.3866,11.007],[76.3861,11.0071],[76.3859,11.0073],[76.3863,11.0075],[76.3865,11.0074]]]}},{"type":"Feature","properties":{"system":"Inland Wetlands","origin":"Man-Made","kind":"Tanks/Ponds","areaHa":0.19,"shedId":"RB23"},"geometry":{"type":"Polygon","coordinates":[[[76.3953,11.002],[76.3948,11.002],[76.3947,11.0024],[76.395,11.0024],[76.3953,11.002]]]}},{"type":"Feature","properties":{"system":"Inland Wetlands","origin":"Man-Made","kind":"Tanks/Ponds","areaHa":0.07,"shedId":"RB23"},"geometry":{"type":"Polygon","coordinates":[[[76.4001,11.0099],[76.4007,11.01],[76.4006,11.0098],[76.4001,11.0099]]]}},{"type":"Feature","properties":{"system":"Inland Wetlands","origin":"Man-Made","kind":"Tanks/Ponds","areaHa":0.17,"shedId":"RB23"},"geometry":{"type":"Polygon","coordinates":[[[76.3833,10.9767],[76.3826,10.9768],[76.3826,10.9769],[76.383,10.977],[76.3833,10.9769],[76.3833,10.9767]]]}},{"type":"Feature","properties":{"system":"Inland Wetlands","origin":"Man-Made","kind":"Tanks/Ponds","areaHa":0.38,"shedId":"RB23"},"geometry":{"type":"Polygon","coordinates":[[[76.3824,10.9771],[76.3825,10.9767],[76.382,10.9769],[76.3815,10.9768],[76.3814,10.977],[76.3816,10.9772],[76.3824,10.9771]]]}},{"type":"Feature","properties":{"name":"Velli Ar","system":"Inland Wetlands","origin":"Natural","kind":"River/Stream","areaHa":0.42,"shedId":"RB23"},"geometry":{"type":"MultiPolygon","coordinates":[[[[76.3062,11.0473],[76.306,11.0474],[76.306,11.0475],[76.3062,11.0473]]],[[[76.3063,11.0472],[76.3062,11.0472],[76.3062,11.0473],[76.3063,11.0472]]],[[[76.3063,11.0472],[76.3076,11.0468],[76.3084,11.0469],[76.3091,11.0468],[76.3075,11.0467],[76.3063,11.0472]]],[[[76.3095,11.0467],[76.3093,11.0467],[76.30923,11.04677],[76.3095,11.0467]]],[[[76.3096,11.0468],[76.3097,11.0467],[76.3098,11.0466],[76.3095,11.0467],[76.3096,11.0468]]],[[[76.3099,11.0466],[76.31,11.0465],[76.3098,11.0466],[76.3099,11.0466]]],[[[76.31,11.0465],[76.3102,11.0464],[76.31,11.0464],[76.31,11.0465]]],[[[76.3052,11.0482],[76.3049,11.0484],[76.3049,11.0485],[76.3052,11.0482]]],[[[76.3057,11.04778],[76.3055,11.0478],[76.3052,11.0482],[76.3057,11.04778]]]]}},{"type":"Feature","properties":{"system":"Inland Wetlands","origin":"Natural","kind":"River/Stream","areaHa":0.42,"shedId":"RB23"},"geometry":{"type":"MultiPolygon","coordinates":[[[[76.3062,11.0473],[76.306,11.0474],[76.306,11.0475],[76.3062,11.0473]]],[[[76.3063,11.0472],[76.3062,11.0472],[76.3062,11.0473],[76.3063,11.0472]]],[[[76.3063,11.0472],[76.3076,11.0468],[76.3084,11.0469],[76.3091,11.0468],[76.3075,11.0467],[76.3063,11.0472]]],[[[76.3095,11.0467],[76.3093,11.0467],[76.30923,11.04677],[76.3095,11.0467]]],[[[76.3096,11.0468],[76.3097,11.0467],[76.3098,11.0466],[76.3095,11.0467],[76.3096,11.0468]]],[[[76.3099,11.0466],[76.31,11.0465],[76.3098,11.0466],[76.3099,11.0466]]],[[[76.31,11.0465],[76.3102,11.0464],[76.31,11.0464],[76.31,11.0465]]],[[[76.3052,11.0482],[76.3049,11.0484],[76.3049,11.0485],[76.3052,11.0482]]],[[[76.3057,11.04778],[76.3055,11.0478],[76.3052,11.0482],[76.3057,11.04778]]]]}}]}