{"nvdm":"1.0","dataset":"basins/context-rivers","scope":{"kind":"basin","id":"cauvery-ka"},"provenance":{"sources":[{"title":"Named river centrelines above the Karnataka basin share (Hydrology_Layers.gpkg), clipped to the out-of-state upstream catchment - Cauvery Basin GIS package (GeoPackages, Aug 2026 delivery)","publisher":"Paani Earth Foundation","closed":true,"as_of":"2026-08","role":"input","license":"partner-supplied compilation, cited with attribution; underlying government layers as attributed per layer"}],"method":"derived","produced_at":"2026-08-27","produced_by":"scripts/build_basin_gpkg_layers.py (scripts/basin-sources/cauvery-ka-paani.json)"},"type":"FeatureCollection","features":[{"type":"Feature","geometry":{"type":"LineString","coordinates":[[76.07014,11.52273],[76.06891,11.51919],[76.06402,11.51647],[76.05989,11.51584],[76.05752,11.51441],[76.04997,11.51472],[76.0475,11.51534],[76.04537,11.51752],[76.04138,11.5184],[76.04004,11.52001],[76.03774,11.52031],[76.03802,11.52409],[76.03466,11.52652],[76.03502,11.5294],[76.03368,11.53178],[76.03492,11.53506],[76.03602,11.5362],[76.03706,11.53609],[76.03777,11.54002],[76.03914,11.54091],[76.03973,11.53957],[76.04087,11.53937],[76.04191,11.54224],[76.04303,11.54226],[76.04377,11.54369],[76.04249,11.54441],[76.04403,11.54627],[76.04311,11.54759],[76.04312,11.5497],[76.04182,11.55006],[76.04246,11.55184],[76.03977,11.55405],[76.04252,11.55568],[76.04275,11.55651],[76.04184,11.55609],[76.04068,11.55778],[76.03931,11.5577],[76.03892,11.55887],[76.03771,11.55846],[76.03474,11.56033],[76.03524,11.56365],[76.03446,11.56507],[76.03578,11.56625],[76.03367,11.56839],[76.03133,11.56925],[76.03081,11.57132],[76.03171,11.57241],[76.02948,11.5741],[76.02925,11.57536],[76.02811,11.57528],[76.0269,11.57366],[76.02394,11.57422],[76.02085,11.57358],[76.02232,11.57719],[76.02387,11.57535],[76.0251,11.57548],[76.02442,11.57962],[76.02607,11.57987],[76.02853,11.58275],[76.02484,11.58727],[76.02449,11.58847],[76.0251,11.58897],[76.02393,11.58973],[76.02372,11.59243],[76.02168,11.593],[76.02074,11.59023],[76.01939,11.59142],[76.01958,11.59333],[76.01767,11.59456],[76.0152,11.59848],[76.01598,11.60138],[76.0137,11.6013],[76.0115,11.60248],[76.01132,11.60338],[76.01231,11.60356],[76.01236,11.60445],[76.01068,11.60584],[76.01031,11.60717],[76.01084,11.60791],[76.01415,11.60824],[76.01268,11.61325],[76.01415,11.61479],[76.01106,11.61433],[76.00993,11.61554],[76.01087,11.61741],[76.00986,11.61969],[76.01116,11.62042],[76.01005,11.62405],[76.01086,11.62659],[76.00902,11.62684],[76.00917,11.62916],[76.00976,11.62983],[76.01255,11.62915],[76.01622,11.6302],[76.01639,11.6323],[76.01954,11.63223],[76.01966,11.63284],[76.01755,11.63412],[76.02068,11.63551],[76.01977,11.63727],[76.02196,11.63882],[76.0229,11.64125],[76.02698,11.64127],[76.02867,11.64279],[76.02284,11.64314],[76.02117,11.64551],[76.02483,11.64676],[76.02226,11.6484],[76.02571,11.65058],[76.02379,11.65267],[76.02593,11.65611],[76.02428,11.65536],[76.02433,11.657],[76.0254,11.6576],[76.02317,11.66088],[76.02572,11.66341],[76.02411,11.66393],[76.02411,11.66532],[76.02636,11.66696],[76.02448,11.66731],[76.02202,11.66495],[76.02116,11.66645],[76.01926,11.66729],[76.01981,11.66827],[76.02174,11.66897],[76.02139,11.67279],[76.0238,11.67388],[76.02429,11.67499],[76.02028,11.67494],[76.01827,11.6763],[76.01882,11.67825],[76.01732,11.67928],[76.02142,11.68232],[76.02202,11.68775],[76.02331,11.68844],[76.01892,11.68962],[76.02051,11.69078],[76.02097,11.69215],[76.02359,11.69291],[76.01994,11.69487],[76.02077,11.6967],[76.02033,11.70206],[76.01721,11.70205],[76.01404,11.6983],[76.01241,11.69958],[76.01541,11.7016],[76.01572,11.70365],[76.01438,11.70551],[76.01453,11.70658],[76.01774,11.7077],[76.01536,11.70885],[76.01511,11.7109],[76.02156,11.7077],[76.02396,11.70765],[76.02099,11.71009],[76.02332,11.71284],[76.02196,11.7172],[76.02482,11.71547],[76.02523,11.71747],[76.02686,11.71958],[76.02918,11.71887],[76.02984,11.71766],[76.03054,11.72057],[76.03351,11.72427],[76.03715,11.72653],[76.03812,11.72567],[76.03863,11.72267],[76.04236,11.72266],[76.04741,11.71882],[76.05071,11.71786],[76.05118,11.71906],[76.04997,11.72091],[76.0503,11.72205],[76.0545,11.7224],[76.0572,11.72427],[76.05872,11.72647],[76.05853,11.72733],[76.05467,11.72718],[76.05345,11.72827],[76.05709,11.73403],[76.06248,11.7367],[76.06425,11.73856],[76.06864,11.73898],[76.07121,11.7408],[76.07388,11.74139],[76.07597,11.74424],[76.07841,11.74309],[76.08012,11.74432],[76.08014,11.74565],[76.07717,11.74663],[76.07671,11.74886],[76.08087,11.75204],[76.08105,11.75289],[76.08024,11.75369],[76.07756,11.75346],[76.07686,11.75572],[76.08147,11.763],[76.0802,11.76691],[76.08097,11.76966],[76.07828,11.77113],[76.07622,11.76953],[76.07499,11.76971],[76.07121,11.77262],[76.06901,11.77332],[76.0686,11.77446],[76.06966,11.77955],[76.07292,11.78452],[76.07227,11.79003],[76.07668,11.79603],[76.07495,11.80035],[76.07908,11.8085],[76.08079,11.80926],[76.08546,11.80808],[76.08588,11.81281],[76.08927,11.81303],[76.09108,11.81471],[76.09147,11.81775],[76.09049,11.82234],[76.08793,11.8272],[76.08911,11.82918],[76.08922,11.83376],[76.09263,11.83541],[76.09488,11.83759],[76.09942,11.83768],[76.10192,11.83989],[76.1092,11.84067],[76.1176,11.84523]]},"properties":{"riverId":"kabini","name":"Kabini","role":"context","lengthKm":73.4}}]}