{"nvdm":"1.0","dataset":"basins/rivers","scope":{"kind":"basin","id":"cauvery-ka"},"provenance":{"sources":[{"title":"Named river centrelines (Hydrology_Layers.gpkg), mainstem + ten tributaries, clipped to the Karnataka basin share - Cauvery Basin GIS package (GeoPackages, Aug 2026 delivery)","publisher":"Paani Earth Foundation","closed":true,"as_of":"2026-08","role":"input","license":"partner-supplied compilation, cited with attribution; underlying government layers as attributed per layer"}],"method":"derived","produced_at":"2026-08-22","produced_by":"scripts/build_basin_gpkg_layers.py (scripts/basin-sources/cauvery-ka-paani.json)"},"type":"FeatureCollection","features":[{"type":"Feature","geometry":{"type":"MultiLineString","coordinates":[[[75.49233,12.39558],[75.50106,12.39162],[75.50285,12.39459],[75.50494,12.39434],[75.50728,12.39736],[75.51488,12.40064],[75.516,12.39992],[75.5175,12.40016],[75.51968,12.39878],[75.51929,12.39745],[75.52013,12.39622],[75.52274,12.39537],[75.52378,12.39328],[75.52734,12.38979],[75.52972,12.38784],[75.53197,12.38721],[75.53332,12.38448],[75.53676,12.38493],[75.5376,12.38333],[75.54265,12.37927],[75.54502,12.3783],[75.54594,12.37677],[75.54792,12.37648],[75.54835,12.37524],[75.54936,12.37496],[75.54973,12.37323],[75.55141,12.37348],[75.55185,12.37214],[75.55392,12.37285],[75.55383,12.37117],[75.55574,12.37142],[75.55809,12.37039],[75.55776,12.369],[75.56049,12.36842],[75.56248,12.36958],[75.56414,12.36828],[75.56582,12.36498],[75.56749,12.36569],[75.57006,12.36322],[75.57204,12.36451],[75.57257,12.36306],[75.57115,12.36094],[75.57203,12.35987],[75.5735,12.36017],[75.57292,12.36091],[75.57345,12.36267],[75.57528,12.36042],[75.57562,12.3585],[75.57805,12.35809],[75.57916,12.35962],[75.58148,12.35686],[75.58352,12.35795],[75.58422,12.35515],[75.58661,12.35542],[75.5891,12.35359],[75.58932,12.35247],[75.59365,12.35054],[75.59733,12.34751],[75.60121,12.34652],[75.60164,12.34528],[75.60272,12.34562],[75.60332,12.34452],[75.60501,12.34562],[75.60569,12.34341],[75.6085,12.34184],[75.60779,12.33955],[75.61118,12.33947],[75.61282,12.33824],[75.61296,12.33658],[75.61173,12.33624],[75.61041,12.33716],[75.60974,12.33626],[75.61434,12.33375],[75.61531,12.33235],[75.61643,12.33297],[75.61748,12.33721],[75.61955,12.33751],[75.61936,12.3339],[75.62089,12.33026],[75.62408,12.32996],[75.62544,12.33323],[75.6263,12.33334],[75.62883,12.33166],[75.63015,12.32856],[75.63279,12.3277],[75.63372,12.32876],[75.63142,12.33029],[75.63284,12.33163],[75.63246,12.33377],[75.63466,12.33733],[75.63601,12.33611],[75.63695,12.33298],[75.63899,12.33106],[75.64037,12.33073],[75.6417,12.33249],[75.64334,12.33238],[75.64547,12.32627],[75.64686,12.32726],[75.64741,12.33018],[75.64967,12.32982],[75.65559,12.33437],[75.65639,12.33383],[75.6566,12.33107],[75.65899,12.32993],[75.66459,12.32942],[75.66361,12.32667],[75.66535,12.32497],[75.66693,12.32458],[75.66763,12.32478],[75.66802,12.32666],[75.67061,12.32862],[75.66984,12.33085],[75.67131,12.33225],[75.67323,12.33236],[75.67657,12.33055],[75.67878,12.33158],[75.67835,12.33534],[75.68631,12.3286],[75.68814,12.32542],[75.6905,12.32629],[75.69091,12.33014],[75.69263,12.32915],[75.69414,12.32932],[75.6942,12.32814],[75.69236,12.32786],[75.6918,12.32644],[75.69504,12.32497],[75.6955,12.32282],[75.69819,12.32011],[75.69575,12.31587],[75.69771,12.31327],[75.69948,12.31562],[75.70109,12.31568],[75.70285,12.31405],[75.70284,12.31093],[75.70082,12.30967],[75.70314,12.30681],[75.70519,12.30679],[75.70884,12.31058],[75.70958,12.31055],[75.71083,12.3062],[75.71265,12.30504],[75.71609,12.2996],[75.72356,12.2982],[75.72497,12.29651],[75.72702,12.29571],[75.73725,12.29774],[75.7394,12.29868],[75.74064,12.30044],[75.74167,12.30031],[75.74157,12.2915],[75.73998,12.2904],[75.73875,12.28804],[75.74123,12.28808],[75.74943,12.28023],[75.74999,12.27493],[75.75153,12.27361],[75.75276,12.27425],[75.75151,12.27652],[75.75207,12.27892],[75.75976,12.28245],[75.76053,12.28173],[75.76041,12.27955],[75.7626,12.27723],[75.76839,12.27587],[75.77074,12.27679],[75.77346,12.2839],[75.77694,12.28564],[75.78158,12.29557],[75.78284,12.29687],[75.78755,12.29808],[75.79085,12.30257],[75.79504,12.30169],[75.79839,12.29761],[75.80295,12.29602],[75.80478,12.29108],[75.80982,12.29222],[75.81045,12.29362],[75.80939,12.29629],[75.80733,12.29862],[75.80711,12.30031],[75.81057,12.3002],[75.81436,12.30217],[75.81541,12.30387],[75.81621,12.3093],[75.82194,12.31547],[75.825,12.31427],[75.82934,12.31014],[75.83075,12.3076],[75.83052,12.30497],[75.82637,12.3018],[75.82756,12.29873],[75.83142,12.29875],[75.83221,12.30081],[75.83414,12.3016],[75.83562,12.30357],[75.83928,12.30435],[75.84222,12.30812],[75.84651,12.31017],[75.84852,12.30812],[75.84844,12.30707],[75.84705,12.30684],[75.84709,12.30549],[75.84985,12.30362],[75.85122,12.29823],[75.85265,12.29586],[75.85413,12.29547],[75.8552,12.29729],[75.85487,12.30148],[75.85731,12.30458],[75.86028,12.30476],[75.86437,12.30358],[75.86888,12.30611],[75.87446,12.30706],[75.88089,12.31141],[75.88383,12.31735],[75.88806,12.32061],[75.88778,12.32176],[75.88432,12.32468],[75.88334,12.32704],[75.879,12.33125],[75.87954,12.33346],[75.88421,12.33723],[75.88352,12.33989],[75.88418,12.34141],[75.89339,12.34092],[75.89337,12.34425],[75.89587,12.3473],[75.89829,12.3473],[75.90081,12.34552],[75.90349,12.34655],[75.90576,12.35531],[75.90503,12.35691],[75.90181,12.35758],[75.90097,12.35851],[75.89754,12.36743],[75.90282,12.36859],[75.90509,12.3722],[75.90953,12.3737],[75.91046,12.37663],[75.91425,12.38028],[75.91477,12.38379],[75.90982,12.39446],[75.90902,12.39817],[75.90941,12.40215],[75.91044,12.40514],[75.91468,12.4089],[75.91722,12.41472],[75.92314,12.42244],[75.92207,12.43005],[75.92481,12.43327],[75.9259,12.43747],[75.92836,12.43939],[75.92896,12.44078],[75.93371,12.43961],[75.9365,12.4374],[75.93783,12.4375],[75.93928,12.44384],[75.94098,12.44428],[75.94117,12.44583],[75.94668,12.44972],[75.95121,12.45066],[75.95704,12.45058],[75.96047,12.45175],[75.9638,12.45022],[75.96526,12.44811],[75.96808,12.44731],[75.97196,12.4501],[75.97236,12.45158],[75.96946,12.45344],[75.96791,12.45679],[75.96719,12.46517],[75.97211,12.47012],[75.97153,12.4711],[75.9684,12.47068],[75.96461,12.47373],[75.96416,12.4753],[75.96709,12.47781],[75.96713,12.48197],[75.96583,12.48399],[75.96092,12.48415],[75.95881,12.48969],[75.9622,12.49743],[75.96073,12.50518],[75.9628,12.50907],[75.96412,12.50992],[75.9709,12.51081],[75.97387,12.51415],[75.97373,12.5178],[75.97462,12.51968],[75.98157,12.52056],[75.98642,12.51929],[75.99327,12.52149],[75.9937,12.527],[75.99117,12.53241],[75.98749,12.53657],[75.98385,12.53872],[75.98299,12.54068],[75.98408,12.54392],[75.98601,12.54466],[75.99467,12.54047],[75.99882,12.54711],[75.99798,12.5511],[75.99106,12.55538],[75.99035,12.55871],[75.99127,12.5611],[75.99669,12.56278],[76.00014,12.55922],[76.00765,12.55477],[76.01063,12.55401],[76.01237,12.55448],[76.01169,12.56087],[76.01572,12.56348],[76.01794,12.56615],[76.01853,12.57157],[76.02132,12.57611],[76.02167,12.58474],[76.02285,12.58698],[76.02879,12.58956],[76.03443,12.59782],[76.04307,12.59715],[76.0451,12.59781],[76.04786,12.60378],[76.04648,12.60622],[76.04186,12.61064],[76.04197,12.61458],[76.04275,12.61585],[76.04977,12.61944],[76.0536,12.62327],[76.05489,12.62364],[76.05913,12.6223],[76.0606,12.619],[76.06392,12.61927],[76.07005,12.61362],[76.07751,12.6141],[76.08312,12.61192],[76.08661,12.60779],[76.08821,12.60731],[76.09132,12.6033],[76.09325,12.60201],[76.09964,12.60408],[76.10139,12.60369],[76.10391,12.60138],[76.10764,12.60137],[76.11572,12.60381],[76.11793,12.60615],[76.1213,12.60686],[76.12446,12.60624],[76.12588,12.60482],[76.12638,12.5983],[76.13096,12.59176],[76.12974,12.58654],[76.1316,12.58424],[76.13276,12.5853],[76.13949,12.58512],[76.15559,12.57873],[76.16938,12.58007],[76.1759,12.57818],[76.18208,12.57471],[76.18527,12.57186],[76.18335,12.5653],[76.17717,12.56208],[76.17598,12.55932],[76.18148,12.55389],[76.18184,12.54856],[76.18314,12.54618],[76.19363,12.54162],[76.19667,12.53884],[76.19879,12.53556],[76.20662,12.53502],[76.21402,12.52983],[76.21595,12.53035],[76.21888,12.53466],[76.22068,12.53584],[76.22556,12.53513],[76.23055,12.53075],[76.22553,12.52548],[76.2249,12.52273],[76.22644,12.52075],[76.2303,12.52164],[76.23599,12.52046],[76.24939,12.52267],[76.25403,12.51747],[76.25602,12.51711],[76.25897,12.51784],[76.26308,12.51517],[76.26445,12.51595],[76.27029,12.51601],[76.27124,12.51414],[76.28058,12.51146],[76.28474,12.50733],[76.28729,12.50658],[76.29198,12.50734],[76.29754,12.50567],[76.3001,12.50691],[76.30172,12.50974],[76.3039,12.51146],[76.30866,12.51011],[76.31482,12.50979],[76.31521,12.51118],[76.32024,12.51518],[76.32239,12.51624],[76.32502,12.51606],[76.32633,12.51473],[76.32572,12.51273],[76.32613,12.51032],[76.3335,12.50742],[76.33628,12.50541],[76.34212,12.50547],[76.34666,12.50332],[76.35174,12.50378],[76.35619,12.50182],[76.36118,12.50266],[76.36365,12.50214],[76.36761,12.49859],[76.37173,12.49756],[76.37699,12.4947],[76.38137,12.49385],[76.38271,12.49083],[76.38473,12.48869],[76.3905,12.48846],[76.39331,12.48146],[76.39118,12.4778],[76.38944,12.4722],[76.38948,12.47018],[76.39092,12.46873],[76.39478,12.46855],[76.39999,12.47053],[76.40142,12.47351],[76.40045,12.47844],[76.40418,12.48222],[76.41139,12.48694],[76.41168,12.49118],[76.40936,12.49753],[76.40999,12.50058],[76.41262,12.50577],[76.41169,12.51724],[76.41248,12.5217],[76.41365,12.52386],[76.41281,12.52604],[76.41645,12.53209],[76.42027,12.5334],[76.42777,12.52939],[76.43156,12.52616],[76.43974,12.51091],[76.44751,12.49914],[76.44678,12.4918],[76.44772,12.48846],[76.44924,12.48633],[76.45328,12.4834],[76.48071,12.47204],[76.48685,12.46784],[76.49917,12.45704],[76.50549,12.45324],[76.52271,12.44708],[76.56561,12.42672],[76.57108,12.42545],[76.57873,12.42577],[76.58717,12.42213]],[[77.19032,12.30812],[77.19342,12.30734],[77.20297,12.30816],[77.20966,12.30719],[77.21784,12.30772],[77.22106,12.30389],[77.2255,12.30311],[77.2277,12.30412],[77.22976,12.30709],[77.23247,12.3088],[77.23569,12.30796],[77.23988,12.30966],[77.24511,12.30763],[77.24737,12.30917],[77.26024,12.31264],[77.26252,12.31438],[77.26388,12.31444],[77.27661,12.3104],[77.27996,12.30835],[77.28271,12.30795],[77.28479,12.30485],[77.28769,12.30325],[77.29511,12.30349],[77.29831,12.29966],[77.30175,12.29794],[77.3044,12.29763],[77.30712,12.29818],[77.31174,12.30358],[77.31587,12.30614],[77.32583,12.30738],[77.32797,12.30632],[77.33081,12.30204],[77.34076,12.28297],[77.34297,12.28098],[77.349,12.27853],[77.36445,12.28339],[77.36952,12.28191],[77.38575,12.27944],[77.39936,12.2789],[77.40488,12.27989],[77.40971,12.282],[77.41563,12.28747],[77.41961,12.28937],[77.42649,12.28734],[77.43237,12.28698],[77.43367,12.28611],[77.435,12.28191],[77.43756,12.27793],[77.4397,12.27594],[77.44051,12.2685],[77.44194,12.26642],[77.44361,12.26665],[77.44651,12.26262],[77.44773,12.25796],[77.44814,12.25074],[77.44893,12.24952],[77.45536,12.24719],[77.45832,12.24857],[77.46068,12.24866],[77.46622,12.2437],[77.4683,12.24318],[77.46916,12.2439],[77.4741,12.24257],[77.47747,12.24078],[77.47894,12.23911],[77.48265,12.23248],[77.48263,12.22956],[77.47206,12.20978],[77.47204,12.20815],[77.47591,12.20566],[77.48711,12.2038],[77.49311,12.19726],[77.49777,12.1976],[77.50937,12.19529],[77.51569,12.19559],[77.51921,12.19464],[77.52333,12.1976],[77.52775,12.19912],[77.53116,12.19955],[77.5353,12.19883],[77.53852,12.19947],[77.54245,12.20323],[77.545,12.20459],[77.54714,12.20475],[77.56185,12.19839],[77.56379,12.19671],[77.56659,12.19628],[77.56883,12.19699],[77.57,12.19997],[77.57412,12.20112],[77.58036,12.19844],[77.58834,12.1996],[77.59785,12.19974],[77.59979,12.20045],[77.60222,12.20341],[77.60516,12.20526],[77.60988,12.20564],[77.61318,12.20487],[77.61775,12.20107],[77.62094,12.20003],[77.62634,12.20159],[77.63041,12.20154],[77.63548,12.19735],[77.63854,12.19662],[77.64749,12.19865],[77.65696,12.19943],[77.66028,12.19707],[77.66846,12.19634],[77.67731,12.19255],[77.6827,12.19185],[77.69709,12.18551],[77.70583,12.18312],[77.71128,12.1823],[77.72336,12.18253],[77.73072,12.17987],[77.73391,12.1768],[77.73487,12.17045],[77.73621,12.16754],[77.73756,12.16621],[77.74068,12.16569],[77.7441,12.16253],[77.74593,12.15907],[77.7466,12.15687],[77.74655,12.14716],[77.74991,12.13707],[77.75954,12.1291],[77.77088,12.12273],[77.77581,12.11786],[77.77621,12.11647],[77.77341,12.10938],[77.76715,12.10554],[77.76337,12.09811],[77.76295,12.09503],[77.76031,12.08909],[77.75872,12.08752],[77.75856,12.08449],[77.75651,12.0805],[77.74907,12.07401],[77.73738,12.06628],[77.73193,12.06355],[77.72739,12.06242],[77.72471,12.05729],[77.72062,12.05252],[77.71533,12.04217],[77.70882,12.03591],[77.70159,12.02269],[77.69554,12.01393],[77.67759,11.97317],[77.67402,11.96274],[77.67369,11.95986],[77.67469,11.95307],[77.67976,11.94974]],[[76.80904,12.3574],[76.81346,12.35688],[76.81636,12.35418],[76.81968,12.35346],[76.82477,12.34952],[76.82625,12.3429],[76.82917,12.33895],[76.83488,12.32692],[76.84731,12.31414],[76.85127,12.30787],[76.85238,12.30484],[76.85152,12.29962],[76.86049,12.29632],[76.86687,12.28933],[76.86918,12.28287],[76.87159,12.28066],[76.87171,12.27811],[76.87546,12.27124],[76.88698,12.25829],[76.89039,12.24946],[76.90165,12.23883],[76.90857,12.23003],[76.91226,12.217],[76.91615,12.21262],[76.92289,12.21187],[76.93392,12.21326],[76.94588,12.21653],[76.95408,12.22081],[76.9621,12.22152],[76.97739,12.22921],[76.98207,12.2326],[76.98731,12.23811],[76.99205,12.23996],[77.00976,12.24197],[77.02976,12.23256],[77.03329,12.22844],[77.03491,12.22491],[77.03528,12.21998],[77.03461,12.21837],[77.02748,12.21241],[77.0166,12.2084],[77.0121,12.1982],[77.00922,12.18718],[77.00878,12.17549],[77.01161,12.17226],[77.01772,12.1699],[77.0371,12.17353],[77.04542,12.17071],[77.04809,12.16863],[77.05066,12.16792],[77.05714,12.16736],[77.06065,12.16792],[77.07117,12.17412],[77.07265,12.17747],[77.07306,12.18386],[77.07529,12.18818],[77.07768,12.19087],[77.08342,12.19246],[77.0953,12.1883],[77.10324,12.18827],[77.12235,12.19779],[77.12585,12.20266],[77.13119,12.20775],[77.13218,12.21321],[77.13014,12.21941],[77.13383,12.22335],[77.13339,12.22798],[77.13038,12.23002],[77.12356,12.23809],[77.12359,12.24311],[77.12737,12.24718],[77.13113,12.24947],[77.13386,12.24988],[77.13814,12.24814],[77.14583,12.24972],[77.14642,12.25124],[77.14915,12.25267],[77.14983,12.25478],[77.15467,12.25776],[77.15731,12.25798],[77.1615,12.25674],[77.16811,12.25786],[77.16972,12.25889]],[[77.16972,12.25889],[77.16914,12.26468],[77.16472,12.27063],[77.16567,12.27517],[77.15959,12.28917],[77.16167,12.29276],[77.16956,12.29459],[77.17031,12.29998],[77.16795,12.30273],[77.16612,12.30793],[77.16637,12.30982],[77.16911,12.31027],[77.17138,12.30946],[77.17896,12.31055],[77.19032,12.30812]],[[76.6637,12.43026],[76.66932,12.42576],[76.67372,12.424],[76.67605,12.42152],[76.6792,12.42062],[76.67984,12.4158],[76.68289,12.41349],[76.68751,12.40583],[76.68846,12.40249],[76.69167,12.40084],[76.69453,12.39992],[76.69894,12.40007],[76.70543,12.40326],[76.70829,12.40175],[76.71021,12.40175],[76.71452,12.40466],[76.723,12.4069]],[[76.723,12.4069],[76.7251,12.40579],[76.72956,12.40586],[76.7387,12.4035],[76.75696,12.40594],[76.76574,12.4042],[76.77672,12.40428],[76.77867,12.40259],[76.7836,12.39398],[76.78886,12.38787]],[[76.6637,12.43026],[76.67086,12.42789],[76.67574,12.42758],[76.67953,12.42859],[76.68653,12.42791],[76.68886,12.42642],[76.6914,12.42608],[76.69863,12.42108],[76.71179,12.41989],[76.71853,12.41548],[76.723,12.4069]],[[77.16972,12.25889],[77.17264,12.26027],[77.17597,12.2646],[77.17708,12.27132],[77.17876,12.27393],[77.17972,12.27751],[77.17937,12.28098],[77.18032,12.28247],[77.18297,12.28392],[77.18352,12.28639],[77.18501,12.2877],[77.18506,12.29223],[77.19032,12.30812]],[[76.78886,12.38787],[76.7967,12.3854],[76.79772,12.38438],[76.79727,12.38081],[76.8008,12.37625],[76.80061,12.37477],[76.80446,12.36324],[76.80726,12.3588],[76.80904,12.3574]],[[76.78886,12.38787],[76.79056,12.38054],[76.79364,12.37688],[76.79563,12.36976],[76.79845,12.36549],[76.80079,12.36345],[76.8051,12.35721],[76.80904,12.3574]],[[76.62645,12.4227],[76.63454,12.42379],[76.65554,12.43147],[76.65852,12.43179],[76.6637,12.43026]],[[76.59752,12.41806],[76.60068,12.41488],[76.60617,12.4134],[76.61214,12.41732],[76.61644,12.41629],[76.61852,12.41724],[76.62248,12.41731],[76.62466,12.41927],[76.62645,12.4227]],[[76.61477,12.42054],[76.61182,12.42099],[76.61082,12.42572],[76.60903,12.42642],[76.59843,12.42268],[76.58717,12.42213]],[[76.59752,12.41806],[76.60532,12.4191],[76.60748,12.41768],[76.61016,12.41726],[76.61477,12.42054]],[[76.61477,12.42054],[76.61898,12.42339],[76.62645,12.4227]],[[76.58717,12.42213],[76.59263,12.41894],[76.59752,12.41806]]]},"properties":{"riverId":"cauvery","name":"Cauvery","kind":"mainstem","lengthKm":457.5}},{"type":"Feature","geometry":{"type":"MultiLineString","coordinates":[[[77.54903,13.29],[77.54987,13.28513],[77.5485,13.28364],[77.54576,13.28369],[77.54363,13.28231],[77.5428,13.27814],[77.54411,13.27664],[77.54382,13.27352],[77.54164,13.26739],[77.53864,13.26335],[77.53799,13.257],[77.53452,13.25842],[77.53123,13.25562],[77.52899,13.25552],[77.52614,13.24966],[77.52505,13.24259],[77.52923,13.22867],[77.52748,13.22498],[77.5257,13.2246],[77.52543,13.22236],[77.52647,13.22179],[77.52649,13.22031],[77.5252,13.21887],[77.52409,13.21902],[77.52372,13.21671],[77.52246,13.21573],[77.52213,13.21179],[77.5211,13.21139],[77.52078,13.20945],[77.52163,13.20872],[77.51715,13.20415],[77.5151,13.19927],[77.51265,13.19823],[77.50933,13.19419],[77.50602,13.18852],[77.50397,13.18835],[77.50263,13.18731],[77.50227,13.18544],[77.5016,13.18603],[77.50113,13.18511],[77.5,13.18544],[77.49886,13.1844],[77.49927,13.18375],[77.49834,13.18145],[77.49882,13.17866],[77.49699,13.17608],[77.49772,13.17596],[77.49767,13.17451],[77.49621,13.17461],[77.49624,13.17312],[77.49514,13.17248],[77.49534,13.16983],[77.49436,13.16833],[77.49297,13.16874],[77.49401,13.16649],[77.49287,13.16619],[77.49207,13.16271],[77.49097,13.16257],[77.4918,13.15924],[77.49081,13.15604],[77.49115,13.15403],[77.48872,13.1507],[77.48967,13.14742],[77.48874,13.14558],[77.48861,13.13794],[77.48702,13.13451],[77.48289,13.1326],[77.48219,13.12867],[77.48098,13.12777],[77.48067,13.12637],[77.4781,13.12505],[77.4779,13.12268],[77.47909,13.12079],[77.48033,13.12071],[77.47897,13.11908],[77.48047,13.11694],[77.48181,13.11651],[77.48192,13.11553],[77.4791,13.11437],[77.47832,13.11275],[77.47939,13.10989],[77.4772,13.10819],[77.477,13.10622],[77.47556,13.10608],[77.47373,13.10398],[77.47564,13.09976],[77.47443,13.09904],[77.474,13.09744],[77.4722,13.0972],[77.47278,13.09422],[77.46984,13.09201],[77.47021,13.08914],[77.46916,13.08797],[77.46844,13.0832],[77.46452,13.08134],[77.46219,13.07916],[77.462,13.07659],[77.46295,13.07399],[77.45912,13.07302],[77.45889,13.07152],[77.45751,13.07035],[77.45811,13.06872],[77.45715,13.06726],[77.45732,13.06608],[77.45133,13.05934],[77.4533,13.0566],[77.45071,13.05267],[77.45105,13.05078],[77.44608,13.04808],[77.44546,13.04604],[77.4462,13.04457],[77.44463,13.04083],[77.44315,13.03949],[77.44164,13.03982],[77.4404,13.03912],[77.43704,13.04019],[77.43488,13.03723],[77.43481,13.0352],[77.42995,13.03272],[77.43067,13.03005],[77.42884,13.02759],[77.43198,13.01957],[77.43287,13.01436],[77.43112,13.00681],[77.42727,13.00549],[77.4253,13.00174],[77.4228,13.00189],[77.42114,12.99882],[77.41836,12.99805],[77.41596,12.99363],[77.41417,12.99464],[77.41203,12.99334],[77.41224,12.99094],[77.41119,12.98821],[77.40698,12.9871],[77.40547,12.98971],[77.40409,12.99039],[77.40326,12.98887],[77.39344,12.98666],[77.39159,12.98858],[77.38995,12.99302],[77.38649,12.99351],[77.38186,12.99587],[77.37868,12.99381],[77.36708,12.99078],[77.36508,12.9872],[77.35909,12.98845],[77.35546,12.98418],[77.35442,12.97884],[77.35197,12.97498],[77.34173,12.97284],[77.33502,12.97047],[77.33432,12.96616],[77.33474,12.95598],[77.33409,12.95069],[77.33591,12.9363],[77.33651,12.91798],[77.33602,12.91143],[77.33562,12.91064],[77.32731,12.90856],[77.32412,12.90909],[77.32137,12.90837],[77.32461,12.90185],[77.32938,12.89535],[77.33569,12.88934],[77.33764,12.88605],[77.33758,12.88115],[77.33607,12.87548],[77.33709,12.87192],[77.3362,12.8691],[77.33684,12.85809],[77.33639,12.853],[77.33527,12.85048],[77.33091,12.84662],[77.32783,12.83386],[77.32767,12.82722],[77.32257,12.8134],[77.32044,12.81014],[77.31739,12.80741],[77.31678,12.80504],[77.31756,12.8012],[77.31555,12.79555],[77.31411,12.79283],[77.30651,12.78646],[77.29729,12.76252],[77.29557,12.75997],[77.29481,12.75661],[77.2877,12.74406],[77.28243,12.73889],[77.28181,12.73008],[77.27772,12.72719],[77.27676,12.72487],[77.27805,12.72264],[77.27683,12.71314],[77.27868,12.71042],[77.29807,12.69887],[77.30481,12.6911],[77.30836,12.68863],[77.31453,12.68598],[77.32047,12.679],[77.32573,12.67644],[77.33069,12.6706],[77.33452,12.66804],[77.33472,12.66551],[77.33649,12.66359],[77.34467,12.65662],[77.35241,12.64851],[77.35333,12.64603],[77.35939,12.64404],[77.36219,12.63886],[77.36533,12.63733],[77.37991,12.6232],[77.3893,12.61206],[77.39128,12.61092],[77.39396,12.60622],[77.39732,12.60406],[77.4002,12.60419],[77.40189,12.6011],[77.40476,12.59867],[77.40507,12.58701],[77.40756,12.57952],[77.40626,12.5725],[77.40771,12.56555],[77.4096,12.56451],[77.41592,12.56344],[77.42262,12.55993],[77.42756,12.55959],[77.43004,12.55572],[77.43005,12.5529],[77.42815,12.55069],[77.42799,12.5465],[77.42635,12.54347],[77.42452,12.53586],[77.42626,12.53316],[77.43215,12.52923],[77.43273,12.5277],[77.4311,12.52408],[77.43165,12.52204],[77.4365,12.51807],[77.43767,12.51549],[77.43751,12.51441],[77.43464,12.51207],[77.42891,12.51076],[77.42773,12.50957],[77.42875,12.50525],[77.43353,12.49901],[77.43564,12.49183],[77.43506,12.48939],[77.42701,12.48219],[77.42549,12.48039],[77.42537,12.47859],[77.42649,12.47663],[77.42977,12.47419],[77.43427,12.47339],[77.43663,12.47214],[77.4434,12.46108],[77.44855,12.45455],[77.45261,12.44544],[77.45064,12.43931],[77.44163,12.42621],[77.43757,12.41726],[77.43646,12.41262],[77.43031,12.40175],[77.43131,12.39554],[77.43672,12.39055],[77.43649,12.38705],[77.43454,12.38209],[77.43777,12.37678],[77.43493,12.36991],[77.43401,12.36919],[77.43421,12.36513],[77.43643,12.36256],[77.43648,12.35918],[77.44306,12.35745],[77.44444,12.35231],[77.44899,12.35077],[77.44801,12.34686],[77.4502,12.3431],[77.44989,12.33776],[77.45137,12.3338],[77.44992,12.32695],[77.4468,12.3222],[77.44796,12.32003],[77.44459,12.31787],[77.44368,12.31586],[77.44157,12.3146],[77.43945,12.30927],[77.4393,12.30356],[77.44088,12.29961],[77.44049,12.29576],[77.43619,12.29117],[77.43328,12.28944],[77.43237,12.28698]],[[77.65441,13.36795],[77.65311,13.3683],[77.64679,13.36576],[77.63921,13.36721],[77.63488,13.36603],[77.62892,13.36322],[77.62411,13.35727],[77.62135,13.35776],[77.61852,13.35458],[77.61735,13.35481],[77.6171,13.35575],[77.61115,13.3538],[77.60592,13.34842],[77.59601,13.34836]],[[77.5874,13.33042],[77.58694,13.32588],[77.58824,13.32441],[77.58635,13.31981],[77.58459,13.31877],[77.58432,13.31741],[77.57858,13.31796],[77.57538,13.31621],[77.57077,13.31618],[77.56862,13.31513],[77.56311,13.31549],[77.5582,13.31301],[77.55466,13.30807],[77.54769,13.30445]],[[77.68013,13.36363],[77.67679,13.3634],[77.66925,13.36476],[77.66193,13.36209],[77.65973,13.36388],[77.65737,13.36459],[77.6546,13.36779]],[[77.59545,13.34425],[77.59607,13.34269],[77.59532,13.33931],[77.59223,13.33459],[77.58889,13.33229]],[[77.54507,13.29928],[77.54578,13.29717]],[[77.54507,13.29928],[77.54578,13.29717]],[[77.54667,13.29474],[77.54705,13.29346]],[[77.54667,13.29474],[77.54705,13.29346]],[[77.54531,13.30048],[77.54507,13.29928]],[[77.54531,13.30048],[77.54507,13.29928]],[[77.54598,13.30212],[77.54554,13.30104]],[[77.54598,13.30212],[77.54554,13.30104]],[[77.54633,13.30312],[77.54598,13.30212]],[[77.54633,13.30312],[77.54598,13.30212]],[[77.546,13.29674],[77.54636,13.29574]],[[77.546,13.29674],[77.54636,13.29574]],[[77.54636,13.29574],[77.54667,13.29474]],[[77.54636,13.29574],[77.54667,13.29474]],[[77.54749,13.29257],[77.54798,13.29175]],[[77.54749,13.29257],[77.54798,13.29175]],[[77.54858,13.29079],[77.54903,13.29]],[[77.54858,13.29079],[77.54903,13.29]],[[77.54755,13.30431],[77.5469,13.30379]],[[77.54755,13.30431],[77.5469,13.30379]],[[77.54801,13.2917],[77.54841,13.29105]],[[77.54801,13.2917],[77.54841,13.29105]],[[77.5469,13.30379],[77.54655,13.30346]],[[77.5469,13.30379],[77.54655,13.30346]],[[77.54578,13.29717],[77.546,13.29674]],[[77.54578,13.29717],[77.546,13.29674]],[[77.54705,13.29346],[77.54725,13.29304]],[[77.54705,13.29346],[77.54725,13.29304]],[[77.54655,13.30346],[77.54633,13.30312]],[[77.54655,13.30346],[77.54633,13.30312]],[[77.54554,13.30104],[77.5454,13.30071]],[[77.54554,13.30104],[77.5454,13.30071]],[[77.54841,13.29105],[77.54858,13.29079]],[[77.54841,13.29105],[77.54858,13.29079]],[[77.54725,13.29304],[77.54738,13.29279]],[[77.54725,13.29304],[77.54738,13.29279]],[[77.5454,13.30071],[77.54531,13.30048]],[[77.5454,13.30071],[77.54531,13.30048]],[[77.54738,13.29279],[77.54749,13.29257]],[[77.54738,13.29279],[77.54749,13.29257]],[[77.54781,13.30459],[77.54769,13.30445]],[[77.54769,13.30445],[77.54755,13.30431]],[[77.54769,13.30445],[77.54755,13.30431]],[[77.54903,13.29],[77.54907,13.28991]],[[77.54798,13.29175],[77.54801,13.2917]],[[77.54798,13.29175],[77.54801,13.2917]]]},"properties":{"riverId":"arkavathi","name":"Arkavathi","kind":"tributary","lengthKm":172.2}},{"type":"Feature","geometry":{"type":"LineString","coordinates":[[76.1176,11.84523],[76.12026,11.84631],[76.12244,11.85019],[76.12712,11.8524],[76.12992,11.8525],[76.13388,11.85478],[76.13527,11.85748],[76.139,11.86005],[76.14573,11.86725],[76.15029,11.86727],[76.157,11.87104],[76.1653,11.86818],[76.173,11.87144],[76.18021,11.87085],[76.18822,11.87214],[76.19263,11.87064],[76.19988,11.86627],[76.20248,11.86246],[76.20591,11.86238],[76.20935,11.86664],[76.20961,11.86916],[76.20817,11.87085],[76.20542,11.87195],[76.20421,11.8738],[76.20421,11.87552],[76.20513,11.87628],[76.21347,11.87791],[76.21504,11.88027],[76.21537,11.88287],[76.21247,11.88517],[76.20662,11.88562],[76.20503,11.88714],[76.20512,11.89015],[76.20773,11.89413],[76.20808,11.89776],[76.21268,11.90567],[76.21226,11.90723],[76.20612,11.91409],[76.20608,11.91643],[76.20843,11.91804],[76.21226,11.91868],[76.21656,11.91654],[76.22018,11.91579],[76.22559,11.9106],[76.22801,11.90999],[76.22957,11.91066],[76.23464,11.91876],[76.23484,11.92847],[76.23637,11.93041],[76.24335,11.93111],[76.25042,11.92474],[76.25541,11.9246],[76.25819,11.9252],[76.26017,11.92785],[76.26153,11.93156],[76.26497,11.93374],[76.27251,11.93402],[76.28253,11.93296],[76.28658,11.93412],[76.28809,11.93681],[76.28865,11.94323],[76.2869,11.96159],[76.28478,11.96885],[76.2843,11.9765],[76.28468,11.97937],[76.28652,11.98142],[76.2901,11.98169],[76.29433,11.97949],[76.2965,11.97735],[76.30302,11.95755],[76.30555,11.95518],[76.30953,11.95494],[76.31242,11.95541],[76.317,11.96016],[76.31893,11.9751],[76.32206,11.97914],[76.32511,11.98132],[76.32975,11.98178],[76.33506,11.98112],[76.33929,11.9798],[76.35517,11.97213],[76.35838,11.97185],[76.36244,11.97865],[76.35925,11.98607],[76.3596,11.98792],[76.36171,11.98982],[76.36712,11.99175],[76.37237,11.9906],[76.37423,11.99068],[76.37609,11.99185],[76.3828,11.99073],[76.38717,11.99122],[76.38993,11.99253],[76.39319,11.9961],[76.39352,11.99735],[76.39265,11.99856],[76.38806,12.00055],[76.38539,12.00321],[76.38267,12.00441],[76.37926,12.00501],[76.37463,12.00446],[76.37244,12.00571],[76.37181,12.00707],[76.37302,12.01181],[76.37843,12.01544],[76.38361,12.02094],[76.3926,12.01986],[76.39584,12.01487],[76.39801,12.00637],[76.39945,12.00428],[76.40112,12.0044],[76.40263,12.00651],[76.40533,12.00753],[76.41132,12.00216],[76.41443,12.00136],[76.41869,12.00205],[76.42024,12.00543],[76.41461,12.01483],[76.40814,12.02069],[76.40829,12.02727],[76.40414,12.0332],[76.40302,12.03625],[76.4033,12.04025],[76.40751,12.04376],[76.40766,12.04637],[76.40688,12.04714],[76.40461,12.04725],[76.40188,12.05125],[76.40089,12.05829],[76.39845,12.06196],[76.39374,12.0662],[76.39096,12.07474],[76.38304,12.07657],[76.3816,12.07862],[76.38241,12.08155],[76.38483,12.0845],[76.393,12.08495],[76.39734,12.08419],[76.40059,12.08516],[76.40197,12.08668],[76.40197,12.08925],[76.39652,12.09272],[76.39507,12.09648],[76.39587,12.09835],[76.40655,12.09935],[76.41494,12.09784],[76.41783,12.09924],[76.41878,12.10057],[76.419,12.10295],[76.41599,12.1065],[76.41554,12.10878],[76.41597,12.11032],[76.4174,12.11141],[76.42478,12.11191],[76.4354,12.11835],[76.44111,12.11958],[76.46029,12.1149],[76.4662,12.11215],[76.46813,12.10638],[76.47133,12.10194],[76.47099,12.0971],[76.475,12.09545],[76.48421,12.09638],[76.48706,12.09783],[76.49379,12.10335],[76.49834,12.10517],[76.50543,12.10466],[76.51322,12.10224],[76.51773,12.10467],[76.51984,12.10491],[76.528,12.09994],[76.52938,12.10066],[76.53251,12.10644],[76.5382,12.11011],[76.54211,12.11142],[76.5443,12.11097],[76.55017,12.10677],[76.55108,12.10368],[76.55307,12.1023],[76.56216,12.10178],[76.56339,12.1021],[76.56439,12.10376],[76.5647,12.1153],[76.56885,12.11884],[76.57649,12.12065],[76.57843,12.11999],[76.58339,12.11607],[76.59093,12.11487],[76.59415,12.11518],[76.5988,12.11911],[76.60174,12.11997],[76.60937,12.11967],[76.61313,12.11817],[76.61663,12.11814],[76.62093,12.12154],[76.62909,12.12334],[76.63346,12.12586],[76.64389,12.12991],[76.64719,12.13488],[76.64812,12.14196],[76.65164,12.14682],[76.65844,12.15116],[76.66753,12.15254],[76.67217,12.15437],[76.67609,12.15299],[76.68035,12.15001],[76.68001,12.14707],[76.67508,12.14323],[76.67654,12.13774],[76.67943,12.13375],[76.68346,12.13014],[76.68747,12.12913],[76.69429,12.12231],[76.70082,12.12093],[76.70947,12.12696],[76.71128,12.13594],[76.71734,12.14076],[76.72147,12.14601],[76.72244,12.15109],[76.72606,12.15155],[76.73001,12.14988],[76.73166,12.14766],[76.73173,12.14515],[76.73359,12.14081],[76.74003,12.13686],[76.74162,12.1368],[76.74403,12.13791],[76.74633,12.14687],[76.75236,12.15353],[76.7557,12.15286],[76.75941,12.15351],[76.76325,12.15615],[76.76465,12.15954],[76.76592,12.16057],[76.76938,12.16155],[76.77546,12.16172],[76.77694,12.16325],[76.77733,12.16672],[76.77824,12.16765],[76.78318,12.16807],[76.78594,12.16477],[76.79177,12.16632],[76.79441,12.17367],[76.79691,12.17642],[76.79902,12.17759],[76.80455,12.17861],[76.80654,12.17998],[76.80708,12.18185],[76.80585,12.18537],[76.80642,12.18825],[76.80767,12.19006],[76.81174,12.19287],[76.8191,12.19561],[76.8263,12.20512],[76.83281,12.20832],[76.83555,12.21663],[76.83383,12.22629],[76.83415,12.22947],[76.83566,12.23319],[76.83708,12.23435],[76.83897,12.23438],[76.84844,12.23041],[76.85316,12.23141],[76.85896,12.23392],[76.86573,12.23498],[76.89044,12.23204],[76.89341,12.23095],[76.90031,12.2262],[76.90763,12.21971],[76.90952,12.21714],[76.91485,12.21355]]},"properties":{"riverId":"kabini","name":"Kabini","kind":"tributary","lengthKm":159.8}},{"type":"Feature","geometry":{"type":"LineString","coordinates":[[75.49656,13.16641],[75.49753,13.16075],[75.49656,13.15663],[75.50001,13.15411],[75.50083,13.15249],[75.50681,13.15205],[75.50842,13.14613],[75.50946,13.14638],[75.51067,13.14551],[75.51159,13.14371],[75.51352,13.14311],[75.51408,13.14382],[75.51566,13.1436],[75.51639,13.14496],[75.51886,13.14353],[75.51986,13.14628],[75.5226,13.14538],[75.52521,13.14717],[75.52585,13.14666],[75.52812,13.14717],[75.52797,13.14836],[75.53099,13.149],[75.5323,13.14855],[75.53266,13.14713],[75.53405,13.14762],[75.53566,13.14647],[75.53787,13.14621],[75.53975,13.14494],[75.54014,13.14334],[75.54189,13.14295],[75.54205,13.14072],[75.5408,13.1379],[75.54227,13.13572],[75.54497,13.13445],[75.55038,13.13371],[75.55088,13.13477],[75.55228,13.13522],[75.55526,13.13427],[75.55651,13.13685],[75.55869,13.13704],[75.55995,13.13875],[75.56086,13.13783],[75.5631,13.13791],[75.56489,13.13548],[75.56836,13.13627],[75.5686,13.1328],[75.57017,13.13262],[75.57388,13.1294],[75.57544,13.12991],[75.5772,13.12786],[75.57925,13.12846],[75.5809,13.1277],[75.58195,13.12895],[75.58318,13.12877],[75.58347,13.13027],[75.58454,13.13007],[75.58633,13.12801],[75.58802,13.12864],[75.58863,13.12786],[75.58796,13.12546],[75.58892,13.12353],[75.59071,13.12318],[75.59041,13.12174],[75.59149,13.12058],[75.59308,13.12145],[75.59495,13.12094],[75.59476,13.12226],[75.59357,13.12295],[75.59375,13.12367],[75.59478,13.12361],[75.59584,13.12245],[75.5958,13.12086],[75.59765,13.12049],[75.59851,13.11786],[75.60042,13.11687],[75.60094,13.11568],[75.60241,13.11569],[75.60186,13.1136],[75.60455,13.11211],[75.60488,13.11085],[75.6037,13.1075],[75.60556,13.10696],[75.60476,13.10448],[75.60355,13.10556],[75.60296,13.10528],[75.60385,13.10348],[75.60506,13.10294],[75.60372,13.10055],[75.60495,13.09829],[75.60775,13.09756],[75.60787,13.09582],[75.61133,13.09073],[75.61472,13.09118],[75.61668,13.09291],[75.61826,13.0908],[75.62028,13.0912],[75.62013,13.08911],[75.62192,13.08509],[75.6232,13.08479],[75.62506,13.08639],[75.62664,13.08381],[75.62859,13.08357],[75.62782,13.08146],[75.6291,13.07984],[75.62831,13.07764],[75.63652,13.07604],[75.64048,13.06857],[75.64321,13.06936],[75.64426,13.07164],[75.64606,13.0693],[75.64646,13.06643],[75.64862,13.06771],[75.65055,13.07028],[75.65303,13.06987],[75.65494,13.06701],[75.65731,13.06924],[75.65798,13.06803],[75.65735,13.06636],[75.65843,13.06443],[75.66157,13.06219],[75.66381,13.064],[75.67393,13.0674],[75.67712,13.06979],[75.67876,13.06898],[75.68067,13.06923],[75.68231,13.06627],[75.68852,13.06481],[75.69635,13.0686],[75.69718,13.06787],[75.69711,13.06452],[75.70277,13.06226],[75.7058,13.0595],[75.70691,13.06059],[75.70911,13.06014],[75.71098,13.05583],[75.7132,13.05518],[75.7148,13.05102],[75.71733,13.04791],[75.71823,13.04027],[75.71956,13.03905],[75.72277,13.0388],[75.72349,13.03474],[75.72602,13.03291],[75.72346,13.02971],[75.72376,13.02623],[75.72771,13.02376],[75.72952,13.01713],[75.73232,13.01595],[75.73332,13.013],[75.73711,13.01028],[75.73537,13.00436],[75.73709,13.00271],[75.74043,13.00204],[75.74214,13.00051],[75.74002,12.99584],[75.74074,12.99367],[75.74258,12.99323],[75.74628,12.99552],[75.74688,12.99427],[75.74537,12.99124],[75.74955,12.9896],[75.75271,12.98245],[75.7562,12.98001],[75.75851,12.9794],[75.76134,12.9754],[75.76457,12.97696],[75.76641,12.9753],[75.76569,12.96293],[75.76874,12.96008],[75.7677,12.95644],[75.76814,12.95543],[75.77195,12.95404],[75.77378,12.9498],[75.77659,12.94623],[75.77947,12.94818],[75.78153,12.95284],[75.78298,12.95343],[75.78912,12.9514],[75.79354,12.94657],[75.79428,12.9392],[75.79215,12.93692],[75.78725,12.93417],[75.78691,12.93167],[75.79228,12.92778],[75.7927,12.92173],[75.798,12.92213],[75.80164,12.91746],[75.80871,12.91074],[75.80959,12.90726],[75.80862,12.90426],[75.81222,12.90532],[75.8136,12.90476],[75.81371,12.90111],[75.81245,12.89936],[75.81278,12.89612],[75.81172,12.89386],[75.8133,12.89061],[75.81627,12.88804],[75.8158,12.8822],[75.81962,12.87906],[75.82055,12.87638],[75.8248,12.87437],[75.82693,12.86823],[75.83099,12.86544],[75.83203,12.86221],[75.8312,12.85829],[75.83167,12.85362],[75.83286,12.85357],[75.83295,12.85492],[75.83469,12.85587],[75.83765,12.85571],[75.83949,12.8518],[75.84322,12.84741],[75.84079,12.84329],[75.84628,12.83881],[75.84848,12.83828],[75.84895,12.83311],[75.8525,12.83356],[75.85415,12.83208],[75.85488,12.82745],[75.85273,12.82241],[75.8537,12.82081],[75.85689,12.81864],[75.86355,12.81916],[75.86931,12.82256],[75.87523,12.82308],[75.87729,12.82506],[75.87752,12.8277],[75.87702,12.82882],[75.87475,12.82868],[75.8744,12.83011],[75.87795,12.83354],[75.881,12.83397],[75.88443,12.83215],[75.89093,12.83084],[75.89414,12.82875],[75.89761,12.8295],[75.8996,12.82902],[75.90061,12.82749],[75.90075,12.82197],[75.90213,12.8189],[75.90394,12.81771],[75.90739,12.81701],[75.91047,12.81495],[75.91574,12.81872],[75.91733,12.81878],[75.91847,12.82011],[75.91668,12.82486],[75.91805,12.82791],[75.91968,12.82857],[75.92243,12.82404],[75.92601,12.8233],[75.92859,12.8211],[75.92603,12.81558],[75.9257,12.81306],[75.92712,12.8107],[75.93061,12.80762],[75.93399,12.80874],[75.94114,12.80768],[75.94649,12.80794],[75.94912,12.80458],[75.95388,12.80438],[75.96043,12.8028],[75.96735,12.80448],[75.97695,12.80367],[75.9845,12.80513],[75.99312,12.80268],[76.00013,12.80211],[76.01062,12.80362],[76.02195,12.80699],[76.03998,12.81736],[76.04508,12.82203],[76.04758,12.82268],[76.0538,12.82233],[76.05898,12.81856],[76.06308,12.81708],[76.06815,12.81704],[76.07198,12.81798],[76.07724,12.81761],[76.08102,12.81549],[76.08666,12.81671],[76.0946,12.81503],[76.10069,12.81624],[76.10258,12.81789],[76.10468,12.81812],[76.10687,12.82508],[76.10874,12.82592],[76.11254,12.82384],[76.11328,12.81996],[76.11434,12.81867],[76.11725,12.81803],[76.11991,12.81631],[76.12225,12.81639],[76.12596,12.81917],[76.13811,12.81987],[76.1445,12.81975],[76.14938,12.81783],[76.15278,12.82007],[76.1545,12.82287],[76.15485,12.82619],[76.15391,12.83041],[76.15468,12.83331],[76.16092,12.83454],[76.1668,12.83438],[76.17248,12.83152],[76.17419,12.82447],[76.17547,12.82316],[76.181,12.82469],[76.18379,12.82399],[76.18422,12.82164],[76.18199,12.81489],[76.18497,12.81097],[76.18686,12.8109],[76.1914,12.81253],[76.19537,12.81258],[76.20201,12.80998],[76.20823,12.81115],[76.2095,12.81074],[76.21096,12.80549],[76.21632,12.80014],[76.21688,12.7943],[76.21793,12.79284],[76.21892,12.79261],[76.22173,12.7942],[76.22431,12.7968],[76.22699,12.80158],[76.22948,12.80297],[76.23122,12.80285],[76.23206,12.80178],[76.23188,12.7996],[76.22895,12.79512],[76.22735,12.78895],[76.22745,12.78538],[76.22974,12.7842],[76.23756,12.78572],[76.24164,12.79335],[76.24497,12.79753],[76.24652,12.7978],[76.24885,12.79533],[76.25439,12.79313],[76.25926,12.79689],[76.25921,12.79887],[76.25741,12.79991],[76.25535,12.80337],[76.25408,12.8039],[76.25467,12.80949],[76.25198,12.81326],[76.25118,12.81669],[76.25199,12.82006],[76.25121,12.8232],[76.25258,12.82444],[76.25501,12.82428],[76.25988,12.82647],[76.26624,12.82646],[76.26739,12.8239],[76.26622,12.81899],[76.26681,12.81573],[76.26955,12.81418],[76.2782,12.81228],[76.28354,12.81309],[76.28928,12.81613],[76.29209,12.81812],[76.29568,12.82245],[76.29746,12.82262],[76.30112,12.82138],[76.30558,12.8233],[76.31655,12.82541],[76.31864,12.82658],[76.31955,12.82824],[76.3186,12.83133],[76.32025,12.84254],[76.32159,12.84409],[76.32368,12.8442],[76.32616,12.8458],[76.32744,12.84765],[76.32727,12.84951],[76.32459,12.85405],[76.32612,12.8562],[76.32793,12.85466],[76.33087,12.85454],[76.33298,12.85316],[76.33476,12.84741],[76.34025,12.84331],[76.34257,12.83917],[76.34566,12.83815],[76.35431,12.83876],[76.364,12.83672],[76.36956,12.83148],[76.37015,12.82987],[76.36725,12.82333],[76.36756,12.8215],[76.37041,12.81704],[76.37113,12.81283],[76.36835,12.80852],[76.36611,12.80766],[76.36139,12.8091],[76.35056,12.80876],[76.34289,12.81148],[76.3338,12.81237],[76.33063,12.81028],[76.33014,12.80188],[76.33203,12.79548],[76.33422,12.7913],[76.3345,12.78829],[76.33583,12.78623],[76.3393,12.78543],[76.34902,12.78684],[76.35071,12.78562],[76.34761,12.77935],[76.34792,12.77763],[76.35017,12.77479],[76.35053,12.77208],[76.34975,12.76922],[76.34877,12.76811],[76.34564,12.76812],[76.34291,12.76621],[76.34308,12.7603],[76.35405,12.7502],[76.36074,12.75112],[76.36926,12.74996],[76.37498,12.74813],[76.37544,12.74639],[76.37433,12.74348],[76.37057,12.74135],[76.3675,12.73752],[76.36724,12.73557],[76.36849,12.73283],[76.37277,12.73132],[76.38143,12.73452],[76.38871,12.73429],[76.3896,12.73331],[76.39153,12.72567],[76.39353,12.72552],[76.39773,12.72123],[76.40025,12.71186],[76.39857,12.70651],[76.39933,12.70522],[76.40145,12.70438],[76.40312,12.70016],[76.40603,12.69656],[76.41,12.68742],[76.41008,12.68509],[76.40832,12.68187],[76.40819,12.67977],[76.41482,12.67391],[76.4164,12.67086],[76.41585,12.66867],[76.41168,12.66499],[76.41099,12.66087],[76.40908,12.65781],[76.40625,12.65609],[76.39977,12.65478],[76.39934,12.64855],[76.39591,12.64061],[76.39716,12.63694],[76.40181,12.63337],[76.40482,12.63251],[76.41521,12.63328],[76.41684,12.63262],[76.41749,12.63139],[76.41715,12.62945],[76.41385,12.62643],[76.41291,12.62129],[76.40942,12.61742],[76.40837,12.61395],[76.40155,12.6091],[76.40084,12.60686],[76.40078,12.59579],[76.40737,12.5926],[76.4117,12.58833],[76.41442,12.58702],[76.4173,12.58735],[76.42291,12.59108],[76.43263,12.58616],[76.43388,12.58328],[76.43352,12.58108],[76.43503,12.57999],[76.43967,12.58217],[76.44553,12.58027],[76.44859,12.58158],[76.45367,12.58602],[76.45837,12.58707],[76.46066,12.58594],[76.46002,12.58267],[76.45676,12.57912],[76.45226,12.57197],[76.45277,12.56474],[76.45783,12.55761],[76.45691,12.55529],[76.45149,12.54796],[76.45042,12.54508],[76.45158,12.54365],[76.45868,12.54214],[76.4594,12.54111],[76.45937,12.53877],[76.45767,12.53652],[76.45312,12.53648],[76.4478,12.54001],[76.44405,12.54096],[76.44126,12.54039],[76.43968,12.53822],[76.44621,12.52483],[76.44534,12.52148],[76.44544,12.51756],[76.44871,12.50952],[76.44751,12.49914]]},"properties":{"riverId":"hemavathi","name":"Hemavathi","kind":"tributary","lengthKm":228.5}},{"type":"Feature","geometry":{"type":"LineString","coordinates":[[76.67439,13.37789],[76.66615,13.3753],[76.6649,13.37401],[76.66132,13.37304],[76.65815,13.37095],[76.6571,13.36858],[76.65746,13.36131],[76.65658,13.35912],[76.64698,13.35516],[76.64267,13.35098],[76.64153,13.3475],[76.63966,13.34792],[76.63825,13.34723],[76.63482,13.34161],[76.63456,13.33887],[76.63562,13.33632],[76.63889,13.33331],[76.64078,13.32924],[76.6407,13.32628],[76.63896,13.32333],[76.64281,13.31654],[76.64326,13.31],[76.64044,13.30958],[76.64007,13.30876],[76.64151,13.29769],[76.64472,13.29313],[76.64332,13.29199],[76.6442,13.29116],[76.64408,13.29004],[76.64518,13.29003],[76.65298,13.28051],[76.65614,13.27937],[76.65864,13.28042],[76.66315,13.27918],[76.66699,13.27978],[76.66721,13.27834],[76.67096,13.27821],[76.67249,13.27619],[76.67501,13.27496],[76.67529,13.27373],[76.67639,13.2735],[76.67686,13.26991],[76.67835,13.26982],[76.67801,13.26844],[76.67944,13.26794],[76.67952,13.26678],[76.68087,13.26581],[76.68066,13.2645],[76.68199,13.26296],[76.68188,13.26154],[76.68496,13.26],[76.686,13.25582],[76.68763,13.25435],[76.68692,13.24728],[76.68852,13.24573],[76.69312,13.24465],[76.69671,13.24194],[76.69859,13.24222],[76.70064,13.24072],[76.70368,13.24014],[76.70427,13.2387],[76.70746,13.2373],[76.71489,13.22957],[76.71853,13.22706],[76.72007,13.22377],[76.71786,13.2212],[76.71821,13.2181],[76.72003,13.21621],[76.7229,13.2164],[76.72677,13.21546],[76.72866,13.2108],[76.73231,13.20723],[76.73215,13.20488],[76.73432,13.20299],[76.73478,13.20153],[76.73777,13.20089],[76.73846,13.19857],[76.74171,13.19774],[76.74221,13.19696],[76.74246,13.19484],[76.73982,13.19271],[76.74036,13.1913],[76.73884,13.18891],[76.74009,13.18687],[76.74044,13.18355],[76.74271,13.18208],[76.74441,13.18222],[76.74603,13.18],[76.7468,13.18064],[76.74699,13.17928],[76.74843,13.17892],[76.75053,13.17663],[76.75346,13.17806],[76.75542,13.1779],[76.75614,13.17628],[76.7543,13.17474],[76.75488,13.17312],[76.75646,13.17274],[76.75836,13.174],[76.76106,13.17137],[76.76252,13.17118],[76.76522,13.1742],[76.76547,13.17545],[76.7694,13.17678],[76.77308,13.17613],[76.77555,13.17694],[76.77957,13.17422],[76.78145,13.17422],[76.7846,13.17611],[76.78707,13.17416],[76.78979,13.1753],[76.79522,13.17418],[76.79634,13.17635],[76.7983,13.17674],[76.79932,13.17837],[76.80139,13.17864],[76.80368,13.18105],[76.80578,13.18127],[76.81058,13.18386],[76.8141,13.184],[76.81552,13.18153],[76.81889,13.17938],[76.82047,13.1797],[76.82182,13.17901],[76.82258,13.17618],[76.82474,13.17889],[76.82699,13.17741],[76.8312,13.17746],[76.8315,13.17669],[76.83046,13.17534],[76.83116,13.17342],[76.83521,13.17168],[76.83399,13.16709],[76.83811,13.16387],[76.83902,13.1615],[76.84266,13.16067],[76.84063,13.1572],[76.84062,13.15304],[76.83832,13.15232],[76.83982,13.15018],[76.83968,13.14888],[76.83808,13.14784],[76.83567,13.14421],[76.83544,13.1423],[76.83661,13.13975],[76.83627,13.13791],[76.83359,13.13695],[76.83139,13.13479],[76.82838,13.13449],[76.82509,13.13267],[76.82361,13.12973],[76.82311,13.12334],[76.82516,13.12096],[76.82753,13.11518],[76.82577,13.1147],[76.82357,13.11642],[76.82214,13.11614],[76.82084,13.11193],[76.82134,13.10871],[76.82054,13.10766],[76.81641,13.10843],[76.81286,13.10686],[76.80942,13.10645],[76.80848,13.10423],[76.81024,13.09889],[76.80968,13.09561],[76.81079,13.09135],[76.81354,13.08824],[76.81476,13.08423],[76.81874,13.08312],[76.82067,13.08118],[76.82047,13.08],[76.81767,13.07958],[76.81521,13.07751],[76.81575,13.0753],[76.8177,13.07313],[76.81818,13.06927],[76.82392,13.06644],[76.82936,13.06618],[76.8327,13.06005],[76.83106,13.05581],[76.8337,13.05098],[76.83092,13.04257],[76.83166,13.04107],[76.83478,13.04015],[76.83601,13.03691],[76.83447,13.0346],[76.83471,13.0324],[76.83296,13.03085],[76.83252,13.02523],[76.82968,13.02185],[76.82916,13.01868],[76.83027,13.01652],[76.83316,13.01477],[76.83768,13.01517],[76.83897,13.01297],[76.83603,13.00905],[76.83597,13.00413],[76.83345,13.00258],[76.82864,13.00123],[76.8263,12.99893],[76.82911,12.99804],[76.83459,12.99311],[76.84321,12.98758],[76.8451,12.98361],[76.85081,12.98035],[76.85144,12.97854],[76.85107,12.97539],[76.84904,12.97453],[76.83977,12.97422],[76.83884,12.97233],[76.83921,12.96865],[76.84293,12.96624],[76.86155,12.96453],[76.86508,12.96304],[76.86975,12.95433],[76.87399,12.95195],[76.8756,12.95006],[76.87707,12.93237],[76.88697,12.9347],[76.88837,12.93463],[76.88869,12.93358],[76.89167,12.93338],[76.89384,12.92369],[76.8983,12.91908],[76.89875,12.91094],[76.89819,12.90939],[76.88709,12.90605],[76.88518,12.9041],[76.88601,12.90174],[76.88816,12.89937],[76.88929,12.88983],[76.89247,12.88178],[76.89239,12.87896],[76.8936,12.87449],[76.89272,12.87292],[76.89371,12.86874],[76.89158,12.86845],[76.89219,12.85988],[76.89074,12.85041],[76.89131,12.84835],[76.89982,12.84655],[76.9022,12.84219],[76.90206,12.83941],[76.90624,12.83491],[76.90684,12.82786],[76.90789,12.82602],[76.91045,12.8236],[76.91451,12.82407],[76.91532,12.82197],[76.9174,12.82034],[76.91687,12.81492],[76.92021,12.81101],[76.92217,12.80475],[76.92891,12.80084],[76.93381,12.79937],[76.94035,12.80385],[76.94264,12.80462],[76.95104,12.80011],[76.9595,12.80287],[76.96981,12.80187],[76.97294,12.80264],[76.97648,12.79216],[76.98443,12.79069],[76.99138,12.78723],[76.99301,12.78523],[76.99391,12.78221],[76.99958,12.77706],[76.99963,12.77559],[76.99812,12.774],[76.99024,12.76954],[76.98662,12.76597],[76.98388,12.76469],[76.98302,12.76307],[76.98474,12.76018],[76.98992,12.75601],[76.99034,12.7547],[76.98893,12.75118],[76.98352,12.7477],[76.98529,12.74268],[76.98826,12.73958],[77.0001,12.73699],[77.00308,12.73557],[77.00383,12.73386],[77.0035,12.73115],[77.00203,12.72903],[76.99119,12.72463],[76.99013,12.723],[76.99031,12.7208],[76.99311,12.717],[76.99604,12.71471],[77.0022,12.71426],[77.00922,12.71065],[77.01102,12.70699],[77.02116,12.70446],[77.02155,12.69746],[77.02407,12.69543],[77.0251,12.69075],[77.0263,12.69114],[77.02834,12.68967],[77.02981,12.68521],[77.03172,12.68403],[77.03462,12.68413],[77.04319,12.6819],[77.04501,12.6791],[77.04486,12.67629],[77.04192,12.67274],[77.04014,12.66642],[77.04192,12.65817],[77.04177,12.65589],[77.03999,12.65169],[77.04007,12.64899],[77.04371,12.63436],[77.04323,12.63161],[77.04116,12.62931],[77.04074,12.62741],[77.04129,12.62508],[77.04351,12.62209],[77.0529,12.61494],[77.05713,12.6079],[77.05798,12.60044],[77.05604,12.59862],[77.05559,12.59616],[77.06056,12.59132],[77.06321,12.58707],[77.06358,12.58412],[77.06153,12.57751],[77.06426,12.57262],[77.0645,12.56944],[77.06242,12.56443],[77.06191,12.56105],[77.06404,12.5557],[77.06916,12.55259],[77.06942,12.5487],[77.06822,12.54681],[77.06823,12.54521],[77.07142,12.53325],[77.07054,12.52466],[77.07842,12.51594],[77.08287,12.49979],[77.09141,12.48792],[77.0944,12.48596],[77.09923,12.48494],[77.10103,12.48304],[77.1038,12.48174],[77.10848,12.48047],[77.11353,12.48093],[77.12482,12.47989],[77.13208,12.48013],[77.13397,12.47789],[77.1339,12.47415],[77.13514,12.46987],[77.13647,12.46927],[77.13628,12.46813],[77.13981,12.46477],[77.14475,12.46218],[77.14798,12.46193],[77.14959,12.463],[77.15156,12.46655],[77.15726,12.47225],[77.15782,12.47366],[77.15729,12.4786],[77.15974,12.4805],[77.17149,12.47755],[77.17447,12.47427],[77.17824,12.47393],[77.1799,12.47247],[77.18029,12.47133],[77.17944,12.46995],[77.1802,12.46888],[77.18576,12.4679],[77.19171,12.46412],[77.19238,12.46291],[77.192,12.45453],[77.19007,12.44958],[77.19153,12.44153],[77.18588,12.43614],[77.18,12.43456],[77.17958,12.43267],[77.18051,12.4307],[77.18783,12.42722],[77.19559,12.4277],[77.19769,12.42675],[77.19774,12.42342],[77.19177,12.41951],[77.1933,12.41433],[77.19317,12.40852],[77.1981,12.40366],[77.20443,12.4038],[77.20784,12.40193],[77.20975,12.40015],[77.21077,12.39493],[77.20906,12.39144],[77.20463,12.38974],[77.20216,12.3879],[77.20233,12.38455],[77.20553,12.38021],[77.20578,12.37604],[77.20483,12.37466],[77.20436,12.3689],[77.20468,12.36109],[77.20365,12.35777],[77.20416,12.35713],[77.20352,12.35421],[77.20211,12.35392],[77.20158,12.34981],[77.19972,12.34951],[77.19968,12.34749],[77.19916,12.34706],[77.19638,12.34825],[77.19559,12.3478],[77.19496,12.3403],[77.19683,12.33791],[77.19921,12.33677],[77.20655,12.33512],[77.20948,12.33311],[77.21962,12.33031],[77.22589,12.3262],[77.23174,12.32509],[77.23587,12.31584],[77.23988,12.30966]]},"properties":{"riverId":"shimsha","name":"Shimsha","kind":"tributary","lengthKm":199.4}},{"type":"Feature","geometry":{"type":"MultiLineString","coordinates":[[[75.77081,12.49139],[75.77877,12.48566],[75.7805,12.48572],[75.78288,12.48403],[75.78535,12.48465],[75.78561,12.4854],[75.78449,12.48641],[75.78653,12.48781],[75.79704,12.48601],[75.79746,12.4884],[75.79875,12.48964],[75.80052,12.48955],[75.80214,12.49142],[75.80346,12.49607],[75.80659,12.49728],[75.80745,12.49659],[75.80732,12.4942],[75.8095,12.4917],[75.81305,12.49094],[75.81614,12.48646],[75.81837,12.48629],[75.81934,12.48688],[75.81807,12.48977],[75.82002,12.49396],[75.82455,12.49484],[75.82946,12.49369],[75.83614,12.49837],[75.83737,12.49503],[75.83871,12.49477],[75.84069,12.49761],[75.84244,12.49641],[75.84487,12.49764],[75.84395,12.50262],[75.84496,12.50174],[75.84723,12.50151],[75.84869,12.49898],[75.85363,12.49724],[75.85835,12.49775],[75.85948,12.49722],[75.86165,12.49302],[75.86419,12.49032],[75.86584,12.48964],[75.86735,12.49191],[75.8657,12.49677],[75.86631,12.49786],[75.8684,12.50014],[75.8735,12.50246],[75.8758,12.50255],[75.87782,12.50104],[75.87929,12.49453],[75.87935,12.48997],[75.8809,12.48799],[75.8821,12.48297],[75.88435,12.48187],[75.88911,12.4847],[75.88969,12.48651],[75.88926,12.4904],[75.8903,12.49224],[75.89268,12.49192],[75.8986,12.48921],[75.90151,12.49249],[75.91209,12.49602],[75.9149,12.49837],[75.91827,12.49942],[75.91724,12.50858],[75.91831,12.51021],[75.92393,12.50313],[75.92765,12.50098],[75.9325,12.50007],[75.93898,12.50185],[75.94294,12.49932],[75.94479,12.50157],[75.9497,12.49919],[75.95315,12.49292],[75.95592,12.49279],[75.9612,12.495]],[[75.69358,12.5021],[75.69475,12.504],[75.69849,12.50493],[75.69822,12.50782],[75.70103,12.50707],[75.7022,12.50781],[75.70277,12.50955],[75.7041,12.50954],[75.70463,12.507],[75.70274,12.50222],[75.70796,12.49996],[75.71411,12.49384],[75.7238,12.48644],[75.72492,12.48628],[75.72604,12.48775],[75.72737,12.48788],[75.72783,12.48617],[75.72716,12.48436],[75.72789,12.48344],[75.7319,12.48108],[75.73334,12.48257],[75.73466,12.48244],[75.73528,12.48062],[75.73824,12.47934],[75.7383,12.47722],[75.74176,12.47506],[75.7436,12.47497],[75.74415,12.4742],[75.74359,12.47297],[75.74483,12.47166],[75.74664,12.47117],[75.74773,12.47139],[75.74739,12.47228],[75.75261,12.47665],[75.75613,12.47819],[75.75604,12.47983],[75.75803,12.48007],[75.7593,12.48242],[75.76396,12.48542],[75.76539,12.48723],[75.7683,12.4885],[75.76979,12.49028],[75.76969,12.4916],[75.77081,12.49139]]]},"properties":{"riverId":"harangi","name":"Harangi","kind":"tributary","lengthKm":45.7}},{"type":"Feature","geometry":{"type":"LineString","coordinates":[[76.97612,11.7786],[76.97546,11.77903],[76.97532,11.78213],[76.97696,11.78347],[76.97728,11.78537],[76.97506,11.78709],[76.97431,11.78939],[76.9786,11.79179],[76.97949,11.79475],[76.98093,11.79629],[76.97976,11.79831],[76.98256,11.79972],[76.98471,11.80306],[76.98445,11.80379],[76.98222,11.80444],[76.98398,11.8095],[76.98116,11.8149],[76.98127,11.81691],[76.97769,11.82021],[76.97885,11.82267],[76.97859,11.82718],[76.9792,11.82878],[76.9838,11.83197],[76.9885,11.8336],[76.98866,11.83811],[76.99203,11.84184],[76.99541,11.84279],[77.00011,11.84249],[77.00052,11.84602],[77.00129,11.84682],[77.00452,11.84447],[77.00596,11.84426],[77.00819,11.84686],[77.00977,11.85036],[77.0119,11.85168],[77.01167,11.85278],[77.00941,11.85384],[77.00992,11.8577],[77.01657,11.85909],[77.02164,11.86373],[77.02432,11.86518],[77.02479,11.86645],[77.02241,11.86953],[77.02167,11.87238],[77.01956,11.87224],[77.0167,11.87366],[77.01663,11.87545],[77.01812,11.87801],[77.01556,11.88286],[77.00483,11.88571],[76.99882,11.88373],[76.99727,11.88515],[76.99945,11.88855],[76.99968,11.89087],[76.99809,11.89393],[76.99524,11.89643],[76.99775,11.89895],[76.99378,11.90059],[76.99286,11.90293],[76.99482,11.90878],[76.99641,11.91045],[76.99504,11.91619],[76.99735,11.91946],[76.99464,11.92142],[76.9944,11.92333],[76.99616,11.92639],[76.9957,11.93146],[76.99764,11.93904],[76.99281,11.9418],[76.98908,11.94755],[76.98905,11.94864],[76.98537,11.94962],[76.98492,11.95041],[76.98357,11.94924],[76.98134,11.95179],[76.97904,11.95247],[76.97948,11.95453],[76.97888,11.95552],[76.98118,11.95948],[76.98148,11.9618],[76.98396,11.96372],[76.9844,11.96955],[76.9861,11.97099],[76.98895,11.9708],[76.98933,11.97175],[76.98714,11.97944],[76.98758,11.98154],[76.98404,11.98581],[76.98381,11.98751],[76.98476,11.98859],[76.99349,11.99066],[76.99559,11.99716],[76.99745,11.99833],[76.9974,12.00013],[77.00097,12.00098],[77.00354,12.00294],[77.00425,12.00614],[77.00377,12.00862],[77.00557,12.00889],[77.0062,12.01065],[77.00457,12.01333],[77.00489,12.01578],[77.00365,12.01671],[77.00284,12.0193],[77.00547,12.02177],[77.01085,12.02394],[77.01141,12.02609],[77.01014,12.03033],[77.01188,12.03419],[77.01789,12.03724],[77.02288,12.03815],[77.02357,12.04207],[77.0256,12.04448],[77.02943,12.04356],[77.03107,12.04414],[77.03426,12.05208],[77.03397,12.05373],[77.03549,12.05572],[77.04483,12.05694],[77.04669,12.05438],[77.05042,12.05283],[77.05294,12.05383],[77.05453,12.05612],[77.05732,12.05672],[77.05812,12.05797],[77.05806,12.06019],[77.06201,12.06368],[77.06322,12.06693],[77.06481,12.0688],[77.06513,12.0705],[77.06384,12.07587],[77.06594,12.07637],[77.06985,12.07439],[77.07163,12.0751],[77.07233,12.07719],[77.07006,12.08197],[77.07023,12.08356],[77.07259,12.08507],[77.07654,12.08417],[77.07768,12.08589],[77.07784,12.0877],[77.07374,12.09345],[77.07418,12.09547],[77.0769,12.0957],[77.07751,12.09735],[77.07683,12.09907],[77.07304,12.10266],[77.07742,12.10654],[77.07751,12.11163],[77.07437,12.12183],[77.07653,12.12398],[77.08106,12.1245],[77.08345,12.12668],[77.08281,12.13021],[77.08331,12.1327],[77.08274,12.13488],[77.08059,12.1374],[77.08063,12.1386],[77.08507,12.13915],[77.08615,12.1427],[77.08536,12.14532],[77.08199,12.14712],[77.08004,12.15231],[77.08093,12.15508],[77.08066,12.1599],[77.07473,12.16748],[77.07449,12.17142],[77.07279,12.17479],[77.07338,12.17617],[77.07289,12.17891]]},"properties":{"riverId":"suvarnavathi","name":"Suvarnavathi","kind":"tributary","lengthKm":67.0}},{"type":"Feature","geometry":{"type":"LineString","coordinates":[[76.64319,12.79752],[76.6483,12.7938],[76.65064,12.79361],[76.65194,12.79255],[76.65391,12.78553],[76.65807,12.7835],[76.65761,12.78043],[76.65915,12.77844],[76.66305,12.77623],[76.66409,12.77313],[76.66538,12.77245],[76.66643,12.77047],[76.66813,12.76978],[76.66882,12.76684],[76.67323,12.76419],[76.67349,12.7622],[76.67636,12.75705],[76.67885,12.75434],[76.6787,12.74631],[76.67793,12.74529],[76.67912,12.74322],[76.67822,12.74074],[76.6777,12.73357],[76.67905,12.73051],[76.67887,12.72847],[76.68209,12.72722],[76.68375,12.72771],[76.68539,12.72695],[76.6877,12.72813],[76.6922,12.72672],[76.69444,12.72329],[76.70018,12.72161],[76.7016,12.71934],[76.70127,12.71684],[76.70529,12.71495],[76.70643,12.71078],[76.70744,12.70982],[76.71246,12.70832],[76.7153,12.70892],[76.7185,12.70806],[76.7192,12.70287],[76.72228,12.69957],[76.72061,12.69505],[76.72309,12.69487],[76.72434,12.692],[76.72655,12.69013],[76.72514,12.68838],[76.72588,12.68628],[76.72979,12.68542],[76.73127,12.68382],[76.73058,12.67938],[76.73174,12.677],[76.73187,12.67306],[76.73046,12.67071],[76.73045,12.66786],[76.72885,12.66689],[76.73091,12.66366],[76.72915,12.65919],[76.73097,12.65686],[76.7314,12.65447],[76.73323,12.654],[76.73496,12.65241],[76.73531,12.65057],[76.73438,12.64582],[76.73575,12.64296],[76.73407,12.63891],[76.73652,12.63385],[76.73516,12.63203],[76.73471,12.6271],[76.73341,12.6257],[76.73425,12.62061],[76.73582,12.61976],[76.73454,12.61744],[76.73183,12.61617],[76.73041,12.61284],[76.73001,12.60369],[76.73139,12.60198],[76.73134,12.59889],[76.73239,12.59804],[76.73394,12.59391],[76.73894,12.59212],[76.74203,12.58766],[76.73993,12.586],[76.73972,12.58427],[76.73674,12.58339],[76.73701,12.5819],[76.73577,12.58114],[76.73559,12.57879],[76.73675,12.57766],[76.73762,12.57442],[76.73712,12.57274],[76.73912,12.56749],[76.73693,12.56428],[76.73894,12.56049],[76.73686,12.55856],[76.73766,12.55592],[76.73602,12.55557],[76.73266,12.55242],[76.73294,12.54691],[76.72911,12.54161],[76.72333,12.5366],[76.7221,12.52934],[76.71952,12.52836],[76.71912,12.52688],[76.71981,12.52598],[76.71923,12.52454],[76.71973,12.52326],[76.72244,12.52259],[76.72263,12.52151],[76.72178,12.52069],[76.72238,12.51834],[76.71979,12.51494],[76.71929,12.51212],[76.71699,12.51077],[76.71745,12.50931],[76.71616,12.50712],[76.71772,12.50382],[76.71762,12.50183],[76.71673,12.50073],[76.71735,12.49598],[76.71808,12.49548],[76.7197,12.496],[76.72083,12.49446],[76.72077,12.48173],[76.7218,12.4788],[76.71934,12.47875],[76.71783,12.47771],[76.71948,12.47184],[76.71752,12.46739],[76.72003,12.46542],[76.72021,12.46068],[76.71937,12.45865],[76.71703,12.45772],[76.71577,12.45368],[76.71354,12.45202],[76.71464,12.44896],[76.71367,12.44858],[76.71367,12.44779],[76.71518,12.44581],[76.71507,12.44487],[76.70979,12.44571],[76.70817,12.44335],[76.70613,12.44207],[76.70694,12.43858],[76.7059,12.43643],[76.70639,12.43246],[76.70993,12.42877],[76.7099,12.42677],[76.70737,12.42486],[76.71091,12.42429],[76.71421,12.42499],[76.71602,12.42401],[76.71624,12.42301],[76.71386,12.41853]]},"properties":{"riverId":"lokapavani","name":"Lokapavani","kind":"tributary","lengthKm":56.2}},{"type":"Feature","geometry":{"type":"MultiLineString","coordinates":[[[75.98785,12.02807],[75.98902,12.02895],[75.98859,12.0304],[75.99083,12.03084],[75.99261,12.03399],[75.9948,12.03506],[75.99718,12.04273],[75.99848,12.04341],[75.99936,12.04279],[76.00023,12.0442],[76.00131,12.04433],[76.00099,12.04644],[76.00293,12.0463],[76.00368,12.04699],[76.00543,12.05122],[76.00709,12.05316],[76.00764,12.05578],[76.00914,12.05618],[76.00838,12.05887],[76.01066,12.06071],[76.0103,12.06287],[76.01156,12.06374],[76.0116,12.06647],[76.01251,12.06729],[76.01145,12.06907],[76.00965,12.06999],[76.01089,12.0715],[76.01125,12.07531],[76.01123,12.07843],[76.01009,12.07993],[76.01141,12.08178],[76.00973,12.0827],[76.00963,12.08586],[76.00834,12.08672],[76.00711,12.08485],[76.00565,12.0845],[76.0046,12.08512],[76.00608,12.08624],[76.00538,12.08729],[76.00397,12.08545],[76.00292,12.08781],[76.00013,12.08683],[75.99905,12.08805],[76.00053,12.08977],[76.0003,12.09061],[76.00224,12.0916],[76.00391,12.09072],[76.00459,12.09146],[76.0041,12.09309],[76.00696,12.09311],[76.00798,12.09469],[76.01088,12.09399],[76.01277,12.09608],[76.01451,12.09329],[76.01591,12.09268],[76.01867,12.0951],[76.02284,12.09574],[76.02236,12.09826],[76.02411,12.09879],[76.02453,12.10029],[76.02596,12.10076],[76.02499,12.10374],[76.02381,12.10353],[76.02253,12.10448],[76.02144,12.10387],[76.02095,12.10477],[76.02357,12.10588],[76.02338,12.10897],[76.02531,12.10863],[76.02611,12.10991],[76.0258,12.11114],[76.02379,12.11243],[76.02299,12.11466],[76.02346,12.11734],[76.022,12.11875],[76.02142,12.12383],[76.0188,12.12755],[76.02272,12.13196],[76.02485,12.13359],[76.02933,12.13412],[76.03032,12.13689],[76.03359,12.13649],[76.03591,12.13858],[76.03814,12.13338],[76.04296,12.13102],[76.04313,12.12645],[76.04406,12.12434],[76.04917,12.12651],[76.05163,12.12617],[76.0545,12.12405],[76.05864,12.12795],[76.06059,12.12488],[76.06258,12.12434],[76.06564,12.12575],[76.06644,12.12769],[76.06791,12.12803],[76.06803,12.12911],[76.07248,12.13014],[76.07376,12.1317],[76.07264,12.13308],[76.07674,12.13589],[76.07593,12.1405],[76.07676,12.14306],[76.07218,12.14306],[76.07252,12.14594],[76.07124,12.14855],[76.07424,12.15093],[76.07621,12.15465],[76.08117,12.15484],[76.0836,12.15246],[76.08505,12.15205],[76.08671,12.15391],[76.08588,12.15542],[76.08862,12.1573],[76.08979,12.15912],[76.09282,12.15922],[76.09541,12.1568],[76.09917,12.15661],[76.09936,12.15374],[76.10361,12.14807],[76.10501,12.15107],[76.10776,12.15251],[76.11636,12.15988],[76.11818,12.16074],[76.12405,12.16065],[76.12293,12.16379],[76.12471,12.16386],[76.12602,12.16487],[76.1265,12.17009],[76.13186,12.17414],[76.1341,12.17469],[76.13748,12.17399],[76.14029,12.17767],[76.1428,12.17798],[76.14676,12.18069],[76.14961,12.17974],[76.15356,12.18275],[76.15857,12.18183],[76.15824,12.18358],[76.15518,12.18455],[76.15382,12.18641],[76.152,12.18548],[76.14796,12.18646],[76.14656,12.18532],[76.14229,12.1848],[76.14093,12.18333],[76.13885,12.18272],[76.13585,12.1844],[76.13581,12.18716],[76.13626,12.18789],[76.13907,12.18807],[76.1422,12.19127],[76.14397,12.19132],[76.14968,12.19495],[76.14991,12.19832],[76.14683,12.20145],[76.14738,12.20425],[76.14953,12.20596],[76.15478,12.20437],[76.15747,12.19987],[76.16136,12.19943],[76.16495,12.19954],[76.16568,12.20583],[76.16972,12.20744],[76.17357,12.20307],[76.17588,12.20344],[76.17798,12.20204],[76.18363,12.20126],[76.18569,12.20197],[76.18687,12.20344],[76.18621,12.20625],[76.18412,12.20769],[76.18022,12.20858],[76.1797,12.2117],[76.18754,12.21556],[76.18937,12.21753],[76.19007,12.21989],[76.18721,12.22141],[76.18804,12.22653],[76.18755,12.22873],[76.19228,12.23024],[76.19489,12.23285],[76.1953,12.23446],[76.19361,12.2353],[76.19336,12.23622],[76.19819,12.24164],[76.19836,12.24531],[76.19993,12.24661],[76.20188,12.24686],[76.20352,12.24612],[76.20337,12.24261],[76.20618,12.2401],[76.20957,12.24062],[76.21245,12.24357],[76.21537,12.24465],[76.21716,12.24204],[76.21644,12.23619],[76.21776,12.23495],[76.22264,12.2352],[76.22603,12.237],[76.2261,12.23845],[76.22313,12.24174],[76.22408,12.24493],[76.22607,12.24676],[76.23501,12.23925],[76.23477,12.23476],[76.23309,12.23228],[76.23365,12.23056],[76.23605,12.23179],[76.23983,12.22931],[76.24208,12.22961],[76.24206,12.23711],[76.23943,12.23951],[76.24097,12.24286],[76.24398,12.24392],[76.24578,12.24551],[76.25038,12.24139],[76.25179,12.24113],[76.25162,12.24286],[76.2576,12.24921],[76.26426,12.25128],[76.26437,12.25206],[76.2628,12.25283],[76.26225,12.25512],[76.26011,12.25771],[76.26386,12.26762],[76.25986,12.26832],[76.25887,12.26997],[76.26203,12.27321],[76.26692,12.27553],[76.2684,12.27834],[76.26844,12.27984],[76.26637,12.2828],[76.26685,12.28521],[76.27229,12.28891],[76.2748,12.29314],[76.2744,12.29497],[76.27185,12.296],[76.27217,12.29887],[76.27524,12.30081],[76.27773,12.30583],[76.28031,12.30487],[76.28297,12.30204],[76.28559,12.30184],[76.28691,12.30405],[76.2853,12.30638],[76.28609,12.30908],[76.28601,12.31356],[76.28967,12.31549],[76.2944,12.31533],[76.29673,12.31986],[76.29642,12.32091],[76.29253,12.32123],[76.29059,12.32376],[76.29036,12.32685],[76.28531,12.32945],[76.28556,12.33164],[76.28425,12.33614],[76.28874,12.34077],[76.28605,12.34404],[76.28589,12.34506],[76.28697,12.34605],[76.2964,12.34868],[76.29873,12.34812],[76.29887,12.34308],[76.29689,12.34091],[76.29789,12.33939],[76.29811,12.33696],[76.3025,12.33494],[76.3049,12.3305],[76.30896,12.32665],[76.31347,12.33001],[76.31103,12.33375],[76.31224,12.33798],[76.31481,12.34079],[76.3199,12.34141],[76.3277,12.34467],[76.33006,12.34395],[76.33409,12.34034],[76.33583,12.33987],[76.33724,12.34054],[76.3383,12.3427],[76.342,12.34621],[76.34311,12.34645],[76.34548,12.34535],[76.34692,12.34588],[76.34777,12.34803],[76.34682,12.35361],[76.33957,12.35483],[76.33997,12.36045],[76.34105,12.36239],[76.34511,12.36283],[76.34799,12.36512],[76.34981,12.36543],[76.35115,12.36456],[76.35207,12.36169],[76.35363,12.36083],[76.35557,12.36264],[76.35945,12.36328],[76.3649,12.367],[76.36605,12.36378],[76.36704,12.36345],[76.37223,12.36735],[76.37271,12.37127],[76.37374,12.37221],[76.37534,12.37201],[76.37726,12.36835],[76.37964,12.36765],[76.38105,12.36821],[76.38229,12.36938],[76.38338,12.37434],[76.38477,12.37506],[76.38772,12.37416],[76.39211,12.36314],[76.39437,12.3622],[76.39805,12.36352],[76.40126,12.36564],[76.40269,12.36785],[76.40821,12.37273],[76.41299,12.37241],[76.4157,12.3741],[76.41717,12.37609],[76.41796,12.38125],[76.42143,12.3864],[76.42453,12.38543],[76.42494,12.38228],[76.42618,12.38155],[76.43099,12.38726],[76.43646,12.39026],[76.43729,12.39594],[76.43994,12.39733],[76.44039,12.39842],[76.43947,12.40144],[76.43652,12.40315],[76.43631,12.40716],[76.43929,12.41059],[76.4428,12.41305],[76.44334,12.41568],[76.44254,12.41844],[76.44343,12.41961],[76.44516,12.41997],[76.44825,12.41877],[76.45397,12.4113],[76.46174,12.41209],[76.46809,12.41124],[76.47204,12.41334],[76.47218,12.41699],[76.46932,12.42125],[76.4703,12.42728],[76.4682,12.43054],[76.46105,12.43627],[76.45967,12.44014],[76.46091,12.44277],[76.4705,12.44691],[76.4768,12.44821],[76.48115,12.44787],[76.48925,12.44477],[76.49388,12.44463],[76.49735,12.44625],[76.5035,12.45167],[76.50671,12.45274]],[[75.97191,11.96333],[75.98091,11.9614],[75.98315,11.96451],[75.98506,11.96981],[75.98916,11.97587],[75.99192,11.97607],[75.99295,11.97884],[75.99296,11.98191],[75.99765,11.98405],[75.99839,11.98665],[76.00079,11.98741],[76.00176,11.98859],[76.00155,11.99226],[75.99995,11.99588],[76.00038,11.99712],[75.99869,11.99926],[75.99943,11.99992],[75.99947,12.00193],[76.0016,12.0025],[76.00266,12.00431],[76.0052,12.00496],[76.00496,12.00682],[76.00644,12.00818],[76.0053,12.00897],[76.00538,12.01208]],[[76.00486,12.01261],[76.00468,12.0137],[76.00328,12.014],[76.00193,12.0158],[76.00207,12.01787],[76.00013,12.01952],[75.99838,12.01945],[75.99833,12.02054],[75.99657,12.01923],[75.99569,12.01958],[75.99503,12.01853],[75.9911,12.01984],[75.98997,12.0237],[75.98896,12.02353],[75.98825,12.02504],[75.98754,12.02506],[75.98781,12.02608],[75.98704,12.02625],[75.98785,12.02807]],[[75.9623,11.9561],[75.96357,11.95545],[75.96582,11.95624],[75.96659,11.96037],[75.96825,11.96193],[75.9675,11.96394],[75.97188,11.96333]],[[75.9585,11.95877],[75.96031,11.95923],[75.96217,11.95742],[75.9623,11.9561]],[[75.95872,11.95607],[75.9623,11.9561]]]},"properties":{"riverId":"lakshmanthirtha","name":"Lakshmanthirtha","kind":"tributary","lengthKm":153.8}},{"type":"Feature","geometry":{"type":"LineString","coordinates":[[75.70631,13.22204],[75.70828,13.22199],[75.71019,13.22356],[75.71077,13.22233],[75.71398,13.22181],[75.71449,13.21836],[75.7164,13.2191],[75.71777,13.21776],[75.71924,13.21859],[75.71961,13.22048],[75.7241,13.22122],[75.72379,13.21877],[75.72584,13.21976],[75.72786,13.21868],[75.72857,13.21692],[75.73158,13.21681],[75.73311,13.21565],[75.73463,13.21074],[75.73711,13.21022],[75.73942,13.21128],[75.7397,13.20964],[75.74526,13.20678],[75.74716,13.2072],[75.74865,13.20566],[75.7507,13.20685],[75.75295,13.21295],[75.75579,13.2159],[75.75747,13.21635],[75.75849,13.21823],[75.7613,13.21755],[75.76155,13.21616],[75.76455,13.21461],[75.76638,13.21198],[75.77003,13.21412],[75.77155,13.21272],[75.7727,13.21289],[75.77397,13.21402],[75.77407,13.21637],[75.77527,13.21795],[75.77705,13.21814],[75.77844,13.2193],[75.77792,13.22071],[75.77577,13.2219],[75.77806,13.22322],[75.7808,13.22778],[75.78301,13.22879],[75.786,13.23293],[75.78774,13.23388],[75.78979,13.23329],[75.79111,13.23458],[75.79608,13.23349],[75.79884,13.23412],[75.80159,13.23372],[75.80368,13.23296],[75.80426,13.23173],[75.80633,13.23222],[75.80724,13.2313],[75.81769,13.22999],[75.81865,13.22847],[75.82037,13.22962],[75.82232,13.22816],[75.82507,13.229],[75.82966,13.22661],[75.83543,13.21887],[75.84285,13.21498],[75.84609,13.21245],[75.84953,13.20821],[75.85336,13.19731],[75.85876,13.18628],[75.86117,13.18468],[75.86615,13.18399],[75.86847,13.18249],[75.86861,13.18096],[75.86691,13.17759],[75.86666,13.17516],[75.87071,13.17181],[75.87286,13.16797],[75.87606,13.16601],[75.87677,13.16326],[75.87889,13.16052],[75.8791,13.156],[75.88305,13.15544],[75.88487,13.15409],[75.88585,13.15221],[75.88583,13.14876],[75.88948,13.14317],[75.89431,13.14187],[75.89469,13.13943],[75.89332,13.13787],[75.89338,13.13573],[75.8966,13.13377],[75.89986,13.13674],[75.90072,13.13605],[75.90184,13.13656],[75.90862,13.13319],[75.91055,13.12803],[75.91298,13.12559],[75.91334,13.12086],[75.91115,13.11702],[75.91217,13.11436],[75.91464,13.11334],[75.91609,13.1108],[75.92043,13.10636],[75.92103,13.10416],[75.92378,13.10463],[75.93057,13.09823],[75.93137,13.09608],[75.93106,13.09413],[75.93453,13.09264],[75.93584,13.08827],[75.93953,13.08654],[75.9495,13.0721],[75.95089,13.06565],[75.95734,13.06395],[75.96113,13.05809],[75.96478,13.05548],[75.96911,13.04993],[75.97131,13.0487],[75.97182,13.04598],[75.98185,13.03281],[75.98321,13.02641],[75.9881,13.02554],[75.99024,13.02304],[75.99194,13.01782],[75.99466,13.01472],[75.99626,13.01054],[75.99824,13.00941],[75.99847,13.00793],[75.99782,13.00724],[76.00091,13.00303],[76.00269,13.00127],[76.00677,13.00208],[76.01507,12.99941],[76.01993,13.00131],[76.02732,12.99431],[76.02712,12.99186],[76.02786,12.99095],[76.03222,12.98868],[76.03199,12.98523],[76.03629,12.98648],[76.03768,12.98557],[76.03847,12.98324],[76.03695,12.98021],[76.03905,12.97776],[76.04211,12.97787],[76.04668,12.97591],[76.05109,12.97583],[76.05201,12.97199],[76.04975,12.96946],[76.05048,12.96701],[76.05171,12.96614],[76.05723,12.96681],[76.05851,12.96594],[76.05872,12.96409],[76.05543,12.96117],[76.05512,12.95922],[76.05592,12.957],[76.05479,12.95371],[76.05361,12.95248],[76.04906,12.95112],[76.04911,12.94896],[76.05091,12.94642],[76.05061,12.94517],[76.04717,12.94381],[76.04455,12.9445],[76.04257,12.94386],[76.04102,12.93725],[76.03961,12.93532],[76.04005,12.93165],[76.03856,12.93055],[76.03635,12.93087],[76.03432,12.92954],[76.03447,12.92674],[76.03378,12.92591],[76.0314,12.92616],[76.03019,12.92803],[76.02741,12.92884],[76.02616,12.93101],[76.02431,12.93148],[76.02282,12.93077],[76.02268,12.92715],[76.02457,12.92468],[76.02587,12.91683],[76.02485,12.91524],[76.02443,12.91032],[76.01765,12.90363],[76.0192,12.90002],[76.01868,12.89811],[76.01762,12.89783],[76.01527,12.90085],[76.01483,12.90532],[76.0135,12.90682],[76.01154,12.90751],[76.0057,12.89912],[76.00365,12.89813],[76.00034,12.89857],[75.99806,12.89725],[75.99866,12.89532],[76.00405,12.89398],[76.00476,12.89266],[76.00399,12.8909],[75.99961,12.89213],[75.9975,12.89127],[75.99661,12.88988],[75.99684,12.8887],[75.99907,12.88651],[75.99966,12.88279],[76.00635,12.87585],[76.00785,12.87039],[76.01094,12.86835],[76.02342,12.86603],[76.02582,12.86495],[76.0274,12.86172],[76.02551,12.85385],[76.02635,12.85195],[76.03403,12.84877],[76.03584,12.84909],[76.04306,12.85393],[76.04502,12.85377],[76.04809,12.85181],[76.04902,12.83778],[76.04875,12.82712],[76.04958,12.82257]]},"properties":{"riverId":"yagachi","name":"Yagachi","kind":"tributary","lengthKm":93.3}},{"type":"Feature","geometry":{"type":"LineString","coordinates":[[76.81988,11.68322],[76.81859,11.68107],[76.81647,11.67987],[76.81124,11.67435],[76.80981,11.67385],[76.80782,11.67444],[76.80777,11.67521],[76.80564,11.67508],[76.80572,11.67588],[76.8047,11.676],[76.80317,11.67825],[76.80305,11.67987],[76.79767,11.68228],[76.79014,11.68227],[76.78872,11.68147],[76.78652,11.68218],[76.78707,11.68589],[76.78359,11.68527],[76.78205,11.68613],[76.78069,11.6917],[76.77372,11.69384],[76.77005,11.69613],[76.76892,11.69792],[76.76622,11.69839],[76.76486,11.69975],[76.76416,11.70246],[76.7629,11.7028],[76.76269,11.705],[76.76083,11.70464],[76.75749,11.70665],[76.75472,11.71402],[76.75559,11.71579],[76.75459,11.72011],[76.75538,11.72138],[76.75518,11.7237],[76.75376,11.72451],[76.75166,11.72418],[76.74999,11.72775],[76.7469,11.72879],[76.73922,11.73366],[76.7352,11.73356],[76.7324,11.73483],[76.72763,11.73455],[76.72518,11.73569],[76.71956,11.73382],[76.71362,11.73411],[76.71451,11.73639],[76.71073,11.74032],[76.70626,11.74045],[76.70539,11.74224],[76.70345,11.74212],[76.69298,11.7463],[76.69129,11.74617],[76.68881,11.74987],[76.68837,11.7547],[76.68716,11.75778],[76.68416,11.75857],[76.68499,11.76014],[76.68668,11.76038],[76.6872,11.76256],[76.68528,11.76805],[76.68492,11.77353],[76.6877,11.78115],[76.68735,11.78241],[76.68365,11.7849],[76.68348,11.78586],[76.68634,11.78747],[76.68784,11.79044],[76.68848,11.79773],[76.6903,11.79746],[76.69288,11.79895],[76.69392,11.80388],[76.69497,11.80532],[76.69701,11.806],[76.69761,11.80858],[76.70152,11.80841],[76.70308,11.81168],[76.70187,11.81316],[76.70226,11.81549],[76.70076,11.81825],[76.70211,11.82191],[76.70469,11.82495],[76.70309,11.8271],[76.70302,11.82972],[76.69914,11.83433],[76.70028,11.83731],[76.705,11.83975],[76.70497,11.84212],[76.70276,11.84494],[76.69825,11.84764],[76.69746,11.84893],[76.6994,11.85037],[76.69846,11.8521],[76.69876,11.85424],[76.70162,11.85907],[76.69755,11.8616],[76.69816,11.86336],[76.69611,11.86848],[76.69575,11.87071],[76.69648,11.87291],[76.69566,11.87384],[76.69474,11.87855],[76.69551,11.87999],[76.69396,11.88185],[76.69471,11.88346],[76.69319,11.8858],[76.69135,11.88661],[76.69078,11.8895],[76.69245,11.89136],[76.6924,11.89253],[76.69514,11.89522],[76.69652,11.89872],[76.69642,11.90131],[76.69878,11.90248],[76.69788,11.90385],[76.69803,11.90715],[76.69629,11.90993],[76.69763,11.91277],[76.69766,11.91611],[76.69379,11.92082],[76.69408,11.92763],[76.69775,11.93044],[76.69858,11.93487],[76.70221,11.93673],[76.70132,11.93919],[76.70273,11.93967],[76.70273,11.94205],[76.7061,11.94477],[76.70676,11.94699],[76.70296,11.95077],[76.70414,11.95375],[76.70358,11.95609],[76.70083,11.95797],[76.6998,11.9606],[76.69625,11.96315],[76.69626,11.96579],[76.69477,11.96783],[76.69547,11.97116],[76.69422,11.97346],[76.6961,11.97584],[76.6958,11.97871],[76.69753,11.97945],[76.69894,11.98138],[76.69835,11.9882],[76.69963,11.98996],[76.70285,11.99025],[76.7048,11.99189],[76.70781,11.99114],[76.71288,11.99246],[76.7176,11.99859],[76.71949,12.00355],[76.72729,12.00477],[76.72839,12.00559],[76.72872,12.00849],[76.73193,12.0137],[76.73065,12.0232],[76.7295,12.02516],[76.72953,12.02758],[76.72824,12.03095],[76.72856,12.03227],[76.73147,12.03498],[76.73104,12.03623],[76.73216,12.03906],[76.73009,12.04152],[76.73062,12.04814],[76.73006,12.04924],[76.73578,12.05627],[76.73328,12.06152],[76.73478,12.06302],[76.73543,12.06694],[76.73177,12.06718],[76.73106,12.06818],[76.73173,12.07067],[76.72751,12.07189],[76.72698,12.07276],[76.7272,12.07479],[76.72612,12.07794],[76.72814,12.07958],[76.72972,12.08205],[76.72937,12.08268],[76.7245,12.08267],[76.71887,12.08465],[76.71293,12.08565],[76.70958,12.08727],[76.70874,12.08692],[76.70842,12.08413],[76.70534,12.07965],[76.7015,12.08009],[76.70015,12.08126],[76.69604,12.08019],[76.6897,12.08451],[76.68359,12.08119],[76.68176,12.0816],[76.68237,12.08356],[76.68202,12.09119],[76.68043,12.09364],[76.67952,12.09878],[76.68002,12.1002],[76.68221,12.10054],[76.68445,12.10422],[76.68516,12.11016],[76.68319,12.1129],[76.68983,12.11672],[76.69297,12.11685],[76.69861,12.12102]]},"properties":{"riverId":"gundal","name":"Gundal","kind":"tributary","lengthKm":79.8}}]}