{"nvdm":"1.0","dataset":"basins/state-boundary","scope":{"kind":"basin","id":"cauvery-ka"},"provenance":{"sources":[{"title":"Karnataka state boundary (Cauvery_Snapshot_view_layers.gpkg), KGIS state layer - Cauvery snapshot layer package (GeoPackages, 23 Aug 2026 review delivery)","publisher":"Paani Earth Foundation","closed":true,"as_of":"2026-08-23","role":"input","license":"partner-supplied compilation, cited with attribution; underlying government layers as attributed per layer"}],"method":"derived","produced_at":"2026-08-27","produced_by":"scripts/build_basin_gpkg_layers.py (scripts/basin-sources/cauvery-ka-paani.json)"},"type":"FeatureCollection","features":[{"type":"Feature","geometry":{"type":"MultiPolygon","coordinates":[[[[74.28047,14.65598],[74.28073,14.65639],[74.28082,14.6561],[74.28047,14.65598]]],[[[74.25262,14.70553],[74.25491,14.70441],[74.25211,14.7045],[74.25262,14.70553]]],[[[74.25416,14.72168],[74.25709,14.72237],[74.25555,14.72067],[74.25416,14.72168]]],[[[74.14561,14.76309],[74.14325,14.75831],[74.13844,14.76086],[74.13909,14.76312],[74.14561,14.76309]]],[[[74.11009,14.84577],[74.11305,14.84234],[74.10728,14.84347],[74.11009,14.84577]]],[[[74.11432,14.84497],[74.1154,14.84361],[74.11433,14.84326],[74.11432,14.84497]]],[[[74.10192,14.87825],[74.10173,14.8763],[74.10002,14.87675],[74.10192,14.87825]]],[[[74.2926,15.83221],[74.31313,15.79454],[74.30251,15.78749],[74.29387,15.79587],[74.28952,15.78708],[74.26649,15.79755],[74.26898,15.81605],[74.26289,15.82942],[74.2926,15.83221]]],[[[74.69308,13.33136],[74.69147,13.33171],[74.69194,13.33266],[74.69308,13.33136]]],[[[74.68773,13.33732],[74.69084,13.33728],[74.6894,13.33577],[74.68773,13.33732]]],[[[74.68344,13.34384],[74.68738,13.34459],[74.68809,13.34186],[74.68344,13.34384]]],[[[74.68508,13.37856],[74.68196,13.38422],[74.68624,13.37837],[74.68508,13.37856]]],[[[74.26937,14.70234],[74.25704,14.70649],[74.26504,14.71139],[74.2633,14.71881],[74.23746,14.74817],[74.22662,14.74633],[74.22412,14.73451],[74.20234,14.73322],[74.20575,14.72604],[74.19343,14.72638],[74.18966,14.74006],[74.1729,14.75454],[74.15906,14.75467],[74.15704,14.74443],[74.15079,14.74709],[74.15782,14.76005],[74.14305,14.77999],[74.12151,14.77942],[74.11539,14.78974],[74.10858,14.78442],[74.10981,14.79149],[74.09356,14.80709],[74.12475,14.80438],[74.12709,14.83981],[74.11195,14.84859],[74.09769,14.89867],[74.08551,14.89898],[74.09754,14.91316],[74.12062,14.91763],[74.12483,14.92524],[74.16047,14.91307],[74.16513,14.9197],[74.15375,14.94032],[74.16422,14.95886],[74.18074,14.9576],[74.20156,14.92555],[74.21488,14.9497],[74.2306,14.94981],[74.23789,14.96595],[74.25249,14.95965],[74.25525,14.97082],[74.26649,14.97807],[74.25469,14.98917],[74.25581,14.99522],[74.27009,14.99831],[74.28185,15.03061],[74.29737,15.04666],[74.29249,15.06494],[74.28082,15.06851],[74.27273,15.09785],[74.28256,15.10672],[74.28586,15.14968],[74.29563,15.15104],[74.31459,15.18032],[74.30996,15.20565],[74.29137,15.23409],[74.25969,15.24124],[74.25063,15.25964],[74.26117,15.2609],[74.27205,15.28166],[74.28237,15.28037],[74.2946,15.28928],[74.32636,15.28401],[74.33616,15.29562],[74.32083,15.31434],[74.31692,15.32981],[74.32197,15.34352],[74.31398,15.36039],[74.32126,15.36849],[74.2787,15.39277],[74.27081,15.41849],[74.27486,15.44838],[74.26531,15.47247],[74.24903,15.49164],[74.25429,15.50375],[74.27508,15.51439],[74.28231,15.53124],[74.26266,15.56398],[74.25878,15.5597],[74.24562,15.56642],[74.26444,15.61512],[74.25586,15.62439],[74.24695,15.62092],[74.24493,15.62506],[74.25129,15.65541],[74.23587,15.66871],[74.22855,15.66468],[74.22346,15.66876],[74.21557,15.66267],[74.22277,15.65586],[74.20552,15.65039],[74.20463,15.66313],[74.18889,15.66584],[74.19044,15.6821],[74.16709,15.67235],[74.16352,15.65345],[74.15261,15.64933],[74.10081,15.65734],[74.0864,15.67173],[74.1084,15.67217],[74.12364,15.67987],[74.13343,15.70317],[74.12222,15.72086],[74.15052,15.73596],[74.15936,15.74945],[74.20264,15.75829],[74.20968,15.78199],[74.23243,15.78729],[74.22801,15.75617],[74.23751,15.7445],[74.25374,15.74496],[74.26879,15.7545],[74.2853,15.74105],[74.31809,15.75723],[74.32319,15.77244],[74.34627,15.7645],[74.36824,15.78583],[74.37003,15.81186],[74.36022,15.81763],[74.38099,15.83534],[74.38316,15.84941],[74.33792,15.85495],[74.36325,15.87509],[74.36453,15.89359],[74.36865,15.89386],[74.38767,15.85411],[74.39762,15.85057],[74.40617,15.85547],[74.4064,15.86455],[74.39283,15.87854],[74.39397,15.90002],[74.3846,15.90335],[74.42843,15.95227],[74.46332,16.04354],[74.46294,16.04935],[74.43007,16.05927],[74.38135,16.03567],[74.37065,16.03858],[74.37888,16.05379],[74.36013,16.05333],[74.37167,16.06745],[74.37237,16.0785],[74.39142,16.08046],[74.38982,16.08958],[74.40723,16.09407],[74.4102,16.10274],[74.42745,16.11253],[74.45888,16.10485],[74.4731,16.09079],[74.48466,16.0912],[74.49104,16.11211],[74.47973,16.14776],[74.48814,16.15682],[74.49391,16.18665],[74.50558,16.18945],[74.50806,16.20201],[74.49579,16.21249],[74.50157,16.22632],[74.48006,16.24987],[74.46889,16.23961],[74.45593,16.24398],[74.45482,16.25325],[74.4368,16.25125],[74.43644,16.25764],[74.41761,16.25808],[74.41355,16.28358],[74.38563,16.27689],[74.38331,16.2917],[74.37503,16.29582],[74.3452,16.29353],[74.35355,16.28328],[74.34902,16.27564],[74.34341,16.2784],[74.3384,16.27124],[74.33355,16.27555],[74.33408,16.26834],[74.32486,16.27143],[74.32109,16.28435],[74.32826,16.29307],[74.33854,16.29003],[74.34371,16.29596],[74.33597,16.30735],[74.33176,16.30478],[74.33151,16.31377],[74.3235,16.31258],[74.33345,16.32012],[74.33014,16.32601],[74.3147,16.32651],[74.32201,16.33396],[74.31471,16.34042],[74.3273,16.34223],[74.31564,16.35585],[74.32514,16.3584],[74.31701,16.3791],[74.32515,16.37869],[74.32724,16.39181],[74.33623,16.39448],[74.34775,16.36713],[74.35352,16.36599],[74.35259,16.38178],[74.3635,16.40485],[74.33559,16.40124],[74.32784,16.41901],[74.33704,16.42881],[74.33236,16.43605],[74.33582,16.44543],[74.32923,16.4472],[74.33211,16.45523],[74.31185,16.45318],[74.28949,16.46284],[74.29135,16.50467],[74.27918,16.50474],[74.27476,16.48536],[74.26055,16.47978],[74.24766,16.4961],[74.27808,16.50459],[74.2758,16.52107],[74.2696,16.52214],[74.26391,16.53974],[74.27049,16.54834],[74.28111,16.54153],[74.28349,16.52496],[74.29114,16.5339],[74.30122,16.52998],[74.30656,16.50404],[74.31564,16.50428],[74.31629,16.55548],[74.32396,16.5575],[74.33928,16.5488],[74.35621,16.56003],[74.35826,16.53898],[74.381,16.52919],[74.38729,16.53596],[74.38713,16.55999],[74.39669,16.58286],[74.42215,16.58471],[74.43517,16.60092],[74.46634,16.60529],[74.4658,16.62423],[74.45537,16.64714],[74.45611,16.65575],[74.4701,16.66469],[74.4752,16.64753],[74.49002,16.63029],[74.54472,16.63567],[74.54452,16.59569],[74.55911,16.59511],[74.56654,16.58629],[74.5551,16.56468],[74.5676,16.5555],[74.5842,16.55798],[74.58793,16.56644],[74.60013,16.56473],[74.61838,16.5845],[74.6296,16.57841],[74.63523,16.58366],[74.63274,16.60547],[74.64006,16.61246],[74.66019,16.60516],[74.67215,16.61188],[74.68651,16.60839],[74.68557,16.6182],[74.65165,16.63794],[74.66518,16.66539],[74.67965,16.66616],[74.6791,16.67315],[74.68935,16.67687],[74.68116,16.68393],[74.68925,16.68636],[74.68642,16.71326],[74.69094,16.71847],[74.72742,16.71692],[74.75305,16.73136],[74.77181,16.75089],[74.79542,16.74734],[74.79824,16.75376],[74.8443,16.76203],[74.84978,16.77257],[74.86543,16.76398],[74.8686,16.77419],[74.91944,16.77275],[74.91032,16.78982],[74.90994,16.83644],[74.90135,16.86263],[74.92599,16.86396],[74.9254,16.87222],[74.9352,16.87096],[74.93559,16.87893],[74.94445,16.88248],[74.96028,16.88101],[74.96372,16.91065],[74.95453,16.90509],[74.95503,16.90996],[74.94334,16.91112],[74.92141,16.92968],[74.92318,16.93956],[74.93383,16.94562],[74.96293,16.92813],[74.95888,16.9373],[74.96704,16.94124],[74.96412,16.94754],[74.99479,16.952],[75.02688,16.94486],[75.02512,16.93931],[75.02577,16.92872],[75.04519,16.94231],[75.06114,16.94163],[75.09014,16.95202],[75.09611,16.91394],[75.11753,16.91352],[75.12004,16.90238],[75.13496,16.89467],[75.13625,16.87442],[75.16476,16.86703],[75.18881,16.87499],[75.18189,16.84346],[75.21749,16.8419],[75.22799,16.84345],[75.23771,16.86769],[75.2655,16.86314],[75.28251,16.88101],[75.28981,16.9047],[75.28003,16.92371],[75.27952,16.95686],[75.34159,16.95621],[75.39217,16.9804],[75.42802,16.96673],[75.44215,16.98261],[75.46564,16.9885],[75.46864,16.97978],[75.483,16.97698],[75.48903,16.94464],[75.50944,16.95071],[75.52857,16.9695],[75.56729,16.96607],[75.56706,17.009],[75.57378,17.00937],[75.60688,17.00496],[75.60783,16.9714],[75.63663,16.96871],[75.6449,16.9541],[75.67038,16.96203],[75.67658,16.96896],[75.6657,16.97966],[75.66975,17.038],[75.65181,17.03312],[75.64032,17.03761],[75.6501,17.05738],[75.67641,17.06532],[75.67243,17.11569],[75.65042,17.11554],[75.65022,17.13474],[75.62535,17.17387],[75.62843,17.18865],[75.64026,17.18919],[75.66222,17.21453],[75.65768,17.26275],[75.65438,17.27351],[75.62744,17.27378],[75.622,17.2951],[75.60327,17.30466],[75.61238,17.32697],[75.6102,17.34461],[75.58166,17.35085],[75.57542,17.38398],[75.60503,17.39418],[75.61339,17.39154],[75.60661,17.42014],[75.61372,17.42429],[75.62135,17.45871],[75.63411,17.47946],[75.66147,17.45993],[75.67658,17.45833],[75.68823,17.41372],[75.71616,17.41085],[75.73298,17.42248],[75.75081,17.40993],[75.76573,17.40805],[75.77264,17.38737],[75.79349,17.37189],[75.80502,17.36994],[75.81336,17.3759],[75.81613,17.41462],[75.82236,17.42297],[75.85101,17.4133],[75.86073,17.3862],[75.87434,17.39929],[75.87502,17.4167],[75.88638,17.41824],[75.89748,17.38523],[75.89169,17.35928],[75.92955,17.32408],[75.96618,17.33693],[75.99765,17.33947],[76.0122,17.35427],[76.05152,17.35834],[76.06439,17.35389],[76.07901,17.33128],[76.08821,17.3369],[76.08911,17.35281],[76.09947,17.36455],[76.11966,17.37107],[76.14662,17.34805],[76.1625,17.34485],[76.16488,17.30306],[76.17582,17.30073],[76.18271,17.31864],[76.17019,17.35236],[76.19551,17.36309],[76.22885,17.3654],[76.22772,17.37598],[76.24196,17.37925],[76.25078,17.36077],[76.27183,17.36062],[76.27631,17.33439],[76.31727,17.33209],[76.31112,17.34752],[76.3458,17.35436],[76.3539,17.31438],[76.38381,17.31433],[76.39639,17.34696],[76.41206,17.35091],[76.40909,17.37067],[76.36311,17.37741],[76.37144,17.43605],[76.33282,17.43469],[76.32952,17.47058],[76.34994,17.47416],[76.37543,17.49038],[76.37178,17.4957],[76.34608,17.49221],[76.34572,17.51367],[76.36696,17.52018],[76.36301,17.5378],[76.34016,17.54369],[76.33092,17.59736],[76.41857,17.60508],[76.42741,17.64741],[76.44402,17.64235],[76.44132,17.64907],[76.45271,17.64887],[76.45153,17.65587],[76.45807,17.65901],[76.48885,17.66152],[76.4832,17.68023],[76.48627,17.71577],[76.51219,17.7196],[76.52388,17.71532],[76.52376,17.76017],[76.56092,17.76644],[76.57249,17.76127],[76.56434,17.75093],[76.57058,17.7064],[76.58043,17.70524],[76.60073,17.72614],[76.60401,17.75885],[76.61146,17.77115],[76.61673,17.77033],[76.63183,17.75573],[76.62799,17.75091],[76.63352,17.72851],[76.65342,17.7223],[76.66525,17.68784],[76.67314,17.69106],[76.69127,17.68169],[76.69234,17.70687],[76.70034,17.70845],[76.70543,17.72315],[76.69926,17.72835],[76.72829,17.73756],[76.71839,17.75189],[76.72156,17.76975],[76.71268,17.77415],[76.71427,17.78132],[76.72143,17.78821],[76.7407,17.77977],[76.76191,17.7874],[76.76631,17.79885],[76.77926,17.79821],[76.7812,17.81499],[76.7907,17.8251],[76.76835,17.8517],[76.73845,17.85604],[76.73996,17.89954],[76.76825,17.90241],[76.7738,17.87847],[76.8056,17.87089],[76.81006,17.88741],[76.83264,17.88259],[76.83252,17.89334],[76.83959,17.89979],[76.88417,17.89426],[76.88365,17.89943],[76.89364,17.89994],[76.90041,17.91755],[76.91887,17.91642],[76.91337,17.9932],[76.90651,17.99671],[76.90569,18.00986],[76.91447,18.03556],[76.95344,18.04199],[76.94358,18.04632],[76.95118,18.0604],[76.94402,18.08338],[76.96235,18.09058],[76.96535,18.09886],[76.95431,18.11046],[76.93055,18.11308],[76.91795,18.12411],[76.93247,18.1336],[76.92146,18.1441],[76.93029,18.15937],[76.94251,18.15662],[76.95133,18.18831],[76.99141,18.1907],[76.99716,18.1664],[77.00776,18.16006],[77.02375,18.15854],[77.02359,18.17538],[77.03357,18.18218],[77.05219,18.17385],[77.05305,18.16072],[77.06427,18.15181],[77.11204,18.15692],[77.11626,18.16937],[77.09694,18.19655],[77.12385,18.20895],[77.14028,18.20758],[77.14266,18.21693],[77.15118,18.21673],[77.14876,18.23936],[77.15985,18.25708],[77.16966,18.26089],[77.17475,18.28476],[77.18742,18.28487],[77.19792,18.27679],[77.21358,18.2808],[77.19876,18.31455],[77.20211,18.32177],[77.21155,18.31623],[77.21875,18.32564],[77.22944,18.34764],[77.21965,18.34888],[77.2254,18.36514],[77.24855,18.37444],[77.23338,18.38805],[77.2402,18.41333],[77.25969,18.41357],[77.26637,18.42285],[77.31319,18.44144],[77.31638,18.42101],[77.32619,18.41657],[77.34013,18.42507],[77.34364,18.4429],[77.35719,18.45047],[77.3692,18.4475],[77.36345,18.43099],[77.37264,18.40094],[77.40095,18.40229],[77.41415,18.39219],[77.40983,18.37661],[77.39494,18.36947],[77.40058,18.34753],[77.3563,18.32089],[77.36577,18.30894],[77.41235,18.30213],[77.42868,18.31292],[77.43768,18.31029],[77.43691,18.29206],[77.44117,18.28213],[77.44622,18.28345],[77.4477,18.26987],[77.4643,18.26284],[77.48066,18.27207],[77.49387,18.26919],[77.50803,18.28451],[77.51317,18.31015],[77.56089,18.28427],[77.57244,18.2948],[77.57849,18.28634],[77.60343,18.27934],[77.5728,18.24298],[77.5864,18.2176],[77.57619,18.20169],[77.5649,18.20357],[77.56307,18.19546],[77.57021,18.19283],[77.58343,18.16105],[77.59723,18.15655],[77.59408,18.13643],[77.60219,18.10515],[77.59592,18.0856],[77.56491,18.0758],[77.55787,18.06375],[77.54844,18.06438],[77.5466,18.03639],[77.58005,18.03255],[77.58745,18.01425],[77.60285,18.02098],[77.62639,17.99675],[77.64898,17.9999],[77.64874,17.97941],[77.65611,17.96975],[77.65026,17.95009],[77.63701,17.9525],[77.63346,17.96795],[77.62454,17.95949],[77.63318,17.95648],[77.63304,17.94947],[77.61827,17.93834],[77.61893,17.90369],[77.58623,17.90828],[77.58642,17.8934],[77.6009,17.88092],[77.59835,17.87328],[77.57637,17.87544],[77.55362,17.82011],[77.54864,17.81953],[77.547,17.82843],[77.5289,17.83005],[77.52879,17.81308],[77.51419,17.80402],[77.50598,17.78639],[77.52231,17.78046],[77.53827,17.77974],[77.55526,17.76359],[77.56887,17.76643],[77.57032,17.74181],[77.5223,17.72701],[77.50642,17.71594],[77.49656,17.71632],[77.49227,17.70798],[77.45294,17.69484],[77.45508,17.6746],[77.4485,17.653],[77.45648,17.63448],[77.44925,17.60918],[77.44477,17.60911],[77.44452,17.5835],[77.49298,17.56808],[77.50023,17.54315],[77.51267,17.5445],[77.53254,17.57704],[77.54272,17.57145],[77.54918,17.55061],[77.59195,17.56509],[77.59559,17.53587],[77.61954,17.52924],[77.63504,17.53308],[77.63928,17.524],[77.66299,17.52309],[77.67564,17.50718],[77.6879,17.5126],[77.69208,17.49621],[77.68299,17.47433],[77.6522,17.48427],[77.65536,17.50516],[77.63872,17.47347],[77.61352,17.47206],[77.61441,17.44627],[77.60295,17.44449],[77.57912,17.45819],[77.57655,17.43054],[77.55997,17.43192],[77.53695,17.44557],[77.51751,17.43229],[77.51427,17.43574],[77.51564,17.41913],[77.51049,17.41398],[77.54028,17.40756],[77.52351,17.38804],[77.53248,17.38103],[77.52967,17.37099],[77.50329,17.35524],[77.48348,17.35487],[77.47472,17.36156],[77.47928,17.37046],[77.45291,17.37381],[77.45666,17.32325],[77.45154,17.32331],[77.43733,17.29243],[77.45494,17.28814],[77.45896,17.27946],[77.42609,17.2559],[77.42069,17.23672],[77.40776,17.23968],[77.38016,17.22108],[77.40201,17.21019],[77.39389,17.19409],[77.37159,17.19579],[77.36164,17.16403],[77.36613,17.15486],[77.37995,17.15207],[77.37816,17.14014],[77.40465,17.13545],[77.40744,17.12597],[77.43117,17.11877],[77.44359,17.12349],[77.4596,17.11459],[77.46467,17.10662],[77.46144,17.09145],[77.4826,17.08],[77.4792,17.0731],[77.48968,17.04712],[77.49758,17.04388],[77.4958,17.02945],[77.50315,17.014],[77.47913,16.99463],[77.48201,16.9728],[77.473,16.95784],[77.465,16.95709],[77.46899,16.91944],[77.45376,16.91427],[77.46406,16.85165],[77.45715,16.83131],[77.47573,16.7919],[77.46723,16.78239],[77.43896,16.77849],[77.44637,16.76527],[77.42578,16.72208],[77.43796,16.71177],[77.446,16.72215],[77.47353,16.71588],[77.46865,16.68467],[77.46393,16.67669],[77.44756,16.67908],[77.44252,16.66955],[77.41837,16.66874],[77.41914,16.6574],[77.42994,16.65659],[77.43997,16.64566],[77.43465,16.64119],[77.44521,16.64012],[77.46339,16.65485],[77.47249,16.6522],[77.47395,16.6454],[77.45447,16.61658],[77.46839,16.60543],[77.4613,16.58298],[77.43941,16.58729],[77.42319,16.56855],[77.39227,16.56977],[77.40351,16.55087],[77.41789,16.54866],[77.41695,16.52049],[77.37719,16.51386],[77.36933,16.48824],[77.32416,16.48686],[77.3245,16.49125],[77.29835,16.49625],[77.29432,16.47686],[77.23813,16.47363],[77.26378,16.45105],[77.28954,16.41295],[77.33781,16.39763],[77.35194,16.38697],[77.37836,16.38949],[77.41805,16.37023],[77.45426,16.38378],[77.48833,16.38607],[77.5221,16.37864],[77.53241,16.36673],[77.57865,16.34232],[77.5941,16.34767],[77.59641,16.3376],[77.58836,16.33254],[77.59721,16.31607],[77.5924,16.30278],[77.5975,16.29332],[77.58218,16.29098],[77.56924,16.30346],[77.56367,16.30161],[77.54493,16.29189],[77.53715,16.26696],[77.51833,16.27908],[77.50782,16.2757],[77.5022,16.26213],[77.4898,16.25525],[77.49191,16.22933],[77.51375,16.23082],[77.51655,16.2264],[77.51204,16.22068],[77.50201,16.22418],[77.49984,16.19994],[77.48565,16.16472],[77.49127,16.1549],[77.48994,16.12001],[77.50152,16.12025],[77.51449,16.10684],[77.50079,16.10654],[77.49652,16.09447],[77.49849,16.08407],[77.5073,16.07859],[77.49295,16.03984],[77.50659,16.0104],[77.51419,16.00852],[77.50949,15.9807],[77.5193,15.96721],[77.51196,15.92372],[77.43204,15.94536],[77.37284,15.94018],[77.35594,15.94577],[77.35666,15.95337],[77.28248,15.95092],[77.24968,15.96067],[77.2376,15.9546],[77.15622,15.951],[77.14032,15.93628],[77.1068,15.92689],[77.0739,15.90496],[77.03285,15.85269],[77.0291,15.83345],[77.06631,15.82647],[77.06624,15.78482],[77.06024,15.78632],[77.05075,15.76401],[77.05616,15.76215],[77.05442,15.75652],[77.04782,15.75624],[77.04921,15.72997],[77.0801,15.72747],[77.07902,15.71605],[77.08795,15.71473],[77.07869,15.6951],[77.10959,15.68116],[77.12018,15.66709],[77.12834,15.66587],[77.1272,15.65721],[77.12143,15.63095],[77.08296,15.65891],[77.07121,15.64548],[77.03146,15.6351],[77.03331,15.60523],[77.02607,15.58077],[77.03008,15.50274],[76.97447,15.51072],[76.97466,15.49564],[76.99815,15.47758],[77.01003,15.44984],[77.03461,15.43168],[77.02884,15.40548],[77.04784,15.38807],[77.04417,15.35785],[77.06389,15.34507],[77.06413,15.32754],[77.11353,15.33364],[77.11789,15.29438],[77.15177,15.29196],[77.14745,15.27227],[77.1679,15.2679],[77.16802,15.25774],[77.144,15.25676],[77.1357,15.24158],[77.12622,15.24034],[77.12478,15.22725],[77.14738,15.22472],[77.16188,15.20185],[77.16927,15.17186],[77.16258,15.15782],[77.14104,15.15899],[77.1358,15.15119],[77.13749,15.14376],[77.15693,15.1406],[77.15633,15.12312],[77.14239,15.10516],[77.12977,15.10102],[77.12676,15.06815],[77.11301,15.03337],[77.08518,15.03086],[77.08275,15.0056],[77.04424,15.00922],[77.04935,15.03301],[77.004,15.03419],[76.98624,15.02644],[76.9855,15.01551],[76.96589,15.01813],[76.95036,15.03099],[76.91804,15.03618],[76.8945,15.03766],[76.87728,15.03117],[76.86617,15.05979],[76.80159,15.09548],[76.7775,15.07708],[76.77348,15.05912],[76.7905,15.02074],[76.77438,14.99274],[76.76006,14.98929],[76.7664,14.97461],[76.81801,14.9693],[76.8284,14.95607],[76.8413,14.96627],[76.86687,14.96956],[76.86987,14.9377],[76.86387,14.89538],[76.8473,14.89632],[76.8454,14.88977],[76.85252,14.88723],[76.85699,14.86888],[76.85438,14.84098],[76.84252,14.83623],[76.85431,14.80991],[76.83752,14.81082],[76.83732,14.79121],[76.78294,14.78649],[76.7944,14.74603],[76.78645,14.69824],[76.77081,14.67531],[76.77553,14.67121],[76.76523,14.60187],[76.78152,14.59669],[76.79145,14.55424],[76.80668,14.5319],[76.8315,14.52941],[76.83325,14.52204],[76.85563,14.50922],[76.86659,14.47563],[76.88438,14.47721],[76.88626,14.48349],[76.9045,14.48968],[76.97495,14.48523],[76.96011,14.45091],[76.9449,14.45147],[76.94775,14.41357],[76.94273,14.39968],[76.91278,14.42184],[76.89722,14.39754],[76.88741,14.39554],[76.88482,14.3475],[76.90335,14.32284],[76.94508,14.31262],[76.95641,14.29446],[76.9247,14.27407],[76.94004,14.24424],[76.98558,14.24743],[77.0056,14.23577],[77.03597,14.24679],[77.05031,14.24573],[77.05822,14.24392],[77.06143,14.22914],[77.06981,14.23172],[77.08022,14.2132],[77.10726,14.21956],[77.11684,14.22612],[77.11928,14.24373],[77.11432,14.25298],[77.11964,14.26266],[77.11117,14.26155],[77.11006,14.26832],[77.11557,14.27385],[77.11552,14.29287],[77.13173,14.30943],[77.13484,14.33606],[77.15691,14.34191],[77.18438,14.33242],[77.19736,14.32104],[77.23975,14.31729],[77.28684,14.34035],[77.28943,14.31032],[77.28342,14.28222],[77.36331,14.27605],[77.36041,14.2344],[77.38406,14.22064],[77.38724,14.19972],[77.41409,14.20527],[77.41886,14.21141],[77.41752,14.22564],[77.4091,14.23166],[77.4086,14.25997],[77.4051,14.26686],[77.38815,14.2697],[77.38993,14.27898],[77.37691,14.3041],[77.37924,14.32163],[77.39328,14.33517],[77.41259,14.33742],[77.42822,14.32916],[77.43096,14.31327],[77.44658,14.31746],[77.4499,14.28081],[77.48191,14.29259],[77.49158,14.27814],[77.49823,14.27955],[77.50352,14.26619],[77.49236,14.23086],[77.504,14.19237],[77.51674,14.18342],[77.50378,14.15772],[77.46761,14.1653],[77.46695,14.17212],[77.39398,14.17429],[77.39763,14.16008],[77.38904,14.15961],[77.3802,14.13683],[77.35107,14.12809],[77.34982,14.10309],[77.38842,14.12608],[77.40056,14.12016],[77.35964,14.06211],[77.34049,14.0602],[77.33219,14.03094],[77.3897,14.01641],[77.37949,13.99013],[77.38135,13.97593],[77.39587,13.98369],[77.42693,13.98675],[77.43997,13.97579],[77.43567,13.94838],[77.41163,13.94551],[77.41584,13.924],[77.43066,13.92085],[77.43455,13.91203],[77.40509,13.88904],[77.39889,13.88821],[77.39791,13.90637],[77.35433,13.90424],[77.34747,13.91556],[77.37182,13.95353],[77.35071,13.95823],[77.36062,13.99044],[77.33667,13.99579],[77.3374,14.0052],[77.3222,14.03042],[77.30656,14.03198],[77.29824,14.02185],[77.27584,14.013],[77.27902,14.03206],[77.27251,14.03464],[77.24533,14.01171],[77.22207,14.01399],[77.20253,14.00796],[77.17289,14.01272],[77.17318,14.00096],[77.1435,14.00294],[77.13161,14.04522],[77.0796,14.04268],[77.07642,14.05337],[77.03454,14.05633],[77.02677,14.06337],[77.02872,14.08874],[77.01384,14.09967],[77.02593,14.12404],[77.02042,14.13527],[77.02244,14.1773],[77.0049,14.18422],[76.99461,14.17863],[76.96256,14.18193],[76.94741,14.19819],[76.9428,14.19593],[76.94253,14.17324],[76.92214,14.16945],[76.91963,14.16411],[76.89478,14.16766],[76.8866,14.13776],[76.91512,14.12817],[76.92525,14.13642],[76.9542,14.10304],[76.95031,14.09207],[76.97501,14.08098],[76.97189,14.05852],[76.93199,14.05451],[76.93062,14.03088],[76.94379,14.02997],[76.95004,14.01459],[76.96591,14.01125],[76.9993,13.98993],[76.99357,13.96279],[77.01379,13.9555],[77.02385,13.94032],[77.03999,13.93384],[77.04581,13.91111],[77.0468,13.90591],[77.022,13.90279],[77.01394,13.85881],[76.99241,13.84898],[76.99039,13.83724],[76.97807,13.82676],[76.97653,13.81699],[76.98979,13.8131],[76.98487,13.79074],[76.99919,13.74549],[77.0166,13.73821],[77.02429,13.7791],[77.04303,13.77774],[77.06513,13.74483],[77.08537,13.74319],[77.09047,13.76718],[77.13691,13.75848],[77.15133,13.76636],[77.17336,13.76206],[77.17906,13.78292],[77.15779,13.8056],[77.16974,13.82971],[77.15328,13.83416],[77.15467,13.84447],[77.13229,13.8463],[77.12819,13.85617],[77.13673,13.85661],[77.14564,13.86808],[77.16737,13.86232],[77.17159,13.86996],[77.16225,13.90734],[77.16972,13.92016],[77.185,13.92459],[77.19068,13.91153],[77.18178,13.87001],[77.19389,13.86506],[77.2006,13.86336],[77.2127,13.88566],[77.21522,13.86754],[77.21981,13.8679],[77.23111,13.90284],[77.24481,13.90363],[77.24654,13.86768],[77.25895,13.86243],[77.25709,13.84662],[77.29023,13.84782],[77.29499,13.85763],[77.31106,13.86689],[77.32117,13.85623],[77.32551,13.83278],[77.33682,13.83266],[77.36302,13.854],[77.37883,13.84929],[77.38221,13.83914],[77.43377,13.8429],[77.41747,13.80777],[77.42866,13.80666],[77.42261,13.79878],[77.43727,13.79606],[77.44543,13.81051],[77.46473,13.80749],[77.45679,13.78856],[77.46154,13.78798],[77.46503,13.75871],[77.47046,13.75805],[77.46506,13.71107],[77.45009,13.71136],[77.45536,13.68283],[77.49121,13.68982],[77.48348,13.71569],[77.51448,13.71294],[77.5119,13.69725],[77.5214,13.69049],[77.52881,13.69312],[77.53534,13.7172],[77.5364,13.73071],[77.52208,13.74467],[77.52647,13.75381],[77.54451,13.75478],[77.56043,13.72229],[77.5713,13.73835],[77.58678,13.73358],[77.60009,13.75105],[77.61339,13.75201],[77.62752,13.73466],[77.64166,13.74235],[77.64201,13.74829],[77.61846,13.75503],[77.6205,13.76814],[77.65165,13.7839],[77.67965,13.78713],[77.67839,13.76852],[77.67109,13.76065],[77.70302,13.77297],[77.70869,13.74075],[77.71736,13.74087],[77.71911,13.80056],[77.74484,13.81047],[77.74196,13.81478],[77.74679,13.80948],[77.78725,13.8205],[77.78226,13.84389],[77.81234,13.8475],[77.8196,13.86273],[77.83661,13.86963],[77.82674,13.87416],[77.83538,13.88089],[77.83101,13.89767],[77.81603,13.90424],[77.81332,13.91834],[77.81532,13.93299],[77.82545,13.94481],[77.84591,13.93554],[77.89569,13.94422],[77.89611,13.92093],[77.92661,13.90541],[77.94762,13.93701],[77.95952,13.93779],[77.96202,13.95544],[77.97999,13.95858],[77.98749,13.95575],[77.98101,13.9293],[77.98519,13.8991],[77.94959,13.88687],[77.95593,13.83633],[77.95233,13.82688],[77.97645,13.83],[77.99261,13.86825],[78.00022,13.87293],[78.02048,13.86395],[78.04639,13.86204],[78.04873,13.89621],[78.07875,13.88134],[78.08233,13.86175],[78.11477,13.86328],[78.12202,13.84426],[78.12508,13.83045],[78.11383,13.80755],[78.12578,13.78605],[78.09221,13.74216],[78.10461,13.73642],[78.12059,13.71497],[78.11311,13.69273],[78.0697,13.69755],[78.07341,13.688],[78.06571,13.67672],[78.08951,13.65948],[78.08709,13.64358],[78.09858,13.643],[78.11385,13.65761],[78.15565,13.65795],[78.16882,13.65411],[78.16723,13.63259],[78.20395,13.62851],[78.2035,13.60631],[78.19002,13.58994],[78.19331,13.56418],[78.20339,13.56838],[78.21612,13.59106],[78.23207,13.58589],[78.23391,13.59945],[78.25954,13.58457],[78.31059,13.59323],[78.35234,13.58523],[78.37989,13.59215],[78.40175,13.58815],[78.39514,13.54075],[78.3816,13.52509],[78.38346,13.51605],[78.37323,13.50894],[78.37842,13.48488],[78.37067,13.47054],[78.37901,13.44283],[78.38201,13.39666],[78.36582,13.36076],[78.38003,13.36237],[78.40889,13.34271],[78.40081,13.32767],[78.38489,13.33446],[78.38644,13.34271],[78.37774,13.33157],[78.38807,13.33223],[78.40135,13.31539],[78.43624,13.33],[78.44417,13.30809],[78.4767,13.32228],[78.48445,13.32026],[78.48005,13.30122],[78.49891,13.29965],[78.50433,13.29172],[78.51389,13.29075],[78.53165,13.26647],[78.53919,13.28803],[78.55468,13.28306],[78.56189,13.28894],[78.56543,13.31197],[78.58779,13.27184],[78.58413,13.25881],[78.57059,13.24729],[78.56644,13.22417],[78.57925,13.21317],[78.57084,13.21244],[78.568,13.20116],[78.55103,13.20041],[78.54966,13.19272],[78.57199,13.19039],[78.57963,13.16708],[78.5497,13.16392],[78.54059,13.15347],[78.5474,13.14886],[78.54503,13.14183],[78.53091,13.14176],[78.52369,13.13055],[78.51784,13.13162],[78.52299,13.11499],[78.53882,13.10583],[78.50984,13.09206],[78.51555,13.06263],[78.49716,13.06143],[78.48927,13.05213],[78.47858,13.05507],[78.47475,13.04534],[78.46209,13.0431],[78.4631,13.00552],[78.47503,12.99113],[78.46772,12.97514],[78.43513,12.98194],[78.43248,12.96845],[78.43874,12.96328],[78.41985,12.95885],[78.42059,12.9478],[78.41135,12.9448],[78.41804,12.9226],[78.42752,12.93133],[78.43746,12.92881],[78.4664,12.90616],[78.46967,12.88995],[78.46454,12.86623],[78.46419,12.8783],[78.44733,12.89173],[78.44554,12.91204],[78.4387,12.91322],[78.42863,12.90238],[78.414,12.903],[78.39894,12.91666],[78.39694,12.90661],[78.38964,12.90612],[78.35418,12.93972],[78.34059,12.90416],[78.32497,12.90373],[78.32263,12.89783],[78.32015,12.88687],[78.33062,12.88437],[78.33327,12.88968],[78.33715,12.88265],[78.33159,12.87484],[78.31368,12.87651],[78.31315,12.85871],[78.28087,12.85984],[78.26878,12.86837],[78.26357,12.86115],[78.25171,12.86334],[78.24509,12.78783],[78.23062,12.76064],[78.19537,12.774],[78.1772,12.77623],[78.16775,12.77056],[78.1337,12.78207],[78.12484,12.79764],[78.08828,12.81741],[78.08563,12.83168],[78.07479,12.83071],[78.07688,12.83933],[78.05945,12.8431],[78.05325,12.85338],[78.04952,12.848],[78.02312,12.85557],[78.02852,12.84557],[78.0192,12.84345],[78.01858,12.83067],[78.00376,12.82539],[78.01532,12.8138],[78.0099,12.80509],[77.98909,12.80847],[77.99121,12.82184],[77.9796,12.82739],[77.98045,12.83524],[77.96386,12.83369],[77.96561,12.84834],[77.95328,12.85018],[77.95226,12.85669],[77.941,12.85579],[77.94677,12.83812],[77.94115,12.82323],[77.92124,12.82801],[77.91768,12.83835],[77.9233,12.85569],[77.94209,12.86901],[77.92867,12.87429],[77.92789,12.88156],[77.93634,12.88369],[77.92915,12.89074],[77.92186,12.88402],[77.909,12.88526],[77.90864,12.87892],[77.89496,12.87834],[77.89098,12.87008],[77.85052,12.86587],[77.83674,12.8704],[77.83308,12.86202],[77.8079,12.84768],[77.799,12.85195],[77.79259,12.84341],[77.79559,12.8348],[77.81006,12.83102],[77.80978,12.81582],[77.80224,12.81714],[77.79998,12.80543],[77.80903,12.79683],[77.79471,12.7917],[77.7789,12.76796],[77.79501,12.75823],[77.792,12.74675],[77.763,12.7364],[77.76106,12.72726],[77.77441,12.72451],[77.76257,12.69696],[77.73756,12.69839],[77.741,12.67373],[77.72478,12.6708],[77.72321,12.67938],[77.71196,12.68339],[77.71086,12.66639],[77.68965,12.65849],[77.67615,12.66345],[77.67707,12.67933],[77.66325,12.68327],[77.59793,12.66809],[77.59604,12.6496],[77.60553,12.62895],[77.59125,12.61717],[77.59153,12.59137],[77.5797,12.57272],[77.58058,12.55139],[77.58992,12.5478],[77.58809,12.51686],[77.61172,12.51409],[77.6152,12.50852],[77.58314,12.47794],[77.60689,12.47446],[77.62618,12.49637],[77.63585,12.48797],[77.627,12.45878],[77.62842,12.41812],[77.6207,12.41341],[77.62111,12.38419],[77.61439,12.3626],[77.60096,12.35873],[77.59135,12.33943],[77.57577,12.33634],[77.56606,12.30684],[77.55743,12.30519],[77.55109,12.28924],[77.534,12.28935],[77.52826,12.27133],[77.51014,12.26874],[77.48986,12.27802],[77.48141,12.26973],[77.4734,12.2436],[77.48257,12.22936],[77.47176,12.20827],[77.49292,12.19762],[77.51878,12.19459],[77.54573,12.20478],[77.56527,12.19639],[77.61139,12.20638],[77.63744,12.19696],[77.66548,12.19831],[77.73373,12.17791],[77.74682,12.15582],[77.74772,12.14125],[77.77685,12.11354],[77.76762,12.10669],[77.75498,12.0786],[77.72786,12.06274],[77.70871,12.03833],[77.67591,11.96912],[77.67539,11.95215],[77.65824,11.94993],[77.65121,11.95485],[77.60332,11.93797],[77.56047,11.94216],[77.53797,11.93267],[77.49405,11.94365],[77.49039,11.90856],[77.48321,11.90006],[77.48566,11.88788],[77.4733,11.89988],[77.46154,11.90021],[77.46052,11.88044],[77.46595,11.87447],[77.46007,11.86372],[77.46707,11.84667],[77.45616,11.8271],[77.44828,11.7901],[77.43384,11.77823],[77.42777,11.76111],[77.42265,11.76229],[77.42218,11.77253],[77.39443,11.78786],[77.36485,11.79045],[77.35987,11.77992],[77.33504,11.77153],[77.29369,11.80932],[77.28748,11.80058],[77.2503,11.81293],[77.24961,11.80442],[77.23823,11.79429],[77.18949,11.79268],[77.18916,11.79869],[77.18254,11.79303],[77.13686,11.78967],[77.11876,11.78223],[77.11992,11.7728],[77.11051,11.77353],[77.1122,11.72376],[77.10523,11.73292],[77.08028,11.73585],[77.05627,11.76965],[77.07022,11.78171],[77.06654,11.78915],[77.04391,11.7865],[77.03541,11.76996],[77.02889,11.77486],[77.0389,11.79403],[77.03041,11.8044],[77.01666,11.81166],[77.01341,11.80783],[77.01243,11.81516],[76.99392,11.80817],[76.98348,11.81153],[76.98494,11.80269],[76.96944,11.77765],[76.95373,11.79161],[76.94177,11.78778],[76.90729,11.79587],[76.89938,11.78511],[76.88814,11.73585],[76.85091,11.69375],[76.83483,11.65567],[76.83467,11.63961],[76.84512,11.63442],[76.8428,11.62716],[76.85784,11.61433],[76.85308,11.5968],[76.83953,11.59707],[76.82408,11.60805],[76.81738,11.6049],[76.75768,11.61811],[76.59772,11.60966],[76.59231,11.61817],[76.57696,11.61481],[76.56007,11.62337],[76.55043,11.67459],[76.52701,11.69352],[76.50649,11.70123],[76.49546,11.68999],[76.48024,11.6885],[76.47923,11.68068],[76.45568,11.65845],[76.41598,11.6716],[76.40826,11.70576],[76.4026,11.70741],[76.42568,11.72658],[76.41779,11.74221],[76.40969,11.74073],[76.415,11.75705],[76.34039,11.7378],[76.31767,11.75163],[76.31116,11.7745],[76.2958,11.78677],[76.28072,11.81151],[76.23898,11.80261],[76.22285,11.80878],[76.20987,11.82908],[76.21312,11.84288],[76.2071,11.86255],[76.1871,11.87202],[76.15453,11.86858],[76.12096,11.84891],[76.11311,11.86002],[76.11004,11.97468],[76.0912,11.96848],[76.06721,11.98413],[76.06691,11.99222],[76.06148,11.95963],[76.03313,11.9403],[76.01306,11.94182],[76.00342,11.93099],[75.87039,11.9528],[75.85446,11.96444],[75.84976,11.98445],[75.83137,11.99201],[75.82479,12.01266],[75.80164,12.03616],[75.79466,12.05665],[75.80343,12.07587],[75.8,12.07958],[75.75357,12.08485],[75.71519,12.07056],[75.71798,12.08593],[75.70223,12.0925],[75.70318,12.10827],[75.68779,12.11061],[75.67662,12.09839],[75.66193,12.09949],[75.64896,12.10967],[75.63627,12.14927],[75.61871,12.15675],[75.59583,12.15449],[75.59251,12.14796],[75.58309,12.15942],[75.57728,12.15797],[75.54755,12.19723],[75.5317,12.20245],[75.53892,12.2152],[75.51709,12.23519],[75.50535,12.27155],[75.49417,12.27298],[75.48872,12.2829],[75.50129,12.29846],[75.48848,12.30289],[75.44512,12.29247],[75.46003,12.3065],[75.45663,12.32024],[75.44461,12.32062],[75.43475,12.312],[75.42354,12.31479],[75.41213,12.34951],[75.4197,12.35727],[75.41209,12.36083],[75.3899,12.35471],[75.37937,12.3673],[75.35862,12.3684],[75.35755,12.37904],[75.34884,12.38172],[75.34845,12.3929],[75.33866,12.401],[75.34125,12.40736],[75.35235,12.41069],[75.36016,12.40598],[75.36356,12.41212],[75.37167,12.43897],[75.3664,12.45967],[75.38774,12.45897],[75.39671,12.45233],[75.4267,12.46768],[75.41657,12.50263],[75.40266,12.49942],[75.39918,12.50385],[75.3827,12.50285],[75.37008,12.49255],[75.37441,12.48102],[75.36126,12.4654],[75.33578,12.46405],[75.34203,12.47054],[75.33349,12.49894],[75.31473,12.49683],[75.30403,12.50412],[75.3035,12.52328],[75.2801,12.52567],[75.27309,12.53742],[75.2768,12.54158],[75.26972,12.54662],[75.27134,12.57119],[75.28379,12.57102],[75.28885,12.58343],[75.31554,12.57367],[75.3261,12.58132],[75.32705,12.59239],[75.31208,12.58984],[75.30189,12.60549],[75.29148,12.60209],[75.27572,12.61823],[75.26517,12.61108],[75.24991,12.58424],[75.23922,12.58063],[75.23803,12.56911],[75.21991,12.56883],[75.20926,12.59156],[75.20113,12.5875],[75.21061,12.59697],[75.19774,12.61407],[75.20134,12.63036],[75.19073,12.63516],[75.16083,12.62236],[75.13816,12.64365],[75.15015,12.64956],[75.16141,12.67169],[75.14921,12.67311],[75.15087,12.68292],[75.1329,12.67516],[75.11197,12.68148],[75.1054,12.69772],[75.08471,12.70533],[75.0807,12.69915],[75.08724,12.67611],[75.0671,12.66347],[75.05929,12.67154],[75.05877,12.66599],[75.04677,12.66654],[75.04043,12.68407],[75.04288,12.69309],[75.056,12.69316],[75.05171,12.72009],[75.03785,12.72418],[75.01854,12.72108],[75.01568,12.71391],[75.00126,12.71612],[75.01324,12.72826],[74.99256,12.73979],[74.98393,12.73637],[75.00825,12.76707],[75.00525,12.79097],[74.99824,12.78661],[74.98606,12.79607],[74.9924,12.78795],[74.98254,12.77997],[74.96655,12.7766],[74.96443,12.78231],[74.96028,12.77854],[74.95865,12.78494],[74.95054,12.78452],[74.88313,12.75398],[74.86494,12.75932],[74.82472,12.84697],[74.76714,13.11643],[74.71488,13.32141],[74.69844,13.34337],[74.69338,13.46919],[74.67058,13.62995],[74.64587,13.68085],[74.60766,13.86635],[74.57015,13.94665],[74.54918,13.9491],[74.51486,13.98755],[74.48575,14.09435],[74.48865,14.10736],[74.47635,14.14117],[74.47079,14.18234],[74.46347,14.2],[74.45361,14.20032],[74.42202,14.2792],[74.39754,14.40965],[74.39495,14.41682],[74.3795,14.42168],[74.37609,14.46075],[74.35506,14.50931],[74.33714,14.51872],[74.31075,14.5215],[74.31646,14.52924],[74.31159,14.53531],[74.31506,14.54238],[74.29486,14.59154],[74.29644,14.60106],[74.27992,14.61107],[74.27077,14.62768],[74.28202,14.62756],[74.28536,14.64553],[74.28135,14.66119],[74.27515,14.66583],[74.2823,14.67679],[74.26937,14.70234]]],[[[77.52395,17.78581],[77.52563,17.78246],[77.52161,17.7827],[77.52395,17.78581]]],[[[77.27512,18.47762],[77.29988,18.47605],[77.29534,18.45896],[77.26735,18.45426],[77.27512,18.47762]]]]},"properties":{"name":"Karnataka","role":"context"}}]}