{"type":"FeatureCollection","features":[{"type":"Feature","geometry":{"type":"LineString","coordinates":[[76.05375,12.82458],[76.05958,12.81958],[76.06875,12.81708],[76.07125,12.81875],[76.07625,12.81875],[76.08125,12.81625],[76.10208,12.81625],[76.10625,12.82042],[76.10625,12.82375],[76.10875,12.82625],[76.11375,12.81958],[76.12042,12.81625],[76.12625,12.81958],[76.14542,12.81958],[76.15042,12.81792],[76.15542,12.82375],[76.15542,12.83375],[76.16875,12.83458],[76.17292,12.83125],[76.17625,12.82375],[76.18208,12.82375],[76.18375,12.82208],[76.18458,12.81292],[76.19958,12.81292],[76.20375,12.81042],[76.20792,12.81042],[76.21958,12.79375],[76.22542,12.79708],[76.22792,12.79542],[76.22792,12.78708],[76.22958,12.78542],[76.23708,12.78542],[76.24458,12.79708],[76.24875,12.79708],[76.25458,12.79458],[76.25875,12.79708],[76.25875,12.79958],[76.25542,12.80292],[76.25208,12.81042],[76.25208,12.82125],[76.25708,12.82458],[76.26542,12.82708]]},"properties":{"cwcSubBasin":"Cauvery Upper","lengthM":"36064.58","cwcBasin":"Cauvery Basin","subBasin":"C1"}},{"type":"Feature","geometry":{"type":"LineString","coordinates":[[75.82083,12.49458],[75.82625,12.49542],[75.82875,12.49375],[75.83208,12.49792],[75.83375,12.49708],[75.83542,12.49875],[75.83958,12.49625],[75.84458,12.50208],[75.84792,12.50208],[75.85042,12.49875],[75.85542,12.49875],[75.85708,12.50042],[75.86375,12.49208],[75.86542,12.49208],[75.86708,12.49375],[75.86708,12.49708],[75.87042,12.50042],[75.87542,12.50208],[75.87792,12.49875],[75.87875,12.49042],[75.88458,12.48458],[75.88625,12.48458],[75.89292,12.49125],[75.90292,12.49125],[75.90625,12.49458],[75.90958,12.49458],[75.91792,12.50208],[75.91792,12.50458],[75.92125,12.50792],[75.92875,12.50042],[75.93625,12.49958],[75.93875,12.50208],[75.94208,12.50042],[75.94792,12.50125],[75.95458,12.49375],[75.95792,12.49375],[75.96042,12.49625]]},"properties":{"cwcSubBasin":"Cauvery Upper","lengthM":"21382.076","cwcBasin":"Cauvery Basin","subBasin":"C1"}},{"type":"Feature","geometry":{"type":"LineString","coordinates":[[77.42875,12.14125],[77.43208,12.14625],[77.44042,12.15208],[77.44375,12.15792],[77.44708,12.15708],[77.45042,12.16125],[77.44625,12.16792],[77.44958,12.17125],[77.45542,12.17208],[77.45792,12.17708],[77.46542,12.18292],[77.46125,12.19292],[77.46375,12.19458],[77.46708,12.19042],[77.47208,12.19208],[77.47625,12.19958],[77.48375,12.20458]]},"properties":{"cwcSubBasin":"Cauvery Middle","lengthM":"12644.868","cwcBasin":"Cauvery Basin","subBasin":"C7"}},{"type":"Feature","geometry":{"type":"LineString","coordinates":[[76.89625,12.92208],[76.89792,12.91875],[76.89792,12.91042],[76.88792,12.90708],[76.88625,12.90458],[76.88875,12.89958],[76.89208,12.87708],[76.89375,12.87542],[76.89375,12.87042],[76.89208,12.86875],[76.89292,12.85625],[76.89125,12.85042],[76.89458,12.84792],[76.89792,12.84792],[76.90208,12.84375],[76.90208,12.83958],[76.90625,12.83458],[76.90708,12.82792],[76.91125,12.82458],[76.91125,12.82208],[76.91458,12.81875],[76.91708,12.81875],[76.91708,12.81542],[76.92042,12.81208],[76.92042,12.80792],[76.92458,12.80375],[76.93208,12.80042]]},"properties":{"cwcSubBasin":"Cauvery Middle","lengthM":"17634.447","cwcBasin":"Cauvery Basin","subBasin":"C4"}},{"type":"Feature","geometry":{"type":"LineString","coordinates":[[77.23958,12.31042],[77.24625,12.30792],[77.25125,12.30875],[77.25625,12.31292],[77.26958,12.31375],[77.28292,12.30875],[77.28792,12.30375],[77.29708,12.30375],[77.30292,12.29958],[77.30875,12.29958],[77.31708,12.30708],[77.32875,12.30792],[77.33958,12.28458],[77.34875,12.27875],[77.35375,12.27875],[77.36625,12.28375],[77.37542,12.28125],[77.40458,12.27958],[77.40792,12.28042],[77.41875,12.28958],[77.42458,12.28958],[77.43375,12.28625]]},"properties":{"cwcSubBasin":"Cauvery Middle","lengthM":"25931.826","cwcBasin":"Cauvery Basin","subBasin":"C6"}},{"type":"Feature","geometry":{"type":"LineString","coordinates":[[77.20917,12.74417],[77.19375,12.72875],[77.18542,12.72375],[77.18542,12.71875],[77.18208,12.71542],[77.18208,12.71292],[77.17958,12.71042],[77.17875,12.71125],[77.17292,12.70458],[77.17375,12.70292],[77.17042,12.69792],[77.17042,12.69292],[77.17625,12.68458],[77.17625,12.68042],[77.17375,12.67792],[77.17125,12.67792],[77.17042,12.67458],[77.17375,12.66792],[77.17208,12.66625],[77.17208,12.66042],[77.16792,12.65625],[77.16792,12.65375],[77.17208,12.64958],[77.17458,12.63708],[77.17958,12.63208],[77.17958,12.62792],[77.18292,12.62375],[77.18292,12.62042],[77.17958,12.61708],[77.18208,12.61458],[77.18042,12.60875],[77.18292,12.60792],[77.18458,12.60042],[77.19208,12.59292],[77.19542,12.59208],[77.20375,12.58458],[77.20542,12.58542],[77.20792,12.58208],[77.20792,12.57958],[77.20375,12.57708],[77.20375,12.57375],[77.20708,12.56958],[77.20542,12.55458],[77.20375,12.55292],[77.20458,12.54875],[77.19625,12.53958],[77.19625,12.52875],[77.19875,12.52542],[77.19708,12.52375],[77.19792,12.52042],[77.19375,12.51875],[77.19208,12.51958],[77.18958,12.51375],[77.18625,12.51042],[77.18625,12.50625],[77.18292,12.50625],[77.17458,12.49708],[77.17125,12.49708],[77.16958,12.49542],[77.17125,12.49042],[77.16625,12.48792],[77.17208,12.48292],[77.17292,12.47875],[77.17125,12.47792]]},"properties":{"cwcSubBasin":"Cauvery Middle","lengthM":"40089.027","cwcBasin":"Cauvery Basin","subBasin":"C4"}},{"type":"Feature","geometry":{"type":"LineString","coordinates":[[77.05833,13.33167],[77.05542,13.33458],[77.05208,13.33458],[77.04875,13.33125],[77.03958,13.32958],[77.03542,13.32208],[77.02458,13.32292],[77.01208,13.31875],[77.00625,13.31958],[77.00125,13.31625],[76.99708,13.31708],[76.98542,13.32708],[76.97708,13.32708]]},"properties":{"cwcSubBasin":"Cauvery Middle","lengthM":"10663.63","cwcBasin":"Cauvery Basin","subBasin":"C4"}},{"type":"Feature","geometry":{"type":"LineString","coordinates":[[77.00958,11.84958],[77.01208,11.85292],[77.01042,11.85625],[77.01958,11.86125],[77.02458,11.86625],[77.02458,11.86792],[77.01792,11.87375],[77.01708,11.87625],[77.01875,11.87875],[77.01458,11.88375],[77.00792,11.88375],[77.00292,11.88875],[76.99375,11.89125],[76.98625,11.89625],[76.98375,11.89875],[76.98375,11.90458]]},"properties":{"cwcSubBasin":"Cauvery Middle","lengthM":"10321.357","cwcBasin":"Cauvery Basin","subBasin":"C3"}},{"type":"Feature","geometry":{"type":"LineString","coordinates":[[77.07333,13.06042],[77.06792,13.06042],[77.06458,13.05875],[77.05708,13.05042],[77.05375,13.05042],[77.05208,13.04708],[77.05292,13.04458],[77.05042,13.04208],[77.03375,13.04208],[77.02458,13.03292],[77.02125,13.03292],[77.01208,13.02792],[77.00708,13.02708],[76.99875,13.01708],[77.00042,13.01542],[76.99875,13.00708],[76.98792,13.00625],[76.98542,13.00792],[76.97875,13.00792],[76.97208,13.00625],[76.97042,13.00125],[76.97208,12.99958],[76.97292,12.98792],[76.97125,12.98625],[76.96542,12.98625],[76.96125,12.98875],[76.95375,12.97792],[76.94708,12.97958],[76.94292,12.97625],[76.94042,12.97625],[76.93708,12.97875],[76.92792,12.97875],[76.92208,12.97375],[76.91875,12.97375],[76.91375,12.97042],[76.90375,12.97625],[76.90208,12.97458],[76.90125,12.96458],[76.90375,12.96042],[76.90375,12.95708],[76.90208,12.95542],[76.90208,12.94958],[76.90042,12.94708],[76.90042,12.94375],[76.90292,12.94125],[76.90292,12.93458],[76.89625,12.92208]]},"properties":{"cwcSubBasin":"Cauvery Middle","lengthM":"33704.137","cwcBasin":"Cauvery Basin","subBasin":"C4"}},{"type":"Feature","geometry":{"type":"LineString","coordinates":[[76.41667,12.8725],[76.40375,12.86042],[76.39958,12.85125],[76.39625,12.84792],[76.39125,12.84625],[76.38875,12.83875],[76.38292,12.83292],[76.37792,12.83208],[76.36625,12.82042]]},"properties":{"cwcSubBasin":"Cauvery Upper","lengthM":"8586.926","cwcBasin":"Cauvery Basin","subBasin":"C1"}},{"type":"Feature","geometry":{"type":"LineString","coordinates":[[76.70875,12.42125],[76.71208,12.42125],[76.71542,12.41875],[76.72208,12.41208],[76.72458,12.40708],[76.73042,12.40458],[76.74542,12.40375],[76.74708,12.40542],[76.75708,12.40625],[76.76125,12.40458],[76.77708,12.40458],[76.78125,12.39542],[76.78792,12.38958],[76.78958,12.38292],[76.79375,12.37875],[76.79458,12.37208],[76.80042,12.36042],[76.80375,12.35708],[76.81375,12.35625],[76.82375,12.35042],[76.83375,12.32875],[76.85125,12.30875],[76.85208,12.30125],[76.85458,12.29875],[76.85875,12.29792],[76.86708,12.29042],[76.86875,12.28292],[76.87292,12.27792],[76.87458,12.27125],[76.88792,12.25792],[76.88958,12.25125],[76.90875,12.23125],[76.90875,12.22708],[76.91292,12.21792]]},"properties":{"cwcSubBasin":"Cauvery Middle","lengthM":"36702.973","cwcBasin":"Cauvery Basin","subBasin":"C6"}},{"type":"Feature","geometry":{"type":"LineString","coordinates":[[76.69208,11.7975],[76.69458,11.80125],[76.69458,11.80458],[76.69875,11.80875],[76.70125,11.80792],[76.70375,11.81042],[76.70208,11.81958],[76.70375,11.83125],[76.70125,11.83458],[76.70208,11.84208],[76.69875,11.84792],[76.69875,11.85458],[76.70125,11.85958],[76.69792,11.86292],[76.69542,11.88208],[76.69208,11.88708],[76.69208,11.89125],[76.69875,11.89542],[76.69958,11.90292],[76.69708,11.90625],[76.69542,11.91625],[76.69125,11.92125],[76.69375,11.92542],[76.69292,11.92708],[76.69542,11.92958],[76.70042,11.92958],[76.70042,11.93458],[76.70625,11.94042],[76.70208,11.94292],[76.70375,11.94458],[76.70292,11.95125],[76.69792,11.95625],[76.69792,11.96125],[76.69542,11.96125],[76.69292,11.96375],[76.69458,11.96792],[76.69125,11.97292],[76.69708,11.97708],[76.69625,11.97875],[76.69792,11.98042],[76.69875,11.98708],[76.70042,11.98708],[76.70625,11.99292],[76.71125,11.99292],[76.71375,11.99125],[76.71625,11.99292],[76.71625,11.99958],[76.71375,12.00208],[76.71458,12.00375],[76.71792,12.00625],[76.72375,12.00458],[76.72875,12.00458],[76.73042,12.00625],[76.72958,12.01792],[76.72542,12.02375],[76.72542,12.02958],[76.72792,12.03208],[76.72542,12.04292],[76.72708,12.04625],[76.73042,12.04792],[76.73042,12.05958],[76.73708,12.06708],[76.73292,12.06792],[76.72458,12.07708],[76.70375,12.07625],[76.69375,12.08458],[76.68542,12.08375],[76.68292,12.08625],[76.68208,12.08792],[76.68458,12.09042],[76.67958,12.09958],[76.68458,12.10458],[76.68542,12.11125],[76.68375,12.11292],[76.68625,12.11458],[76.69042,12.11458],[76.69875,12.12208]]},"properties":{"cwcSubBasin":"Cauvery Middle","lengthM":"53477.383","cwcBasin":"Cauvery Basin","subBasin":"C2"}},{"type":"Feature","geometry":{"type":"LineString","coordinates":[[75.67833,13.06875],[75.68625,13.06708],[75.68792,13.06542],[75.69708,13.06708],[75.69958,13.06458],[75.70375,13.06375],[75.71292,13.05458],[75.71792,13.04458],[75.71792,13.03875],[75.72375,13.03292],[75.72375,13.02708],[75.72708,13.02375],[75.72542,13.02208],[75.72708,13.01792],[75.73125,13.01458],[75.73208,13.01042],[75.74125,13.00208],[75.74208,12.99958],[75.75125,12.99208],[75.75292,12.98292],[75.75542,12.98042],[75.75542,12.97625],[75.75958,12.97458],[75.76292,12.96958],[75.76625,12.96792],[75.76625,12.96375],[75.76958,12.95625],[75.77792,12.94958],[75.78458,12.94875],[75.78625,12.95042],[75.79042,12.95042],[75.79625,12.94458],[75.79625,12.94208],[75.78958,12.93542],[75.78958,12.92792],[75.80542,12.91375],[75.80542,12.91208],[75.81375,12.90375],[75.81375,12.89792],[75.81208,12.89542],[75.81375,12.88875],[75.82125,12.88042],[75.82458,12.87292],[75.83125,12.86625],[75.83208,12.85625],[75.84792,12.83875],[75.84875,12.83458],[75.85292,12.82958],[75.85542,12.82958],[75.86375,12.82458],[75.87292,12.82458],[75.88125,12.83292],[75.89292,12.83292],[75.90875,12.81708],[75.91208,12.81708],[75.91625,12.82125],[75.91625,12.82375],[75.92042,12.82708],[75.92792,12.82208],[75.92792,12.80875],[75.93042,12.80708],[75.93375,12.80708],[75.93708,12.81042],[75.93958,12.81042],[75.94208,12.80792],[75.95042,12.80792],[75.95208,12.80625],[75.96208,12.80458],[76.02792,12.80458],[76.04208,12.81792],[76.04708,12.81958],[76.05375,12.82458]]},"properties":{"cwcSubBasin":"Cauvery Upper","lengthM":"65410.71","cwcBasin":"Cauvery Basin","subBasin":"C1"}},{"type":"Feature","geometry":{"type":"LineString","coordinates":[[77.33958,12.97292],[77.34042,12.96625],[77.33875,12.95625],[77.33458,12.95208],[77.33708,12.92875],[77.33625,12.91292],[77.33292,12.91042],[77.32542,12.90958],[77.32375,12.90792],[77.32375,12.90125],[77.33542,12.88625],[77.33542,12.88042],[77.33792,12.87375],[77.33625,12.86542],[77.33708,12.85292],[77.33042,12.84458],[77.32958,12.83625],[77.32792,12.83375],[77.32792,12.82625],[77.32542,12.82292],[77.32458,12.81542],[77.31708,12.80708],[77.31792,12.79958],[77.31458,12.79292],[77.30625,12.78625],[77.30542,12.78125],[77.30208,12.77708],[77.30125,12.76958],[77.29458,12.75458],[77.28958,12.74875],[77.28875,12.74542],[77.28292,12.73958],[77.28208,12.73125],[77.27708,12.72542],[77.27875,12.72125],[77.27708,12.71375],[77.28708,12.70542],[77.29208,12.70292],[77.29375,12.70458],[77.29542,12.70125],[77.29875,12.69958],[77.30792,12.68958],[77.31292,12.68792],[77.31958,12.68042],[77.32792,12.67625],[77.33292,12.66875],[77.34458,12.65875],[77.34458,12.65542],[77.34625,12.65375],[77.34875,12.65292],[77.35375,12.64708],[77.35875,12.64542],[77.36042,12.64375],[77.36042,12.64042],[77.36625,12.63875],[77.36875,12.63042],[77.37625,12.62792],[77.39292,12.60958],[77.39292,12.60792],[77.39708,12.60458],[77.39958,12.60458],[77.40542,12.59792]]},"properties":{"cwcSubBasin":"Cauvery Middle","lengthM":"55311.48","cwcBasin":"Cauvery Basin","subBasin":"C5"}},{"type":"Feature","geometry":{"type":"LineString","coordinates":[[76.93208,12.80042],[76.93625,12.79958],[76.94125,12.80458],[76.94542,12.80458],[76.94958,12.80125],[76.95542,12.80125],[76.95792,12.80292],[76.97292,12.80208],[76.97708,12.79292],[76.98125,12.79375],[76.98375,12.79125],[76.98708,12.79125],[76.99958,12.77792],[76.99875,12.77458],[76.98958,12.76958],[76.98375,12.76292],[76.98958,12.75625],[76.98958,12.75208],[76.98542,12.74792],[76.98542,12.74375],[76.98875,12.74042],[76.99375,12.74042],[77.00042,12.73792],[77.00375,12.73458],[77.00375,12.73208],[76.99292,12.72042],[76.99875,12.71542],[77.00458,12.71542],[77.01208,12.70708],[77.01875,12.70625],[77.02208,12.69708],[77.02958,12.68625],[77.03208,12.68458],[77.04125,12.68375],[77.04458,12.67958],[77.04458,12.67542],[77.04042,12.66875],[77.04208,12.66042],[77.04042,12.64542],[77.04208,12.63625],[77.04375,12.63458],[77.04125,12.62542],[77.05542,12.61292],[77.05792,12.60708],[77.05792,12.59958],[77.05625,12.59542],[77.05875,12.59292],[77.05958,12.58875],[77.05792,12.58708],[77.05792,12.57958],[77.05625,12.57792],[77.05708,12.56375],[77.06542,12.55458],[77.06958,12.55292],[77.07042,12.54708],[77.06875,12.54542],[77.06875,12.54125],[77.07208,12.53125],[77.07125,12.52375],[77.07792,12.51708],[77.08125,12.50625],[77.08125,12.50125],[77.08625,12.49542]]},"properties":{"cwcSubBasin":"Cauvery Middle","lengthM":"51313.18","cwcBasin":"Cauvery Basin","subBasin":"C4"}},{"type":"Feature","geometry":{"type":"LineString","coordinates":[[77.17125,12.47792],[77.17542,12.47458],[77.17792,12.47458],[77.18125,12.46875],[77.18542,12.46875],[77.19208,12.46375],[77.19208,12.44208],[77.18042,12.43292],[77.18875,12.42792],[77.19625,12.42792],[77.19875,12.42542],[77.19292,12.41958],[77.19375,12.40875],[77.19875,12.40458],[77.20792,12.40292],[77.21125,12.39875],[77.21125,12.39458],[77.20208,12.38792],[77.20208,12.38458],[77.20625,12.38042],[77.20458,12.36875],[77.20542,12.36125],[77.20292,12.35208],[77.19542,12.34708],[77.19542,12.34208]]},"properties":{"cwcSubBasin":"Cauvery Middle","lengthM":"22147.246","cwcBasin":"Cauvery Basin","subBasin":"C4"}},{"type":"Feature","geometry":{"type":"LineString","coordinates":[[77.51917,12.60583],[77.51458,12.60292],[77.51458,12.60042],[77.51208,12.60042],[77.50792,12.59708],[77.49875,12.59708],[77.49375,12.59125],[77.49542,12.58875],[77.49375,12.58375],[77.49125,12.58125],[77.48875,12.58125],[77.48792,12.57875],[77.48458,12.57792],[77.48375,12.56958],[77.48042,12.56625],[77.47625,12.56875],[77.47292,12.56542],[77.46875,12.56458],[77.43875,12.56458],[77.43625,12.55792],[77.43042,12.55375]]},"properties":{"cwcSubBasin":"Cauvery Middle","lengthM":"14379.891","cwcBasin":"Cauvery Basin","subBasin":"C5"}},{"type":"Feature","geometry":{"type":"LineString","coordinates":[[76.25917,12.03833],[76.26042,12.03958],[76.26292,12.03875],[76.26875,12.04458],[76.26875,12.04792],[76.27208,12.05208],[76.27708,12.05292],[76.27875,12.05125],[76.28042,12.05292],[76.28792,12.05292],[76.29125,12.05708],[76.29625,12.05958],[76.30042,12.05958],[76.30375,12.06375],[76.30292,12.07125],[76.30875,12.07708],[76.31708,12.07625],[76.32042,12.07375],[76.32625,12.07542],[76.32958,12.07875],[76.32958,12.08208],[76.33625,12.08708],[76.33792,12.08708],[76.34208,12.08208],[76.34708,12.08542],[76.35292,12.08542],[76.35958,12.09125],[76.36542,12.09292],[76.37208,12.09792],[76.37958,12.09042],[76.38292,12.09042],[76.38625,12.08542],[76.38958,12.08458]]},"properties":{"cwcSubBasin":"Cauvery Middle","lengthM":"20048.883","cwcBasin":"Cauvery Basin","subBasin":"C2"}},{"type":"Feature","geometry":{"type":"LineString","coordinates":[[76.48458,12.62917],[76.47958,12.62042],[76.48125,12.61625],[76.48125,12.60958],[76.47958,12.60542],[76.48208,12.60125],[76.48042,12.59958],[76.47625,12.58375],[76.47708,12.57875],[76.47458,12.57708],[76.47292,12.57958],[76.47042,12.57958],[76.46708,12.57458],[76.46292,12.57458],[76.46125,12.57292],[76.45542,12.57542]]},"properties":{"cwcSubBasin":"Cauvery Upper","lengthM":"9488.746","cwcBasin":"Cauvery Basin","subBasin":"C1"}},{"type":"Feature","geometry":{"type":"LineString","coordinates":[[76.26042,12.27125],[76.26875,12.27958],[76.26875,12.28375],[76.26708,12.28542],[76.27375,12.29125],[76.27375,12.29958],[76.27875,12.30458],[76.28458,12.30292],[76.28625,12.30458],[76.28625,12.31208],[76.29292,12.31792],[76.29292,12.32125],[76.28875,12.32542],[76.28542,12.33375],[76.28708,12.34542],[76.29792,12.34875],[76.29958,12.34708],[76.29875,12.33792],[76.31042,12.32792],[76.31292,12.33042],[76.31125,12.33375],[76.31208,12.33792],[76.31542,12.34125],[76.32542,12.34292],[76.32708,12.34458],[76.33042,12.34458],[76.33292,12.34208],[76.33708,12.34125],[76.34208,12.34625],[76.34625,12.34625],[76.34792,12.34792],[76.34792,12.35042],[76.34375,12.35458],[76.34125,12.35458],[76.34042,12.36125],[76.34458,12.36292],[76.34875,12.36708],[76.35042,12.36708],[76.35208,12.36292],[76.35542,12.36208],[76.36292,12.36625],[76.36875,12.36542],[76.37375,12.37042],[76.37792,12.37042],[76.38042,12.36875],[76.38625,12.37542],[76.38875,12.37292],[76.39042,12.36625],[76.39375,12.36292],[76.39708,12.36292],[76.40792,12.37208],[76.41375,12.37292],[76.41708,12.37625],[76.41708,12.38042],[76.42208,12.38708],[76.42708,12.38292],[76.43542,12.39042],[76.43792,12.39708],[76.44125,12.40042],[76.43708,12.40458],[76.43708,12.40875],[76.44625,12.41792],[76.45042,12.41542],[76.44958,12.41458],[76.45208,12.41208],[76.46208,12.41208],[76.46708,12.40958],[76.47042,12.41125],[76.46875,12.42542],[76.46375,12.43208],[76.46375,12.43875],[76.46625,12.44125],[76.47208,12.44292],[76.47542,12.44625],[76.50708,12.44542],[76.50875,12.44708],[76.51958,12.44708],[76.52125,12.44542],[76.52958,12.44542]]},"properties":{"cwcSubBasin":"Cauvery Upper","lengthM":"56731.91","cwcBasin":"Cauvery Basin","subBasin":"C1"}},{"type":"Feature","geometry":{"type":"LineString","coordinates":[[76.97667,13.18667],[76.97375,13.18375],[76.96875,13.18458],[76.96375,13.17958],[76.96042,13.17958],[76.95708,13.17125],[76.95458,13.16875],[76.95208,13.16875],[76.94375,13.16125],[76.93625,13.15958],[76.93125,13.15542],[76.93208,13.15292],[76.93042,13.15125],[76.92792,13.15125],[76.92208,13.14542],[76.90042,13.14542],[76.89875,13.14375],[76.89042,13.14375],[76.88875,13.14208],[76.88458,13.14208],[76.88042,13.14458],[76.87875,13.14292],[76.87292,13.14208],[76.86708,13.14542],[76.86042,13.14625],[76.85458,13.14042],[76.84458,13.13625],[76.84125,13.13542],[76.83958,13.13708],[76.83125,13.13542]]},"properties":{"cwcSubBasin":"Cauvery Middle","lengthM":"19894.44","cwcBasin":"Cauvery Basin","subBasin":"C4"}},{"type":"Feature","geometry":{"type":"LineString","coordinates":[[75.70917,12.31167],[75.71042,12.30708],[75.71708,12.29958],[75.72458,12.29792],[75.73875,12.29792],[75.74208,12.30042],[75.74125,12.29125],[75.74292,12.28958],[75.74708,12.28958],[75.76208,12.27875],[75.76792,12.27625],[75.77042,12.27708],[75.77042,12.28208],[75.78458,12.29708],[75.78708,12.29708],[75.79208,12.30208],[75.79542,12.30208],[75.79875,12.29542],[75.80375,12.29375],[75.81458,12.30375],[75.81458,12.30708],[75.82125,12.31375],[75.82458,12.31375],[75.82958,12.30792],[75.82958,12.30292],[75.82792,12.30125],[75.82958,12.29958],[75.83875,12.30458],[75.84625,12.31208],[75.84875,12.30958],[75.84792,12.30542],[75.84958,12.30125],[75.85375,12.29625],[75.85708,12.29875],[75.85542,12.30208],[75.85792,12.30458],[75.86542,12.30375],[75.87375,12.30708],[75.88708,12.32042],[75.88458,12.32875],[75.87958,12.33125],[75.88208,12.34208],[75.88458,12.34375],[75.89125,12.34375],[75.89625,12.34875],[75.90042,12.34875],[75.90625,12.35458],[75.90625,12.35625],[75.90125,12.35958],[75.89875,12.36708],[75.90875,12.37708],[75.91208,12.38375],[75.91292,12.39042],[75.90958,12.39375],[75.90958,12.40292],[75.91125,12.40708],[75.91542,12.40958],[75.91958,12.41875],[75.92292,12.42125],[75.92292,12.43208],[75.92958,12.43958],[75.93542,12.43958],[75.93875,12.43792],[75.93958,12.44375],[75.95125,12.45125],[75.96375,12.45125],[75.96625,12.44875],[75.96875,12.44875],[75.97125,12.45125],[75.96708,12.46375],[75.96958,12.46625],[75.97292,12.46542],[75.97458,12.46875],[75.97208,12.47125],[75.96875,12.47125],[75.96542,12.47458],[75.96708,12.48292],[75.96042,12.48625],[75.96042,12.49625]]},"properties":{"cwcSubBasin":"Cauvery Upper","lengthM":"61815.266","cwcBasin":"Cauvery Basin","subBasin":"C1"}},{"type":"Feature","geometry":{"type":"LineString","coordinates":[[75.96042,12.49625],[75.96125,12.50542],[75.96708,12.50875],[75.97792,12.52042],[75.99125,12.52042],[75.99458,12.52375],[75.99375,12.52958],[75.98792,12.53958],[75.99458,12.54042],[76.00125,12.54625],[75.99958,12.54958],[75.99208,12.55625],[75.99208,12.55792],[75.99625,12.56042],[76.00958,12.55958],[76.01375,12.56458],[76.01458,12.56958],[76.01958,12.57458],[76.02042,12.58042],[76.03542,12.59542],[76.04708,12.60375],[76.04458,12.61292],[76.05458,12.62208],[76.05792,12.62292],[76.07042,12.61458],[76.07958,12.61458],[76.09292,12.60292],[76.10375,12.60375],[76.10542,12.60208],[76.11625,12.60208],[76.12375,12.60625],[76.12958,12.59208],[76.12958,12.58708],[76.13208,12.58458],[76.13542,12.58625],[76.14292,12.58542],[76.15542,12.57958],[76.17125,12.58042],[76.18125,12.57625],[76.18375,12.57375],[76.18458,12.56792],[76.17542,12.55958],[76.18042,12.55542],[76.18125,12.54875],[76.18958,12.54042],[76.19458,12.54208],[76.20042,12.53625],[76.20792,12.53542],[76.21375,12.53042],[76.21625,12.53042],[76.22125,12.53542],[76.22542,12.53625],[76.23042,12.53042],[76.22542,12.52375],[76.22792,12.52125],[76.25042,12.52208],[76.25625,12.51708],[76.27875,12.51375],[76.28458,12.50792],[76.29042,12.50625],[76.29875,12.50625],[76.30458,12.51208],[76.31625,12.51042],[76.32042,12.51458],[76.32375,12.51458],[76.32625,12.51125],[76.33625,12.50625],[76.35375,12.50458],[76.35542,12.50292],[76.36458,12.50292],[76.37708,12.49458],[76.38042,12.49542],[76.38542,12.48875],[76.38958,12.48958],[76.39292,12.48625],[76.39375,12.47958],[76.39042,12.47292],[76.39208,12.46875],[76.39958,12.46958],[76.40125,12.47125],[76.40125,12.47875],[76.41208,12.48792],[76.41042,12.50208],[76.41292,12.50708],[76.41292,12.51375],[76.41042,12.51792],[76.41375,12.52375],[76.41375,12.52792],[76.41875,12.53292],[76.42292,12.53292],[76.42958,12.52792],[76.43625,12.51958],[76.43708,12.51625],[76.44375,12.50958],[76.44458,12.50542]]},"properties":{"cwcSubBasin":"Cauvery Upper","lengthM":"89671.18","cwcBasin":"Cauvery Basin","subBasin":"C1"}},{"type":"Feature","geometry":{"type":"LineString","coordinates":[[77.52333,13.25333],[77.52625,13.24958],[77.52542,13.23792],[77.52792,13.23542],[77.52792,13.22708],[77.51958,13.21458],[77.51875,13.21125],[77.52125,13.20792],[77.52042,13.20375],[77.51542,13.19792],[77.51292,13.19792],[77.50875,13.19292],[77.50292,13.19042],[77.50208,13.17792],[77.49875,13.17375],[77.49542,13.14792],[77.49292,13.14208],[77.47875,13.12792],[77.47792,13.12042],[77.48042,13.11458],[77.47958,13.10958],[77.47542,13.10542],[77.47458,13.09708],[77.46875,13.09125],[77.46875,13.08375],[77.46542,13.08042],[77.46292,13.07458],[77.45875,13.07125],[77.45958,13.07042],[77.45708,13.06542],[77.45208,13.06042],[77.45292,13.05458],[77.44792,13.04958],[77.44458,13.04208],[77.44125,13.04042],[77.43708,13.04125],[77.43625,13.03792],[77.43042,13.03208],[77.42958,13.02708],[77.43292,13.01792],[77.43208,13.00875],[77.41625,12.99458],[77.41458,12.99458],[77.40958,12.98708],[77.40542,12.98958],[77.39375,12.98708],[77.39042,12.99375],[77.38125,12.99625],[77.37792,12.99375],[77.37458,12.99375],[77.37375,12.99208],[77.36792,12.99125],[77.36542,12.98792],[77.36125,12.98875],[77.36125,12.98708],[77.35042,12.97625],[77.35042,12.97458],[77.34542,12.97125],[77.33958,12.97292]]},"properties":{"cwcSubBasin":"Cauvery Middle","lengthM":"47407.355","cwcBasin":"Cauvery Basin","subBasin":"C5"}},{"type":"Feature","geometry":{"type":"LineString","coordinates":[[76.47625,12.09542],[76.48125,12.09542],[76.48375,12.09792],[76.48708,12.09792],[76.49125,12.10125],[76.49375,12.10125],[76.50292,12.10875],[76.51542,12.10542],[76.53125,12.10542],[76.53708,12.10958],[76.54542,12.11125],[76.55375,12.10292],[76.56208,12.10208],[76.56458,12.10542],[76.56458,12.11542],[76.56792,12.11875],[76.57292,12.12042],[76.57875,12.12042],[76.58208,12.11708],[76.59042,12.11542],[76.59625,12.11542],[76.60125,12.12042],[76.61208,12.12042],[76.61792,12.11875],[76.62125,12.12208],[76.63292,12.12375],[76.63625,12.12708],[76.64208,12.12958],[76.64708,12.13542],[76.64875,12.14375],[76.65458,12.14958],[76.66208,12.15292],[76.67125,12.15458],[76.67708,12.15458],[76.67958,12.15208],[76.67958,12.14792],[76.67625,12.14458],[76.67542,12.14125],[76.67708,12.13708],[76.69542,12.12208],[76.69875,12.12208]]},"properties":{"cwcSubBasin":"Cauvery Middle","lengthM":"33124.766","cwcBasin":"Cauvery Basin","subBasin":"C2"}},{"type":"Feature","geometry":{"type":"LineString","coordinates":[[75.84833,13.20833],[75.85375,13.20292],[75.85375,13.19792],[75.85708,13.19375],[75.85708,13.19042],[75.86792,13.17958],[75.86708,13.17542],[75.88292,13.15958],[75.88292,13.15292],[75.89292,13.14208],[75.89375,13.13708],[75.89708,13.13458],[75.90458,13.13625],[75.90958,13.13208],[75.91375,13.12375],[75.91208,13.11542],[75.92208,13.10458],[75.92458,13.10458],[75.93208,13.09708],[75.93125,13.09542],[75.93625,13.08875],[75.94042,13.08625],[75.94458,13.08042],[75.94792,13.07458],[75.94875,13.06958],[75.95208,13.06625],[75.95792,13.06458],[75.96042,13.05958],[75.97292,13.04625],[75.98208,13.03292],[75.98292,13.02875],[75.99208,13.02125],[75.99375,13.01375],[76.00208,13.00292],[76.01125,13.00208],[76.01542,12.99958],[76.01875,13.00125],[76.02292,13.00042],[76.02708,12.99625],[76.02708,12.99292],[76.02875,12.99125],[76.03792,12.98625],[76.03792,12.98042],[76.03958,12.97875],[76.04292,12.97875],[76.04625,12.97625],[76.04958,12.97708],[76.05375,12.97458],[76.05125,12.96958],[76.05792,12.96542],[76.05792,12.96292],[76.05625,12.96125],[76.05625,12.95542],[76.04958,12.95125],[76.05125,12.94625],[76.04292,12.94292],[76.04042,12.93292],[76.03708,12.93125],[76.03375,12.92625],[76.02375,12.92958],[76.02625,12.91875],[76.02542,12.91125],[76.01958,12.90458],[76.01958,12.90042],[76.01792,12.89958],[76.01125,12.90708],[76.00625,12.89875],[76.00042,12.89792],[76.00125,12.89375],[75.99875,12.89042],[75.99875,12.88542],[76.01292,12.86958],[76.01792,12.86542],[76.02458,12.86542],[76.02625,12.86375],[76.02958,12.85792],[76.02708,12.85208],[76.03042,12.84958],[76.03792,12.84875],[76.04208,12.84458],[76.04208,12.83708],[76.04875,12.82875],[76.05292,12.82708],[76.05375,12.82458]]},"properties":{"cwcSubBasin":"Cauvery Upper","lengthM":"67154.39","cwcBasin":"Cauvery Basin","subBasin":"C1"}},{"type":"Feature","geometry":{"type":"LineString","coordinates":[[76.93083,12.52417],[76.93625,12.51958],[76.94875,12.51792],[76.95792,12.52292],[76.96458,12.52125],[76.97042,12.51458],[76.96958,12.51292],[76.97625,12.50375],[76.98292,12.50375],[77.00125,12.52208],[77.00875,12.52208],[77.01208,12.52625],[77.01792,12.52458],[77.02125,12.52542],[77.02792,12.51875],[77.02792,12.51625],[77.03625,12.50625],[77.03875,12.50625],[77.04125,12.50375],[77.04708,12.50458],[77.04875,12.50625],[77.05208,12.50542],[77.05625,12.50042],[77.05792,12.50125],[77.05958,12.49958],[77.06042,12.49208],[77.06875,12.48625],[77.08125,12.49292],[77.08458,12.49292],[77.08625,12.49542]]},"properties":{"cwcSubBasin":"Cauvery Middle","lengthM":"23656.557","cwcBasin":"Cauvery Basin","subBasin":"C4"}},{"type":"Feature","geometry":{"type":"LineString","coordinates":[[76.73875,12.56917],[76.73875,12.55958],[76.73292,12.55208],[76.73375,12.54708],[76.72625,12.53958],[76.72625,12.53708],[76.72292,12.53458],[76.72375,12.53292],[76.71958,12.52708],[76.72208,12.52292],[76.72208,12.51792],[76.71708,12.50875],[76.71708,12.49875],[76.72125,12.49375],[76.72208,12.47958],[76.71958,12.47708],[76.72042,12.47458],[76.71875,12.47208],[76.71958,12.45625],[76.71292,12.44708],[76.70625,12.44292],[76.70792,12.44125],[76.70625,12.43292],[76.70958,12.42875],[76.70792,12.42542],[76.70875,12.42125]]},"properties":{"cwcSubBasin":"Cauvery Middle","lengthM":"19542.021","cwcBasin":"Cauvery Basin","subBasin":"C6"}},{"type":"Feature","geometry":{"type":"LineString","coordinates":[[76.97708,13.32708],[76.97125,13.32292],[76.97042,13.31792],[76.95958,13.30708],[76.95208,13.30542],[76.94708,13.30208],[76.94042,13.30042],[76.93875,13.30208],[76.93625,13.29958],[76.93042,13.29958],[76.92708,13.29625],[76.92125,13.29458],[76.90958,13.28292],[76.89792,13.28292],[76.89375,13.27792],[76.89292,13.26958],[76.88625,13.26375],[76.88458,13.26042],[76.88292,13.25208],[76.87958,13.24792],[76.87958,13.24292],[76.86042,13.22375],[76.85958,13.22125],[76.85292,13.22208],[76.83542,13.20542],[76.83458,13.19708],[76.84208,13.18708],[76.84208,13.18292],[76.84458,13.18042],[76.84458,13.17792],[76.85042,13.17208],[76.85042,13.16542],[76.84708,13.16208],[76.84292,13.15292]]},"properties":{"cwcSubBasin":"Cauvery Middle","lengthM":"29989.852","cwcBasin":"Cauvery Basin","subBasin":"C4"}},{"type":"Feature","geometry":{"type":"LineString","coordinates":[[77.33,13.12583],[77.33458,13.11792],[77.33125,13.10708],[77.33375,13.10542],[77.33625,13.10042],[77.33542,13.09625],[77.33708,13.09208],[77.32958,13.08708],[77.32792,13.08458],[77.32875,13.07958],[77.32708,13.07708],[77.33292,13.07042],[77.33292,13.06292],[77.32958,13.05458],[77.32958,13.04958],[77.33125,13.04708],[77.32958,13.02958],[77.33208,13.02542],[77.32958,13.02208],[77.32958,13.01625],[77.33125,13.01375],[77.32875,13.01042],[77.33042,13.00875],[77.33042,13.00458],[77.33958,12.99375],[77.33958,12.97292]]},"properties":{"cwcSubBasin":"Cauvery Middle","lengthM":"20078.54","cwcBasin":"Cauvery Basin","subBasin":"C5"}},{"type":"Feature","geometry":{"type":"LineString","coordinates":[[77.44875,12.875],[77.44875,12.87042],[77.44292,12.85708],[77.43375,12.84542],[77.43542,12.84208],[77.43375,12.82375],[77.43542,12.82125],[77.43625,12.81042],[77.43458,12.80875],[77.43292,12.80042],[77.43625,12.79708],[77.43708,12.79375],[77.43708,12.78875],[77.43458,12.78625],[77.43625,12.78375],[77.42875,12.77708],[77.42875,12.77375],[77.42542,12.77042],[77.42458,12.76125],[77.41458,12.75292],[77.41292,12.74875],[77.40708,12.74542],[77.40625,12.73958],[77.40792,12.73542],[77.40542,12.73125],[77.41042,12.72958],[77.41042,12.72292],[77.40875,12.72125],[77.40958,12.71708],[77.40125,12.71125],[77.40542,12.70625],[77.40542,12.70042],[77.40292,12.69625],[77.40625,12.69292],[77.40625,12.69042],[77.40375,12.68875],[77.40375,12.68708],[77.40875,12.67958],[77.40792,12.67625],[77.41292,12.66958],[77.41208,12.66625],[77.41458,12.66208]]},"properties":{"cwcSubBasin":"Cauvery Middle","lengthM":"29276.893","cwcBasin":"Cauvery Basin","subBasin":"C5"}},{"type":"Feature","geometry":{"type":"LineString","coordinates":[[76.98375,11.90458],[76.98875,11.90958],[76.99375,11.92875],[76.98958,11.93375],[76.99208,11.93792],[76.98792,11.94042],[76.98708,11.93958],[76.98375,11.94292],[76.98375,11.94875],[76.97875,11.95375],[76.97875,11.96292],[76.98125,11.96542],[76.98208,11.96958],[76.98208,11.97792],[76.97875,11.98125],[76.97875,11.98542],[76.98958,11.99208],[76.98958,11.99542],[76.99958,12.00708],[76.99958,12.01542],[77.00375,12.01958],[77.01958,12.01958],[77.02958,12.02958],[77.03958,12.02958],[77.05042,12.04375],[77.05042,12.05042],[77.05375,12.05375],[77.05292,12.06375],[77.05792,12.06708],[77.05708,12.07458],[77.05125,12.08208],[77.05292,12.08542],[77.05208,12.09125],[77.05542,12.09458],[77.05542,12.10625],[77.06125,12.11208],[77.06125,12.11542],[77.05792,12.12042],[77.05792,12.12292],[77.06125,12.12625],[77.05875,12.13042],[77.06125,12.13292],[77.05792,12.13792],[77.07125,12.15875],[77.06792,12.16292],[77.06208,12.16292],[77.05792,12.16625],[77.05792,12.16792],[77.06208,12.16792],[77.06292,12.16958]]},"properties":{"cwcSubBasin":"Cauvery Middle","lengthM":"40887.97","cwcBasin":"Cauvery Basin","subBasin":"C3"}},{"type":"Feature","geometry":{"type":"LineString","coordinates":[[76.23792,13.01583],[76.23542,13.00458],[76.23542,12.99292],[76.23958,12.98958],[76.23708,12.98375],[76.24208,12.97708],[76.24208,12.96458],[76.24042,12.96292],[76.24125,12.94542],[76.23792,12.94125],[76.23792,12.93458],[76.24042,12.92875],[76.24708,12.92208],[76.24625,12.91958],[76.25042,12.91625],[76.25292,12.91625],[76.25542,12.91292],[76.25458,12.90542],[76.25292,12.90375],[76.25042,12.90292],[76.24625,12.90542],[76.24042,12.89792],[76.24042,12.89625],[76.25208,12.88292],[76.25125,12.88042],[76.24458,12.87625],[76.25208,12.86792],[76.25208,12.86625],[76.25708,12.86292],[76.25875,12.85875],[76.26792,12.85875],[76.26958,12.85708],[76.27375,12.85792],[76.28042,12.84958],[76.28042,12.84625],[76.27042,12.83792],[76.26875,12.83125],[76.26542,12.82708]]},"properties":{"cwcSubBasin":"Cauvery Upper","lengthM":"29041.662","cwcBasin":"Cauvery Basin","subBasin":"C1"}},{"type":"Feature","geometry":{"type":"LineString","coordinates":[[76.07625,11.79458],[76.07625,11.80542],[76.08042,11.80958],[76.08792,11.81042],[76.09125,11.81625],[76.09042,11.82375],[76.08792,11.82708],[76.08958,11.83125],[76.08792,11.83292],[76.09458,11.83792],[76.10042,11.83875],[76.10208,11.84042],[76.11292,11.84125],[76.11375,11.84458],[76.12375,11.85375],[76.13208,11.85458],[76.14625,11.86708],[76.15042,11.86708],[76.15292,11.86958],[76.15958,11.86792],[76.16792,11.86875],[76.17292,11.87208],[76.19375,11.87292],[76.20292,11.86375],[76.20542,11.86375],[76.20792,11.86625],[76.20792,11.87042],[76.20458,11.87542],[76.21042,11.87542],[76.21708,11.88042],[76.21708,11.88375],[76.21458,11.88625],[76.21292,11.88458],[76.20625,11.88708],[76.20792,11.89958],[76.21375,11.90625],[76.20708,11.91625],[76.22042,11.91792],[76.22542,11.91375],[76.22958,11.91375],[76.23292,11.91792],[76.23292,11.92208],[76.23958,11.92875],[76.26625,11.92792],[76.27042,11.92958],[76.28292,11.94208],[76.28292,11.96375],[76.29208,11.97292],[76.30042,11.97292],[76.30958,11.96542],[76.31875,11.96542],[76.32875,11.97542],[76.34375,11.97542],[76.34875,11.97042],[76.35208,11.97042],[76.35458,11.97292],[76.35792,11.97208],[76.36208,11.97958],[76.36208,11.98292],[76.35958,11.98708],[76.36125,11.98958],[76.36625,11.99208],[76.38792,11.99125],[76.39292,11.99708],[76.39208,11.99875],[76.38875,11.99875],[76.38458,12.00292],[76.38208,12.00292],[76.37625,12.01125],[76.37625,12.01375],[76.38208,12.01958],[76.38875,12.02042],[76.40042,12.00625],[76.40792,12.00708],[76.41458,12.00208],[76.41792,12.00208],[76.41958,12.00375],[76.41958,12.00792],[76.41708,12.01292],[76.40875,12.02125],[76.40875,12.02958],[76.40375,12.03458],[76.40375,12.04125],[76.40792,12.04625],[76.40292,12.05208],[76.40208,12.05875],[76.39042,12.07542],[76.38208,12.07792],[76.38208,12.08042],[76.38542,12.08375],[76.38958,12.08458]]},"properties":{"cwcSubBasin":"Cauvery Middle","lengthM":"79953.8","cwcBasin":"Cauvery Basin","subBasin":"C2"}},{"type":"Feature","geometry":{"type":"LineString","coordinates":[[76.40917,12.16458],[76.41708,12.15708],[76.41875,12.15458],[76.41875,12.14875],[76.42542,12.14208],[76.42958,12.13875],[76.43292,12.13875],[76.43708,12.14208],[76.44292,12.13625],[76.45208,12.12458],[76.45208,12.11792]]},"properties":{"cwcSubBasin":"Cauvery Middle","lengthM":"8214.398","cwcBasin":"Cauvery Basin","subBasin":"C2"}},{"type":"Feature","geometry":{"type":"LineString","coordinates":[[76.695,12.20125],[76.69792,12.20125],[76.70208,12.19708],[76.70875,12.18958],[76.70792,12.18708],[76.71208,12.17958],[76.71708,12.17708],[76.71708,12.17375],[76.71375,12.16875],[76.71792,12.16375],[76.71792,12.15792],[76.72375,12.15125]]},"properties":{"cwcSubBasin":"Cauvery Middle","lengthM":"7680.2275","cwcBasin":"Cauvery Basin","subBasin":"C2"}},{"type":"Feature","geometry":{"type":"LineString","coordinates":[[77.44125,12.29792],[77.44125,12.29542],[77.43292,12.28958],[77.43375,12.28625]]},"properties":{"cwcSubBasin":"Cauvery Middle","lengthM":"1859.421","cwcBasin":"Cauvery Basin","subBasin":"C5"}},{"type":"Feature","geometry":{"type":"LineString","coordinates":[[76.89042,12.93292],[76.89292,12.92875],[76.89292,12.92542],[76.89625,12.92208]]},"properties":{"cwcSubBasin":"Cauvery Middle","lengthM":"1457.1239","cwcBasin":"Cauvery Basin","subBasin":"C4"}},{"type":"Feature","geometry":{"type":"LineString","coordinates":[[76.74083,13.19],[76.75292,13.18125],[76.75958,13.17375]]},"properties":{"cwcSubBasin":"Cauvery Middle","lengthM":"2841.439","cwcBasin":"Cauvery Basin","subBasin":"C4"}},{"type":"Feature","geometry":{"type":"LineString","coordinates":[[77.47667,11.96333],[77.48125,11.96042],[77.48292,11.95625],[77.48625,11.95625],[77.49208,11.95042],[77.49208,11.94792],[77.49542,11.94375]]},"properties":{"cwcSubBasin":"Cauvery Middle","lengthM":"3378.0935","cwcBasin":"Cauvery Basin","subBasin":"C7"}},{"type":"Feature","geometry":{"type":"LineString","coordinates":[[77.0525,11.82042],[77.04042,11.82208],[77.03792,11.82458],[77.01958,11.82542],[77.01125,11.83542],[77.01125,11.84208],[77.01375,11.84542],[77.00958,11.84958]]},"properties":{"cwcSubBasin":"Cauvery Middle","lengthM":"7215.337","cwcBasin":"Cauvery Basin","subBasin":"C3"}},{"type":"Feature","geometry":{"type":"LineString","coordinates":[[77.005,13.35042],[77.00292,13.35042],[76.99625,13.34042],[76.99042,13.33875],[76.97708,13.32708]]},"properties":{"cwcSubBasin":"Cauvery Middle","lengthM":"4323.296","cwcBasin":"Cauvery Basin","subBasin":"C4"}},{"type":"Feature","geometry":{"type":"LineString","coordinates":[[76.1525,12.32458],[76.15708,12.32458],[76.15708,12.32042],[76.16042,12.31875],[76.16208,12.31958],[76.16208,12.31625],[76.16792,12.31125],[76.17042,12.30292],[76.17375,12.29875],[76.17375,12.29292],[76.17625,12.29125],[76.17792,12.28625],[76.19542,12.27292],[76.19958,12.27292],[76.20292,12.27708],[76.21042,12.27708],[76.22208,12.27042],[76.22625,12.27042],[76.22875,12.26875],[76.23292,12.26792],[76.23708,12.27042],[76.24708,12.26292],[76.25208,12.26458],[76.26042,12.27125]]},"properties":{"cwcSubBasin":"Cauvery Upper","lengthM":"17566.848","cwcBasin":"Cauvery Basin","subBasin":"C1"}},{"type":"Feature","geometry":{"type":"LineString","coordinates":[[76.01,12.08833],[76.01458,12.09292],[76.01792,12.09292],[76.02208,12.09708],[76.01958,12.10042],[76.02125,12.10458],[76.02042,12.10625],[76.02292,12.10958],[76.02292,12.12292],[76.02542,12.12958],[76.02542,12.13625],[76.03625,12.13875],[76.04708,12.12792],[76.05042,12.12792],[76.05458,12.12458],[76.05875,12.12458],[76.06208,12.12792],[76.06542,12.12708],[76.07375,12.13542],[76.07458,12.14792],[76.07875,12.15042],[76.08375,12.15042],[76.09125,12.15792],[76.09625,12.15792],[76.10042,12.15125],[76.10542,12.15042],[76.11125,12.15625],[76.12125,12.16042],[76.12375,12.16292],[76.12375,12.16625],[76.13125,12.17375],[76.13792,12.17542],[76.14208,12.17875],[76.14542,12.17875],[76.14792,12.18125],[76.15208,12.18125],[76.15625,12.18542],[76.15542,12.18792],[76.14375,12.18875],[76.14375,12.19292],[76.14708,12.19625],[76.14708,12.20125],[76.14958,12.20375],[76.15292,12.20375],[76.15458,12.20542],[76.16292,12.20125],[76.16875,12.20542],[76.17125,12.20542],[76.17458,12.20208],[76.18042,12.20292],[76.18292,12.20625],[76.18208,12.21125],[76.18708,12.21458],[76.18625,12.21958],[76.18792,12.22125],[76.18792,12.22542],[76.19542,12.23292],[76.19792,12.24458],[76.20125,12.24792],[76.20875,12.24375],[76.21542,12.24458],[76.21625,12.24125],[76.22042,12.23708],[76.22542,12.23708],[76.22542,12.24375],[76.22958,12.24458],[76.23458,12.24042],[76.23542,12.23542],[76.24125,12.22958],[76.24375,12.23458],[76.24125,12.24125],[76.24542,12.24375],[76.25125,12.24208],[76.25875,12.25042],[76.26292,12.25292],[76.26208,12.26125],[76.26542,12.26458],[76.26542,12.26792],[76.26208,12.26875],[76.26042,12.27125]]},"properties":{"cwcSubBasin":"Cauvery Upper","lengthM":"54227.1","cwcBasin":"Cauvery Basin","subBasin":"C1"}},{"type":"Feature","geometry":{"type":"LineString","coordinates":[[76.36625,12.82042],[76.36292,12.81625],[76.36292,12.81375],[76.36042,12.81208],[76.34292,12.81125],[76.33375,12.81292],[76.33125,12.80958],[76.33208,12.78708],[76.33375,12.78542],[76.33542,12.78708],[76.34792,12.78708],[76.34958,12.78542],[76.34875,12.77708],[76.35042,12.77208],[76.34375,12.76542],[76.34292,12.76208],[76.35458,12.75292],[76.35875,12.75375],[76.36042,12.75208],[76.36708,12.75208],[76.37292,12.74792],[76.37292,12.74292],[76.36708,12.73542],[76.36875,12.73292],[76.37458,12.73208],[76.38375,12.73542],[76.39042,12.73292],[76.39208,12.72625],[76.39375,12.72625],[76.39875,12.71958],[76.40042,12.71375],[76.39958,12.70542],[76.40292,12.70208],[76.40708,12.69208],[76.41125,12.68708],[76.41042,12.67875],[76.41708,12.67125],[76.41125,12.66458],[76.41125,12.66042],[76.40875,12.65792],[76.39958,12.65375],[76.39958,12.64708],[76.39708,12.64458],[76.39708,12.63708],[76.40125,12.63375],[76.40875,12.63292],[76.41375,12.63458],[76.41792,12.63208],[76.41792,12.62875],[76.41458,12.62542],[76.41458,12.62208],[76.41042,12.61792],[76.40958,12.61458],[76.40125,12.60792],[76.40125,12.59708],[76.41542,12.58708],[76.42208,12.59042],[76.42958,12.58958],[76.43542,12.58208],[76.44792,12.58208],[76.45875,12.58792],[76.46125,12.58375],[76.45542,12.57542]]},"properties":{"cwcSubBasin":"Cauvery Upper","lengthM":"51286.24","cwcBasin":"Cauvery Basin","subBasin":"C1"}},{"type":"Feature","geometry":{"type":"LineString","coordinates":[[76.45208,12.11792],[76.46125,12.11542],[76.47125,12.10208],[76.47125,12.09875],[76.47625,12.09542]]},"properties":{"cwcSubBasin":"Cauvery Middle","lengthM":"4102.0063","cwcBasin":"Cauvery Basin","subBasin":"C2"}},{"type":"Feature","geometry":{"type":"LineString","coordinates":[[76.44458,12.50542],[76.44458,12.49625],[76.44958,12.49125],[76.45208,12.49125],[76.45708,12.48708],[76.46042,12.48708],[76.47208,12.47625],[76.47792,12.47625],[76.48208,12.47208],[76.49125,12.47208],[76.49292,12.46875],[76.50208,12.46042],[76.51625,12.45875],[76.52958,12.44542]]},"properties":{"cwcSubBasin":"Cauvery Upper","lengthM":"12850.475","cwcBasin":"Cauvery Basin","subBasin":"C1"}},{"type":"Feature","geometry":{"type":"LineString","coordinates":[[76.52958,12.44542],[76.53458,12.44042],[76.54125,12.44292],[76.54708,12.43458],[76.55542,12.43125],[76.56042,12.42708],[76.56708,12.42708],[76.56792,12.42458],[76.56625,12.42292],[76.56958,12.41958],[76.57375,12.42458],[76.59708,12.42458],[76.60542,12.42292],[76.61042,12.42625],[76.61458,12.42125],[76.62458,12.41875],[76.63208,12.42375],[76.63958,12.42458],[76.64708,12.43042],[76.65792,12.43292],[76.66042,12.43292],[76.66708,12.42875],[76.67042,12.42958],[76.67292,12.42708],[76.68792,12.42875],[76.69958,12.42375],[76.70208,12.42125],[76.70875,12.42125]]},"properties":{"lengthM":"23996.787","cwcBasin":"Cauvery Basin","subBasin":"C6"}},{"type":"Feature","geometry":{"type":"LineString","coordinates":[[76.705,12.98542],[76.71625,12.98625],[76.73042,12.99875],[76.73375,12.99375],[76.73375,12.99125],[76.73958,12.98375],[76.73958,12.97292],[76.75125,12.95958],[76.75458,12.95958],[76.76125,12.96292],[76.76542,12.95875],[76.77458,12.95792],[76.78375,12.95208],[76.78542,12.94542],[76.78875,12.94042],[76.80125,12.93875],[76.80792,12.93125],[76.81042,12.93042],[76.81208,12.93208],[76.81208,12.93708],[76.81458,12.93958],[76.82625,12.94125],[76.83125,12.93875],[76.83292,12.94042],[76.83625,12.94042],[76.84042,12.93542],[76.83958,12.92708],[76.85042,12.91542],[76.85458,12.91708],[76.85458,12.92708],[76.87958,12.92792],[76.88375,12.93208],[76.89042,12.93292]]},"properties":{"cwcSubBasin":"Cauvery Middle","lengthM":"30615.27","cwcBasin":"Cauvery Basin","subBasin":"C4"}},{"type":"Feature","geometry":{"type":"LineString","coordinates":[[76.83125,13.13542],[76.82625,13.13208],[76.82375,13.12542],[76.82375,13.12208],[76.82625,13.11792],[76.80958,13.10292],[76.80958,13.09792],[76.81042,13.09208],[76.81875,13.08292],[76.81792,13.07125],[76.82042,13.06875],[76.82792,13.06708],[76.83042,13.06458],[76.82958,13.06125],[76.83208,13.05875],[76.83125,13.05625],[76.83375,13.05208],[76.83125,13.04292],[76.83625,13.03875],[76.83625,13.03458],[76.83292,13.03125],[76.83292,13.02542],[76.83042,13.02292],[76.82958,13.01875],[76.83375,13.01542],[76.83708,13.01542],[76.83875,13.01208],[76.83625,13.00958],[76.83625,13.00375],[76.83208,12.99958],[76.83208,12.99375],[76.83542,12.98958],[76.84125,12.98875],[76.85125,12.98125],[76.85125,12.97708],[76.84542,12.97375],[76.84125,12.97375],[76.83958,12.97208],[76.83958,12.96875],[76.84208,12.96625],[76.84875,12.96625],[76.85542,12.96208],[76.85792,12.96458],[76.86042,12.96375],[76.87375,12.94958],[76.87375,12.94542],[76.88375,12.93542],[76.88792,12.93542],[76.89042,12.93292]]},"properties":{"cwcSubBasin":"Cauvery Middle","lengthM":"33339.17","cwcBasin":"Cauvery Basin","subBasin":"C4"}},{"type":"Feature","geometry":{"type":"LineString","coordinates":[[77.08625,12.49542],[77.09125,12.48875],[77.09375,12.48708],[77.09792,12.48708],[77.10708,12.48125],[77.12875,12.48125],[77.13208,12.47792],[77.13625,12.46875],[77.14458,12.46292],[77.14875,12.46292],[77.15125,12.46542],[77.15792,12.47458],[77.15875,12.48042],[77.16458,12.48042],[77.17125,12.47792]]},"properties":{"cwcSubBasin":"Cauvery Middle","lengthM":"12585.6045","cwcBasin":"Cauvery Basin","subBasin":"C4"}},{"type":"Feature","geometry":{"type":"LineString","coordinates":[[77.12208,12.20042],[77.13125,12.20958],[77.13125,12.21792],[77.13625,12.22458],[77.13625,12.22625],[77.12625,12.23542],[77.12375,12.23958],[77.12375,12.24292],[77.13042,12.24875],[77.13458,12.25042],[77.14208,12.24792],[77.14792,12.25375],[77.15542,12.25375],[77.15792,12.25625],[77.16625,12.25625],[77.16792,12.25792],[77.16792,12.26125],[77.17042,12.26292],[77.16875,12.26875],[77.16625,12.27125],[77.16542,12.27708],[77.16542,12.28292],[77.16958,12.28708],[77.17042,12.30042],[77.16625,12.30875],[77.16792,12.31042],[77.17625,12.30958],[77.17958,12.31125],[77.18958,12.30792],[77.21792,12.30792],[77.22208,12.30375],[77.22708,12.30375],[77.22958,12.30625],[77.23958,12.31042]]},"properties":{"cwcSubBasin":"Cauvery Middle","lengthM":"26999.082","cwcBasin":"Cauvery Basin","subBasin":"C6"}},{"type":"Feature","geometry":{"type":"LineString","coordinates":[[77.13458,12.17333],[77.13458,12.17542],[77.13125,12.17792],[77.12958,12.18208],[77.12458,12.18125],[77.12208,12.18375],[77.12458,12.18708],[77.12458,12.19375],[77.12208,12.19542],[77.12208,12.20042]]},"properties":{"cwcSubBasin":"Cauvery Middle","lengthM":"4486.619","cwcBasin":"Cauvery Basin","subBasin":"C6"}},{"type":"Feature","geometry":{"type":"LineString","coordinates":[[76.72375,12.15125],[76.72875,12.15125],[76.73208,12.14792],[76.73292,12.14375],[76.73625,12.14042],[76.74208,12.13792],[76.74625,12.14458],[76.74875,12.15542],[76.75125,12.15792],[76.75708,12.15875],[76.76125,12.15542],[76.76625,12.16042],[76.77208,12.16042],[76.77958,12.16792],[76.78875,12.16708],[76.80208,12.18208],[76.80292,12.18792],[76.80625,12.18792],[76.81208,12.19375],[76.81708,12.19375],[76.83125,12.20792],[76.83542,12.21875],[76.83458,12.23042],[76.83708,12.23375],[76.85208,12.23042],[76.86042,12.23458],[76.87875,12.23375],[76.88042,12.23542],[76.88458,12.23292],[76.89208,12.23292],[76.90125,12.22625],[76.90875,12.21792],[76.91292,12.21792]]},"properties":{"cwcSubBasin":"Cauvery Middle","lengthM":"30549.639","cwcBasin":"Cauvery Basin","subBasin":"C2"}},{"type":"Feature","geometry":{"type":"LineString","coordinates":[[76.26542,12.82708],[76.26792,12.82208],[76.26708,12.81875],[76.26958,12.81542],[76.27542,12.81292],[76.28458,12.81292],[76.29625,12.82292],[76.31042,12.82375],[76.31708,12.83042],[76.31792,12.83958],[76.32292,12.84458],[76.33042,12.84958],[76.33625,12.84958],[76.34375,12.84208],[76.35542,12.84208],[76.36542,12.83125],[76.36625,12.82042]]},"properties":{"cwcSubBasin":"Cauvery Upper","lengthM":"16500.473","cwcBasin":"Cauvery Basin","subBasin":"C1"}},{"type":"Feature","geometry":{"type":"LineString","coordinates":[[77.19542,12.34208],[77.19708,12.33792],[77.20375,12.33708],[77.20792,12.33375],[77.21958,12.33125],[77.22625,12.32708],[77.23125,12.32625],[77.23625,12.31458],[77.23958,12.31042]]},"properties":{"cwcSubBasin":"Cauvery Middle","lengthM":"6914.9","cwcBasin":"Cauvery Basin","subBasin":"C4"}},{"type":"Feature","geometry":{"type":"LineString","coordinates":[[76.84292,13.15292],[76.84375,13.15125],[76.83625,13.14458],[76.83708,13.13875],[76.83125,13.13542]]},"properties":{"cwcSubBasin":"Cauvery Middle","lengthM":"2867.4111","cwcBasin":"Cauvery Basin","subBasin":"C4"}},{"type":"Feature","geometry":{"type":"LineString","coordinates":[[76.75958,13.17375],[76.76542,13.17375],[76.76958,13.17708],[76.77292,13.17708],[76.77875,13.17375],[76.79292,13.17292],[76.79625,13.17542],[76.79708,13.17958],[76.80542,13.17792],[76.80875,13.18042],[76.81958,13.18125],[76.82375,13.17875],[76.83042,13.17792],[76.83208,13.17208],[76.83875,13.16375],[76.83875,13.15958],[76.84292,13.15292]]},"properties":{"cwcSubBasin":"Cauvery Middle","lengthM":"12257.688","cwcBasin":"Cauvery Basin","subBasin":"C4"}},{"type":"Feature","geometry":{"type":"LineString","coordinates":[[76.97667,11.8975],[76.98375,11.90458]]},"properties":{"cwcSubBasin":"Cauvery Middle","lengthM":"1099.755","cwcBasin":"Cauvery Basin","subBasin":"C3"}},{"type":"Feature","geometry":{"type":"LineString","coordinates":[[76.48167,13.17792],[76.48958,13.17208],[76.50708,13.16708],[76.51042,13.16458],[76.51375,13.16542],[76.51708,13.16208],[76.52292,13.16208],[76.52792,13.16625],[76.54625,13.16625],[76.55375,13.17458],[76.56125,13.17458],[76.56458,13.17625],[76.56708,13.17042],[76.57792,13.16792],[76.57958,13.17208],[76.58375,13.17542],[76.58792,13.17292],[76.59542,13.17542],[76.62375,13.17542],[76.63125,13.18125],[76.63375,13.17958],[76.63625,13.18208],[76.64708,13.18125],[76.64875,13.17958],[76.65625,13.18208],[76.66375,13.17292],[76.66958,13.17292],[76.67208,13.17542],[76.67625,13.17542],[76.67625,13.17042],[76.68042,13.16542],[76.68458,13.16792],[76.69542,13.16792],[76.69875,13.16458],[76.70625,13.16375],[76.71125,13.16625],[76.72208,13.16625],[76.72458,13.16375],[76.72958,13.16375],[76.73125,13.16542],[76.74458,13.16458],[76.75375,13.17458],[76.75958,13.17375]]},"properties":{"cwcSubBasin":"Cauvery Middle","lengthM":"36652.543","cwcBasin":"Cauvery Basin","subBasin":"C4"}},{"type":"Feature","geometry":{"type":"LineString","coordinates":[[77.41458,12.66208],[77.41375,12.65542],[77.41542,12.64792],[77.40958,12.64375],[77.41042,12.63958],[77.40792,12.63625],[77.40792,12.63208],[77.40458,12.62792],[77.40792,12.62292],[77.40792,12.62042],[77.40292,12.61542],[77.40542,12.61292],[77.40458,12.60875],[77.40625,12.60792],[77.40708,12.60375],[77.40542,12.60208],[77.40542,12.59792]]},"properties":{"cwcSubBasin":"Cauvery Middle","lengthM":"8628.968","cwcBasin":"Cauvery Basin","subBasin":"C5"}},{"type":"Feature","geometry":{"type":"LineString","coordinates":[[77.42083,12.68417],[77.41792,12.68125],[77.41792,12.67708],[77.42208,12.67125],[77.41875,12.66625],[77.41458,12.66375],[77.41458,12.66208]]},"properties":{"cwcSubBasin":"Cauvery Middle","lengthM":"3197.755","cwcBasin":"Cauvery Basin","subBasin":"C5"}},{"type":"Feature","geometry":{"type":"LineString","coordinates":[[77.43042,12.55375],[77.42792,12.54625],[77.42875,12.54125],[77.42625,12.53792],[77.43292,12.52875],[77.43208,12.52208],[77.43708,12.51792],[77.43708,12.51458],[77.42792,12.50958],[77.42875,12.50542],[77.43458,12.49792],[77.43542,12.49042],[77.42792,12.48292],[77.42625,12.47792],[77.43042,12.47375],[77.43542,12.47375],[77.43792,12.47125],[77.45292,12.44792],[77.45292,12.44458],[77.44708,12.43542],[77.44625,12.43125],[77.44042,12.42458],[77.43708,12.41208],[77.43292,12.40875],[77.43292,12.40542],[77.43125,12.40375],[77.43125,12.39542],[77.43708,12.38958],[77.43625,12.38042],[77.43792,12.37542],[77.43458,12.37042],[77.43458,12.36292],[77.44542,12.35208],[77.44958,12.35208],[77.44875,12.34625],[77.45042,12.34458],[77.45042,12.33792],[77.45208,12.33458],[77.44792,12.32375],[77.44875,12.32042],[77.44125,12.31292],[77.43958,12.30375],[77.44125,12.29792]]},"properties":{"cwcSubBasin":"Cauvery Middle","lengthM":"35777.28","cwcBasin":"Cauvery Basin","subBasin":"C5"}},{"type":"Feature","geometry":{"type":"LineString","coordinates":[[76.92417,12.795],[76.93208,12.80042]]},"properties":{"cwcSubBasin":"Cauvery Middle","lengthM":"1111.0387","cwcBasin":"Cauvery Basin","subBasin":"C4"}},{"type":"Feature","geometry":{"type":"LineString","coordinates":[[77.42125,12.07833],[77.42292,12.08792],[77.42042,12.09292],[77.43708,12.11625],[77.43292,12.12125],[77.43375,12.12625],[77.43125,12.12792],[77.43042,12.13292],[77.42875,12.13375],[77.43042,12.13542],[77.43042,12.13958],[77.42875,12.14125]]},"properties":{"cwcSubBasin":"Cauvery Middle","lengthM":"8825.25","cwcBasin":"Cauvery Basin","subBasin":"C7"}},{"type":"Feature","geometry":{"type":"LineString","coordinates":[[77.375,12.13667],[77.38292,12.14208],[77.39042,12.14208],[77.39292,12.14458],[77.40292,12.14208],[77.40542,12.14542],[77.40958,12.14292],[77.41375,12.14875],[77.41458,12.14375],[77.42125,12.13708],[77.42375,12.13708],[77.42708,12.14125],[77.42875,12.14125]]},"properties":{"cwcSubBasin":"Cauvery Middle","lengthM":"8274.226","cwcBasin":"Cauvery Basin","subBasin":"C7"}},{"type":"Feature","geometry":{"type":"LineString","coordinates":[[76.91292,12.21792],[76.91625,12.21458],[76.92375,12.21208],[76.93208,12.21208],[76.93458,12.21375],[76.94708,12.21542],[76.95708,12.22125],[76.96208,12.22125],[76.97792,12.22875],[76.98958,12.23958],[77.01625,12.24125],[77.02708,12.23542],[77.03125,12.23125],[77.03458,12.22458],[77.03458,12.21958],[77.03125,12.21625],[77.02458,12.21375],[77.01875,12.20792],[77.01792,12.20292],[77.01375,12.19708],[77.01375,12.19375],[77.01042,12.18792],[77.01042,12.17708],[77.01458,12.17292],[77.01958,12.17208],[77.04375,12.17208],[77.05125,12.16958],[77.06292,12.16958]]},"properties":{"cwcSubBasin":"Cauvery Middle","lengthM":"28508.473","cwcBasin":"Cauvery Basin","subBasin":"C6"}},{"type":"Feature","geometry":{"type":"LineString","coordinates":[[77.06292,12.16958],[77.06958,12.17208],[77.07208,12.17625],[77.07292,12.18458],[77.07875,12.19292],[77.08208,12.19125],[77.11125,12.19042],[77.12208,12.20042]]},"properties":{"cwcSubBasin":"Cauvery Middle","lengthM":"8926.97","cwcBasin":"Cauvery Basin","subBasin":"C6"}},{"type":"Feature","geometry":{"type":"LineString","coordinates":[[77.10333,12.3925],[77.10625,12.39625],[77.10958,12.39625],[77.11208,12.39375],[77.11542,12.39458],[77.11792,12.39208],[77.12042,12.39458],[77.12208,12.39292],[77.12875,12.39292],[77.13708,12.38542],[77.13958,12.38542],[77.14125,12.38125],[77.14875,12.37375],[77.15208,12.37292],[77.15542,12.36875],[77.15792,12.36875],[77.16458,12.36125],[77.16792,12.36042],[77.17958,12.34958],[77.18292,12.34708],[77.18792,12.34792],[77.19208,12.34292],[77.19542,12.34208]]},"properties":{"cwcSubBasin":"Cauvery Middle","lengthM":"13568.461","cwcBasin":"Cauvery Basin","subBasin":"C4"}},{"type":"Feature","geometry":{"type":"LineString","coordinates":[[76.37,11.6775],[76.37292,11.68125],[76.38875,11.68125],[76.39375,11.68625],[76.39458,11.69375],[76.39292,11.69792],[76.39625,11.70708],[76.40125,11.70875],[76.40458,11.71292],[76.40708,11.71292],[76.41042,11.71625],[76.41542,11.71208],[76.41708,11.71375],[76.41708,11.71708],[76.42125,11.72042],[76.42375,11.72042],[76.42708,11.72458],[76.42708,11.73042],[76.42375,11.73625],[76.41792,11.74208],[76.41292,11.74125],[76.41125,11.74292],[76.41292,11.74458],[76.41292,11.75208],[76.41542,11.75542],[76.41375,11.76375],[76.42292,11.77542],[76.42208,11.77792],[76.41708,11.77792],[76.41375,11.78042],[76.41542,11.78875],[76.41958,11.79042],[76.42792,11.79792],[76.42458,11.80292],[76.41958,11.80292],[76.41375,11.80792],[76.41042,11.81208],[76.41042,11.81542],[76.41542,11.82292],[76.42042,11.82458],[76.42125,11.83708],[76.41792,11.84125],[76.41958,11.84625],[76.41625,11.85042],[76.41625,11.85458],[76.42042,11.86125],[76.41792,11.86542],[76.42042,11.86875],[76.41875,11.87208],[76.41875,11.87792],[76.42125,11.88125],[76.42125,11.88542],[76.42375,11.89042],[76.42708,11.89375],[76.43208,11.91042],[76.43542,11.91375],[76.43625,11.91792],[76.44292,11.92292],[76.44292,11.97375],[76.44542,11.97625],[76.44875,11.97625],[76.45375,11.97208],[76.45625,11.97542],[76.45625,11.98375],[76.46458,11.98792],[76.48375,11.98458],[76.48708,11.98792],[76.48708,11.99208],[76.48375,11.99708],[76.49542,12.00208],[76.50208,12.00208],[76.50542,12.00625],[76.50625,12.01625],[76.50125,12.02125],[76.50708,12.02875],[76.50708,12.03125],[76.51042,12.03542],[76.51042,12.03875],[76.50875,12.04042],[76.50958,12.04458],[76.50542,12.04875],[76.50292,12.06792],[76.50042,12.07125],[76.49125,12.07375],[76.48458,12.07958],[76.48792,12.08458],[76.48792,12.08708],[76.48625,12.08875],[76.47625,12.09042],[76.47458,12.09208],[76.47625,12.09542]]},"properties":{"cwcSubBasin":"Cauvery Middle","lengthM":"70274.33","cwcBasin":"Cauvery Basin","subBasin":"C2"}},{"type":"Feature","geometry":{"type":"LineString","coordinates":[[77.40542,12.59792],[77.40542,12.58458],[77.40708,12.58125],[77.40458,12.57458],[77.40625,12.57375],[77.40708,12.56792],[77.41625,12.56042],[77.42042,12.56042],[77.42208,12.56375],[77.42792,12.56292],[77.43125,12.55542],[77.43042,12.55375]]},"properties":{"cwcSubBasin":"Cauvery Middle","lengthM":"7854.3364","cwcBasin":"Cauvery Basin","subBasin":"C5"}},{"type":"Feature","geometry":{"type":"LineString","coordinates":[[77.47667,12.29125],[77.46875,12.29208],[77.46708,12.29375],[77.46375,12.29208],[77.46125,12.29458],[77.45542,12.29375],[77.44792,12.29792],[77.44125,12.29792]]},"properties":{"cwcSubBasin":"Cauvery Middle","lengthM":"4470.96","cwcBasin":"Cauvery Basin","subBasin":"C5"}},{"type":"Feature","geometry":{"type":"LineString","coordinates":[[76.45542,12.57542],[76.45292,12.57208],[76.45292,12.56375],[76.45792,12.55708],[76.45208,12.54875],[76.45208,12.54625],[76.45875,12.54125],[76.45875,12.53875],[76.45625,12.53708],[76.45042,12.53708],[76.44792,12.53958],[76.44458,12.53958],[76.44292,12.53792],[76.44292,12.53208],[76.44708,12.52792],[76.44458,12.50542]]},"properties":{"cwcSubBasin":"Cauvery Upper","lengthM":"11012.876","cwcBasin":"Cauvery Basin","subBasin":"C1"}},{"type":"Feature","geometry":{"type":"LineString","coordinates":[[76.38958,12.08458],[76.39958,12.08458],[76.40125,12.08625],[76.40125,12.08958],[76.39708,12.09375],[76.39708,12.09792],[76.40542,12.09958],[76.41542,12.09792],[76.41875,12.10125],[76.41875,12.10458],[76.41625,12.10792],[76.41875,12.11208],[76.42625,12.11208],[76.42958,12.11542],[76.44042,12.11958],[76.45208,12.11792]]},"properties":{"cwcSubBasin":"Cauvery Middle","lengthM":"11117.58","cwcBasin":"Cauvery Basin","subBasin":"C2"}},{"type":"Feature","geometry":{"type":"LineString","coordinates":[[76.69875,12.12208],[76.70208,12.12208],[76.70875,12.12708],[76.71042,12.13375],[76.72375,12.15125]]},"properties":{"cwcSubBasin":"Cauvery Middle","lengthM":"4662.2007","cwcBasin":"Cauvery Basin","subBasin":"C2"}}]}