{"type":"FeatureCollection","features":[{"type":"Feature","geometry":{"type":"Point","coordinates":[76.57265,12.42529]},"properties":{"name":"At Balamuri Kshetra","river":"Cauvery","regionalOffice":"Mysuru","category":"Trend Station","stationCode":"33","subBasin":"C6","monthlyClasses":"CCCCCCCCCCC","latestClass":"C","worstClass":"C","readingsPeriod":"April 2025 - February 2026","readingsSource":"KSPCB NWMP classification, April 2025 - February 2026","positionNote":"KWRIS places this station 3 km from here; the position shown is Paani Earth's validated location.","positionSource":"Paani Earth Foundation, validated station locations (Cauvery Basin in Karnataka monitoring locations, September 2026)"}},{"type":"Feature","geometry":{"type":"Point","coordinates":[77.16352,12.25531]},"properties":{"name":"At Satyagala Bridge","river":"Cauvery","regionalOffice":"Mysuru","category":"Trend Station","stationCode":"34","subBasin":"C6","monthlyClasses":"CCCCCCCCCCC","latestClass":"C","worstClass":"C","readingsPeriod":"April 2025 - February 2026","readingsSource":"KSPCB NWMP classification, April 2025 - February 2026","positionNote":"KWRIS places this station 112 km from here; the position shown is Paani Earth's validated location.","positionSource":"Paani Earth Foundation, validated station locations (Cauvery Basin in Karnataka monitoring locations, September 2026)"}},{"type":"Feature","geometry":{"type":"Point","coordinates":[76.79291,12.16676]},"properties":{"name":"At Cause way Suttur","river":"Kabini","regionalOffice":"Mysuru","category":"Trend Station","stationCode":"41","subBasin":"C2","monthlyClasses":"CCCCCCCCCCC","latestClass":"C","worstClass":"C","readingsPeriod":"April 2025 - February 2026","readingsSource":"KSPCB NWMP classification, April 2025 - February 2026","positionSource":"Paani Earth Foundation, validated station locations (Cauvery Basin in Karnataka monitoring locations, September 2026)"}},{"type":"Feature","geometry":{"type":"Point","coordinates":[77.42644,12.54477]},"properties":{"name":"At D/S of Kanakapura","river":"Arkavathi","regionalOffice":"Ramanagar","category":"Trend Station","stationCode":"1165","subBasin":"C5","monthlyClasses":"DDEDDDDDDEE","latestClass":"E","worstClass":"E","readingsPeriod":"April 2025 - February 2026","readingsSource":"KSPCB NWMP classification, April 2025 - February 2026"}},{"type":"Feature","geometry":{"type":"Point","coordinates":[77.22614,12.42276]},"properties":{"name":"At D/S of Bridge Halagur","river":"Shimsha","regionalOffice":"Mysuru","category":"Trend Station","stationCode":"1166","subBasin":"C4","monthlyClasses":"CCCCCCCCCCC","latestClass":"C","worstClass":"C","readingsPeriod":"April 2025 - February 2026","readingsSource":"KSPCB NWMP classification, April 2025 - February 2026","positionSource":"Paani Earth Foundation, validated station locations (Cauvery Basin in Karnataka monitoring locations, September 2026)"}},{"type":"Feature","geometry":{"type":"Point","coordinates":[76.69367,12.4237]},"properties":{"name":"At D/S of Road Bridge at Shrirangapatna","river":"Cauvery","regionalOffice":"Mysuru","category":"Trend Station","stationCode":"1171","subBasin":"C6","monthlyClasses":"CCCCCCCCCCC","latestClass":"C","worstClass":"C","readingsPeriod":"April 2025 - February 2026","readingsSource":"KSPCB NWMP classification, April 2025 - February 2026","positionSource":"Paani Earth Foundation, validated station locations (Cauvery Basin in Karnataka monitoring locations, September 2026)"}},{"type":"Feature","geometry":{"type":"Point","coordinates":[76.28616,12.30219]},"properties":{"name":"D/S of Hunsur Town","river":"Lakshman Tirtha","regionalOffice":"Mysuru","category":"Trend Station","stationCode":"1196","subBasin":"C1","monthlyClasses":"**CCCCCCCC*","latestClass":"C","worstClass":"C","readingsPeriod":"April 2025 - February 2026","readingsSource":"KSPCB NWMP classification, April 2025 - February 2026","positionSource":"Paani Earth Foundation, validated station locations (Cauvery Basin in Karnataka monitoring locations, September 2026)"}},{"type":"Feature","geometry":{"type":"Point","coordinates":[76.38808,12.01985]},"properties":{"name":"At Saragur Village","river":"Kabini","regionalOffice":"Mysuru","category":"Flux Station","stationCode":"1197","subBasin":"C2","monthlyClasses":"CCCCCCCCCCC","latestClass":"C","worstClass":"C","readingsPeriod":"April 2025 - February 2026","readingsSource":"KSPCB NWMP classification, April 2025 - February 2026","positionNote":"KWRIS places this station 3 km from here; the position shown is Paani Earth's validated location.","positionSource":"Paani Earth Foundation, validated station locations (Cauvery Basin in Karnataka monitoring locations, September 2026)"}},{"type":"Feature","geometry":{"type":"Point","coordinates":[75.69852,12.31415]},"properties":{"name":"at Napoklu  Bridge","river":"Cauvery","regionalOffice":"Mysuru","category":"Baseline Station","stationCode":"1198","subBasin":"C1","monthlyClasses":"BBBBBBBBBB*","latestClass":"B","worstClass":"B","readingsPeriod":"April 2025 - February 2026","readingsSource":"KSPCB NWMP classification, April 2025 - February 2026","positionSource":"Paani Earth Foundation, validated station locations (Cauvery Basin in Karnataka monitoring locations, September 2026)"}},{"type":"Feature","geometry":{"type":"Point","coordinates":[76.20564,12.80969]},"properties":{"name":"At D/S of Holenarasipura Town","river":"Hemavathi","regionalOffice":"Hassan","category":"Trend Station","stationCode":"1199","subBasin":"C1","monthlyClasses":"CCCBBBCCCCC","latestClass":"C","worstClass":"C","readingsPeriod":"April 2025 - February 2026","readingsSource":"KSPCB NWMP classification, April 2025 - February 2026","positionNote":"KWRIS places this station 4 km from here; the position shown is Paani Earth's validated location.","positionSource":"Paani Earth Foundation, validated station locations (Cauvery Basin in Karnataka monitoring locations, September 2026)"}},{"type":"Feature","geometry":{"type":"Point","coordinates":[76.85162,12.97911]},"properties":{"name":"Near Yediyur on NH-47","river":"Shimsha","regionalOffice":"Tumakuru","category":"Flux Station","stationCode":"1200","subBasin":"C4","monthlyClasses":"DDDDDDDDDDD","latestClass":"D","worstClass":"D","readingsPeriod":"April 2025 - February 2026","readingsSource":"KSPCB NWMP classification, April 2025 - February 2026","positionSource":"Paani Earth Foundation, validated station locations (Cauvery Basin in Karnataka monitoring locations, September 2026)"}},{"type":"Feature","geometry":{"type":"Point","coordinates":[76.67926,12.41819]},"properties":{"name":"D/S of Karekura Village","river":"Cauvery","regionalOffice":"Mysuru","category":"Trend Station","stationCode":"1386","subBasin":"C6","monthlyClasses":"CCCCCCCCCCC","latestClass":"C","worstClass":"C","readingsPeriod":"April 2025 - February 2026","readingsSource":"KSPCB NWMP classification, April 2025 - February 2026","positionNote":"KWRIS places this station 5 km from here; the position shown is Paani Earth's validated location.","positionSource":"Paani Earth Foundation, validated station locations (Cauvery Basin in Karnataka monitoring locations, September 2026)"}},{"type":"Feature","geometry":{"type":"Point","coordinates":[76.64763,12.13609]},"properties":{"name":"Kabini, W.A. Point at KIADB, Nanjangud","river":"Kabini","regionalOffice":"Mysuru","category":"Trend Station","stationCode":"1445","subBasin":"C2","monthlyClasses":"CCCBBCCCCCC","latestClass":"C","worstClass":"C","readingsPeriod":"April 2025 - February 2026","readingsSource":"KSPCB NWMP classification, April 2025 - February 2026","positionNote":"KWRIS places this station 3 km from here; the position shown is Paani Earth's validated location.","positionSource":"Paani Earth Foundation, validated station locations (Cauvery Basin in Karnataka monitoring locations, September 2026)"}},{"type":"Feature","geometry":{"type":"Point","coordinates":[76.73553,12.56371]},"properties":{"name":"Hebbala Valley near Mandya","river":"Hebbala","regionalOffice":"Mysuru","category":"Trend Station","stationCode":"1446","subBasin":"C6","positionNote":"KWRIS places this station 52 km from here; the position shown is Paani Earth's validated location.","positionSource":"Paani Earth Foundation, validated station locations (Cauvery Basin in Karnataka monitoring locations, September 2026)"}},{"type":"Feature","geometry":{"type":"Point","coordinates":[76.09955,13.00681]},"properties":{"name":"Yagachi River Near Pumping Stations Hassan City","river":"Yagachi","regionalOffice":"Hassan","category":"Trend Station","stationCode":"1893","subBasin":"C1","monthlyClasses":"CCCCCCCCCCC","latestClass":"C","worstClass":"C","readingsPeriod":"April 2025 - February 2026","readingsSource":"KSPCB NWMP classification, April 2025 - February 2026","positionNote":"KWRIS places this station 16 km from here; the position shown is Paani Earth's validated location.","positionSource":"Paani Earth Foundation, validated station locations (Cauvery Basin in Karnataka monitoring locations, September 2026)"}},{"type":"Feature","geometry":{"type":"Point","coordinates":[76.28618,12.34461]},"properties":{"name":"D/S of Kattemalavadi","river":"Lakshman Tirtha","regionalOffice":"Mysuru","category":"Trend Station","stationCode":"2772","subBasin":"C1","monthlyClasses":"**CCCCCCCC*","latestClass":"C","worstClass":"C","readingsPeriod":"April 2025 - February 2026","readingsSource":"KSPCB NWMP classification, April 2025 - February 2026","positionNote":"KWRIS places this station 9 km from here; the position shown is Paani Earth's validated location.","positionSource":"Paani Earth Foundation, validated station locations (Cauvery Basin in Karnataka monitoring locations, September 2026)"}},{"type":"Feature","geometry":{"type":"Point","coordinates":[76.84147,12.32147]},"properties":{"name":"At Bannur Bridge","river":"Cauvery","regionalOffice":"Mysuru","category":"Trend Station","stationCode":"2773","subBasin":"C6","monthlyClasses":"CCCCCCCCCCC","latestClass":"C","worstClass":"C","readingsPeriod":"April 2025 - February 2026","readingsSource":"KSPCB NWMP classification, April 2025 - February 2026","positionSource":"Paani Earth Foundation, validated station locations (Cauvery Basin in Karnataka monitoring locations, September 2026)"}},{"type":"Feature","geometry":{"type":"Point","coordinates":[76.65354,12.42502]},"properties":{"name":"At Ranganathittu","river":"Cauvery","regionalOffice":"Mysuru","category":"Trend Station","stationCode":"2774","subBasin":"C6","monthlyClasses":"CCCCCCCCCCC","latestClass":"C","worstClass":"C","readingsPeriod":"April 2025 - February 2026","readingsSource":"KSPCB NWMP classification, April 2025 - February 2026","positionSource":"Paani Earth Foundation, validated station locations (Cauvery Basin in Karnataka monitoring locations, September 2026)"}},{"type":"Feature","geometry":{"type":"Point","coordinates":[76.68374,12.12877]},"properties":{"name":"At Bathing Ghat, Nanjanagud","river":"Kabini","regionalOffice":"Mysuru","category":"Trend Station","stationCode":"2775","subBasin":"C2","monthlyClasses":"CDCCCCDCCCC","latestClass":"C","worstClass":"D","readingsPeriod":"April 2025 - February 2026","readingsSource":"KSPCB NWMP classification, April 2025 - February 2026","positionSource":"Paani Earth Foundation, validated station locations (Cauvery Basin in Karnataka monitoring locations, September 2026)"}},{"type":"Feature","geometry":{"type":"Point","coordinates":[77.34821,12.97356]},"properties":{"name":"T.G. Halli Reservoir","river":"Arkavathi","regionalOffice":"R.R. Nagar","category":"Trend Station","stationCode":"2778","subBasin":"C5","monthlyClasses":"DDDDDDDDDDD","latestClass":"D","worstClass":"D","readingsPeriod":"April 2025 - February 2026","readingsSource":"KSPCB NWMP classification, April 2025 - February 2026"}},{"type":"Feature","geometry":{"type":"Point","coordinates":[77.4881,13.14801]},"properties":{"name":"Hesaraghatta Reservoir","river":"Arkavathi","regionalOffice":"Dasarahalli","category":"Trend Station","stationCode":"2779","subBasin":"C5"}},{"type":"Feature","geometry":{"type":"Point","coordinates":[76.57274,12.42619]},"properties":{"name":"KRS Dam Mandya","river":"Cauvery","regionalOffice":"Mysuru","category":"Trend Station","stationCode":"3566","subBasin":"C6","monthlyClasses":"CCCCCCCCCCC","latestClass":"C","worstClass":"C","readingsPeriod":"April 2025 - February 2026","readingsSource":"KSPCB NWMP classification, April 2025 - February 2026","positionNote":"KWRIS places this station 3 km from here; the position shown is Paani Earth's validated location.","positionSource":"Paani Earth Foundation, validated station locations (Cauvery Basin in Karnataka monitoring locations, September 2026)"}},{"type":"Feature","geometry":{"type":"Point","coordinates":[77.05524,12.6121]},"properties":{"name":"D/s Shimsha near Madduar town","river":"Shimsha","regionalOffice":"Mysuru","category":"Trend Station","stationCode":"3567","subBasin":"C4","monthlyClasses":"CCCCCCCCCCC","latestClass":"C","worstClass":"C","readingsPeriod":"April 2025 - February 2026","readingsSource":"KSPCB NWMP classification, April 2025 - February 2026","positionNote":"KWRIS places this station 3 km from here; the position shown is Paani Earth's validated location.","positionSource":"Paani Earth Foundation, validated station locations (Cauvery Basin in Karnataka monitoring locations, September 2026)"}},{"type":"Feature","geometry":{"type":"Point","coordinates":[76.68262,12.41885]},"properties":{"name":"Water supply intakepoint to Srirangapatna town","river":"Cauvery","regionalOffice":"Mysuru","category":"Trend Station","stationCode":"3568","subBasin":"C6","monthlyClasses":"CCCCCCCCCCC","latestClass":"C","worstClass":"C","readingsPeriod":"April 2025 - February 2026","readingsSource":"KSPCB NWMP classification, April 2025 - February 2026","positionNote":"KWRIS places this station 36 km from here; the position shown is Paani Earth's validated location.","positionSource":"Paani Earth Foundation, validated station locations (Cauvery Basin in Karnataka monitoring locations, September 2026)"}},{"type":"Feature","geometry":{"type":"Point","coordinates":[76.67245,12.42794]},"properties":{"name":"Water supply intake point to Mandya town","river":"Cauvery","regionalOffice":"Mysuru","category":"Trend Station","stationCode":"3569","subBasin":"C6","monthlyClasses":"CCCCCCCCCCC","latestClass":"C","worstClass":"C","readingsPeriod":"April 2025 - February 2026","readingsSource":"KSPCB NWMP classification, April 2025 - February 2026","positionNote":"KWRIS places this station 35 km from here; the position shown is Paani Earth's validated location.","positionSource":"Paani Earth Foundation, validated station locations (Cauvery Basin in Karnataka monitoring locations, September 2026)"}},{"type":"Feature","geometry":{"type":"Point","coordinates":[76.39583,12.46877]},"properties":{"name":"D/s of KR Nagar bridge","river":"Cauvery","regionalOffice":"Mysuru","category":"Flux Station","stationCode":"3570","subBasin":"C1","monthlyClasses":"CCCCCCCCCCC","latestClass":"C","worstClass":"C","readingsPeriod":"April 2025 - February 2026","readingsSource":"KSPCB NWMP classification, April 2025 - February 2026","positionSource":"Paani Earth Foundation, validated station locations (Cauvery Basin in Karnataka monitoring locations, September 2026)"}},{"type":"Feature","geometry":{"type":"Point","coordinates":[76.38274,12.49069]},"properties":{"name":"U/s of KR Nagar","river":"Cauvery","regionalOffice":"Mysuru","category":"Trend Station","stationCode":"3571","subBasin":"C1","monthlyClasses":"CCCCCCCCCCC","latestClass":"C","worstClass":"C","readingsPeriod":"April 2025 - February 2026","readingsSource":"KSPCB NWMP classification, April 2025 - February 2026","positionNote":"KWRIS places this station 2 km from here; the position shown is Paani Earth's validated location.","positionSource":"Paani Earth Foundation, validated station locations (Cauvery Basin in Karnataka monitoring locations, September 2026)"}},{"type":"Feature","geometry":{"type":"Point","coordinates":[76.41104,12.37244]},"properties":{"name":"Water supply intake point to Hunsur town","river":"Lakshman Thirtha","regionalOffice":"Mysuru","category":"Trend Station","stationCode":"3572","subBasin":"C1","monthlyClasses":"**CCCCCCCC*","latestClass":"C","worstClass":"C","readingsPeriod":"April 2025 - February 2026","readingsSource":"KSPCB NWMP classification, April 2025 - February 2026","positionNote":"KWRIS places this station 24 km from here; the position shown is Paani Earth's validated location.","positionSource":"Paani Earth Foundation, validated station locations (Cauvery Basin in Karnataka monitoring locations, September 2026)"}},{"type":"Feature","geometry":{"type":"Point","coordinates":[76.61501,12.11766]},"properties":{"name":"U/s Intake point to Nanjanagud & Gundlupet at Debur","river":"Kabini","regionalOffice":"Mysuru","category":"Trend Station","stationCode":"3575","subBasin":"C2","positionNote":"KWRIS places this station 2 km from here; the position shown is Paani Earth's validated location.","positionSource":"Paani Earth Foundation, validated station locations (Cauvery Basin in Karnataka monitoring locations, September 2026)"}},{"type":"Feature","geometry":{"type":"Point","coordinates":[76.6206,12.36569]},"properties":{"name":"Water supply intake point to Mysore pump house","river":"Cauvery","regionalOffice":"Mysuru","category":"Flux Station","stationCode":"3576","subBasin":"C6","monthlyClasses":"C*CCCCCCCCC","latestClass":"C","worstClass":"C","readingsPeriod":"April 2025 - February 2026","readingsSource":"KSPCB NWMP classification, April 2025 - February 2026","positionNote":"KWRIS places this station 32 km from here; the position shown is Paani Earth's validated location.","positionSource":"Paani Earth Foundation, validated station locations (Cauvery Basin in Karnataka monitoring locations, September 2026)"}},{"type":"Feature","geometry":{"type":"Point","coordinates":[76.90425,12.22272]},"properties":{"name":"Water supply intake point to   T. Narasipura","river":"Kabini","regionalOffice":"Mysuru","category":"Trend Station","stationCode":"3577","subBasin":"C2","monthlyClasses":"CCCCCCCCCCD","latestClass":"D","worstClass":"D","readingsPeriod":"April 2025 - February 2026","readingsSource":"KSPCB NWMP classification, April 2025 - February 2026","positionSource":"Paani Earth Foundation, validated station locations (Cauvery Basin in Karnataka monitoring locations, September 2026)"}},{"type":"Feature","geometry":{"type":"Point","coordinates":[77.06443,12.57209]},"properties":{"name":"D/s of Cauvery Maddur water supply treatment plant at @ Bachalli","river":"Cauvery","regionalOffice":"Mysuru","category":"Trend Station","stationCode":"3578","subBasin":"C4","positionNote":"KWRIS places this station 43 km from here; the position shown is Paani Earth's validated location.","positionSource":"Paani Earth Foundation, validated station locations (Cauvery Basin in Karnataka monitoring locations, September 2026)"}},{"type":"Feature","geometry":{"type":"Point","coordinates":[77.10242,12.18792]},"properties":{"name":"Water supply intake point at Kollegala, Dasanapura","river":"Cauvery","regionalOffice":"Mysuru","category":"Trend Station","stationCode":"3579","subBasin":"C6","monthlyClasses":"CCCCCCCCCCC","latestClass":"C","worstClass":"C","readingsPeriod":"April 2025 - February 2026","readingsSource":"KSPCB NWMP classification, April 2025 - February 2026","positionNote":"KWRIS places this station 10 km from here; the position shown is Paani Earth's validated location.","positionSource":"Paani Earth Foundation, validated station locations (Cauvery Basin in Karnataka monitoring locations, September 2026)"}},{"type":"Feature","geometry":{"type":"Point","coordinates":[77.03,12.36]},"properties":{"name":"Water supply intake point to Malavalli","river":"Cauvery","regionalOffice":"Mysuru","category":"Trend Station","stationCode":"3580","subBasin":"C4","monthlyClasses":"CCCCCCCCCCC","latestClass":"C","worstClass":"C","readingsPeriod":"April 2025 - February 2026","readingsSource":"KSPCB NWMP classification, April 2025 - February 2026","positionNote":"Paani Earth's set lists code 3580 as a Shimsha intake at Maddur; CPCB's 2024 river table names it 'Cauvery at water supply intake point at Shivanasamudra', as KWRIS does (Malavalli's intake). Position stays as KWRIS publishes it."}},{"type":"Feature","geometry":{"type":"Point","coordinates":[77.19498,12.41468]},"properties":{"name":"Water supply intake point at Torekadanahalli","river":"Cauvery","regionalOffice":"Mysuru","category":"Trend Station","stationCode":"3581","subBasin":"C4","monthlyClasses":"CCCCCCCCCCC","latestClass":"C","worstClass":"C","readingsPeriod":"April 2025 - February 2026","readingsSource":"KSPCB NWMP classification, April 2025 - February 2026","positionNote":"KWRIS places this station 21 km from here; the position shown is Paani Earth's validated location.","positionSource":"Paani Earth Foundation, validated station locations (Cauvery Basin in Karnataka monitoring locations, September 2026)"}},{"type":"Feature","geometry":{"type":"Point","coordinates":[75.96987,12.44849]},"properties":{"name":"D/S OF KUSHALANAGAR TOWN","stationCode":"3573","subBasin":"C1","positionSource":"Paani Earth Foundation, validated station locations (Cauvery Basin in Karnataka monitoring locations, September 2026)","sourceNote":"Not in the KWRIS station layer; listed and located in Paani Earth's validated set."}},{"type":"Feature","geometry":{"type":"Point","coordinates":[75.9574,12.4522]},"properties":{"name":"CAUVERY AT KUSHAL NAGAR U/S (NEAR BAICHANAHALLI)","river":"Cauvery","stationCode":"1195","subBasin":"C1","positionSource":"Paani Earth Foundation, validated station locations (Cauvery Basin in Karnataka monitoring locations, September 2026)","sourceNote":"Not in the KWRIS station layer; listed and located in Paani Earth's validated set."}},{"type":"Feature","geometry":{"type":"Point","coordinates":[75.73879,12.42081]},"properties":{"name":"CAUVERY AT WATER SUPPLY INTAKE POINT TO MADIKERI TOWN","river":"Cauvery","stationCode":"3574","subBasin":"C1","positionSource":"Paani Earth Foundation, validated station locations (Cauvery Basin in Karnataka monitoring locations, September 2026)","sourceNote":"Not in the KWRIS station layer; listed and located in Paani Earth's validated set."}},{"type":"Feature","geometry":{"type":"Point","coordinates":[77.02637,11.82768]},"properties":{"name":"SUVARANVATHI RIVER AT SUVARANVATHI RESERVOIR, ATTIGULLIPURA CHAMARAJANAGAR","river":"Suvarnavathi","stationCode":"4100","subBasin":"C3","positionSource":"Paani Earth Foundation, validated station locations (Cauvery Basin in Karnataka monitoring locations, September 2026)","sourceNote":"Not in the KWRIS station layer; listed and located in Paani Earth's validated set."}},{"type":"Feature","geometry":{"type":"Point","coordinates":[77.19879,12.0866]},"properties":{"name":"RIVER AT GUNDAL RESERVOIR, GUNDAL KOLLEGALA TQ & CHAMARAJANAGARA DIST","stationCode":"4101","subBasin":"C6","positionSource":"Paani Earth Foundation, validated station locations (Cauvery Basin in Karnataka monitoring locations, September 2026)","sourceNote":"Not in the KWRIS station layer; listed and located in Paani Earth's validated set."}},{"type":"Feature","geometry":{"type":"Point","coordinates":[75.53293,12.3847]},"properties":{"name":"D/S OF CAUVERY AT BHAGAMANDALA BRIDGE","river":"Cauvery","stationCode":"4102","subBasin":"C1","positionSource":"Paani Earth Foundation, validated station locations (Cauvery Basin in Karnataka monitoring locations, September 2026)","sourceNote":"Not in the KWRIS station layer; listed and located in Paani Earth's validated set."}},{"type":"Feature","geometry":{"type":"Point","coordinates":[75.96222,12.50864]},"properties":{"name":"D/S OF CAUVERY AT KANIVE RAMALINGESWARA TEMPLE BRIDGE, KUSHALNAGAR","river":"Cauvery","stationCode":"4103","subBasin":"C1","positionSource":"Paani Earth Foundation, validated station locations (Cauvery Basin in Karnataka monitoring locations, September 2026)","sourceNote":"Not in the KWRIS station layer; listed and located in Paani Earth's validated set."}},{"type":"Feature","geometry":{"type":"Point","coordinates":[76.72181,12.40766]},"properties":{"name":"CAUVERY RIVER BEFORE CONFLUENCE AT SANGAM","river":"Cauvery","stationCode":"4109","subBasin":"C6","positionSource":"Paani Earth Foundation, validated station locations (Cauvery Basin in Karnataka monitoring locations, September 2026)","sourceNote":"Not in the KWRIS station layer; listed and located in Paani Earth's validated set."}},{"type":"Feature","geometry":{"type":"Point","coordinates":[77.18507,12.2927]},"properties":{"name":"CAUVERY RIVER D/S BARACHUKI FALLS, SATHEGALA, KOLLEGALA","river":"Cauvery","stationCode":"4099","subBasin":"C6","positionSource":"Paani Earth Foundation, validated station locations (Cauvery Basin in Karnataka monitoring locations, September 2026)","sourceNote":"Not in the KWRIS station layer; listed and located in Paani Earth's validated set."}}]}