{"nvdm":"1.0","dataset":"basins/micro-watersheds","scope":{"kind":"basin","id":"krishnagiri-rivers"},"provenance":{"sources":[{"id":"tngis-open-geoserver","title":"TNGIS open GeoServer (WFS): district, taluk, block and village panchayat boundaries, TN WRD sub-basins and reservoirs, micro-watershed atlas, all-water-bodies and all-tanks registers, mine leases, industry register matched to land parcels","publisher":"Tamil Nadu e-Governance Agency (TNGIS)","license":"Tamil Nadu government data on an open GeoServer (WFS, no login); published with TNGIS's permission and with attribution.","role":"input","url":"https://tngis.tn.gov.in/tngismaps/ows"}],"method":"derived","produced_at":"2026-09-18","produced_by":"scripts/build_krishnagiri_rivers_basin.py","internal_inputs":["public/data/basins/krishnagiri-rivers/sub-hydrosheds.geojson"],"note":"Krishnagiri district's rivers, groundwater and industry (scope krishnagiri-rivers; the district's own scope id is tn-krishnagiri). The district boundary is the frame and TN WRD's sub-basins, clipped to it, are the catchments (shedId): the Thenpennai's to the east, the Cauvery's Chinnar and Dodda Halla to the south-west. The industry register holds only units TNGIS matched to a land parcel, so every count is a lower bound; sector comes from the reviewed TNPCB type-code lookup pipeline-inputs/basins/krishnagiri-rivers/tnpcb-type-sectors.json."},"type":"FeatureCollection","features":[{"type":"Feature","properties":{"name":"4C1C6b1a","level":"micro-watershed","watershedCode":"4C1C6","subCatchmentCode":"4C1C","areaKm2InDistrict":3.9,"shedId":"SBP03"},"geometry":{"type":"Polygon","coordinates":[[[78.1448,12.6231],[78.145,12.6121],[78.1478,12.5969],[78.1355,12.5892],[78.1334,12.5887],[78.1351,12.5912],[78.1341,12.596],[78.1346,12.5981],[78.136,12.6016],[78.1392,12.6052],[78.1396,12.6067],[78.1383,12.6078],[78.1345,12.6076],[78.1336,12.6084],[78.1337,12.6097],[78.1372,12.6164],[78.1373,12.6178],[78.1368,12.619],[78.1339,12.6209],[78.1338,12.623],[78.1343,12.624],[78.1368,12.6252],[78.1412,12.6245],[78.1448,12.6231]]]}},{"type":"Feature","properties":{"name":"4C1C6b1b","level":"micro-watershed","watershedCode":"4C1C6","subCatchmentCode":"4C1C","areaKm2InDistrict":1.1,"shedId":"SBP03"},"geometry":{"type":"Polygon","coordinates":[[[78.1332,12.5876],[78.1351,12.5847],[78.1349,12.5794],[78.1376,12.5733],[78.1343,12.575],[78.135,12.5763],[78.1324,12.5799],[78.1248,12.5847],[78.1227,12.5865],[78.1214,12.5886],[78.1216,12.5893],[78.1322,12.5889],[78.1334,12.5887],[78.1332,12.5876]]]}},{"type":"Feature","properties":{"name":"4C1C6b1c1","level":"micro-watershed","watershedCode":"4C1C6","subCatchmentCode":"4C1C","areaKm2InDistrict":5.4,"shedId":"SBP03"},"geometry":{"type":"Polygon","coordinates":[[[78.1139,12.6095],[78.1238,12.6087],[78.1316,12.6051],[78.136,12.6016],[78.1341,12.596],[78.1351,12.5912],[78.1334,12.5887],[78.1216,12.5893],[78.1214,12.5885],[78.1188,12.5946],[78.1163,12.5965],[78.1147,12.5971],[78.11,12.5971],[78.1084,12.6014],[78.1075,12.602],[78.1051,12.6022],[78.1038,12.6014],[78.1025,12.6039],[78.102,12.6075],[78.108,12.6094],[78.1116,12.6093],[78.1127,12.6104],[78.1139,12.6095]]]}},{"type":"Feature","properties":{"name":"4C1C6b1c2","level":"micro-watershed","watershedCode":"4C1C6","subCatchmentCode":"4C1C","areaKm2InDistrict":4.0,"shedId":"SBP03"},"geometry":{"type":"Polygon","coordinates":[[[78.1366,12.615],[78.1337,12.6097],[78.1336,12.6084],[78.1345,12.6076],[78.1383,12.6078],[78.1396,12.6067],[78.1392,12.6052],[78.136,12.6016],[78.1316,12.6051],[78.1238,12.6087],[78.1139,12.6095],[78.1141,12.6105],[78.1123,12.6169],[78.1127,12.6179],[78.12,12.6229],[78.1276,12.6235],[78.1309,12.6225],[78.1337,12.62],[78.136,12.6172],[78.1366,12.615]]]}},{"type":"Feature","properties":{"name":"4C1C6b1c3","level":"micro-watershed","watershedCode":"4C1C6","subCatchmentCode":"4C1C","areaKm2InDistrict":7.8,"shedId":"SBP03"},"geometry":{"type":"Polygon","coordinates":[[[78.1368,12.6156],[78.1337,12.62],[78.1309,12.6225],[78.1276,12.6235],[78.12,12.6229],[78.1127,12.6179],[78.1123,12.6168],[78.1116,12.6171],[78.1066,12.6264],[78.1064,12.6305],[78.1044,12.6356],[78.1036,12.6397],[78.1052,12.6411],[78.1074,12.6415],[78.1121,12.6383],[78.1137,12.6392],[78.1139,12.6425],[78.1193,12.6395],[78.1196,12.6385],[78.1235,12.6409],[78.1258,12.6414],[78.1319,12.6384],[78.1412,12.6379],[78.1442,12.6356],[78.1457,12.6323],[78.1455,12.6306],[78.1439,12.6288],[78.1418,12.6286],[78.1343,12.624],[78.1339,12.6209],[78.1368,12.619],[78.1373,12.6178],[78.1368,12.6156]]]}},{"type":"Feature","properties":{"name":"4C1C7a1a","level":"micro-watershed","watershedCode":"4C1C7","subCatchmentCode":"4C1C","areaKm2InDistrict":6.1,"shedId":"SBP03"},"geometry":{"type":"Polygon","coordinates":[[[78.1562,12.6344],[78.1495,12.633],[78.1482,12.6317],[78.1477,12.6306],[78.1512,12.6284],[78.1496,12.6237],[78.1453,12.6217],[78.1448,12.6231],[78.1412,12.6245],[78.1368,12.6252],[78.1418,12.6286],[78.1449,12.6294],[78.1455,12.6306],[78.1452,12.6338],[78.1442,12.6356],[78.1412,12.6379],[78.1412,12.6389],[78.1433,12.6413],[78.1436,12.6425],[78.1435,12.6456],[78.1416,12.6507],[78.1457,12.6578],[78.1466,12.6587],[78.1494,12.656],[78.1512,12.6552],[78.1536,12.6551],[78.1641,12.6594],[78.1651,12.6566],[78.1636,12.6495],[78.1588,12.6376],[78.1562,12.6344]]]}},{"type":"Feature","properties":{"name":"4C1C7a1b","level":"micro-watershed","watershedCode":"4C1C7","subCatchmentCode":"4C1C","areaKm2InDistrict":7.4,"shedId":"SBP03"},"geometry":{"type":"Polygon","coordinates":[[[78.1758,12.661],[78.1719,12.6567],[78.1735,12.653],[78.1743,12.6523],[78.1787,12.6521],[78.1837,12.6495],[78.1873,12.6494],[78.1907,12.6458],[78.1951,12.643],[78.1913,12.6405],[78.1885,12.6377],[78.1829,12.6338],[78.1808,12.6333],[78.1786,12.6312],[78.1745,12.631],[78.1706,12.6324],[78.1609,12.6339],[78.1548,12.6339],[78.1574,12.6355],[78.1588,12.6376],[78.1636,12.6495],[78.1651,12.6566],[78.1641,12.6594],[78.1709,12.6613],[78.1758,12.661]]]}},{"type":"Feature","properties":{"name":"4C1C7a1c","level":"micro-watershed","watershedCode":"4C1C7","subCatchmentCode":"4C1C","areaKm2InDistrict":5.3,"shedId":"SBP03"},"geometry":{"type":"Polygon","coordinates":[[[78.2056,12.6524],[78.21,12.6499],[78.2127,12.647],[78.2132,12.6434],[78.2106,12.6414],[78.2081,12.6383],[78.2064,12.6378],[78.2046,12.6381],[78.2035,12.6395],[78.1998,12.6415],[78.1963,12.6421],[78.1907,12.6458],[78.1873,12.6494],[78.1837,12.6495],[78.1787,12.6521],[78.1743,12.6523],[78.1719,12.6567],[78.1757,12.661],[78.1816,12.6609],[78.1876,12.6594],[78.1986,12.6553],[78.2001,12.6543],[78.2021,12.6516],[78.2056,12.6524]]]}},{"type":"Feature","properties":{"name":"4C1C7a2a1","level":"micro-watershed","watershedCode":"4C1C7","subCatchmentCode":"4C1C","areaKm2InDistrict":2.4,"shedId":"SBP03"},"geometry":{"type":"Polygon","coordinates":[[[78.175,12.6822],[78.173,12.6727],[78.1735,12.6689],[78.1709,12.6659],[78.1712,12.6638],[78.1719,12.6632],[78.1718,12.6617],[78.1682,12.6608],[78.1645,12.6628],[78.1641,12.6642],[78.1623,12.6655],[78.1619,12.6677],[78.1631,12.6753],[78.1659,12.6783],[78.1678,12.6838],[78.1692,12.6847],[78.175,12.6822]]]}},{"type":"Feature","properties":{"name":"4C1C7a2a10","level":"micro-watershed","watershedCode":"4C1C7","subCatchmentCode":"4C1C","areaKm2InDistrict":11.2,"shedId":"SBP03"},"geometry":{"type":"Polygon","coordinates":[[[78.2204,12.7664],[78.2239,12.7659],[78.2266,12.7645],[78.231,12.7607],[78.2322,12.753],[78.2315,12.7529],[78.2306,12.7501],[78.2257,12.746],[78.2234,12.7429],[78.2233,12.7269],[78.2192,12.7257],[78.217,12.7263],[78.2161,12.7297],[78.2149,12.7303],[78.2017,12.7318],[78.1974,12.7363],[78.1987,12.7405],[78.1977,12.7454],[78.2022,12.757],[78.2113,12.7638],[78.2118,12.7657],[78.2129,12.765],[78.2161,12.7661],[78.2204,12.7664]]]}},{"type":"Feature","properties":{"name":"4C1C7a2a2","level":"micro-watershed","watershedCode":"4C1C7","subCatchmentCode":"4C1C","areaKm2InDistrict":3.7,"shedId":"SBP03"},"geometry":{"type":"Polygon","coordinates":[[[78.1659,12.6783],[78.1631,12.6753],[78.1619,12.6667],[78.1623,12.6655],[78.1641,12.6642],[78.1645,12.6628],[78.1682,12.6608],[78.1632,12.6593],[78.1553,12.6554],[78.1512,12.6552],[78.1494,12.656],[78.1466,12.6587],[78.1468,12.6594],[78.1479,12.6598],[78.15,12.6587],[78.1516,12.6588],[78.1536,12.663],[78.1539,12.6658],[78.1517,12.6682],[78.151,12.6716],[78.1532,12.6738],[78.1538,12.6755],[78.1542,12.6794],[78.1537,12.6826],[78.156,12.684],[78.1569,12.6853],[78.1592,12.6858],[78.1587,12.6853],[78.1659,12.6783]]]}},{"type":"Feature","properties":{"name":"4C1C7a2a3","level":"micro-watershed","watershedCode":"4C1C7","subCatchmentCode":"4C1C","areaKm2InDistrict":1.7,"shedId":"SBP03"},"geometry":{"type":"Polygon","coordinates":[[[78.1886,12.6821],[78.1861,12.6786],[78.1777,12.671],[78.1759,12.6696],[78.1735,12.6689],[78.173,12.6727],[78.175,12.6822],[78.1784,12.6841],[78.1833,12.6855],[78.1857,12.6845],[78.1866,12.6828],[78.1886,12.6821]]]}},{"type":"Feature","properties":{"name":"4C1C7a2a4","level":"micro-watershed","watershedCode":"4C1C7","subCatchmentCode":"4C1C","areaKm2InDistrict":10.8,"shedId":"SBP03"},"geometry":{"type":"Polygon","coordinates":[[[78.2339,12.687],[78.2377,12.6858],[78.238,12.6841],[78.2373,12.6733],[78.2378,12.671],[78.2371,12.6685],[78.2382,12.6641],[78.2368,12.6594],[78.2353,12.661],[78.2328,12.6614],[78.2316,12.6582],[78.23,12.6588],[78.2286,12.6585],[78.2282,12.6573],[78.2238,12.6527],[78.2203,12.6529],[78.2168,12.655],[78.2147,12.6541],[78.2104,12.654],[78.2085,12.6527],[78.2057,12.6537],[78.203,12.6596],[78.1992,12.6604],[78.1966,12.6669],[78.1929,12.6685],[78.1912,12.6716],[78.1914,12.6737],[78.1929,12.6763],[78.1975,12.6773],[78.2028,12.6775],[78.2051,12.6763],[78.2055,12.675],[78.2072,12.6747],[78.2106,12.6757],[78.2206,12.6752],[78.2284,12.6759],[78.2294,12.6766],[78.2304,12.6809],[78.2332,12.6843],[78.2339,12.687]]]}},{"type":"Feature","properties":{"name":"4C1C7a2a5","level":"micro-watershed","watershedCode":"4C1C7","subCatchmentCode":"4C1C","areaKm2InDistrict":9.3,"shedId":"SBP03"},"geometry":{"type":"Polygon","coordinates":[[[78.2291,12.6872],[78.2339,12.687],[78.2332,12.6843],[78.2304,12.6809],[78.2294,12.6766],[78.2284,12.6759],[78.2206,12.6752],[78.2106,12.6757],[78.2072,12.6747],[78.2055,12.675],[78.2051,12.6763],[78.2028,12.6775],[78.1975,12.6773],[78.1929,12.6763],[78.1914,12.6737],[78.1912,12.6716],[78.1929,12.6685],[78.1966,12.6669],[78.1992,12.6604],[78.203,12.6596],[78.2057,12.6537],[78.2075,12.653],[78.2067,12.6526],[78.2021,12.6516],[78.2001,12.6543],[78.1986,12.6553],[78.1841,12.6604],[78.1788,12.6607],[78.1775,12.6613],[78.1709,12.6613],[78.1718,12.6617],[78.1719,12.6632],[78.1712,12.6638],[78.1709,12.6659],[78.1742,12.6695],[78.1759,12.6696],[78.1861,12.6786],[78.1886,12.6822],[78.1948,12.6815],[78.1994,12.6843],[78.2026,12.6834],[78.2042,12.6853],[78.2085,12.6856],[78.2093,12.6864],[78.2249,12.6863],[78.2291,12.6872]]]}},{"type":"Feature","properties":{"name":"4C1C7a2a6","level":"micro-watershed","watershedCode":"4C1C7","subCatchmentCode":"4C1C","areaKm2InDistrict":9.2,"shedId":"SBP03"},"geometry":{"type":"Polygon","coordinates":[[[78.1832,12.7223],[78.1899,12.7176],[78.1951,12.7205],[78.1984,12.7207],[78.2001,12.7172],[78.2009,12.7106],[78.2075,12.7093],[78.2054,12.7057],[78.2066,12.7048],[78.2077,12.7048],[78.2071,12.7022],[78.2094,12.7025],[78.2093,12.7018],[78.2101,12.7018],[78.2099,12.7005],[78.2087,12.6989],[78.2072,12.6995],[78.2042,12.6959],[78.2027,12.6961],[78.2018,12.6952],[78.1993,12.6953],[78.2001,12.6935],[78.1996,12.6931],[78.201,12.6917],[78.2017,12.6918],[78.2026,12.6932],[78.2036,12.6931],[78.2099,12.6904],[78.2107,12.6891],[78.2124,12.6885],[78.211,12.6874],[78.2106,12.6861],[78.2093,12.6864],[78.2085,12.6856],[78.2049,12.6856],[78.2026,12.6834],[78.1994,12.6843],[78.1948,12.6815],[78.1886,12.6821],[78.1866,12.6828],[78.1857,12.6845],[78.1833,12.6855],[78.182,12.6854],[78.1834,12.6871],[78.1842,12.6941],[78.1857,12.6995],[78.186,12.7104],[78.1846,12.7135],[78.1811,12.7171],[78.1817,12.7202],[78.1807,12.7215],[78.1832,12.7223]]]}},{"type":"Feature","properties":{"name":"4C1C7a2a7","level":"micro-watershed","watershedCode":"4C1C7","subCatchmentCode":"4C1C","areaKm2InDistrict":3.3,"shedId":"SBP03"},"geometry":{"type":"Polygon","coordinates":[[[78.1946,12.7394],[78.2017,12.7318],[78.1991,12.7294],[78.2009,12.7267],[78.2009,12.7243],[78.2039,12.7152],[78.2075,12.7093],[78.2009,12.7106],[78.2001,12.7172],[78.1984,12.7207],[78.1951,12.7205],[78.1899,12.7176],[78.1857,12.7213],[78.1829,12.7222],[78.1831,12.7256],[78.1856,12.7281],[78.1894,12.7304],[78.193,12.7378],[78.1946,12.7394]]]}},{"type":"Feature","properties":{"name":"4C1C7a2a8","level":"micro-watershed","watershedCode":"4C1C7","subCatchmentCode":"4C1C","areaKm2InDistrict":3.8,"shedId":"SBP03"},"geometry":{"type":"Polygon","coordinates":[[[78.2066,12.7309],[78.2115,12.731],[78.2161,12.7297],[78.2171,12.7267],[78.2166,12.7249],[78.2154,12.7236],[78.2167,12.7164],[78.2173,12.7141],[78.2204,12.7108],[78.2183,12.7089],[78.2135,12.711],[78.2122,12.7076],[78.2074,12.7084],[78.2075,12.7093],[78.2039,12.7152],[78.2009,12.7243],[78.2009,12.7267],[78.1991,12.7294],[78.2017,12.7318],[78.2066,12.7309]]]}},{"type":"Feature","properties":{"name":"4C1C7a2a9","level":"micro-watershed","watershedCode":"4C1C7","subCatchmentCode":"4C1C","areaKm2InDistrict":6.8,"shedId":"SBP03"},"geometry":{"type":"Polygon","coordinates":[[[78.2315,12.7529],[78.2339,12.7513],[78.2358,12.7459],[78.235,12.7435],[78.2362,12.7378],[78.2383,12.737],[78.2409,12.7327],[78.241,12.73],[78.2312,12.7126],[78.2271,12.7148],[78.2204,12.7108],[78.2173,12.7141],[78.2154,12.7236],[78.217,12.7263],[78.2192,12.7257],[78.2233,12.7269],[78.2234,12.7429],[78.2257,12.746],[78.2306,12.7501],[78.2315,12.7529]]]}},{"type":"Feature","properties":{"name":"4C1C7a2b1","level":"micro-watershed","watershedCode":"4C1C7","subCatchmentCode":"4C1C","areaKm2InDistrict":1.2,"shedId":"SBP03"},"geometry":{"type":"Polygon","coordinates":[[[78.1821,12.6856],[78.1752,12.6823],[78.1692,12.6847],[78.1711,12.6902],[78.1735,12.6902],[78.1747,12.6911],[78.1767,12.6912],[78.1797,12.6934],[78.1824,12.6945],[78.1828,12.6888],[78.1821,12.6856]]]}},{"type":"Feature","properties":{"name":"4C1C7a2b2","level":"micro-watershed","watershedCode":"4C1C7","subCatchmentCode":"4C1C","areaKm2InDistrict":2.4,"shedId":"SBP03"},"geometry":{"type":"Polygon","coordinates":[[[78.1822,12.6861],[78.1824,12.6945],[78.1816,12.6964],[78.1774,12.6978],[78.1734,12.7006],[78.1729,12.7021],[78.1749,12.7078],[78.177,12.7102],[78.181,12.7178],[78.1855,12.7122],[78.186,12.7104],[78.1857,12.6995],[78.1842,12.6941],[78.1834,12.6871],[78.1822,12.6861]]]}},{"type":"Feature","properties":{"name":"4C1C7a2c1","level":"micro-watershed","watershedCode":"4C1C7","subCatchmentCode":"4C1C","areaKm2InDistrict":3.3,"shedId":"SBP03"},"geometry":{"type":"Polygon","coordinates":[[[78.1734,12.7006],[78.1774,12.6978],[78.1816,12.6964],[78.1822,12.6945],[78.1767,12.6912],[78.1747,12.6911],[78.1735,12.6902],[78.1711,12.6902],[78.1692,12.6847],[78.1678,12.6838],[78.1659,12.6783],[78.1587,12.6853],[78.1632,12.6894],[78.1631,12.6916],[78.1613,12.6937],[78.1621,12.6945],[78.1637,12.7015],[78.1663,12.7069],[78.1684,12.7063],[78.1709,12.7024],[78.1729,12.7021],[78.1734,12.7006]]]}},{"type":"Feature","properties":{"name":"4C1C7a2c2","level":"micro-watershed","watershedCode":"4C1C7","subCatchmentCode":"4C1C","areaKm2InDistrict":2.2,"shedId":"SBP03"},"geometry":{"type":"Polygon","coordinates":[[[78.1811,12.7212],[78.1817,12.7202],[78.1811,12.718],[78.177,12.7102],[78.1749,12.7078],[78.1729,12.7021],[78.1709,12.7024],[78.1684,12.7063],[78.1663,12.7069],[78.1685,12.7165],[78.1674,12.7177],[78.1676,12.719],[78.17,12.721],[78.1747,12.722],[78.1811,12.7212]]]}},{"type":"Feature","properties":{"name":"4C1C7a2c3","level":"micro-watershed","watershedCode":"4C1C7","subCatchmentCode":"4C1C","areaKm2InDistrict":6.3,"shedId":"SBP03"},"geometry":{"type":"Polygon","coordinates":[[[78.1979,12.7442],[78.1986,12.7392],[78.1974,12.7363],[78.1946,12.7394],[78.1939,12.7388],[78.1894,12.7304],[78.1856,12.7281],[78.1831,12.7256],[78.1829,12.7222],[78.1794,12.7213],[78.1747,12.722],[78.17,12.721],[78.1699,12.7223],[78.1692,12.7229],[78.1671,12.7218],[78.166,12.7227],[78.166,12.725],[78.1686,12.7271],[78.1696,12.7296],[78.1698,12.7361],[78.1681,12.7404],[78.1683,12.7423],[78.1696,12.7425],[78.1744,12.7412],[78.1821,12.7454],[78.1842,12.7473],[78.185,12.7491],[78.1866,12.7492],[78.1895,12.7491],[78.1911,12.7483],[78.1936,12.7459],[78.1958,12.7455],[78.1979,12.7442]]]}},{"type":"Feature","properties":{"name":"4C1C7a2c4","level":"micro-watershed","watershedCode":"4C1C7","subCatchmentCode":"4C1C","areaKm2InDistrict":2.2,"shedId":"SBP03"},"geometry":{"type":"Polygon","coordinates":[[[78.1822,12.7618],[78.1834,12.7611],[78.1852,12.7582],[78.1853,12.7571],[78.183,12.7549],[78.1813,12.7508],[78.185,12.749],[78.1842,12.7473],[78.1806,12.7444],[78.1744,12.7412],[78.1696,12.7425],[78.1683,12.7423],[78.1676,12.7451],[78.1686,12.7491],[78.173,12.75],[78.1758,12.7554],[78.1802,12.7597],[78.1808,12.7625],[78.1821,12.7642],[78.1822,12.7618]]]}},{"type":"Feature","properties":{"name":"4C1C7a2c5","level":"micro-watershed","watershedCode":"4C1C7","subCatchmentCode":"4C1C","areaKm2InDistrict":4.9,"shedId":"SBP03"},"geometry":{"type":"Polygon","coordinates":[[[78.203,12.7709],[78.2087,12.7678],[78.2118,12.7657],[78.2118,12.7651],[78.2113,12.7638],[78.2022,12.757],[78.1991,12.75],[78.1977,12.7454],[78.1979,12.7442],[78.1958,12.7455],[78.1936,12.7459],[78.1928,12.7471],[78.1895,12.7491],[78.185,12.749],[78.1813,12.7508],[78.183,12.7549],[78.1853,12.7571],[78.1834,12.7611],[78.1822,12.7618],[78.1822,12.7642],[78.1875,12.7646],[78.19,12.7632],[78.1994,12.7698],[78.2013,12.7709],[78.203,12.7709]]]}},{"type":"Feature","properties":{"name":"4C1C7a2d1","level":"micro-watershed","watershedCode":"4C1C7","subCatchmentCode":"4C1C","areaKm2InDistrict":4.4,"shedId":"SBP03"},"geometry":{"type":"Polygon","coordinates":[[[78.1624,12.6955],[78.1613,12.6937],[78.1631,12.6916],[78.1632,12.6894],[78.1601,12.6861],[78.1569,12.6853],[78.156,12.684],[78.1537,12.6826],[78.1542,12.6794],[78.1538,12.6755],[78.1532,12.6738],[78.151,12.6716],[78.1517,12.6682],[78.1541,12.6651],[78.1526,12.6606],[78.1516,12.6588],[78.1509,12.6586],[78.1479,12.6598],[78.1468,12.6594],[78.1469,12.6618],[78.1462,12.6636],[78.1423,12.669],[78.1419,12.6728],[78.1427,12.6762],[78.1422,12.6804],[78.1432,12.6816],[78.1467,12.6821],[78.149,12.6838],[78.1534,12.6893],[78.1544,12.6915],[78.1545,12.6938],[78.1531,12.6976],[78.1531,12.701],[78.156,12.6995],[78.163,12.6988],[78.1624,12.6955]]]}},{"type":"Feature","properties":{"name":"4C1C7a2d2","level":"micro-watershed","watershedCode":"4C1C7","subCatchmentCode":"4C1C","areaKm2InDistrict":9.1,"shedId":"SBP03"},"geometry":{"type":"Polygon","coordinates":[[[78.1683,12.7421],[78.1681,12.7404],[78.1698,12.7361],[78.1696,12.7296],[78.1691,12.7278],[78.1658,12.7242],[78.1665,12.722],[78.1692,12.7229],[78.1699,12.7223],[78.17,12.721],[78.1673,12.7182],[78.1685,12.7165],[78.1674,12.7105],[78.163,12.6988],[78.156,12.6995],[78.1531,12.701],[78.151,12.7056],[78.149,12.7076],[78.1496,12.7096],[78.1484,12.7151],[78.148,12.7211],[78.1509,12.7299],[78.1519,12.7314],[78.152,12.7336],[78.152,12.7383],[78.1502,12.7441],[78.1594,12.7426],[78.162,12.7429],[78.1683,12.7421]]]}},{"type":"Feature","properties":{"name":"4C1C7a2d3","level":"micro-watershed","watershedCode":"4C1C7","subCatchmentCode":"4C1C","areaKm2InDistrict":4.1,"shedId":"SBP03"},"geometry":{"type":"Polygon","coordinates":[[[78.1744,12.7524],[78.172,12.7494],[78.1686,12.7491],[78.1676,12.7451],[78.1683,12.7421],[78.162,12.7429],[78.1594,12.7426],[78.1502,12.7441],[78.1489,12.7492],[78.1508,12.753],[78.1545,12.7552],[78.1591,12.7568],[78.1601,12.7582],[78.1586,12.7613],[78.1519,12.7675],[78.16,12.7647],[78.1713,12.7574],[78.1744,12.7524]]]}},{"type":"Feature","properties":{"name":"4C1C7a2d4","level":"micro-watershed","watershedCode":"4C1C7","subCatchmentCode":"4C1C","areaKm2InDistrict":3.5,"shedId":"SBP03"},"geometry":{"type":"Polygon","coordinates":[[[78.1505,12.7786],[78.1542,12.776],[78.168,12.7701],[78.1678,12.7682],[78.1694,12.7662],[78.1734,12.7675],[78.1761,12.7675],[78.1789,12.7643],[78.1816,12.7634],[78.1808,12.7625],[78.1802,12.7597],[78.1758,12.7554],[78.1744,12.7524],[78.1713,12.7574],[78.16,12.7647],[78.1519,12.7675],[78.1497,12.7737],[78.1496,12.7767],[78.1505,12.7786]]]}},{"type":"Feature","properties":{"name":"4C1C7a2d5","level":"micro-watershed","watershedCode":"4C1C7","subCatchmentCode":"4C1C","areaKm2InDistrict":3.1,"shedId":"SBP03"},"geometry":{"type":"Polygon","coordinates":[[[78.1843,12.7762],[78.1868,12.7742],[78.1875,12.7726],[78.189,12.7719],[78.1911,12.7729],[78.1921,12.7743],[78.196,12.7736],[78.2027,12.7711],[78.1994,12.7698],[78.19,12.7632],[78.1875,12.7646],[78.1821,12.7642],[78.1816,12.7634],[78.1789,12.7643],[78.1761,12.7675],[78.1734,12.7675],[78.1694,12.7662],[78.1678,12.7682],[78.168,12.7701],[78.1716,12.7738],[78.1774,12.7759],[78.1824,12.7742],[78.1843,12.7762]]]}},{"type":"Feature","properties":{"name":"4C1C7a3a1","level":"micro-watershed","watershedCode":"4C1C7","subCatchmentCode":"4C1C","areaKm2InDistrict":8.0,"shedId":"SBP03"},"geometry":{"type":"Polygon","coordinates":[[[78.1152,12.6658],[78.1181,12.6642],[78.1214,12.6634],[78.1214,12.6558],[78.1226,12.6518],[78.1238,12.6503],[78.1295,12.6488],[78.1318,12.6499],[78.1349,12.6529],[78.1414,12.6512],[78.1435,12.6456],[78.1436,12.6425],[78.1424,12.64],[78.1414,12.6395],[78.1412,12.6379],[78.1319,12.6384],[78.1258,12.6414],[78.1235,12.6409],[78.1196,12.6385],[78.1193,12.6395],[78.1139,12.6425],[78.1113,12.6492],[78.1088,12.6525],[78.1049,12.6548],[78.1031,12.6573],[78.0972,12.6626],[78.0962,12.6639],[78.0955,12.6669],[78.0985,12.6679],[78.102,12.6677],[78.1041,12.6688],[78.1141,12.6679],[78.1152,12.6658]]]}},{"type":"Feature","properties":{"name":"4C1C7a3a2","level":"micro-watershed","watershedCode":"4C1C7","subCatchmentCode":"4C1C","areaKm2InDistrict":4.0,"shedId":"SBP03"},"geometry":{"type":"Polygon","coordinates":[[[78.1469,12.6597],[78.1416,12.6507],[78.1414,12.6512],[78.1349,12.6529],[78.1318,12.6499],[78.1295,12.6488],[78.1238,12.6503],[78.1226,12.6518],[78.1214,12.6558],[78.1211,12.6601],[78.1214,12.6634],[78.1226,12.6624],[78.1264,12.6662],[78.13,12.6675],[78.1361,12.667],[78.1469,12.6597]]]}},{"type":"Feature","properties":{"name":"4C1C7a3b1","level":"micro-watershed","watershedCode":"4C1C7","subCatchmentCode":"4C1C","areaKm2InDistrict":3.5,"shedId":"SBP03"},"geometry":{"type":"Polygon","coordinates":[[[78.142,12.6715],[78.1423,12.669],[78.1469,12.6618],[78.1465,12.6599],[78.1361,12.667],[78.13,12.6675],[78.1275,12.6669],[78.1226,12.6624],[78.1211,12.6636],[78.1163,12.6649],[78.1145,12.6669],[78.1156,12.6691],[78.1134,12.6745],[78.1269,12.6772],[78.129,12.6771],[78.1341,12.6757],[78.1375,12.6731],[78.142,12.6715]]]}},{"type":"Feature","properties":{"name":"4C1C7a3b2","level":"micro-watershed","watershedCode":"4C1C7","subCatchmentCode":"4C1C","areaKm2InDistrict":3.1,"shedId":"SBP03"},"geometry":{"type":"Polygon","coordinates":[[[78.1131,12.6797],[78.1134,12.6745],[78.1156,12.6691],[78.1145,12.6669],[78.1141,12.6679],[78.1041,12.6688],[78.102,12.6677],[78.0985,12.6679],[78.0955,12.6669],[78.0948,12.6734],[78.0934,12.6754],[78.0937,12.6795],[78.0999,12.6804],[78.1089,12.6829],[78.112,12.6823],[78.1131,12.6797]]]}},{"type":"Feature","properties":{"name":"4C1C7a3b2a","level":"micro-watershed","watershedCode":"4C1C7","subCatchmentCode":"4C1C","areaKm2InDistrict":2.4,"shedId":"SBP03"},"geometry":{"type":"Polygon","coordinates":[[[78.1529,12.6995],[78.1545,12.6938],[78.1544,12.6915],[78.1534,12.6893],[78.149,12.6838],[78.1477,12.6831],[78.1473,12.6845],[78.1448,12.6868],[78.1431,12.6915],[78.1408,12.6922],[78.1408,12.6942],[78.1443,12.6999],[78.1472,12.7068],[78.1482,12.7078],[78.149,12.7081],[78.151,12.7056],[78.1531,12.701],[78.1529,12.6995]]]}},{"type":"Feature","properties":{"name":"4C1C7a3b2b","level":"micro-watershed","watershedCode":"4C1C7","subCatchmentCode":"4C1C","areaKm2InDistrict":2.7,"shedId":"SBP03"},"geometry":{"type":"Polygon","coordinates":[[[78.149,12.7081],[78.1472,12.7068],[78.1443,12.6999],[78.1408,12.6942],[78.1388,12.7014],[78.1373,12.7032],[78.1361,12.7072],[78.1338,12.7086],[78.1377,12.7158],[78.1403,12.7171],[78.1407,12.7187],[78.1466,12.7198],[78.148,12.7211],[78.1484,12.7151],[78.1496,12.7096],[78.149,12.7081]]]}},{"type":"Feature","properties":{"name":"4C1C7a3b2c","level":"micro-watershed","watershedCode":"4C1C7","subCatchmentCode":"4C1C","areaKm2InDistrict":5.7,"shedId":"SBP03"},"geometry":{"type":"Polygon","coordinates":[[[78.1474,12.7202],[78.1407,12.7187],[78.1403,12.7171],[78.1377,12.7158],[78.1338,12.7086],[78.1313,12.7098],[78.1316,12.7116],[78.1346,12.7144],[78.1349,12.7164],[78.1319,12.7214],[78.1302,12.7291],[78.1311,12.7367],[78.1306,12.7416],[78.1398,12.7416],[78.1429,12.7405],[78.1502,12.7437],[78.152,12.7383],[78.1519,12.7314],[78.1474,12.7202]]]}},{"type":"Feature","properties":{"name":"4C1C7a3b2d","level":"micro-watershed","watershedCode":"4C1C7","subCatchmentCode":"4C1C","areaKm2InDistrict":9.6,"shedId":"SBP03"},"geometry":{"type":"Polygon","coordinates":[[[78.1448,12.7811],[78.1505,12.7786],[78.1496,12.7767],[78.1497,12.7737],[78.1512,12.7686],[78.1586,12.7613],[78.1601,12.7582],[78.1591,12.7568],[78.1545,12.7552],[78.1508,12.753],[78.1489,12.7492],[78.1502,12.7437],[78.1429,12.7405],[78.1398,12.7416],[78.1306,12.7416],[78.1297,12.744],[78.127,12.7461],[78.1263,12.7475],[78.1256,12.7551],[78.1279,12.7598],[78.135,12.7659],[78.1364,12.774],[78.1378,12.7764],[78.1405,12.7778],[78.1423,12.7772],[78.1435,12.778],[78.1448,12.7811]]]}},{"type":"Feature","properties":{"name":"4C1C7a3b2e","level":"micro-watershed","watershedCode":"4C1C7","subCatchmentCode":"4C1C","areaKm2InDistrict":7.4,"shedId":"SBP03"},"geometry":{"type":"Polygon","coordinates":[[[78.1359,12.783],[78.1363,12.7818],[78.137,12.7823],[78.1448,12.7811],[78.1435,12.778],[78.1423,12.7772],[78.1405,12.7778],[78.1378,12.7764],[78.1364,12.774],[78.135,12.7659],[78.1279,12.7598],[78.1256,12.7551],[78.1263,12.7475],[78.127,12.7461],[78.1297,12.744],[78.1309,12.7413],[78.1309,12.7327],[78.1302,12.7291],[78.1266,12.7305],[78.1247,12.7304],[78.1207,12.7336],[78.1216,12.7366],[78.1141,12.7407],[78.1108,12.7414],[78.1095,12.7425],[78.1128,12.7476],[78.1124,12.7513],[78.1111,12.7524],[78.111,12.7533],[78.1144,12.7548],[78.1167,12.7601],[78.117,12.7647],[78.1177,12.7652],[78.1252,12.7648],[78.125,12.7672],[78.1256,12.7689],[78.1307,12.7766],[78.1339,12.7798],[78.1342,12.782],[78.135,12.782],[78.1359,12.783]]]}},{"type":"Feature","properties":{"name":"4C1C7a3b3","level":"micro-watershed","watershedCode":"4C1C7","subCatchmentCode":"4C1C","areaKm2InDistrict":3.6,"shedId":"SBP03"},"geometry":{"type":"Polygon","coordinates":[[[78.1432,12.6816],[78.142,12.6799],[78.1427,12.6762],[78.142,12.6719],[78.1375,12.6731],[78.1341,12.6757],[78.129,12.6771],[78.1269,12.6772],[78.1134,12.6745],[78.1129,12.6811],[78.1142,12.6818],[78.1209,12.6826],[78.1236,12.6844],[78.1248,12.6865],[78.1277,12.6881],[78.1324,12.6887],[78.1374,12.6879],[78.1393,12.6856],[78.1426,12.6847],[78.144,12.6818],[78.1432,12.6816]]]}},{"type":"Feature","properties":{"name":"4C1C7a3b4a","level":"micro-watershed","watershedCode":"4C1C7","subCatchmentCode":"4C1C","areaKm2InDistrict":9.5,"shedId":"SBP03"},"geometry":{"type":"Polygon","coordinates":[[[78.1393,12.6989],[78.1404,12.6959],[78.1408,12.6922],[78.1431,12.6915],[78.1448,12.6868],[78.1477,12.6838],[78.1467,12.6821],[78.144,12.6818],[78.1426,12.6847],[78.1393,12.6856],[78.1374,12.6879],[78.1353,12.6886],[78.1277,12.6881],[78.1248,12.6865],[78.1236,12.6844],[78.1209,12.6826],[78.1142,12.6818],[78.1128,12.681],[78.112,12.6823],[78.1089,12.6829],[78.0999,12.6804],[78.0937,12.6795],[78.0915,12.6851],[78.0914,12.6887],[78.0963,12.6895],[78.0976,12.6906],[78.0979,12.694],[78.1001,12.6957],[78.1009,12.7002],[78.1051,12.7047],[78.1086,12.7031],[78.1147,12.6984],[78.12,12.7006],[78.1294,12.7012],[78.1377,12.7003],[78.1393,12.6989]]]}},{"type":"Feature","properties":{"name":"4C1C7a3b4b","level":"micro-watershed","watershedCode":"4C1C7","subCatchmentCode":"4C1C","areaKm2InDistrict":8.7,"shedId":"SBP03"},"geometry":{"type":"Polygon","coordinates":[[[78.1051,12.7047],[78.1009,12.7002],[78.1001,12.6957],[78.0979,12.694],[78.0976,12.6906],[78.0963,12.6895],[78.0914,12.6887],[78.0915,12.6851],[78.0937,12.6795],[78.0933,12.677],[78.0894,12.6777],[78.085,12.6739],[78.0818,12.6762],[78.0783,12.6751],[78.0741,12.6765],[78.0681,12.681],[78.0665,12.6831],[78.0666,12.6866],[78.0706,12.6881],[78.0754,12.6944],[78.0774,12.6999],[78.0797,12.7004],[78.0833,12.7054],[78.087,12.7043],[78.0875,12.705],[78.0915,12.7056],[78.0975,12.7088],[78.102,12.7096],[78.1037,12.7115],[78.1051,12.7047]]]}},{"type":"Feature","properties":{"name":"4C1C7a3b5a","level":"micro-watershed","watershedCode":"4C1C7","subCatchmentCode":"4C1C","areaKm2InDistrict":2.7,"shedId":"SBP03"},"geometry":{"type":"Polygon","coordinates":[[[78.1364,12.7063],[78.1373,12.7032],[78.1388,12.7014],[78.1393,12.6989],[78.1377,12.7003],[78.1362,12.7007],[78.1294,12.7012],[78.12,12.7006],[78.1147,12.6984],[78.1086,12.7031],[78.1051,12.7047],[78.1037,12.7115],[78.1098,12.7131],[78.1137,12.7098],[78.1175,12.7087],[78.1194,12.7075],[78.1219,12.7045],[78.1255,12.7034],[78.1308,12.7057],[78.1364,12.7063]]]}},{"type":"Feature","properties":{"name":"4C1C7a3b5b","level":"micro-watershed","watershedCode":"4C1C7","subCatchmentCode":"4C1C","areaKm2InDistrict":3.2,"shedId":"SBP03"},"geometry":{"type":"Polygon","coordinates":[[[78.1346,12.7144],[78.1316,12.7116],[78.1313,12.7098],[78.1353,12.7078],[78.1363,12.7065],[78.1308,12.7057],[78.1255,12.7034],[78.1219,12.7045],[78.1194,12.7075],[78.1175,12.7087],[78.1137,12.7098],[78.1098,12.7131],[78.1068,12.712],[78.1103,12.7165],[78.1121,12.7202],[78.1134,12.721],[78.1158,12.7196],[78.134,12.7147],[78.1346,12.7144]]]}},{"type":"Feature","properties":{"name":"4C1C7a3b5c","level":"micro-watershed","watershedCode":"4C1C7","subCatchmentCode":"4C1C","areaKm2InDistrict":2.4,"shedId":"SBP03"},"geometry":{"type":"Polygon","coordinates":[[[78.1306,12.7287],[78.1319,12.7214],[78.1349,12.7164],[78.1346,12.7144],[78.1127,12.7208],[78.1131,12.7223],[78.1162,12.7251],[78.1182,12.728],[78.1216,12.7298],[78.1235,12.7316],[78.1247,12.7304],[78.1266,12.7305],[78.1306,12.7287]]]}},{"type":"Feature","properties":{"name":"4C1C7a3b5d","level":"micro-watershed","watershedCode":"4C1C7","subCatchmentCode":"4C1C","areaKm2InDistrict":4.1,"shedId":"SBP03"},"geometry":{"type":"Polygon","coordinates":[[[78.1216,12.7366],[78.1207,12.7336],[78.1235,12.7316],[78.1216,12.7298],[78.1182,12.728],[78.1162,12.7251],[78.1131,12.7223],[78.108,12.713],[78.1068,12.712],[78.1037,12.7115],[78.1003,12.714],[78.0955,12.7208],[78.0966,12.7247],[78.1033,12.7289],[78.1048,12.731],[78.1085,12.7332],[78.111,12.7334],[78.1177,12.7367],[78.1204,12.7372],[78.1216,12.7366]]]}},{"type":"Feature","properties":{"name":"4C1C7a3b5e1a","level":"micro-watershed","watershedCode":"4C1C7","subCatchmentCode":"4C1C","areaKm2InDistrict":5.4,"shedId":"SBP03"},"geometry":{"type":"Polygon","coordinates":[[[78.1045,12.7434],[78.1141,12.7407],[78.1204,12.7372],[78.1177,12.7367],[78.111,12.7334],[78.1085,12.7332],[78.1067,12.7323],[78.1048,12.731],[78.1033,12.7289],[78.0966,12.7247],[78.0955,12.7208],[78.0903,12.7199],[78.0889,12.7218],[78.086,12.7345],[78.0809,12.7409],[78.0819,12.7415],[78.0838,12.74],[78.0892,12.7426],[78.0946,12.7435],[78.1045,12.7434]]]}},{"type":"Feature","properties":{"name":"4C1C7a3b5e1b","level":"micro-watershed","watershedCode":"4C1C7","subCatchmentCode":"4C1C","areaKm2InDistrict":3.7,"shedId":"SBP03"},"geometry":{"type":"Polygon","coordinates":[[[78.0889,12.7218],[78.0856,12.7231],[78.0818,12.7268],[78.0795,12.7277],[78.0751,12.7282],[78.0716,12.7299],[78.0704,12.7299],[78.065,12.7268],[78.064,12.7254],[78.0633,12.7204],[78.0596,12.7248],[78.0571,12.7245],[78.0595,12.7305],[78.0623,12.7333],[78.0634,12.7355],[78.0809,12.7409],[78.0863,12.7338],[78.0889,12.7218]]]}},{"type":"Feature","properties":{"name":"4C1C7a3b5e2a","level":"micro-watershed","watershedCode":"4C1C7","subCatchmentCode":"4C1C","areaKm2InDistrict":3.9,"shedId":"SBP03"},"geometry":{"type":"Polygon","coordinates":[[[78.089,12.7215],[78.0903,12.7199],[78.0874,12.716],[78.0829,12.7143],[78.0819,12.7118],[78.0772,12.7109],[78.075,12.7109],[78.0734,12.7117],[78.0633,12.7204],[78.064,12.7254],[78.065,12.7268],[78.0704,12.7299],[78.0768,12.7277],[78.0795,12.7277],[78.0818,12.7268],[78.0856,12.7231],[78.089,12.7215]]]}},{"type":"Feature","properties":{"name":"4C1C7a3b5e2b","level":"micro-watershed","watershedCode":"4C1C7","subCatchmentCode":"4C1C","areaKm2InDistrict":4.7,"shedId":"SBP03"},"geometry":{"type":"Polygon","coordinates":[[[78.0596,12.7248],[78.0622,12.7211],[78.0734,12.7117],[78.0765,12.7109],[78.0772,12.7089],[78.0774,12.7078],[78.0717,12.7029],[78.0645,12.6993],[78.0607,12.6993],[78.0595,12.7028],[78.0551,12.7092],[78.0513,12.7171],[78.0502,12.7234],[78.0505,12.7253],[78.0522,12.7258],[78.0571,12.7245],[78.0596,12.7248]]]}},{"type":"Feature","properties":{"name":"4C1C7a3b5e2c","level":"micro-watershed","watershedCode":"4C1C7","subCatchmentCode":"4C1C","areaKm2InDistrict":5.4,"shedId":"SBP03"},"geometry":{"type":"Polygon","coordinates":[[[78.102,12.7096],[78.0975,12.7088],[78.0938,12.7065],[78.0875,12.705],[78.087,12.7043],[78.0833,12.7054],[78.0797,12.7004],[78.0774,12.6999],[78.0754,12.6944],[78.0706,12.6881],[78.069,12.6871],[78.0661,12.6866],[78.0648,12.6881],[78.0644,12.6922],[78.0594,12.6976],[78.0596,12.6991],[78.0645,12.6993],[78.0717,12.7029],[78.0774,12.7078],[78.0765,12.7109],[78.0819,12.7118],[78.0829,12.7143],[78.0874,12.716],[78.0903,12.7199],[78.0955,12.7208],[78.1003,12.714],[78.1037,12.7115],[78.102,12.7096]]]}},{"type":"Feature","properties":{"name":"4C1C7a3b6a","level":"micro-watershed","watershedCode":"4C1C7","subCatchmentCode":"4C1C","areaKm2InDistrict":9.8,"shedId":"SBP03"},"geometry":{"type":"Polygon","coordinates":[[[78.1018,12.7513],[78.1073,12.7485],[78.1091,12.7455],[78.1095,12.7423],[78.1045,12.7434],[78.0921,12.7433],[78.0875,12.742],[78.0838,12.74],[78.0819,12.7415],[78.0634,12.7355],[78.0623,12.7333],[78.0595,12.7305],[78.0571,12.7245],[78.0544,12.7256],[78.0511,12.7258],[78.0505,12.7253],[78.0487,12.7297],[78.0471,12.7354],[78.0471,12.7378],[78.0533,12.7514],[78.055,12.7529],[78.0602,12.7544],[78.0632,12.7538],[78.0657,12.7524],[78.0678,12.7528],[78.0703,12.751],[78.0789,12.7495],[78.0808,12.7508],[78.0959,12.7521],[78.1018,12.7513]]]}},{"type":"Feature","properties":{"name":"4C1C7a3b6b","level":"micro-watershed","watershedCode":"4C1C7","subCatchmentCode":"4C1C","areaKm2InDistrict":12.9,"shedId":"SBP03"},"geometry":{"type":"Polygon","coordinates":[[[78.0679,12.7719],[78.0718,12.7762],[78.0731,12.7741],[78.0729,12.7695],[78.0755,12.7631],[78.0772,12.7618],[78.0879,12.7576],[78.0997,12.7541],[78.1018,12.7513],[78.0959,12.7521],[78.0808,12.7508],[78.0789,12.7495],[78.0703,12.751],[78.0678,12.7528],[78.0657,12.7524],[78.0632,12.7538],[78.0602,12.7544],[78.055,12.7529],[78.0533,12.7514],[78.0451,12.7563],[78.0393,12.7589],[78.0294,12.7617],[78.0282,12.7645],[78.0238,12.7698],[78.0219,12.7739],[78.0231,12.782],[78.0213,12.7854],[78.0222,12.7875],[78.026,12.7858],[78.0274,12.784],[78.0293,12.7764],[78.0314,12.7748],[78.0335,12.771],[78.0401,12.7735],[78.0425,12.7736],[78.0604,12.7703],[78.0679,12.7719]]]}},{"type":"Feature","properties":{"name":"4C1C7a3b6c","level":"micro-watershed","watershedCode":"4C1C7","subCatchmentCode":"4C1C","areaKm2InDistrict":10.0,"shedId":"SBP03"},"geometry":{"type":"Polygon","coordinates":[[[78.1177,12.7652],[78.1167,12.7641],[78.1167,12.7601],[78.1144,12.7548],[78.111,12.7533],[78.1111,12.7524],[78.1124,12.7513],[78.1128,12.7476],[78.1097,12.7435],[78.1073,12.7485],[78.1018,12.7513],[78.0997,12.7541],[78.0879,12.7576],[78.0772,12.7618],[78.0755,12.7631],[78.0729,12.7695],[78.0731,12.7741],[78.0718,12.7762],[78.0765,12.7794],[78.0793,12.7857],[78.081,12.7863],[78.0904,12.7821],[78.0935,12.78],[78.0957,12.7776],[78.0977,12.7687],[78.1028,12.7657],[78.1076,12.7639],[78.1161,12.7662],[78.1185,12.7652],[78.1177,12.7652]]]}},{"type":"Feature","properties":{"name":"4C1C7a3b6d","level":"micro-watershed","watershedCode":"4C1C7","subCatchmentCode":"4C1C","areaKm2InDistrict":8.7,"shedId":"SBP03"},"geometry":{"type":"Polygon","coordinates":[[[78.1067,12.7923],[78.1068,12.7879],[78.1117,12.7842],[78.1131,12.7823],[78.1143,12.7775],[78.1156,12.7772],[78.1173,12.7734],[78.1193,12.7708],[78.1206,12.7664],[78.1203,12.765],[78.1161,12.7662],[78.1076,12.7639],[78.1028,12.7657],[78.0977,12.7687],[78.0957,12.7776],[78.0935,12.78],[78.0904,12.7821],[78.081,12.7863],[78.0793,12.7857],[78.0818,12.7902],[78.0833,12.7955],[78.0916,12.7999],[78.0956,12.7988],[78.097,12.7975],[78.1067,12.7923]]]}},{"type":"Feature","properties":{"name":"4C1C7a3b6e","level":"micro-watershed","watershedCode":"4C1C7","subCatchmentCode":"4C1C","areaKm2InDistrict":3.9,"shedId":"SBP03"},"geometry":{"type":"Polygon","coordinates":[[[78.1147,12.79],[78.1209,12.7864],[78.1254,12.785],[78.1299,12.785],[78.1342,12.782],[78.1339,12.7798],[78.1307,12.7766],[78.1256,12.7689],[78.125,12.7672],[78.1252,12.7648],[78.1203,12.765],[78.1206,12.7664],[78.1193,12.7708],[78.1173,12.7734],[78.1156,12.7772],[78.1143,12.7775],[78.1131,12.7823],[78.1117,12.7842],[78.1068,12.7879],[78.1067,12.7923],[78.1147,12.79]]]}},{"type":"Feature","properties":{"name":"4C1C7a4a","level":"micro-watershed","watershedCode":"4C1C7","subCatchmentCode":"4C1C","areaKm2InDistrict":5.6,"shedId":"SBP03"},"geometry":{"type":"Polygon","coordinates":[[[78.0971,12.8135],[78.1047,12.8091],[78.1093,12.8045],[78.1203,12.8017],[78.1219,12.7992],[78.125,12.7982],[78.126,12.7959],[78.1259,12.7917],[78.1273,12.7894],[78.13,12.7873],[78.1309,12.7845],[78.1299,12.785],[78.1254,12.785],[78.1209,12.7864],[78.1147,12.79],[78.1055,12.7926],[78.0956,12.7988],[78.0916,12.7999],[78.096,12.8097],[78.0969,12.8104],[78.0971,12.8135]]]}},{"type":"Feature","properties":{"name":"4C1C7a4b1","level":"micro-watershed","watershedCode":"4C1C7","subCatchmentCode":"4C1C","areaKm2InDistrict":9.1,"shedId":"SBP03"},"geometry":{"type":"Polygon","coordinates":[[[78.0618,12.8433],[78.0664,12.842],[78.0686,12.8428],[78.0712,12.8424],[78.0743,12.8411],[78.077,12.8391],[78.077,12.8377],[78.0751,12.8362],[78.0738,12.8305],[78.0775,12.8305],[78.0821,12.8323],[78.0854,12.8323],[78.0864,12.8317],[78.0868,12.8296],[78.0881,12.8279],[78.0875,12.8249],[78.0902,12.8235],[78.0902,12.8174],[78.0971,12.8135],[78.0969,12.8104],[78.096,12.8097],[78.0943,12.8057],[78.0885,12.8064],[78.081,12.8056],[78.0731,12.8063],[78.0657,12.8129],[78.0656,12.8143],[78.0678,12.8214],[78.0676,12.828],[78.0633,12.8323],[78.0613,12.8361],[78.0618,12.8433]]]}},{"type":"Feature","properties":{"name":"4C1C7a4b2","level":"micro-watershed","watershedCode":"4C1C7","subCatchmentCode":"4C1C","areaKm2InDistrict":6.4,"shedId":"SBP03"},"geometry":{"type":"Polygon","coordinates":[[[78.0567,12.8525],[78.059,12.8512],[78.0599,12.8483],[78.0602,12.8438],[78.0618,12.8433],[78.0613,12.8361],[78.0633,12.8323],[78.0676,12.828],[78.0678,12.8214],[78.0673,12.8188],[78.0656,12.8143],[78.0626,12.8138],[78.0573,12.8146],[78.0502,12.8126],[78.0452,12.8102],[78.0464,12.8192],[78.0461,12.8237],[78.0469,12.8265],[78.0497,12.8309],[78.0504,12.8352],[78.054,12.8466],[78.0567,12.8525]]]}},{"type":"Feature","properties":{"name":"4C1C7a4b3a","level":"micro-watershed","watershedCode":"4C1C7","subCatchmentCode":"4C1C","areaKm2InDistrict":10.4,"shedId":"SBP03"},"geometry":{"type":"Polygon","coordinates":[[[78.0307,12.8577],[78.031,12.8523],[78.0387,12.8515],[78.0503,12.8487],[78.0514,12.8524],[78.0526,12.8538],[78.0567,12.8525],[78.0568,12.8519],[78.054,12.8466],[78.0504,12.8352],[78.0497,12.8309],[78.0485,12.8293],[78.0423,12.8315],[78.0383,12.8337],[78.0308,12.8342],[78.0284,12.8336],[78.0273,12.8325],[78.0219,12.8197],[78.0209,12.8152],[78.0207,12.8106],[78.0198,12.8103],[78.0185,12.811],[78.0178,12.8126],[78.016,12.8127],[78.0136,12.8156],[78.0128,12.8188],[78.0073,12.8211],[78.0045,12.8231],[78.0037,12.8248],[78.0042,12.8262],[78.0106,12.8309],[78.0148,12.8298],[78.0183,12.8311],[78.0191,12.8439],[78.0243,12.8417],[78.0291,12.8454],[78.0297,12.8489],[78.0267,12.85],[78.0241,12.8525],[78.0239,12.8565],[78.028,12.8579],[78.0307,12.8577]]]}},{"type":"Feature","properties":{"name":"4C1C7a4b3b","level":"micro-watershed","watershedCode":"4C1C7","subCatchmentCode":"4C1C","areaKm2InDistrict":6.0,"shedId":"SBP03"},"geometry":{"type":"Polygon","coordinates":[[[78.0484,12.8291],[78.0461,12.8237],[78.0464,12.8192],[78.0452,12.8102],[78.0406,12.8094],[78.0389,12.8116],[78.0374,12.8122],[78.0317,12.8126],[78.0207,12.8106],[78.0209,12.8152],[78.0219,12.8197],[78.0236,12.8228],[78.0263,12.8308],[78.0284,12.8336],[78.0308,12.8342],[78.0383,12.8337],[78.0484,12.8291]]]}},{"type":"Feature","properties":{"name":"4C1C7a4c1a","level":"micro-watershed","watershedCode":"4C1C7","subCatchmentCode":"4C1C","areaKm2InDistrict":3.6,"shedId":"SBP03"},"geometry":{"type":"Polygon","coordinates":[[[78.0914,12.8059],[78.0877,12.805],[78.083,12.8002],[78.0695,12.7902],[78.0679,12.7878],[78.0651,12.7853],[78.0607,12.7831],[78.0599,12.786],[78.0611,12.791],[78.0643,12.7989],[78.0641,12.8033],[78.0648,12.8046],[78.0699,12.8068],[78.0712,12.808],[78.0731,12.8063],[78.0756,12.8058],[78.081,12.8056],[78.0885,12.8064],[78.0914,12.8059]]]}},{"type":"Feature","properties":{"name":"4C1C7a4c1b","level":"micro-watershed","watershedCode":"4C1C7","subCatchmentCode":"4C1C","areaKm2InDistrict":4.0,"shedId":"SBP03"},"geometry":{"type":"Polygon","coordinates":[[[78.0942,12.8059],[78.0916,12.7999],[78.0833,12.7955],[78.0818,12.7902],[78.0765,12.7794],[78.0718,12.7762],[78.0679,12.7719],[78.0631,12.7709],[78.0652,12.7775],[78.0636,12.7814],[78.0609,12.7832],[78.0651,12.7853],[78.0679,12.7878],[78.0695,12.7902],[78.083,12.8002],[78.0877,12.805],[78.0917,12.806],[78.0942,12.8059]]]}},{"type":"Feature","properties":{"name":"4C1C7a4c2a","level":"micro-watershed","watershedCode":"4C1C7","subCatchmentCode":"4C1C","areaKm2InDistrict":6.1,"shedId":"SBP03"},"geometry":{"type":"Polygon","coordinates":[[[78.0452,12.8102],[78.0502,12.8126],[78.0573,12.8146],[78.0626,12.8138],[78.0656,12.8143],[78.0657,12.8129],[78.0712,12.808],[78.0699,12.8068],[78.0648,12.8046],[78.0641,12.8033],[78.0643,12.7989],[78.0611,12.791],[78.0599,12.786],[78.0607,12.7831],[78.0589,12.7824],[78.0521,12.785],[78.0508,12.7885],[78.0483,12.792],[78.0464,12.7967],[78.0443,12.8066],[78.0452,12.8102]]]}},{"type":"Feature","properties":{"name":"4C1C7a4c2b","level":"micro-watershed","watershedCode":"4C1C7","subCatchmentCode":"4C1C","areaKm2InDistrict":8.3,"shedId":"SBP03"},"geometry":{"type":"Polygon","coordinates":[[[78.0609,12.7832],[78.0636,12.7814],[78.0652,12.7775],[78.0631,12.7709],[78.0604,12.7703],[78.0572,12.7706],[78.0538,12.7718],[78.0425,12.7736],[78.0401,12.7735],[78.0335,12.771],[78.0314,12.7748],[78.0293,12.7764],[78.0273,12.7842],[78.026,12.7858],[78.0222,12.7875],[78.0354,12.7889],[78.0378,12.79],[78.0383,12.7967],[78.0393,12.801],[78.0387,12.8045],[78.0394,12.8071],[78.0406,12.8095],[78.0452,12.8102],[78.0443,12.8066],[78.0464,12.7967],[78.0521,12.785],[78.0589,12.7824],[78.0609,12.7832]]]}},{"type":"Feature","properties":{"name":"4C1C7a4c3","level":"micro-watershed","watershedCode":"4C1C7","subCatchmentCode":"4C1C","areaKm2InDistrict":6.8,"shedId":"SBP03"},"geometry":{"type":"Polygon","coordinates":[[[78.0178,12.8126],[78.0185,12.811],[78.0198,12.8103],[78.0317,12.8126],[78.0389,12.8116],[78.0406,12.8094],[78.0387,12.8045],[78.0393,12.801],[78.0383,12.7967],[78.0378,12.79],[78.0354,12.7889],[78.0281,12.7879],[78.0226,12.7879],[78.0213,12.7854],[78.0191,12.7867],[78.0179,12.7881],[78.0177,12.7896],[78.0192,12.7912],[78.0177,12.7935],[78.017,12.801],[78.0159,12.8019],[78.0107,12.8028],[78.0096,12.8053],[78.0153,12.8138],[78.016,12.8127],[78.0178,12.8126]]]}}]}