{"nvdm":"1.0","dataset":"basins/micro-watersheds","scope":{"kind":"basin","id":"krishnagiri-rivers"},"provenance":{"sources":[{"id":"tngis-open-geoserver","title":"TNGIS open GeoServer (WFS): district, taluk, block and village panchayat boundaries, TN WRD sub-basins and reservoirs, micro-watershed atlas, all-water-bodies and all-tanks registers, mine leases, industry register matched to land parcels","publisher":"Tamil Nadu e-Governance Agency (TNGIS)","license":"Tamil Nadu government data on an open GeoServer (WFS, no login); published with TNGIS's permission and with attribution.","role":"input","url":"https://tngis.tn.gov.in/tngismaps/ows"}],"method":"derived","produced_at":"2026-09-18","produced_by":"scripts/build_krishnagiri_rivers_basin.py","internal_inputs":["public/data/basins/krishnagiri-rivers/sub-hydrosheds.geojson"],"note":"Krishnagiri district's rivers, groundwater and industry (scope krishnagiri-rivers; the district's own scope id is tn-krishnagiri). The district boundary is the frame and TN WRD's sub-basins, clipped to it, are the catchments (shedId): the Thenpennai's to the east, the Cauvery's Chinnar and Dodda Halla to the south-west. The industry register holds only units TNGIS matched to a land parcel, so every count is a lower bound; sector comes from the reviewed TNPCB type-code lookup pipeline-inputs/basins/krishnagiri-rivers/tnpcb-type-sectors.json."},"type":"FeatureCollection","features":[{"type":"Feature","properties":{"name":"4C1C1a1c4","level":"micro-watershed","watershedCode":"4C1C1","subCatchmentCode":"4C1C","areaKm2InDistrict":0.1,"shedId":"SBP07"},"geometry":{"type":"MultiPolygon","coordinates":[[[[78.63715,12.18778],[78.6372,12.188],[78.63726,12.18806],[78.63715,12.18778]]],[[[78.6373,12.18815],[78.6399,12.1958],[78.64075,12.19785],[78.6373,12.18815]]],[[[78.6546,12.2007],[78.6567,12.1977],[78.6597,12.2016],[78.6569,12.1976],[78.6566,12.1976],[78.6556,12.1983],[78.6548,12.1998],[78.6546,12.2007]]],[[[78.6483,12.2026],[78.6527,12.2002],[78.6538,12.2014],[78.6542,12.2013],[78.6546,12.2007],[78.6538,12.2009],[78.653,12.1998],[78.6483,12.2026]]],[[[78.64106,12.19857],[78.6426,12.2029],[78.644,12.2054],[78.64106,12.19857]]],[[[78.6597,12.2016],[78.6615,12.2039],[78.6613,12.2034],[78.6597,12.2016]]],[[[78.64783,12.20287],[78.6475,12.203],[78.6478,12.2029],[78.64783,12.20287]]],[[[78.64481,12.20477],[78.64733,12.20307],[78.6465,12.2034],[78.64481,12.20477]]],[[[78.66166,12.20417],[78.6618,12.2045],[78.66192,12.20462],[78.66166,12.20417]]],[[[78.6627,12.2058],[78.6649,12.2063],[78.6674,12.2088],[78.6666,12.2072],[78.6654,12.2065],[78.6645,12.2061],[78.6626,12.2057],[78.66204,12.20483],[78.6623,12.2056],[78.6627,12.2058]]],[[[78.6681,12.21],[78.6674,12.2088],[78.6675,12.2091],[78.6681,12.21]]],[[[78.6684,12.21055],[78.66827,12.21031],[78.6683,12.2104],[78.6684,12.21055]]],[[[78.6689,12.2113],[78.6688,12.2113],[78.6689,12.2115],[78.6689,12.2113]]],[[[78.6686,12.2127],[78.6687,12.2125],[78.6689,12.2119],[78.6686,12.2127]]],[[[78.6684,12.2144],[78.66887,12.21553],[78.6683,12.21375],[78.6684,12.2144]]],[[[78.66933,12.21785],[78.6709,12.2199],[78.6715,12.2209],[78.6714,12.2201],[78.66933,12.21785]]]]}},{"type":"Feature","properties":{"name":"4C1C3a6b","level":"micro-watershed","watershedCode":"4C1C3","subCatchmentCode":"4C1C","areaKm2InDistrict":9.8,"shedId":"SBP07"},"geometry":{"type":"Polygon","coordinates":[[[78.6439,12.2053],[78.638,12.1901],[78.6364,12.1922],[78.6358,12.1972],[78.6349,12.1988],[78.6328,12.2003],[78.6293,12.2011],[78.6309,12.2042],[78.6293,12.2133],[78.6314,12.2236],[78.6334,12.228],[78.6362,12.2311],[78.6372,12.2334],[78.6376,12.2382],[78.6417,12.2493],[78.6436,12.2459],[78.6471,12.2365],[78.6496,12.2339],[78.6578,12.2311],[78.6584,12.2224],[78.6439,12.2053]]]}},{"type":"Feature","properties":{"name":"4C1C3a6c","level":"micro-watershed","watershedCode":"4C1C3","subCatchmentCode":"4C1C","areaKm2InDistrict":8.7,"shedId":"SBP07"},"geometry":{"type":"Polygon","coordinates":[[[78.6436,12.2594],[78.64795,12.2584],[78.6488,12.2563],[78.6519,12.2534],[78.6528,12.2516],[78.6532,12.2454],[78.6504,12.2404],[78.6551,12.2374],[78.6587,12.2362],[78.66,12.2342],[78.6629,12.2345],[78.6658,12.2327],[78.6687,12.2283],[78.6698,12.2233],[78.6715,12.22188],[78.6715,12.2209],[78.669,12.2172],[78.6682,12.2135],[78.6689,12.2115],[78.6674,12.2088],[78.6649,12.2063],[78.6623,12.2056],[78.6567,12.1977],[78.6542,12.2013],[78.6527,12.2002],[78.6438,12.2057],[78.6584,12.2224],[78.6578,12.2311],[78.6496,12.2339],[78.6471,12.2365],[78.6436,12.2459],[78.6417,12.2493],[78.6389,12.2513],[78.6426,12.2583],[78.6436,12.2594]]]}}]}