{"nvdm":"1.0","dataset":"basins/micro-watersheds","scope":{"kind":"basin","id":"krishnagiri-rivers"},"provenance":{"sources":[{"id":"tngis-open-geoserver","title":"TNGIS open GeoServer (WFS): district, taluk, block and village panchayat boundaries, TN WRD sub-basins and reservoirs, micro-watershed atlas, all-water-bodies and all-tanks registers, mine leases, industry register matched to land parcels","publisher":"Tamil Nadu e-Governance Agency (TNGIS)","license":"Tamil Nadu government data on an open GeoServer (WFS, no login); published with TNGIS's permission and with attribution.","role":"input","url":"https://tngis.tn.gov.in/tngismaps/ows"}],"method":"derived","produced_at":"2026-09-18","produced_by":"scripts/build_krishnagiri_rivers_basin.py","internal_inputs":["public/data/basins/krishnagiri-rivers/sub-hydrosheds.geojson"],"note":"Krishnagiri district's rivers, groundwater and industry (scope krishnagiri-rivers; the district's own scope id is tn-krishnagiri). The district boundary is the frame and TN WRD's sub-basins, clipped to it, are the catchments (shedId): the Thenpennai's to the east, the Cauvery's Chinnar and Dodda Halla to the south-west. The industry register holds only units TNGIS matched to a land parcel, so every count is a lower bound; sector comes from the reviewed TNPCB type-code lookup pipeline-inputs/basins/krishnagiri-rivers/tnpcb-type-sectors.json."},"type":"FeatureCollection","features":[{"type":"Feature","properties":{"name":"4C1C2a1a","level":"micro-watershed","watershedCode":"4C1C2","subCatchmentCode":"4C1C","areaKm2InDistrict":0.1,"shedId":"SBP18"},"geometry":{"type":"MultiPolygon","coordinates":[[[[78.5831,12.1632],[78.5843,12.1636],[78.58346,12.16267],[78.5831,12.1632]]],[[[78.5931,12.1662],[78.59914,12.16989],[78.5957,12.1668],[78.5875,12.1641],[78.58593,12.1641],[78.5931,12.1662]]],[[[78.6028,12.1748],[78.60283,12.1748],[78.60275,12.17473],[78.6028,12.1748]]]]}},{"type":"Feature","properties":{"name":"4C1C3a4b","level":"micro-watershed","watershedCode":"4C1C3","subCatchmentCode":"4C1C","areaKm2InDistrict":5.9,"shedId":"SBP18"},"geometry":{"type":"Polygon","coordinates":[[[78.5999,12.2153],[78.5993,12.2054],[78.5997,12.199],[78.5986,12.1923],[78.5964,12.1875],[78.5946,12.1871],[78.5866,12.1896],[78.5849,12.1914],[78.5783,12.1953],[78.5778,12.197],[78.5797,12.1974],[78.5838,12.2007],[78.5862,12.2035],[78.5889,12.2085],[78.5896,12.2132],[78.5885,12.2146],[78.5866,12.22],[78.5902,12.2249],[78.5921,12.2293],[78.5985,12.2209],[78.5999,12.2153]]]}},{"type":"Feature","properties":{"name":"4C1C3a5a","level":"micro-watershed","watershedCode":"4C1C3","subCatchmentCode":"4C1C","areaKm2InDistrict":5.6,"shedId":"SBP18"},"geometry":{"type":"Polygon","coordinates":[[[78.6181,12.1939],[78.6208,12.1978],[78.6238,12.2],[78.6273,12.2006],[78.6257,12.1962],[78.6258,12.1901],[78.62429,12.18104],[78.6202,12.1834],[78.6126,12.1819],[78.6106,12.1812],[78.6063,12.1782],[78.6028,12.1748],[78.5973,12.1786],[78.5962,12.1816],[78.5966,12.1877],[78.5986,12.1923],[78.5997,12.2012],[78.6047,12.1968],[78.6123,12.1942],[78.6165,12.1945],[78.6181,12.1939]]]}},{"type":"Feature","properties":{"name":"4C1C3a5b","level":"micro-watershed","watershedCode":"4C1C3","subCatchmentCode":"4C1C","areaKm2InDistrict":11.1,"shedId":"SBP18"},"geometry":{"type":"Polygon","coordinates":[[[78.6418,12.2775],[78.64284,12.27699],[78.6422,12.2754],[78.6408,12.2721],[78.6396,12.2722],[78.6393,12.2716],[78.6394,12.2699],[78.6404,12.2688],[78.64,12.2675],[78.6381,12.264],[78.6348,12.2621],[78.6357,12.2617],[78.6352,12.2612],[78.6436,12.2594],[78.6389,12.2513],[78.6417,12.2493],[78.6376,12.2382],[78.6372,12.2334],[78.6362,12.2311],[78.6334,12.228],[78.6314,12.2236],[78.6293,12.2133],[78.6309,12.2042],[78.6293,12.2011],[78.6238,12.2],[78.6208,12.1978],[78.6181,12.1939],[78.6165,12.1945],[78.6203,12.2054],[78.6207,12.2084],[78.6204,12.2152],[78.6218,12.2236],[78.6215,12.2299],[78.6222,12.2413],[78.6236,12.2514],[78.6279,12.2539],[78.6289,12.2598],[78.6306,12.2651],[78.6347,12.2722],[78.6344,12.2746],[78.637,12.2773],[78.6377,12.2773],[78.64,12.2799],[78.6395,12.2804],[78.6399,12.2812],[78.6414,12.2822],[78.6434,12.281],[78.6429,12.2799],[78.6423,12.28],[78.6418,12.2775]]]}},{"type":"Feature","properties":{"name":"4C1C3a5c","level":"micro-watershed","watershedCode":"4C1C3","subCatchmentCode":"4C1C","areaKm2InDistrict":15.3,"shedId":"SBP18"},"geometry":{"type":"Polygon","coordinates":[[[78.6149,12.2123],[78.6089,12.2142],[78.6004,12.2227],[78.5985,12.2209],[78.5958,12.2251],[78.5897,12.2317],[78.5896,12.233],[78.5927,12.238],[78.6024,12.2492],[78.6033,12.2533],[78.6073,12.2618],[78.6096,12.2612],[78.6137,12.2636],[78.6168,12.2676],[78.6237,12.2648],[78.6266,12.268],[78.6309,12.2705],[78.6344,12.2745],[78.6347,12.2722],[78.6306,12.2651],[78.6289,12.2598],[78.6279,12.2539],[78.6236,12.2514],[78.6233,12.2503],[78.6215,12.2299],[78.6218,12.2236],[78.6204,12.2152],[78.6208,12.212],[78.6149,12.2123]]]}},{"type":"Feature","properties":{"name":"4C1C3a5d","level":"micro-watershed","watershedCode":"4C1C3","subCatchmentCode":"4C1C","areaKm2InDistrict":4.7,"shedId":"SBP18"},"geometry":{"type":"Polygon","coordinates":[[[78.6208,12.212],[78.6203,12.2054],[78.6168,12.1946],[78.616,12.1941],[78.6123,12.1942],[78.6047,12.1968],[78.5997,12.2012],[78.5993,12.2054],[78.5999,12.2153],[78.5985,12.2209],[78.6004,12.2227],[78.6089,12.2142],[78.6149,12.2123],[78.6208,12.212]]]}},{"type":"Feature","properties":{"name":"4C1C3a6a","level":"micro-watershed","watershedCode":"4C1C3","subCatchmentCode":"4C1C","areaKm2InDistrict":2.8,"shedId":"SBP18"},"geometry":{"type":"Polygon","coordinates":[[[78.6379,12.19],[78.6347,12.1793],[78.6328,12.1767],[78.6316,12.1766],[78.62429,12.18104],[78.6258,12.1901],[78.6257,12.1962],[78.6273,12.2006],[78.6293,12.2011],[78.6328,12.2003],[78.6349,12.1988],[78.6358,12.1972],[78.6358,12.1939],[78.6379,12.19]]]}},{"type":"Feature","properties":{"name":"4C1C3e1","level":"micro-watershed","watershedCode":"4C1C3","subCatchmentCode":"4C1C","areaKm2InDistrict":0.2,"shedId":"SBP18"},"geometry":{"type":"MultiPolygon","coordinates":[[[[78.6017,12.2664],[78.6022,12.2657],[78.6026,12.2647],[78.6021,12.2656],[78.6017,12.2664]]],[[[78.63,12.27],[78.6237,12.2648],[78.6168,12.2676],[78.6146,12.2644],[78.6096,12.2612],[78.6038,12.2626],[78.60284,12.26422],[78.6037,12.2631],[78.6093,12.2618],[78.6138,12.2642],[78.6166,12.2679],[78.6236,12.2655],[78.627,12.2691],[78.62957,12.27033],[78.63,12.27]]],[[[78.6016,12.2665],[78.6013,12.2673],[78.6017,12.2664],[78.6016,12.2665]]],[[[78.6014,12.2676],[78.6013,12.2674],[78.6014,12.2677],[78.6014,12.2676]]],[[[78.6128,12.2946],[78.6097,12.29783],[78.6129,12.2946],[78.6128,12.2946]]]]}},{"type":"Feature","properties":{"name":"4C1C3e2","level":"micro-watershed","watershedCode":"4C1C3","subCatchmentCode":"4C1C","areaKm2InDistrict":0.1,"shedId":"SBP18"},"geometry":{"type":"MultiPolygon","coordinates":[[[[78.64,12.28],[78.6309,12.2705],[78.62957,12.27033],[78.6313,12.2715],[78.6359,12.2772],[78.6375,12.2779],[78.6391,12.2802],[78.64,12.28]]],[[[78.6435,12.2811],[78.6414,12.2822],[78.6391,12.2809],[78.6421,12.2833],[78.6426,12.2832],[78.6422,12.282],[78.6435,12.2816],[78.6435,12.2811]]]]}},{"type":"Feature","properties":{"name":"4C1C3f1","level":"micro-watershed","watershedCode":"4C1C3","subCatchmentCode":"4C1C","areaKm2InDistrict":0.1,"shedId":"SBP18"},"geometry":{"type":"MultiPolygon","coordinates":[[[[78.6451,12.2591],[78.6362,12.2611],[78.6352,12.2612],[78.6358,12.2617],[78.6457,12.2596],[78.6451,12.2591]]],[[[78.6402,12.269],[78.6395,12.2697],[78.6394,12.2703],[78.6403,12.2695],[78.6402,12.269]]],[[[78.6428,12.277],[78.6418,12.2775],[78.642,12.2779],[78.6429,12.2776],[78.6428,12.277]]],[[[78.6435,12.2816],[78.6436,12.2814],[78.64359,12.28128],[78.6435,12.2816]]]]}}]}