{"nvdm":"1.0","dataset":"basins/micro-watersheds","scope":{"kind":"basin","id":"krishnagiri-rivers"},"provenance":{"sources":[{"id":"tngis-open-geoserver","title":"TNGIS open GeoServer (WFS): district, taluk, block and village panchayat boundaries, TN WRD sub-basins and reservoirs, micro-watershed atlas, all-water-bodies and all-tanks registers, mine leases, industry register matched to land parcels","publisher":"Tamil Nadu e-Governance Agency (TNGIS)","license":"Tamil Nadu government data on an open GeoServer (WFS, no login); published with TNGIS's permission and with attribution.","role":"input","url":"https://tngis.tn.gov.in/tngismaps/ows"}],"method":"derived","produced_at":"2026-09-18","produced_by":"scripts/build_krishnagiri_rivers_basin.py","internal_inputs":["public/data/basins/krishnagiri-rivers/sub-hydrosheds.geojson"],"note":"Krishnagiri district's rivers, groundwater and industry (scope krishnagiri-rivers; the district's own scope id is tn-krishnagiri). The district boundary is the frame and TN WRD's sub-basins, clipped to it, are the catchments (shedId): the Thenpennai's to the east, the Cauvery's Chinnar and Dodda Halla to the south-west. The industry register holds only units TNGIS matched to a land parcel, so every count is a lower bound; sector comes from the reviewed TNPCB type-code lookup pipeline-inputs/basins/krishnagiri-rivers/tnpcb-type-sectors.json."},"type":"FeatureCollection","features":[{"type":"Feature","properties":{"name":"4C1C2b2b","level":"micro-watershed","watershedCode":"4C1C2","subCatchmentCode":"4C1C","areaKm2InDistrict":0.7,"shedId":"SBP17"},"geometry":{"type":"Polygon","coordinates":[[[78.5085,12.146],[78.5011,12.1492],[78.5037,12.153],[78.5056,12.1575],[78.5108,12.1588],[78.51265,12.16082],[78.5111,12.1579],[78.5084,12.1558],[78.5081,12.1549],[78.5073,12.151],[78.5086,12.1498],[78.5085,12.146]]]}},{"type":"Feature","properties":{"name":"4C1C2b2c","level":"micro-watershed","watershedCode":"4C1C2","subCatchmentCode":"4C1C","areaKm2InDistrict":0.7,"shedId":"SBP17"},"geometry":{"type":"Polygon","coordinates":[[[78.5013,12.1413],[78.4946,12.1438],[78.496,12.146],[78.5001,12.1489],[78.5011,12.1492],[78.50868,12.14593],[78.5084,12.144],[78.5068,12.1427],[78.5023,12.1441],[78.5013,12.1413]]]}},{"type":"Feature","properties":{"name":"4C1C2b3b","level":"micro-watershed","watershedCode":"4C1C2","subCatchmentCode":"4C1C","areaKm2InDistrict":0.3,"shedId":"SBP17"},"geometry":{"type":"Polygon","coordinates":[[[78.491,12.1407],[78.4946,12.1438],[78.50037,12.14142],[78.4992,12.1416],[78.4973,12.1387],[78.491,12.1407]]]}},{"type":"Feature","properties":{"name":"4C1C2b3c","level":"micro-watershed","watershedCode":"4C1C2","subCatchmentCode":"4C1C","areaKm2InDistrict":0.1,"shedId":"SBP17"},"geometry":{"type":"Polygon","coordinates":[[[78.48612,12.14214],[78.488,12.1426],[78.4918,12.1419],[78.491,12.14035],[78.48612,12.14214]]]}},{"type":"Feature","properties":{"name":"4C1C5a1a","level":"micro-watershed","watershedCode":"4C1C5","subCatchmentCode":"4C1C","areaKm2InDistrict":0.2,"shedId":"SBP17"},"geometry":{"type":"Polygon","coordinates":[[[78.5247,12.1797],[78.5364,12.18],[78.5453,12.1795],[78.5512,12.1799],[78.5442,12.1789],[78.5373,12.1794],[78.52518,12.17915],[78.5247,12.1797]]]}},{"type":"Feature","properties":{"name":"4C1C5a1c","level":"micro-watershed","watershedCode":"4C1C5","subCatchmentCode":"4C1C","areaKm2InDistrict":5.9,"shedId":"SBP17"},"geometry":{"type":"Polygon","coordinates":[[[78.5148,12.1629],[78.5108,12.1588],[78.5056,12.1575],[78.5037,12.153],[78.5011,12.1492],[78.4978,12.1476],[78.4937,12.1429],[78.4918,12.1419],[78.488,12.1426],[78.4928,12.1567],[78.4931,12.1604],[78.496,12.1702],[78.4981,12.1705],[78.512,12.1763],[78.5143,12.1766],[78.5198,12.1795],[78.5247,12.1797],[78.52518,12.17915],[78.5205,12.1788],[78.5166,12.1763],[78.5165,12.1755],[78.5177,12.1746],[78.5179,12.1736],[78.5176,12.1711],[78.5156,12.1684],[78.5166,12.1669],[78.5148,12.1629]]]}},{"type":"Feature","properties":{"name":"4C1C5a1d","level":"micro-watershed","watershedCode":"4C1C5","subCatchmentCode":"4C1C","areaKm2InDistrict":6.9,"shedId":"SBP17"},"geometry":{"type":"Polygon","coordinates":[[[78.4825,12.1673],[78.4871,12.1669],[78.4917,12.1697],[78.496,12.1702],[78.4931,12.1604],[78.4928,12.1567],[78.488,12.1426],[78.48612,12.14214],[78.4833,12.1429],[78.4708,12.1483],[78.4684,12.1477],[78.46597,12.1457],[78.466,12.14743],[78.4673,12.1485],[78.4674,12.1522],[78.471,12.1619],[78.46852,12.1648],[78.4722,12.1714],[78.47223,12.17267],[78.4726,12.173],[78.4753,12.172],[78.4825,12.1673]]]}},{"type":"Feature","properties":{"name":"4C1C5a1f1","level":"micro-watershed","watershedCode":"4C1C5","subCatchmentCode":"4C1C","areaKm2InDistrict":0.1,"shedId":"SBP17"},"geometry":{"type":"Polygon","coordinates":[[[78.4603,12.1804],[78.4673,12.1777],[78.4726,12.173],[78.47223,12.17267],[78.466,12.1775],[78.45955,12.1798],[78.4603,12.1804]]]}},{"type":"Feature","properties":{"name":"4C1C5a1f10a1","level":"micro-watershed","watershedCode":"4C1C5","subCatchmentCode":"4C1C","areaKm2InDistrict":4.8,"shedId":"SBP17"},"geometry":{"type":"Polygon","coordinates":[[[78.3855,12.2482],[78.3821,12.2361],[78.3792,12.2292],[78.37824,12.22242],[78.3754,12.2217],[78.3752,12.2247],[78.3708,12.2268],[78.3697,12.2267],[78.3692,12.2248],[78.3645,12.2257],[78.3634,12.2234],[78.35952,12.2246],[78.3624,12.23],[78.366,12.2402],[78.3654,12.2449],[78.3685,12.2444],[78.3722,12.2467],[78.3732,12.2467],[78.3736,12.2475],[78.3829,12.2484],[78.3855,12.2482]]]}},{"type":"Feature","properties":{"name":"4C1C5a1f10a2","level":"micro-watershed","watershedCode":"4C1C5","subCatchmentCode":"4C1C","areaKm2InDistrict":16.2,"shedId":"SBP17"},"geometry":{"type":"Polygon","coordinates":[[[78.4072,12.2837],[78.4067,12.2767],[78.4039,12.2678],[78.3993,12.2646],[78.3987,12.2649],[78.3896,12.2611],[78.3877,12.2579],[78.3855,12.2482],[78.3736,12.2475],[78.3732,12.2467],[78.3722,12.2467],[78.3685,12.2444],[78.3657,12.2449],[78.3636,12.2508],[78.3588,12.2596],[78.3582,12.2656],[78.3556,12.2711],[78.3547,12.2787],[78.3528,12.2822],[78.3622,12.2823],[78.3722,12.2764],[78.3741,12.2732],[78.3755,12.2725],[78.3759,12.2708],[78.3802,12.2709],[78.3811,12.2712],[78.3813,12.2728],[78.3871,12.2786],[78.3933,12.288],[78.3996,12.2937],[78.4058,12.2965],[78.4072,12.2837]]]}},{"type":"Feature","properties":{"name":"4C1C5a1f10b","level":"micro-watershed","watershedCode":"4C1C5","subCatchmentCode":"4C1C","areaKm2InDistrict":7.9,"shedId":"SBP17"},"geometry":{"type":"Polygon","coordinates":[[[78.3547,12.2787],[78.3556,12.2711],[78.3582,12.2656],[78.3547,12.2625],[78.3523,12.2587],[78.3451,12.2523],[78.3433,12.2536],[78.3431,12.2552],[78.3349,12.2635],[78.3321,12.264],[78.33124,12.26476],[78.332,12.2658],[78.3345,12.2664],[78.3334,12.2688],[78.3337,12.2793],[78.3352,12.2818],[78.3422,12.2878],[78.3483,12.2965],[78.3519,12.2876],[78.3528,12.2822],[78.3547,12.2787]]]}},{"type":"Feature","properties":{"name":"4C1C5a1f10c","level":"micro-watershed","watershedCode":"4C1C5","subCatchmentCode":"4C1C","areaKm2InDistrict":18.8,"shedId":"SBP17"},"geometry":{"type":"Polygon","coordinates":[[[78.391,12.3049],[78.3975,12.3012],[78.4056,12.3037],[78.4058,12.2965],[78.3996,12.2937],[78.3933,12.288],[78.3871,12.2786],[78.3813,12.2728],[78.3811,12.2712],[78.3759,12.2708],[78.3755,12.2725],[78.3741,12.2732],[78.3722,12.2764],[78.3622,12.2823],[78.3528,12.2822],[78.3519,12.2876],[78.3481,12.2962],[78.3502,12.3113],[78.3514,12.3122],[78.3542,12.3117],[78.3633,12.3146],[78.3792,12.3144],[78.391,12.3049]]]}},{"type":"Feature","properties":{"name":"4C1C5a1f10d","level":"micro-watershed","watershedCode":"4C1C5","subCatchmentCode":"4C1C","areaKm2InDistrict":10.5,"shedId":"SBP17"},"geometry":{"type":"Polygon","coordinates":[[[78.3502,12.3113],[78.3481,12.2962],[78.3422,12.2878],[78.3352,12.2818],[78.3337,12.2793],[78.3334,12.2688],[78.3345,12.2664],[78.332,12.2658],[78.33124,12.26476],[78.328,12.2658],[78.3267,12.2655],[78.3245,12.2631],[78.32276,12.2592],[78.31953,12.25985],[78.3245,12.2926],[78.3264,12.2952],[78.3299,12.304],[78.3329,12.3083],[78.3354,12.3174],[78.3354,12.3205],[78.339,12.3205],[78.3452,12.317],[78.3514,12.3122],[78.3502,12.3113]]]}},{"type":"Feature","properties":{"name":"4C1C5a1f10e","level":"micro-watershed","watershedCode":"4C1C5","subCatchmentCode":"4C1C","areaKm2InDistrict":26.9,"shedId":"SBP17"},"geometry":{"type":"Polygon","coordinates":[[[78.3347,12.3588],[78.3347,12.351],[78.3356,12.3492],[78.3358,12.3422],[78.3379,12.3352],[78.3374,12.3287],[78.3357,12.323],[78.3354,12.3174],[78.3329,12.3083],[78.3299,12.304],[78.3264,12.2952],[78.3245,12.2926],[78.31953,12.25985],[78.3164,12.2613],[78.3131,12.2666],[78.3106,12.265],[78.3084,12.2663],[78.3073,12.2694],[78.3053,12.2707],[78.3052,12.2725],[78.30348,12.27331],[78.302,12.2772],[78.2986,12.2802],[78.2985,12.2826],[78.3023,12.2868],[78.303,12.2886],[78.3031,12.2903],[78.3007,12.2958],[78.3047,12.301],[78.3079,12.3078],[78.3068,12.31],[78.3067,12.3117],[78.3074,12.313],[78.3101,12.315],[78.3116,12.3178],[78.3091,12.3266],[78.3097,12.3302],[78.3132,12.3377],[78.3172,12.3607],[78.3185,12.3636],[78.3153,12.3696],[78.3166,12.3707],[78.3249,12.3642],[78.329,12.3636],[78.3347,12.3588]]]}},{"type":"Feature","properties":{"name":"4C1C5a1f11a","level":"micro-watershed","watershedCode":"4C1C5","subCatchmentCode":"4C1C","areaKm2InDistrict":9.2,"shedId":"SBP17"},"geometry":{"type":"Polygon","coordinates":[[[78.3987,12.2649],[78.4077,12.2489],[78.4083,12.2436],[78.4064,12.2358],[78.40129,12.22475],[78.385,12.2287],[78.3845,12.2277],[78.3833,12.228],[78.3821,12.2263],[78.3798,12.2265],[78.3796,12.2227],[78.37824,12.22242],[78.3792,12.2292],[78.3839,12.2421],[78.3877,12.2579],[78.3896,12.2611],[78.3987,12.2649]]]}},{"type":"Feature","properties":{"name":"4C1C5a1f11b","level":"micro-watershed","watershedCode":"4C1C5","subCatchmentCode":"4C1C","areaKm2InDistrict":5.2,"shedId":"SBP17"},"geometry":{"type":"Polygon","coordinates":[[[78.4087,12.2341],[78.4159,12.2247],[78.4185,12.2196],[78.4171,12.2153],[78.4172,12.2007],[78.4196,12.1951],[78.42413,12.19028],[78.4208,12.1897],[78.4183,12.1916],[78.4165,12.1919],[78.4138,12.1944],[78.412,12.1987],[78.4118,12.2013],[78.4066,12.2081],[78.4058,12.2129],[78.4021,12.21377],[78.4018,12.2153],[78.4007,12.2163],[78.401,12.2183],[78.403,12.2204],[78.4042,12.2233],[78.4032,12.2246],[78.40129,12.22475],[78.4064,12.2358],[78.4087,12.2341]]]}},{"type":"Feature","properties":{"name":"4C1C5a1f12a","level":"micro-watershed","watershedCode":"4C1C5","subCatchmentCode":"4C1C","areaKm2InDistrict":6.9,"shedId":"SBP17"},"geometry":{"type":"Polygon","coordinates":[[[78.4174,12.2299],[78.4202,12.2291],[78.4218,12.2263],[78.4232,12.2282],[78.4253,12.227],[78.4261,12.2291],[78.4283,12.2294],[78.4402,12.228],[78.433,12.2183],[78.4285,12.2086],[78.4294,12.1979],[78.43369,12.18944],[78.42413,12.19028],[78.4196,12.1951],[78.4178,12.1991],[78.4168,12.2055],[78.4175,12.2123],[78.4171,12.2153],[78.4185,12.2196],[78.4159,12.2247],[78.4087,12.2341],[78.4134,12.2325],[78.4174,12.2299]]]}},{"type":"Feature","properties":{"name":"4C1C5a1f12b1","level":"micro-watershed","watershedCode":"4C1C5","subCatchmentCode":"4C1C","areaKm2InDistrict":9.9,"shedId":"SBP17"},"geometry":{"type":"Polygon","coordinates":[[[78.425,12.2448],[78.4174,12.2302],[78.4111,12.2336],[78.4087,12.2341],[78.4064,12.2358],[78.4083,12.2436],[78.4077,12.2489],[78.3993,12.2648],[78.4039,12.2678],[78.4047,12.2698],[78.4067,12.2767],[78.4073,12.2859],[78.4132,12.2801],[78.4156,12.276],[78.417,12.2731],[78.4183,12.2659],[78.425,12.2625],[78.4299,12.2622],[78.425,12.2448]]]}},{"type":"Feature","properties":{"name":"4C1C5a1f12b2","level":"micro-watershed","watershedCode":"4C1C5","subCatchmentCode":"4C1C","areaKm2InDistrict":11.7,"shedId":"SBP17"},"geometry":{"type":"Polygon","coordinates":[[[78.4556,12.2578],[78.453,12.2506],[78.4402,12.228],[78.4283,12.2294],[78.4261,12.2291],[78.4253,12.227],[78.4232,12.2282],[78.4218,12.2263],[78.4202,12.2291],[78.4174,12.2299],[78.425,12.2448],[78.4299,12.2622],[78.4351,12.2626],[78.438,12.2642],[78.4465,12.2716],[78.4542,12.2716],[78.4546,12.2666],[78.4539,12.2642],[78.4561,12.2612],[78.4556,12.2578]]]}},{"type":"Feature","properties":{"name":"4C1C5a1f12c","level":"micro-watershed","watershedCode":"4C1C5","subCatchmentCode":"4C1C","areaKm2InDistrict":15.6,"shedId":"SBP17"},"geometry":{"type":"Polygon","coordinates":[[[78.4408,12.3045],[78.4433,12.3014],[78.443,12.2962],[78.4439,12.2734],[78.4465,12.2716],[78.4424,12.2676],[78.4351,12.2626],[78.425,12.2625],[78.4201,12.2646],[78.4183,12.2659],[78.417,12.2731],[78.4132,12.2801],[78.4073,12.2859],[78.4059,12.2936],[78.4056,12.3037],[78.4083,12.3041],[78.4201,12.3006],[78.4246,12.2967],[78.425,12.2999],[78.426,12.3022],[78.4301,12.3078],[78.4343,12.308],[78.4408,12.3045]]]}},{"type":"Feature","properties":{"name":"4C1C5a1f13","level":"micro-watershed","watershedCode":"4C1C5","subCatchmentCode":"4C1C","areaKm2InDistrict":4.6,"shedId":"SBP17"},"geometry":{"type":"Polygon","coordinates":[[[78.4525,12.1836],[78.44791,12.18547],[78.4476,12.1883],[78.4464,12.1906],[78.4386,12.1909],[78.43369,12.18944],[78.4294,12.1979],[78.4289,12.2004],[78.4285,12.2086],[78.432,12.2156],[78.4404,12.2092],[78.4471,12.2003],[78.4506,12.1945],[78.4528,12.1865],[78.4525,12.1836]]]}},{"type":"Feature","properties":{"name":"4C1C5a1f14a","level":"micro-watershed","watershedCode":"4C1C5","subCatchmentCode":"4C1C","areaKm2InDistrict":8.2,"shedId":"SBP17"},"geometry":{"type":"Polygon","coordinates":[[[78.462,12.2186],[78.4609,12.2122],[78.4614,12.2038],[78.4607,12.1985],[78.4616,12.1947],[78.4623,12.1835],[78.4607,12.1802],[78.457,12.1815],[78.4548,12.1834],[78.4525,12.1836],[78.4528,12.1865],[78.4506,12.1945],[78.4471,12.2003],[78.4404,12.2092],[78.432,12.2156],[78.433,12.2183],[78.4402,12.228],[78.4437,12.2266],[78.4456,12.2238],[78.4467,12.2208],[78.4496,12.2188],[78.4525,12.2189],[78.4572,12.218],[78.462,12.2186]]]}},{"type":"Feature","properties":{"name":"4C1C5a1f14b","level":"micro-watershed","watershedCode":"4C1C5","subCatchmentCode":"4C1C","areaKm2InDistrict":9.3,"shedId":"SBP17"},"geometry":{"type":"Polygon","coordinates":[[[78.4732,12.2379],[78.4674,12.233],[78.4634,12.2264],[78.4618,12.2185],[78.4572,12.218],[78.4525,12.2189],[78.4496,12.2188],[78.4467,12.2208],[78.4456,12.2238],[78.4437,12.2266],[78.4402,12.228],[78.453,12.2506],[78.4556,12.2578],[78.4561,12.2612],[78.458,12.2589],[78.4639,12.2567],[78.4665,12.253],[78.4718,12.2436],[78.4732,12.2379]]]}},{"type":"Feature","properties":{"name":"4C1C5a1f15","level":"micro-watershed","watershedCode":"4C1C5","subCatchmentCode":"4C1C","areaKm2InDistrict":4.1,"shedId":"SBP17"},"geometry":{"type":"Polygon","coordinates":[[[78.4633,12.1977],[78.4715,12.1925],[78.477,12.1877],[78.4793,12.1835],[78.4828,12.1732],[78.4821,12.1675],[78.4768,12.1712],[78.4726,12.173],[78.4673,12.1777],[78.4607,12.1802],[78.4623,12.1835],[78.4616,12.1947],[78.4607,12.1985],[78.4633,12.1977]]]}},{"type":"Feature","properties":{"name":"4C1C5a1f16a","level":"micro-watershed","watershedCode":"4C1C5","subCatchmentCode":"4C1C","areaKm2InDistrict":10.0,"shedId":"SBP17"},"geometry":{"type":"Polygon","coordinates":[[[78.5134,12.1766],[78.4981,12.1705],[78.4917,12.1697],[78.4871,12.1669],[78.4825,12.1673],[78.4821,12.1675],[78.4828,12.1732],[78.4793,12.1835],[78.477,12.1877],[78.4779,12.1894],[78.4812,12.1911],[78.484,12.1941],[78.4876,12.194],[78.4913,12.196],[78.4982,12.202],[78.4997,12.2029],[78.5026,12.2034],[78.5032,12.2005],[78.5102,12.1922],[78.5135,12.1825],[78.5139,12.1773],[78.5134,12.1766]]]}},{"type":"Feature","properties":{"name":"4C1C5a1f16b","level":"micro-watershed","watershedCode":"4C1C5","subCatchmentCode":"4C1C","areaKm2InDistrict":17.1,"shedId":"SBP17"},"geometry":{"type":"Polygon","coordinates":[[[78.4907,12.2302],[78.4968,12.2237],[78.5003,12.2164],[78.502,12.2079],[78.5019,12.2057],[78.4994,12.2027],[78.4913,12.196],[78.4876,12.194],[78.484,12.1941],[78.4812,12.1911],[78.4779,12.1894],[78.477,12.1877],[78.4665,12.1961],[78.4608,12.1984],[78.4614,12.2038],[78.4609,12.2122],[78.4629,12.2251],[78.4674,12.233],[78.4732,12.2379],[78.4787,12.2349],[78.4871,12.2326],[78.4907,12.2302]]]}},{"type":"Feature","properties":{"name":"4C1C5a1f17","level":"micro-watershed","watershedCode":"4C1C5","subCatchmentCode":"4C1C","areaKm2InDistrict":7.0,"shedId":"SBP17"},"geometry":{"type":"Polygon","coordinates":[[[78.5168,12.2134],[78.518,12.2082],[78.5173,12.2059],[78.5175,12.2024],[78.5216,12.1974],[78.5249,12.1948],[78.5253,12.1934],[78.5233,12.1878],[78.5238,12.182],[78.5246,12.18],[78.5198,12.1795],[78.5138,12.1766],[78.5135,12.1825],[78.5102,12.1922],[78.5032,12.2005],[78.5026,12.2034],[78.4994,12.2027],[78.5019,12.2057],[78.502,12.2079],[78.5006,12.2155],[78.498,12.2208],[78.5013,12.2208],[78.5099,12.2193],[78.5168,12.2134]]]}},{"type":"Feature","properties":{"name":"4C1C5a1f18a","level":"micro-watershed","watershedCode":"4C1C5","subCatchmentCode":"4C1C","areaKm2InDistrict":18.7,"shedId":"SBP17"},"geometry":{"type":"Polygon","coordinates":[[[78.5415,12.2265],[78.5441,12.2237],[78.5455,12.2209],[78.548,12.2102],[78.5503,12.2066],[78.5563,12.2025],[78.5622,12.2014],[78.572,12.1972],[78.5739,12.1962],[78.5738,12.195],[78.5734,12.1941],[78.5698,12.1935],[78.5649,12.1901],[78.5604,12.1861],[78.5558,12.1803],[78.5453,12.1795],[78.5364,12.18],[78.5243,12.1797],[78.5233,12.1878],[78.5253,12.1934],[78.5249,12.1948],[78.5216,12.1974],[78.5175,12.2024],[78.5173,12.2059],[78.518,12.2082],[78.5168,12.2138],[78.5255,12.2203],[78.5275,12.22],[78.5299,12.2216],[78.5356,12.2259],[78.5387,12.2292],[78.5405,12.2268],[78.5415,12.2265]]]}},{"type":"Feature","properties":{"name":"4C1C5a1f18b","level":"micro-watershed","watershedCode":"4C1C5","subCatchmentCode":"4C1C","areaKm2InDistrict":12.5,"shedId":"SBP17"},"geometry":{"type":"Polygon","coordinates":[[[78.5011,12.2507],[78.5244,12.2434],[78.5277,12.2383],[78.5338,12.2362],[78.5387,12.2292],[78.5356,12.2259],[78.5299,12.2216],[78.5275,12.22],[78.5255,12.2203],[78.5167,12.2135],[78.5099,12.2193],[78.5013,12.2208],[78.498,12.2208],[78.4968,12.2237],[78.4896,12.2313],[78.4897,12.233],[78.4959,12.2399],[78.5011,12.2507]]]}},{"type":"Feature","properties":{"name":"4C1C5a1f18c","level":"micro-watershed","watershedCode":"4C1C5","subCatchmentCode":"4C1C","areaKm2InDistrict":9.2,"shedId":"SBP17"},"geometry":{"type":"Polygon","coordinates":[[[78.4779,12.2591],[78.5011,12.2507],[78.4959,12.2399],[78.4897,12.233],[78.4896,12.2313],[78.4871,12.2326],[78.4787,12.2349],[78.4732,12.2379],[78.4718,12.2436],[78.4639,12.2567],[78.458,12.2589],[78.4539,12.2642],[78.4546,12.2666],[78.4542,12.2716],[78.4608,12.2691],[78.466,12.2652],[78.4779,12.2591]]]}},{"type":"Feature","properties":{"name":"4C1C5a1f2","level":"micro-watershed","watershedCode":"4C1C5","subCatchmentCode":"4C1C","areaKm2InDistrict":0.1,"shedId":"SBP17"},"geometry":{"type":"Polygon","coordinates":[[[78.44954,12.18431],[78.4548,12.1834],[78.457,12.1815],[78.4603,12.1804],[78.45955,12.1798],[78.4582,12.1802],[78.4551,12.1824],[78.44954,12.18431]]]}},{"type":"Feature","properties":{"name":"4C1C5a1f6a","level":"micro-watershed","watershedCode":"4C1C5","subCatchmentCode":"4C1C","areaKm2InDistrict":6.7,"shedId":"SBP17"},"geometry":{"type":"Polygon","coordinates":[[[78.37526,12.19505],[78.3783,12.2007],[78.37837,12.20334],[78.3796,12.2041],[78.3797,12.2056],[78.3832,12.2063],[78.3902,12.2044],[78.3935,12.2048],[78.3974,12.2111],[78.3998,12.2129],[78.4029,12.2138],[78.4058,12.2129],[78.4066,12.2081],[78.4118,12.2013],[78.412,12.1987],[78.4138,12.1944],[78.4129,12.1948],[78.4123,12.1963],[78.4077,12.1956],[78.4056,12.194],[78.4049,12.1911],[78.4008,12.1877],[78.3958,12.1885],[78.3938,12.1855],[78.3925,12.1855],[78.3902,12.1864],[78.3864,12.1919],[78.3838,12.1942],[78.3807,12.1954],[78.3757,12.1949],[78.37526,12.19505]]]}},{"type":"Feature","properties":{"name":"4C1C5a1f7a1","level":"micro-watershed","watershedCode":"4C1C5","subCatchmentCode":"4C1C","areaKm2InDistrict":0.1,"shedId":"SBP17"},"geometry":{"type":"Polygon","coordinates":[[[78.3783,12.2007],[78.37526,12.19505],[78.375,12.1951],[78.3761,12.2002],[78.37837,12.20334],[78.3783,12.2007]]]}},{"type":"Feature","properties":{"name":"4C1C5a1f8b1d1a","level":"micro-watershed","watershedCode":"4C1C5","subCatchmentCode":"4C1C","areaKm2InDistrict":5.3,"shedId":"SBP17"},"geometry":{"type":"Polygon","coordinates":[[[78.2391,12.3176],[78.2474,12.312],[78.2512,12.3125],[78.2532,12.3119],[78.254,12.311],[78.2559,12.3121],[78.2647,12.313],[78.2642,12.3052],[78.2615,12.3022],[78.25944,12.29442],[78.25621,12.2953],[78.2493,12.2991],[78.2371,12.3013],[78.2344,12.3024],[78.2371,12.308],[78.2364,12.3091],[78.2366,12.3113],[78.2308,12.3128],[78.2307,12.3155],[78.2342,12.3184],[78.2391,12.3176]]]}},{"type":"Feature","properties":{"name":"4C1C5a1f8b1d1b","level":"micro-watershed","watershedCode":"4C1C5","subCatchmentCode":"4C1C","areaKm2InDistrict":5.8,"shedId":"SBP17"},"geometry":{"type":"Polygon","coordinates":[[[78.2473,12.3422],[78.2514,12.3407],[78.2546,12.336],[78.2588,12.328],[78.2593,12.3242],[78.2633,12.3195],[78.2647,12.313],[78.2559,12.3121],[78.254,12.311],[78.2532,12.3119],[78.2512,12.3125],[78.2474,12.312],[78.23877,12.31779],[78.2405,12.3181],[78.2432,12.3216],[78.247,12.324],[78.2479,12.3253],[78.2472,12.328],[78.2439,12.3285],[78.2421,12.3317],[78.2394,12.3332],[78.24,12.3364],[78.2379,12.3394],[78.23764,12.34132],[78.2473,12.3422]]]}},{"type":"Feature","properties":{"name":"4C1C5a1f8b1d2a","level":"micro-watershed","watershedCode":"4C1C5","subCatchmentCode":"4C1C","areaKm2InDistrict":0.1,"shedId":"SBP17"},"geometry":{"type":"Polygon","coordinates":[[[78.24732,12.29908],[78.2512,12.2984],[78.25621,12.2953],[78.24732,12.29908]]]}},{"type":"Feature","properties":{"name":"4C1C5a1f8b1d2b","level":"micro-watershed","watershedCode":"4C1C5","subCatchmentCode":"4C1C","areaKm2InDistrict":0.6,"shedId":"SBP17"},"geometry":{"type":"MultiPolygon","coordinates":[[[[78.2318,12.3125],[78.23265,12.31226],[78.23082,12.31279],[78.2318,12.3125]]],[[[78.2064,12.3316],[78.208,12.3342],[78.2017,12.3419],[78.2093,12.3362],[78.21639,12.33685],[78.2142,12.3327],[78.2125,12.331],[78.2066,12.32942],[78.2064,12.3316]]]]}},{"type":"Feature","properties":{"name":"4C1C5a1f9c4","level":"micro-watershed","watershedCode":"4C1C5","subCatchmentCode":"4C1C","areaKm2InDistrict":15.1,"shedId":"SBP17"},"geometry":{"type":"Polygon","coordinates":[[[78.3088,12.3806],[78.3071,12.3773],[78.2851,12.368],[78.2742,12.367],[78.2679,12.3678],[78.2652,12.3698],[78.2655,12.3739],[78.2649,12.3763],[78.26,12.3838],[78.2613,12.3848],[78.2649,12.3856],[78.2667,12.3908],[78.2743,12.395],[78.2804,12.3965],[78.2816,12.3995],[78.2862,12.4058],[78.2991,12.4181],[78.298,12.3996],[78.3005,12.3913],[78.3034,12.3894],[78.308,12.3879],[78.3088,12.3806]]]}},{"type":"Feature","properties":{"name":"4C1C5a1f9c5","level":"micro-watershed","watershedCode":"4C1C5","subCatchmentCode":"4C1C","areaKm2InDistrict":19.1,"shedId":"SBP17"},"geometry":{"type":"Polygon","coordinates":[[[78.3153,12.3696],[78.3185,12.3636],[78.3172,12.3607],[78.3161,12.3547],[78.3101,12.3474],[78.292,12.3303],[78.2875,12.3255],[78.2851,12.3217],[78.2824,12.3295],[78.2783,12.3359],[78.2758,12.3425],[78.2717,12.3463],[78.2706,12.3536],[78.2695,12.3553],[78.2656,12.3582],[78.2642,12.3605],[78.2643,12.3656],[78.2652,12.3698],[78.2679,12.3678],[78.2742,12.367],[78.2851,12.368],[78.3071,12.3773],[78.309,12.3759],[78.3098,12.3725],[78.3153,12.3696]]]}},{"type":"Feature","properties":{"name":"4C1C5a1f9d1a","level":"micro-watershed","watershedCode":"4C1C5","subCatchmentCode":"4C1C","areaKm2InDistrict":13.6,"shedId":"SBP17"},"geometry":{"type":"Polygon","coordinates":[[[78.2991,12.4181],[78.2862,12.4058],[78.2816,12.3995],[78.2804,12.3965],[78.2743,12.395],[78.2667,12.3908],[78.2649,12.3856],[78.2613,12.3848],[78.26,12.3838],[78.2584,12.3871],[78.2584,12.3905],[78.2554,12.3926],[78.2529,12.3928],[78.2486,12.3918],[78.2475,12.3922],[78.2457,12.3964],[78.2458,12.4027],[78.2394,12.4078],[78.2431,12.4124],[78.2453,12.4119],[78.2475,12.4097],[78.2488,12.4098],[78.2509,12.4105],[78.253,12.4123],[78.2639,12.4132],[78.2661,12.4142],[78.2748,12.4255],[78.2796,12.4224],[78.2855,12.4206],[78.2877,12.421],[78.2936,12.424],[78.2957,12.4236],[78.2986,12.4213],[78.2991,12.4181]]]}},{"type":"Feature","properties":{"name":"4C1C5a1f9d1b","level":"micro-watershed","watershedCode":"4C1C5","subCatchmentCode":"4C1C","areaKm2InDistrict":4.8,"shedId":"SBP17"},"geometry":{"type":"Polygon","coordinates":[[[78.2949,12.4275],[78.2986,12.4213],[78.2957,12.4236],[78.2936,12.424],[78.2877,12.421],[78.2855,12.4206],[78.2796,12.4224],[78.2748,12.4255],[78.2776,12.4322],[78.2766,12.45],[78.2755,12.4575],[78.2786,12.4572],[78.2809,12.4498],[78.2875,12.4428],[78.2949,12.4275]]]}},{"type":"Feature","properties":{"name":"4C1C5a1f9d2a","level":"micro-watershed","watershedCode":"4C1C5","subCatchmentCode":"4C1C","areaKm2InDistrict":5.4,"shedId":"SBP17"},"geometry":{"type":"Polygon","coordinates":[[[78.276,12.4275],[78.2675,12.4155],[78.2661,12.4142],[78.2628,12.4131],[78.262,12.4165],[78.2608,12.4185],[78.2556,12.4212],[78.2554,12.4232],[78.2588,12.4369],[78.2636,12.4387],[78.2659,12.4411],[78.2748,12.4451],[78.2768,12.4472],[78.2776,12.4322],[78.276,12.4275]]]}},{"type":"Feature","properties":{"name":"4C1C5a1f9d2b","level":"micro-watershed","watershedCode":"4C1C5","subCatchmentCode":"4C1C","areaKm2InDistrict":7.3,"shedId":"SBP17"},"geometry":{"type":"Polygon","coordinates":[[[78.2755,12.4575],[78.2768,12.4472],[78.2748,12.4451],[78.2659,12.4411],[78.2636,12.4387],[78.2592,12.4371],[78.2597,12.4395],[78.2543,12.4437],[78.2497,12.4487],[78.2461,12.4569],[78.2497,12.4604],[78.2622,12.4674],[78.2634,12.4683],[78.2645,12.4706],[78.2667,12.4689],[78.2714,12.4634],[78.2743,12.4584],[78.2755,12.4575]]]}},{"type":"Feature","properties":{"name":"4C1C5a1f9d3","level":"micro-watershed","watershedCode":"4C1C5","subCatchmentCode":"4C1C","areaKm2InDistrict":7.3,"shedId":"SBP17"},"geometry":{"type":"Polygon","coordinates":[[[78.2497,12.4487],[78.2543,12.4437],[78.2597,12.4395],[78.2554,12.4232],[78.2556,12.4212],[78.2608,12.4185],[78.262,12.4165],[78.2628,12.4131],[78.2563,12.4129],[78.2529,12.4121],[78.2484,12.418],[78.2472,12.4205],[78.2417,12.4337],[78.2377,12.4414],[78.2351,12.4493],[78.2383,12.4512],[78.2407,12.4572],[78.2452,12.4602],[78.2497,12.4487]]]}},{"type":"Feature","properties":{"name":"4C1C5a1f9d4","level":"micro-watershed","watershedCode":"4C1C5","subCatchmentCode":"4C1C","areaKm2InDistrict":11.0,"shedId":"SBP17"},"geometry":{"type":"Polygon","coordinates":[[[78.2362,12.4452],[78.2484,12.418],[78.2529,12.4121],[78.25,12.4101],[78.2475,12.4097],[78.2453,12.4119],[78.2431,12.4124],[78.2394,12.4078],[78.2359,12.4163],[78.2317,12.4208],[78.2255,12.4215],[78.2177,12.4247],[78.2159,12.4258],[78.2135,12.4296],[78.2126,12.4343],[78.2157,12.442],[78.2154,12.4474],[78.2181,12.4543],[78.2206,12.4537],[78.2213,12.4519],[78.2262,12.4522],[78.2319,12.4516],[78.2351,12.4493],[78.2362,12.4452]]]}},{"type":"Feature","properties":{"name":"4C1C5a1f9d5","level":"micro-watershed","watershedCode":"4C1C5","subCatchmentCode":"4C1C","areaKm2InDistrict":7.3,"shedId":"SBP17"},"geometry":{"type":"Polygon","coordinates":[[[78.2356,12.4742],[78.2452,12.4602],[78.2407,12.4572],[78.2383,12.4512],[78.2351,12.4493],[78.2319,12.4516],[78.2262,12.4522],[78.2213,12.4519],[78.2206,12.4537],[78.2181,12.4543],[78.2157,12.4582],[78.2157,12.465],[78.2141,12.4665],[78.2145,12.4679],[78.2124,12.4698],[78.2116,12.4726],[78.218,12.4727],[78.2276,12.4777],[78.2315,12.4825],[78.2356,12.4742]]]}},{"type":"Feature","properties":{"name":"4C1C5a1f9d6a","level":"micro-watershed","watershedCode":"4C1C5","subCatchmentCode":"4C1C","areaKm2InDistrict":6.9,"shedId":"SBP17"},"geometry":{"type":"Polygon","coordinates":[[[78.2143,12.4808],[78.2116,12.4725],[78.2123,12.4716],[78.2124,12.4698],[78.2145,12.4679],[78.2141,12.4665],[78.2157,12.465],[78.2157,12.4582],[78.2181,12.4543],[78.2158,12.4529],[78.2101,12.4557],[78.2011,12.4582],[78.1939,12.4626],[78.1916,12.4681],[78.1892,12.4786],[78.1951,12.4815],[78.2003,12.4819],[78.2043,12.4834],[78.2053,12.4863],[78.2116,12.4843],[78.2136,12.483],[78.2143,12.4808]]]}},{"type":"Feature","properties":{"name":"4C1C5a1f9d6b","level":"micro-watershed","watershedCode":"4C1C5","subCatchmentCode":"4C1C","areaKm2InDistrict":2.2,"shedId":"SBP17"},"geometry":{"type":"Polygon","coordinates":[[[78.2315,12.4825],[78.2276,12.4777],[78.218,12.4727],[78.2116,12.4726],[78.2143,12.4808],[78.2136,12.483],[78.2163,12.4829],[78.2217,12.4883],[78.2296,12.4846],[78.2315,12.4825]]]}},{"type":"Feature","properties":{"name":"4C1C5a1f9e1","level":"micro-watershed","watershedCode":"4C1C5","subCatchmentCode":"4C1C","areaKm2InDistrict":6.2,"shedId":"SBP17"},"geometry":{"type":"Polygon","coordinates":[[[78.2181,12.4543],[78.2154,12.4474],[78.2157,12.442],[78.2126,12.4343],[78.2135,12.4296],[78.2032,12.4304],[78.1977,12.4271],[78.1968,12.4271],[78.1941,12.4291],[78.1949,12.4305],[78.195,12.4354],[78.1961,12.4389],[78.1964,12.4434],[78.1959,12.447],[78.1981,12.4599],[78.2011,12.4582],[78.2101,12.4557],[78.2158,12.4529],[78.2181,12.4543]]]}},{"type":"Feature","properties":{"name":"4C1C5a1f9e2","level":"micro-watershed","watershedCode":"4C1C5","subCatchmentCode":"4C1C","areaKm2InDistrict":5.9,"shedId":"SBP17"},"geometry":{"type":"Polygon","coordinates":[[[78.1981,12.4599],[78.196,12.4472],[78.1898,12.4447],[78.1797,12.4435],[78.1722,12.45],[78.1746,12.4563],[78.1776,12.4598],[78.1821,12.4636],[78.1829,12.4707],[78.1853,12.4726],[78.1892,12.4786],[78.1925,12.4657],[78.1939,12.4626],[78.1981,12.4599]]]}},{"type":"Feature","properties":{"name":"4C1C5a1f9e3","level":"micro-watershed","watershedCode":"4C1C5","subCatchmentCode":"4C1C","areaKm2InDistrict":6.4,"shedId":"SBP17"},"geometry":{"type":"Polygon","coordinates":[[[78.1959,12.447],[78.1964,12.4434],[78.1961,12.4389],[78.195,12.4354],[78.1949,12.4305],[78.1941,12.4291],[78.1863,12.4286],[78.184,12.4293],[78.1775,12.4272],[78.1719,12.4286],[78.1683,12.4269],[78.1639,12.4262],[78.163,12.4311],[78.1634,12.4325],[78.1664,12.438],[78.1673,12.4423],[78.1702,12.4469],[78.1702,12.4479],[78.1722,12.45],[78.1797,12.4435],[78.1898,12.4447],[78.1959,12.447]]]}},{"type":"Feature","properties":{"name":"4C1C5a1f9e4","level":"micro-watershed","watershedCode":"4C1C5","subCatchmentCode":"4C1C","areaKm2InDistrict":6.5,"shedId":"SBP17"},"geometry":{"type":"Polygon","coordinates":[[[78.2135,12.4296],[78.2159,12.4258],[78.2122,12.4239],[78.2014,12.4215],[78.1999,12.4209],[78.198,12.4189],[78.1901,12.4163],[78.183,12.4189],[78.1807,12.4188],[78.1645,12.4103],[78.1633,12.409],[78.1628,12.4189],[78.1639,12.4262],[78.1683,12.4269],[78.1719,12.4286],[78.1775,12.4272],[78.184,12.4293],[78.1863,12.4286],[78.1924,12.4286],[78.1944,12.4292],[78.1968,12.4271],[78.1977,12.4271],[78.2032,12.4304],[78.2135,12.4296]]]}},{"type":"Feature","properties":{"name":"4C1C5a1f9e5","level":"micro-watershed","watershedCode":"4C1C5","subCatchmentCode":"4C1C","areaKm2InDistrict":12.5,"shedId":"SBP17"},"geometry":{"type":"Polygon","coordinates":[[[78.2363,12.4153],[78.2335,12.4062],[78.2289,12.4007],[78.2266,12.3989],[78.2103,12.3942],[78.2089,12.393],[78.2058,12.3866],[78.2054,12.3891],[78.1982,12.3992],[78.196,12.4034],[78.1922,12.4067],[78.1923,12.4085],[78.1909,12.4129],[78.1887,12.4158],[78.198,12.4189],[78.1999,12.4209],[78.2014,12.4215],[78.2122,12.4239],[78.2159,12.4258],[78.2255,12.4215],[78.2317,12.4208],[78.2359,12.4163],[78.2363,12.4153]]]}},{"type":"Feature","properties":{"name":"4C1C5a1f9e6a","level":"micro-watershed","watershedCode":"4C1C5","subCatchmentCode":"4C1C","areaKm2InDistrict":7.6,"shedId":"SBP17"},"geometry":{"type":"Polygon","coordinates":[[[78.1922,12.4067],[78.196,12.4034],[78.1982,12.3992],[78.2054,12.3891],[78.2057,12.3864],[78.2,12.3856],[78.189,12.3862],[78.1812,12.3837],[78.1754,12.3808],[78.1694,12.3846],[78.1647,12.3924],[78.1641,12.3956],[78.1668,12.3957],[78.1686,12.3968],[78.1728,12.3963],[78.1755,12.4],[78.184,12.4058],[78.1892,12.4068],[78.1922,12.4067]]]}},{"type":"Feature","properties":{"name":"4C1C5a1f9e6b","level":"micro-watershed","watershedCode":"4C1C5","subCatchmentCode":"4C1C","areaKm2InDistrict":4.9,"shedId":"SBP17"},"geometry":{"type":"Polygon","coordinates":[[[78.1899,12.4163],[78.1887,12.4158],[78.1909,12.4129],[78.1923,12.4085],[78.1922,12.4067],[78.1892,12.4068],[78.184,12.4058],[78.1755,12.4],[78.1728,12.3963],[78.1686,12.3968],[78.1668,12.3957],[78.1641,12.3956],[78.1626,12.4002],[78.1626,12.4028],[78.1633,12.409],[78.1645,12.4103],[78.1807,12.4188],[78.183,12.4189],[78.1867,12.4179],[78.1899,12.4163]]]}},{"type":"Feature","properties":{"name":"4C1C5a1f9f1","level":"micro-watershed","watershedCode":"4C1C5","subCatchmentCode":"4C1C","areaKm2InDistrict":11.0,"shedId":"SBP17"},"geometry":{"type":"Polygon","coordinates":[[[78.2395,12.4076],[78.2448,12.404],[78.2458,12.4027],[78.2457,12.3964],[78.2475,12.3922],[78.2486,12.3918],[78.2529,12.3928],[78.2554,12.3925],[78.2548,12.3916],[78.2412,12.3874],[78.2372,12.3848],[78.2349,12.3721],[78.2262,12.3722],[78.2121,12.3774],[78.2092,12.3798],[78.2057,12.3864],[78.2089,12.393],[78.2119,12.395],[78.2266,12.3989],[78.2289,12.4007],[78.2335,12.4062],[78.2364,12.4154],[78.2395,12.4076]]]}},{"type":"Feature","properties":{"name":"4C1C5a1f9f2","level":"micro-watershed","watershedCode":"4C1C5","subCatchmentCode":"4C1C","areaKm2InDistrict":11.7,"shedId":"SBP17"},"geometry":{"type":"Polygon","coordinates":[[[78.2295,12.3648],[78.2252,12.3627],[78.223,12.3631],[78.2154,12.361],[78.2092,12.3609],[78.2049,12.36],[78.1974,12.3574],[78.1922,12.3539],[78.1891,12.3641],[78.185,12.3704],[78.1772,12.3775],[78.1754,12.3812],[78.189,12.3862],[78.2,12.3856],[78.2057,12.3864],[78.2092,12.3798],[78.2121,12.3774],[78.2262,12.3722],[78.2349,12.3721],[78.2295,12.3648]]]}},{"type":"Feature","properties":{"name":"4C1C5a1f9f3","level":"micro-watershed","watershedCode":"4C1C5","subCatchmentCode":"4C1C","areaKm2InDistrict":7.9,"shedId":"SBP17"},"geometry":{"type":"Polygon","coordinates":[[[78.1743,12.3819],[78.1772,12.3775],[78.185,12.3704],[78.1891,12.3641],[78.1922,12.3539],[78.1786,12.3599],[78.1733,12.3602],[78.1707,12.3616],[78.16832,12.36172],[78.1627,12.3637],[78.1606,12.3631],[78.15845,12.3637],[78.1598,12.3671],[78.1589,12.3744],[78.1541,12.382],[78.1604,12.3904],[78.1644,12.3931],[78.1694,12.3846],[78.1717,12.3828],[78.1743,12.3819]]]}},{"type":"Feature","properties":{"name":"4C1C5a1f9f4","level":"micro-watershed","watershedCode":"4C1C5","subCatchmentCode":"4C1C","areaKm2InDistrict":10.5,"shedId":"SBP17"},"geometry":{"type":"Polygon","coordinates":[[[78.163,12.4072],[78.1626,12.4002],[78.1644,12.3931],[78.1604,12.3904],[78.1541,12.382],[78.1589,12.3744],[78.1598,12.3671],[78.15845,12.3637],[78.155,12.3649],[78.1546,12.3674],[78.1539,12.3675],[78.1532,12.3658],[78.1493,12.3683],[78.1436,12.3692],[78.1439,12.3717],[78.1432,12.3748],[78.1388,12.3836],[78.1381,12.3912],[78.1339,12.3983],[78.1329,12.403],[78.1335,12.4042],[78.1354,12.4048],[78.1367,12.4061],[78.13683,12.40849],[78.163,12.4072]]]}},{"type":"Feature","properties":{"name":"4C1C5a1f9f5","level":"micro-watershed","watershedCode":"4C1C5","subCatchmentCode":"4C1C","areaKm2InDistrict":8.0,"shedId":"SBP17"},"geometry":{"type":"Polygon","coordinates":[[[78.1638,12.4289],[78.1628,12.4189],[78.1633,12.409],[78.1626,12.407],[78.13683,12.40849],[78.136,12.4101],[78.1337,12.4101],[78.1322,12.4109],[78.132,12.4132],[78.1327,12.4148],[78.1387,12.4182],[78.1407,12.4213],[78.1426,12.4265],[78.143,12.4314],[78.1403,12.4342],[78.13795,12.43539],[78.1463,12.434],[78.1536,12.4341],[78.1567,12.4345],[78.1665,12.4389],[78.163,12.4311],[78.1638,12.4289]]]}},{"type":"Feature","properties":{"name":"4C1C5a1f9g1","level":"micro-watershed","watershedCode":"4C1C5","subCatchmentCode":"4C1C","areaKm2InDistrict":15.6,"shedId":"SBP17"},"geometry":{"type":"Polygon","coordinates":[[[78.2605,12.3828],[78.2649,12.3763],[78.2655,12.3739],[78.2642,12.3605],[78.2613,12.3591],[78.255,12.3533],[78.2479,12.3421],[78.23764,12.34132],[78.2386,12.3447],[78.2379,12.3457],[78.2344,12.3461],[78.2315,12.3476],[78.22953,12.3478],[78.2246,12.3581],[78.223,12.3631],[78.2252,12.3627],[78.2295,12.3648],[78.2349,12.3721],[78.2372,12.3848],[78.2412,12.3874],[78.2548,12.3916],[78.2554,12.3926],[78.2584,12.3905],[78.2584,12.3871],[78.2605,12.3828]]]}},{"type":"Feature","properties":{"name":"4C1C5a1f9g2","level":"micro-watershed","watershedCode":"4C1C5","subCatchmentCode":"4C1C","areaKm2InDistrict":7.3,"shedId":"SBP17"},"geometry":{"type":"Polygon","coordinates":[[[78.216,12.3368],[78.2093,12.3362],[78.2075,12.3371],[78.2017,12.3419],[78.2006,12.3447],[78.1965,12.3482],[78.1922,12.3539],[78.1974,12.3574],[78.2049,12.36],[78.2092,12.3609],[78.2154,12.361],[78.223,12.3631],[78.2246,12.3581],[78.22953,12.3478],[78.225,12.3467],[78.2207,12.3431],[78.2197,12.3429],[78.216,12.3368]]]}},{"type":"Feature","properties":{"name":"4C1C5a1f9h1","level":"micro-watershed","watershedCode":"4C1C5","subCatchmentCode":"4C1C","areaKm2InDistrict":11.8,"shedId":"SBP17"},"geometry":{"type":"Polygon","coordinates":[[[78.2838,12.3191],[78.2739,12.3115],[78.2642,12.3052],[78.2647,12.313],[78.2633,12.3195],[78.2593,12.3242],[78.2588,12.328],[78.2514,12.3407],[78.2479,12.3421],[78.255,12.3533],[78.2613,12.3591],[78.2642,12.3605],[78.2656,12.3582],[78.2695,12.3553],[78.2706,12.3536],[78.2717,12.3463],[78.2758,12.3425],[78.2783,12.3359],[78.2813,12.3317],[78.2834,12.327],[78.2851,12.3217],[78.2838,12.3191]]]}},{"type":"Feature","properties":{"name":"4C1C5a1f9h2","level":"micro-watershed","watershedCode":"4C1C5","subCatchmentCode":"4C1C","areaKm2InDistrict":19.9,"shedId":"SBP17"},"geometry":{"type":"Polygon","coordinates":[[[78.3007,12.2957],[78.2945,12.2979],[78.2916,12.3002],[78.2847,12.292],[78.273,12.2821],[78.2711,12.2797],[78.2688,12.2785],[78.26285,12.27332],[78.2635,12.2758],[78.2618,12.2765],[78.2604,12.2794],[78.2632,12.2843],[78.2632,12.2853],[78.2617,12.2858],[78.2628,12.2895],[78.2597,12.2908],[78.2593,12.2922],[78.2615,12.3022],[78.2628,12.3042],[78.2739,12.3115],[78.2838,12.3191],[78.2875,12.3255],[78.3101,12.3474],[78.3161,12.3547],[78.3133,12.3381],[78.3097,12.3302],[78.3091,12.3266],[78.3116,12.3178],[78.3101,12.315],[78.3074,12.313],[78.3067,12.3117],[78.3068,12.31],[78.3079,12.3078],[78.3047,12.301],[78.3007,12.2957]]]}},{"type":"Feature","properties":{"name":"4C1C5a1f9h3","level":"micro-watershed","watershedCode":"4C1C5","subCatchmentCode":"4C1C","areaKm2InDistrict":7.1,"shedId":"SBP17"},"geometry":{"type":"Polygon","coordinates":[[[78.3012,12.2951],[78.3031,12.2903],[78.3023,12.2868],[78.2995,12.2842],[78.2978,12.2845],[78.2969,12.2836],[78.2914,12.2816],[78.27207,12.26238],[78.2679,12.2638],[78.2686,12.2665],[78.2661,12.2671],[78.2666,12.269],[78.2645,12.2699],[78.2643,12.2715],[78.2625,12.2715],[78.26285,12.27332],[78.2688,12.2785],[78.2711,12.2797],[78.273,12.2821],[78.2847,12.292],[78.2916,12.3002],[78.2945,12.2979],[78.3012,12.2951]]]}},{"type":"Feature","properties":{"name":"4C1C5a1f9h4","level":"micro-watershed","watershedCode":"4C1C5","subCatchmentCode":"4C1C","areaKm2InDistrict":2.7,"shedId":"SBP17"},"geometry":{"type":"Polygon","coordinates":[[[78.2995,12.2842],[78.2985,12.2826],[78.2986,12.2802],[78.302,12.2772],[78.30348,12.27331],[78.2985,12.2736],[78.298,12.2719],[78.2922,12.2708],[78.2897,12.2688],[78.2847,12.2688],[78.2811,12.2659],[78.2792,12.2631],[78.2786,12.26],[78.2721,12.2623],[78.276,12.2668],[78.2816,12.2714],[78.2838,12.2743],[78.2866,12.2764],[78.2914,12.2816],[78.2969,12.2836],[78.2978,12.2845],[78.2995,12.2842]]]}},{"type":"Feature","properties":{"name":"4C1C5a1f9h6","level":"micro-watershed","watershedCode":"4C1C5","subCatchmentCode":"4C1C","areaKm2InDistrict":4.2,"shedId":"SBP17"},"geometry":{"type":"MultiPolygon","coordinates":[[[[78.3318,12.2644],[78.33197,12.26409],[78.3313,12.2647],[78.3318,12.2644]]],[[[78.34552,12.25219],[78.3495,12.2567],[78.3523,12.2587],[78.3547,12.2625],[78.3582,12.2656],[78.3588,12.2596],[78.3648,12.2481],[78.3657,12.2449],[78.366,12.2402],[78.3624,12.23],[78.35952,12.2246],[78.3546,12.227],[78.3586,12.2299],[78.3595,12.2356],[78.3583,12.2377],[78.3548,12.2406],[78.354,12.247],[78.34552,12.25219]]],[[[78.3229,12.2595],[78.3245,12.2631],[78.3265,12.2654],[78.328,12.2658],[78.33012,12.2652],[78.3274,12.2644],[78.3263,12.2634],[78.3244,12.2596],[78.3229,12.2595]]]]}},{"type":"Feature","properties":{"name":"4C1C6a3a1","level":"micro-watershed","watershedCode":"4C1C6","subCatchmentCode":"4C1C","areaKm2InDistrict":16.1,"shedId":"SBP17"},"geometry":{"type":"Polygon","coordinates":[[[78.2571,12.52],[78.2622,12.505],[78.2619,12.504],[78.2574,12.504],[78.2567,12.5035],[78.2585,12.4977],[78.2559,12.4945],[78.2571,12.4933],[78.2534,12.4908],[78.2509,12.4875],[78.2495,12.4877],[78.248,12.4862],[78.2464,12.4828],[78.2464,12.4811],[78.2451,12.4804],[78.2443,12.4774],[78.2431,12.4774],[78.2402,12.4711],[78.239,12.4697],[78.2356,12.4742],[78.2315,12.4825],[78.2296,12.4846],[78.2217,12.4883],[78.2171,12.4841],[78.2182,12.4889],[78.218,12.49],[78.2171,12.4906],[78.2175,12.4957],[78.2162,12.4972],[78.217,12.4983],[78.221,12.4995],[78.2234,12.501],[78.227,12.5048],[78.2307,12.5055],[78.2319,12.5077],[78.2324,12.5126],[78.2315,12.5144],[78.2279,12.5157],[78.2261,12.5186],[78.2316,12.5191],[78.2343,12.5204],[78.238,12.5208],[78.2433,12.5232],[78.2468,12.5235],[78.257,12.523],[78.2571,12.52]]]}},{"type":"Feature","properties":{"name":"4C1C6a3a2","level":"micro-watershed","watershedCode":"4C1C6","subCatchmentCode":"4C1C","areaKm2InDistrict":5.8,"shedId":"SBP17"},"geometry":{"type":"Polygon","coordinates":[[[78.2631,12.4805],[78.2669,12.4764],[78.2634,12.4683],[78.2497,12.4604],[78.2461,12.4569],[78.2452,12.4602],[78.2406,12.4665],[78.239,12.4697],[78.2402,12.4711],[78.2431,12.4774],[78.2443,12.4774],[78.2451,12.4804],[78.2464,12.4811],[78.2464,12.4828],[78.248,12.4862],[78.2495,12.4877],[78.2509,12.4875],[78.2522,12.4894],[78.2552,12.4859],[78.2631,12.4805]]]}},{"type":"Feature","properties":{"name":"4C1C6a3b","level":"micro-watershed","watershedCode":"4C1C6","subCatchmentCode":"4C1C","areaKm2InDistrict":13.9,"shedId":"SBP17"},"geometry":{"type":"Polygon","coordinates":[[[78.2008,12.5355],[78.2023,12.5321],[78.2041,12.5299],[78.2123,12.5238],[78.2151,12.5221],[78.2225,12.5203],[78.2259,12.5188],[78.2279,12.5157],[78.2315,12.5144],[78.2324,12.5126],[78.2319,12.5077],[78.2307,12.5055],[78.227,12.5048],[78.2234,12.501],[78.221,12.4995],[78.217,12.4983],[78.2162,12.4972],[78.2175,12.4957],[78.2171,12.4906],[78.218,12.49],[78.2182,12.4889],[78.217,12.4837],[78.2163,12.4829],[78.2144,12.4827],[78.2098,12.485],[78.2036,12.4865],[78.2045,12.4898],[78.2062,12.4929],[78.2085,12.4931],[78.2094,12.4938],[78.2096,12.4957],[78.2084,12.4978],[78.2083,12.4997],[78.2045,12.5049],[78.2031,12.5047],[78.2027,12.5026],[78.2015,12.5012],[78.2003,12.5019],[78.2011,12.504],[78.2007,12.5059],[78.1986,12.5064],[78.1934,12.5111],[78.1906,12.5159],[78.1874,12.5192],[78.1866,12.5229],[78.1849,12.5254],[78.1837,12.5266],[78.182,12.5264],[78.1817,12.5279],[78.1841,12.5313],[78.1858,12.5308],[78.1908,12.5326],[78.1935,12.5361],[78.1978,12.5352],[78.2008,12.5355]]]}},{"type":"Feature","properties":{"name":"4C1C6a3c1","level":"micro-watershed","watershedCode":"4C1C6","subCatchmentCode":"4C1C","areaKm2InDistrict":11.4,"shedId":"SBP17"},"geometry":{"type":"Polygon","coordinates":[[[78.2245,12.5571],[78.2251,12.5537],[78.2266,12.5506],[78.2271,12.5423],[78.2334,12.5357],[78.2336,12.5338],[78.2337,12.531],[78.2325,12.5283],[78.2277,12.5236],[78.2259,12.5188],[78.2225,12.5203],[78.2151,12.5221],[78.2123,12.5238],[78.2041,12.5299],[78.2023,12.5321],[78.2006,12.5357],[78.2022,12.5392],[78.2016,12.5423],[78.2019,12.5501],[78.2029,12.5527],[78.2043,12.5533],[78.2048,12.5555],[78.2036,12.5621],[78.212,12.5595],[78.2175,12.5595],[78.2224,12.5579],[78.2236,12.5581],[78.2245,12.5571]]]}},{"type":"Feature","properties":{"name":"4C1C6a3c2","level":"micro-watershed","watershedCode":"4C1C6","subCatchmentCode":"4C1C","areaKm2InDistrict":10.5,"shedId":"SBP17"},"geometry":{"type":"Polygon","coordinates":[[[78.2368,12.5581],[78.2394,12.556],[78.2403,12.557],[78.2413,12.5569],[78.242,12.5559],[78.2421,12.5525],[78.2463,12.5494],[78.2523,12.5494],[78.2545,12.5503],[78.2566,12.5503],[78.2552,12.5444],[78.2554,12.5397],[78.2537,12.5365],[78.2562,12.5346],[78.2572,12.531],[78.257,12.523],[78.2506,12.5236],[78.2433,12.5232],[78.238,12.5208],[78.2343,12.5204],[78.2316,12.5191],[78.2261,12.5186],[78.2263,12.521],[78.2277,12.5236],[78.2325,12.5283],[78.2332,12.5297],[78.2336,12.5338],[78.2334,12.5357],[78.2271,12.5423],[78.2266,12.5506],[78.2238,12.5579],[78.2309,12.5588],[78.2345,12.5585],[78.2356,12.5576],[78.2368,12.5581]]]}},{"type":"Feature","properties":{"name":"4C1C6a3c3","level":"micro-watershed","watershedCode":"4C1C6","subCatchmentCode":"4C1C","areaKm2InDistrict":3.8,"shedId":"SBP17"},"geometry":{"type":"Polygon","coordinates":[[[78.2602,12.5493],[78.2566,12.5503],[78.2545,12.5503],[78.2523,12.5494],[78.2463,12.5494],[78.2421,12.5525],[78.242,12.5559],[78.2413,12.5569],[78.2403,12.557],[78.2394,12.556],[78.2368,12.5581],[78.2497,12.5693],[78.2511,12.5746],[78.2534,12.5763],[78.2557,12.5766],[78.2557,12.5659],[78.2567,12.5554],[78.261,12.5516],[78.2613,12.55],[78.2602,12.5493]]]}},{"type":"Feature","properties":{"name":"4C1C6a3c4","level":"micro-watershed","watershedCode":"4C1C6","subCatchmentCode":"4C1C","areaKm2InDistrict":5.5,"shedId":"SBP17"},"geometry":{"type":"Polygon","coordinates":[[[78.2549,12.596],[78.2564,12.5859],[78.2557,12.5838],[78.2557,12.5766],[78.2534,12.5763],[78.2511,12.5746],[78.2497,12.5693],[78.2471,12.5666],[78.2367,12.558],[78.2354,12.5583],[78.2349,12.566],[78.2359,12.5688],[78.2353,12.5718],[78.2368,12.574],[78.2372,12.576],[78.2417,12.58],[78.2411,12.5836],[78.242,12.587],[78.2448,12.5893],[78.2437,12.5931],[78.2447,12.5963],[78.2467,12.5958],[78.2512,12.5967],[78.2549,12.596]]]}},{"type":"Feature","properties":{"name":"4C1C6a3c5a","level":"micro-watershed","watershedCode":"4C1C6","subCatchmentCode":"4C1C","areaKm2InDistrict":4.4,"shedId":"SBP17"},"geometry":{"type":"Polygon","coordinates":[[[78.2645,12.6116],[78.2574,12.6026],[78.2549,12.596],[78.2512,12.5967],[78.2467,12.5958],[78.2447,12.5963],[78.2463,12.5994],[78.2461,12.6005],[78.245,12.601],[78.2439,12.6028],[78.2449,12.605],[78.2458,12.6112],[78.2484,12.6161],[78.2463,12.6201],[78.246,12.6216],[78.2467,12.6222],[78.2484,12.6231],[78.2502,12.6231],[78.2527,12.6224],[78.2565,12.6226],[78.2596,12.6213],[78.2603,12.6201],[78.2602,12.6172],[78.2614,12.6158],[78.2609,12.614],[78.2645,12.6116]]]}},{"type":"Feature","properties":{"name":"4C1C6a3c5b","level":"micro-watershed","watershedCode":"4C1C6","subCatchmentCode":"4C1C","areaKm2InDistrict":5.8,"shedId":"SBP17"},"geometry":{"type":"Polygon","coordinates":[[[78.2757,12.6235],[78.2717,12.6239],[78.2723,12.6209],[78.2717,12.6203],[78.2644,12.6202],[78.2642,12.6183],[78.2651,12.6155],[78.2645,12.6116],[78.2609,12.614],[78.2614,12.6158],[78.2602,12.6172],[78.2603,12.6201],[78.2596,12.6213],[78.2565,12.6226],[78.2527,12.6224],[78.2502,12.6231],[78.2484,12.6231],[78.2467,12.6222],[78.2463,12.6234],[78.2487,12.6282],[78.2508,12.6291],[78.2526,12.632],[78.2554,12.632],[78.2559,12.6358],[78.2621,12.6446],[78.267,12.6468],[78.2707,12.6475],[78.2683,12.6429],[78.2674,12.6371],[78.2743,12.6357],[78.276,12.6328],[78.2771,12.6296],[78.277,12.6267],[78.2757,12.6235]]]}},{"type":"Feature","properties":{"name":"4C1C6a3c5c","level":"micro-watershed","watershedCode":"4C1C6","subCatchmentCode":"4C1C","areaKm2InDistrict":5.7,"shedId":"SBP17"},"geometry":{"type":"Polygon","coordinates":[[[78.2642,12.6706],[78.2652,12.6681],[78.2641,12.6669],[78.2622,12.6622],[78.2613,12.6548],[78.26,12.6547],[78.254,12.6499],[78.2527,12.6494],[78.2469,12.6501],[78.2395,12.6537],[78.2368,12.6594],[78.2382,12.6641],[78.2371,12.6685],[78.238,12.6713],[78.2427,12.6712],[78.2463,12.6701],[78.247,12.6716],[78.2498,12.6734],[78.2518,12.6737],[78.2544,12.6718],[78.2546,12.6705],[78.257,12.6672],[78.2614,12.6698],[78.2642,12.6706]]]}},{"type":"Feature","properties":{"name":"4C1C6a3c5e","level":"micro-watershed","watershedCode":"4C1C6","subCatchmentCode":"4C1C","areaKm2InDistrict":10.2,"shedId":"SBP17"},"geometry":{"type":"Polygon","coordinates":[[[78.2446,12.7063],[78.2458,12.7055],[78.2488,12.7054],[78.2528,12.7062],[78.2601,12.7047],[78.2597,12.6973],[78.2608,12.6959],[78.263,12.6878],[78.2652,12.6833],[78.265,12.6768],[78.2642,12.6755],[78.2642,12.6706],[78.2614,12.6698],[78.2579,12.6674],[78.257,12.6672],[78.2559,12.6683],[78.2544,12.6718],[78.2518,12.6737],[78.2498,12.6734],[78.247,12.6716],[78.2463,12.6701],[78.2427,12.6712],[78.2377,12.6711],[78.2375,12.6824],[78.238,12.684],[78.238,12.6953],[78.2387,12.6991],[78.2401,12.7027],[78.2421,12.7031],[78.2446,12.7063]]]}},{"type":"Feature","properties":{"name":"4C1C6a3c6a","level":"micro-watershed","watershedCode":"4C1C6","subCatchmentCode":"4C1C","areaKm2InDistrict":6.3,"shedId":"SBP17"},"geometry":{"type":"Polygon","coordinates":[[[78.2361,12.6604],[78.2395,12.6537],[78.2414,12.6526],[78.2469,12.6501],[78.2527,12.6494],[78.26,12.6547],[78.2613,12.6548],[78.2686,12.6507],[78.2708,12.6475],[78.267,12.6468],[78.2621,12.6446],[78.2559,12.6358],[78.2554,12.632],[78.2526,12.632],[78.2508,12.6291],[78.2487,12.6282],[78.2463,12.6234],[78.2432,12.6289],[78.2422,12.6356],[78.24,12.6418],[78.2314,12.6581],[78.2324,12.6594],[78.2328,12.6614],[78.2337,12.6616],[78.2361,12.6604]]]}},{"type":"Feature","properties":{"name":"4C1C6a3c6b","level":"micro-watershed","watershedCode":"4C1C6","subCatchmentCode":"4C1C","areaKm2InDistrict":10.4,"shedId":"SBP17"},"geometry":{"type":"Polygon","coordinates":[[[78.2314,12.6582],[78.2413,12.6387],[78.2432,12.6289],[78.2465,12.6231],[78.2467,12.6222],[78.246,12.6214],[78.237,12.6221],[78.2271,12.6192],[78.2272,12.6213],[78.2249,12.6241],[78.2179,12.6242],[78.2163,12.6265],[78.2166,12.6296],[78.2138,12.6344],[78.2172,12.639],[78.2129,12.642],[78.2132,12.6448],[78.2127,12.647],[78.21,12.6499],[78.2056,12.6524],[78.2075,12.653],[78.2085,12.6527],[78.2112,12.6542],[78.2147,12.6541],[78.2168,12.655],[78.2203,12.6529],[78.2238,12.6527],[78.2282,12.6573],[78.2286,12.6585],[78.23,12.6588],[78.2314,12.6582]]]}},{"type":"Feature","properties":{"name":"4C1C6a3c6c","level":"micro-watershed","watershedCode":"4C1C6","subCatchmentCode":"4C1C","areaKm2InDistrict":6.5,"shedId":"SBP17"},"geometry":{"type":"Polygon","coordinates":[[[78.2461,12.6211],[78.247,12.6181],[78.2484,12.6161],[78.2458,12.6112],[78.2449,12.605],[78.244,12.6031],[78.2429,12.6041],[78.2417,12.6037],[78.2396,12.6001],[78.2392,12.5976],[78.2376,12.5953],[78.237,12.5937],[78.2386,12.5909],[78.2385,12.5899],[78.2342,12.5883],[78.2315,12.588],[78.2258,12.5892],[78.225,12.5898],[78.2274,12.5923],[78.2289,12.5952],[78.2256,12.6036],[78.2264,12.6065],[78.225,12.6085],[78.2225,12.6098],[78.2254,12.6158],[78.2278,12.6184],[78.2271,12.6192],[78.237,12.6221],[78.2432,12.622],[78.2461,12.6211]]]}},{"type":"Feature","properties":{"name":"4C1C6a3c8a","level":"micro-watershed","watershedCode":"4C1C6","subCatchmentCode":"4C1C","areaKm2InDistrict":6.6,"shedId":"SBP17"},"geometry":{"type":"Polygon","coordinates":[[[78.2278,12.6184],[78.2254,12.6158],[78.2225,12.6098],[78.225,12.6085],[78.2264,12.6065],[78.2256,12.6036],[78.2289,12.5952],[78.2285,12.594],[78.2212,12.5916],[78.2178,12.5924],[78.2129,12.595],[78.2127,12.5945],[78.21,12.5968],[78.2073,12.5964],[78.2064,12.5989],[78.202,12.6029],[78.2048,12.6091],[78.21,12.6137],[78.2132,12.619],[78.2179,12.6242],[78.2256,12.6237],[78.2272,12.6213],[78.2271,12.6192],[78.2278,12.6184]]]}},{"type":"Feature","properties":{"name":"4C1C6a3c8b","level":"micro-watershed","watershedCode":"4C1C6","subCatchmentCode":"4C1C","areaKm2InDistrict":5.4,"shedId":"SBP17"},"geometry":{"type":"Polygon","coordinates":[[[78.2429,12.6041],[78.245,12.601],[78.2461,12.6005],[78.2463,12.5994],[78.2437,12.5931],[78.2448,12.5893],[78.242,12.587],[78.2411,12.5836],[78.2417,12.58],[78.2372,12.576],[78.2368,12.574],[78.2355,12.5721],[78.2306,12.5767],[78.2253,12.5804],[78.2222,12.5816],[78.2111,12.5809],[78.2111,12.5859],[78.2121,12.5882],[78.2129,12.595],[78.2178,12.5924],[78.2212,12.5916],[78.2285,12.594],[78.225,12.5898],[78.2315,12.588],[78.2342,12.5883],[78.2385,12.5899],[78.2386,12.5909],[78.237,12.5937],[78.2392,12.5976],[78.2396,12.6001],[78.2417,12.6037],[78.2429,12.6041]]]}},{"type":"Feature","properties":{"name":"4C1C6a3c8c","level":"micro-watershed","watershedCode":"4C1C6","subCatchmentCode":"4C1C","areaKm2InDistrict":4.7,"shedId":"SBP17"},"geometry":{"type":"Polygon","coordinates":[[[78.2353,12.5718],[78.2359,12.5688],[78.2349,12.566],[78.2354,12.5583],[78.2244,12.5621],[78.216,12.5665],[78.2087,12.5738],[78.2115,12.5783],[78.211,12.5792],[78.2113,12.5809],[78.2222,12.5816],[78.2253,12.5804],[78.2306,12.5767],[78.2353,12.5718]]]}}]}