{"nvdm":"1.0","dataset":"basins/micro-watersheds","scope":{"kind":"basin","id":"krishnagiri-rivers"},"provenance":{"sources":[{"id":"tngis-open-geoserver","title":"TNGIS open GeoServer (WFS): district, taluk, block and village panchayat boundaries, TN WRD sub-basins and reservoirs, micro-watershed atlas, all-water-bodies and all-tanks registers, mine leases, industry register matched to land parcels","publisher":"Tamil Nadu e-Governance Agency (TNGIS)","license":"Tamil Nadu government data on an open GeoServer (WFS, no login); published with TNGIS's permission and with attribution.","role":"input","url":"https://tngis.tn.gov.in/tngismaps/ows"}],"method":"derived","produced_at":"2026-09-18","produced_by":"scripts/build_krishnagiri_rivers_basin.py","internal_inputs":["public/data/basins/krishnagiri-rivers/sub-hydrosheds.geojson"],"note":"Krishnagiri district's rivers, groundwater and industry (scope krishnagiri-rivers; the district's own scope id is tn-krishnagiri). The district boundary is the frame and TN WRD's sub-basins, clipped to it, are the catchments (shedId): the Thenpennai's to the east, the Cauvery's Chinnar and Dodda Halla to the south-west. The industry register holds only units TNGIS matched to a land parcel, so every count is a lower bound; sector comes from the reviewed TNPCB type-code lookup pipeline-inputs/basins/krishnagiri-rivers/tnpcb-type-sectors.json."},"type":"FeatureCollection","features":[{"type":"Feature","properties":{"name":"4C1C6a1a","level":"micro-watershed","watershedCode":"4C1C6","subCatchmentCode":"4C1C","areaKm2InDistrict":4.1,"shedId":"SBP16"},"geometry":{"type":"Polygon","coordinates":[[[78.1214,12.5884],[78.1248,12.5847],[78.1324,12.5799],[78.135,12.5763],[78.1343,12.575],[78.1293,12.5761],[78.1275,12.5776],[78.1204,12.5782],[78.12,12.5777],[78.1153,12.5775],[78.1123,12.5783],[78.1115,12.5834],[78.1104,12.586],[78.1049,12.5934],[78.1024,12.5954],[78.1017,12.5975],[78.1022,12.5997],[78.1051,12.6022],[78.1075,12.602],[78.1084,12.6014],[78.11,12.5971],[78.1147,12.5971],[78.1188,12.5946],[78.1214,12.5884]]]}},{"type":"Feature","properties":{"name":"4C1C6a1b1","level":"micro-watershed","watershedCode":"4C1C6","subCatchmentCode":"4C1C","areaKm2InDistrict":9.3,"shedId":"SBP16"},"geometry":{"type":"Polygon","coordinates":[[[78.1842,12.5555],[78.1841,12.5313],[78.1817,12.5279],[78.182,12.5264],[78.1808,12.526],[78.1808,12.5252],[78.1747,12.5252],[78.1726,12.528],[78.1642,12.5324],[78.1612,12.533],[78.1597,12.5318],[78.1581,12.5403],[78.1585,12.544],[78.157,12.5536],[78.1575,12.5596],[78.1562,12.5627],[78.1562,12.5653],[78.1662,12.561],[78.1773,12.5541],[78.1786,12.5545],[78.1801,12.5562],[78.1814,12.5553],[78.1826,12.5553],[78.1831,12.5562],[78.1842,12.5555]]]}},{"type":"Feature","properties":{"name":"4C1C6a1b2","level":"micro-watershed","watershedCode":"4C1C6","subCatchmentCode":"4C1C","areaKm2InDistrict":6.7,"shedId":"SBP16"},"geometry":{"type":"Polygon","coordinates":[[[78.1798,12.577],[78.1798,12.5669],[78.1839,12.5582],[78.1842,12.5556],[78.1831,12.5562],[78.1826,12.5553],[78.1814,12.5553],[78.1801,12.5562],[78.1786,12.5545],[78.1773,12.5541],[78.1662,12.561],[78.1562,12.5652],[78.1513,12.5786],[78.1511,12.5806],[78.1555,12.582],[78.1638,12.5826],[78.168,12.5813],[78.172,12.5779],[78.1748,12.5769],[78.1798,12.577]]]}},{"type":"Feature","properties":{"name":"4C1C6a1b3","level":"micro-watershed","watershedCode":"4C1C6","subCatchmentCode":"4C1C","areaKm2InDistrict":13.8,"shedId":"SBP16"},"geometry":{"type":"Polygon","coordinates":[[[78.1717,12.6175],[78.1722,12.6126],[78.1765,12.6125],[78.1776,12.6088],[78.1786,12.6039],[78.1776,12.603],[78.1775,12.6017],[78.1787,12.5943],[78.1784,12.5887],[78.1798,12.5843],[78.18,12.5769],[78.1748,12.5769],[78.172,12.5779],[78.168,12.5813],[78.1638,12.5826],[78.1555,12.582],[78.1521,12.5809],[78.1521,12.5818],[78.151,12.5826],[78.1506,12.5839],[78.1507,12.5887],[78.1487,12.5907],[78.1482,12.5931],[78.1486,12.5945],[78.1475,12.5967],[78.1479,12.5976],[78.1462,12.6039],[78.145,12.6121],[78.1452,12.6217],[78.1496,12.6237],[78.1501,12.6255],[78.1528,12.6199],[78.1541,12.6188],[78.1579,12.6189],[78.1584,12.6168],[78.1603,12.617],[78.1619,12.6157],[78.1702,12.6187],[78.1717,12.6175]]]}},{"type":"Feature","properties":{"name":"4C1C6a1b4a","level":"micro-watershed","watershedCode":"4C1C6","subCatchmentCode":"4C1C","areaKm2InDistrict":7.3,"shedId":"SBP16"},"geometry":{"type":"Polygon","coordinates":[[[78.204,12.5603],[78.2048,12.5555],[78.2043,12.5533],[78.2029,12.5527],[78.2019,12.5501],[78.2016,12.5423],[78.2022,12.5392],[78.2008,12.5357],[78.1978,12.5352],[78.1935,12.5361],[78.1908,12.5326],[78.1858,12.5308],[78.1841,12.5313],[78.1842,12.5556],[78.1839,12.5582],[78.1822,12.5619],[78.1823,12.5639],[78.1839,12.5655],[78.1858,12.5646],[78.1891,12.566],[78.1906,12.5653],[78.1944,12.5654],[78.1995,12.5689],[78.2017,12.566],[78.204,12.5603]]]}},{"type":"Feature","properties":{"name":"4C1C6a1b4b","level":"micro-watershed","watershedCode":"4C1C6","subCatchmentCode":"4C1C","areaKm2InDistrict":5.5,"shedId":"SBP16"},"geometry":{"type":"Polygon","coordinates":[[[78.1781,12.6033],[78.1803,12.6006],[78.1846,12.5997],[78.1893,12.5956],[78.1896,12.5944],[78.1872,12.5928],[78.1862,12.5911],[78.1857,12.5877],[78.192,12.5829],[78.1945,12.5827],[78.1925,12.5779],[78.194,12.5765],[78.1975,12.5761],[78.1991,12.574],[78.1993,12.5688],[78.1959,12.5663],[78.1944,12.5654],[78.1925,12.5653],[78.1891,12.566],[78.1858,12.5646],[78.1839,12.5655],[78.1823,12.5639],[78.1822,12.5619],[78.1798,12.5669],[78.1798,12.5843],[78.1784,12.5887],[78.1787,12.5943],[78.1776,12.603],[78.1781,12.6033]]]}},{"type":"Feature","properties":{"name":"4C1C6a2a1","level":"micro-watershed","watershedCode":"4C1C6","subCatchmentCode":"4C1C","areaKm2InDistrict":6.2,"shedId":"SBP16"},"geometry":{"type":"Polygon","coordinates":[[[78.1612,12.533],[78.164,12.5269],[78.1676,12.5214],[78.168,12.5197],[78.17,12.518],[78.172,12.5132],[78.1756,12.5082],[78.1745,12.5065],[78.1753,12.5034],[78.1745,12.5016],[78.1732,12.5022],[78.1727,12.5036],[78.1695,12.5053],[78.169,12.508],[78.1677,12.5083],[78.1658,12.5122],[78.1624,12.5135],[78.1591,12.513],[78.1555,12.5136],[78.1532,12.5156],[78.1503,12.5193],[78.149,12.5236],[78.1477,12.5254],[78.1458,12.5261],[78.142,12.5302],[78.1409,12.5329],[78.1409,12.5347],[78.1419,12.5357],[78.1581,12.5403],[78.1597,12.5318],[78.1612,12.533]]]}},{"type":"Feature","properties":{"name":"4C1C6a2a2","level":"micro-watershed","watershedCode":"4C1C6","subCatchmentCode":"4C1C","areaKm2InDistrict":4.1,"shedId":"SBP16"},"geometry":{"type":"Polygon","coordinates":[[[78.1575,12.5594],[78.157,12.5536],[78.1585,12.544],[78.1581,12.5403],[78.1419,12.5357],[78.1409,12.5347],[78.1414,12.5411],[78.1407,12.5441],[78.1383,12.5492],[78.1379,12.552],[78.1516,12.5574],[78.156,12.5598],[78.1575,12.5594]]]}},{"type":"Feature","properties":{"name":"4C1C6a2a3","level":"micro-watershed","watershedCode":"4C1C6","subCatchmentCode":"4C1C","areaKm2InDistrict":3.0,"shedId":"SBP16"},"geometry":{"type":"Polygon","coordinates":[[[78.1541,12.5682],[78.1575,12.5596],[78.156,12.5598],[78.1516,12.5574],[78.1379,12.552],[78.1395,12.5673],[78.1391,12.5717],[78.1421,12.5713],[78.1434,12.5727],[78.1528,12.5696],[78.1541,12.5682]]]}},{"type":"Feature","properties":{"name":"4C1C6a2a4","level":"micro-watershed","watershedCode":"4C1C6","subCatchmentCode":"4C1C","areaKm2InDistrict":4.3,"shedId":"SBP16"},"geometry":{"type":"Polygon","coordinates":[[[78.1521,12.5818],[78.1511,12.5806],[78.1513,12.5786],[78.1542,12.5717],[78.156,12.5644],[78.1528,12.5696],[78.1434,12.5727],[78.1421,12.5713],[78.1391,12.5717],[78.1376,12.5733],[78.1349,12.5794],[78.1351,12.5847],[78.1336,12.5865],[78.1334,12.5887],[78.1355,12.5892],[78.1413,12.5933],[78.1478,12.5966],[78.1486,12.5945],[78.1482,12.5931],[78.1487,12.5907],[78.1507,12.5887],[78.1506,12.5839],[78.151,12.5826],[78.1521,12.5818]]]}},{"type":"Feature","properties":{"name":"4C1C6a2b1","level":"micro-watershed","watershedCode":"4C1C6","subCatchmentCode":"4C1C","areaKm2InDistrict":13.9,"shedId":"SBP16"},"geometry":{"type":"Polygon","coordinates":[[[78.1762,12.4774],[78.178,12.4723],[78.1796,12.4729],[78.1824,12.4723],[78.1829,12.4707],[78.1821,12.4636],[78.1776,12.4598],[78.1746,12.4563],[78.1722,12.45],[78.1702,12.4479],[78.1702,12.4469],[78.1673,12.4423],[78.1665,12.4389],[78.1567,12.4345],[78.1463,12.434],[78.13795,12.43539],[78.13126,12.43876],[78.1348,12.4471],[78.1385,12.4497],[78.1354,12.4552],[78.1347,12.4576],[78.135,12.4573],[78.1362,12.4593],[78.1412,12.4708],[78.1491,12.4692],[78.1575,12.4629],[78.1598,12.4583],[78.1647,12.4551],[78.1655,12.4578],[78.1702,12.4619],[78.1725,12.4651],[78.1738,12.4675],[78.1732,12.4713],[78.1736,12.4727],[78.1754,12.477],[78.1762,12.4774]]]}},{"type":"Feature","properties":{"name":"4C1C6a2b2a","level":"micro-watershed","watershedCode":"4C1C6","subCatchmentCode":"4C1C","areaKm2InDistrict":8.9,"shedId":"SBP16"},"geometry":{"type":"Polygon","coordinates":[[[78.1762,12.4774],[78.1754,12.477],[78.1732,12.4713],[78.1738,12.4675],[78.1702,12.4619],[78.1655,12.4578],[78.1647,12.4551],[78.1598,12.4583],[78.1575,12.4629],[78.1491,12.4692],[78.1412,12.4708],[78.1429,12.4798],[78.1446,12.4824],[78.1491,12.4872],[78.1556,12.4921],[78.1556,12.4927],[78.1567,12.4914],[78.1628,12.4955],[78.1638,12.495],[78.1646,12.4908],[78.1658,12.4896],[78.1667,12.4872],[78.163,12.4874],[78.1619,12.4869],[78.1623,12.4859],[78.1664,12.4828],[78.1696,12.4825],[78.1687,12.4808],[78.1686,12.4794],[78.1693,12.4788],[78.1737,12.4776],[78.1753,12.4795],[78.1764,12.4786],[78.1762,12.4774]]]}},{"type":"Feature","properties":{"name":"4C1C6a2b2b","level":"micro-watershed","watershedCode":"4C1C6","subCatchmentCode":"4C1C","areaKm2InDistrict":21.3,"shedId":"SBP16"},"geometry":{"type":"Polygon","coordinates":[[[78.1808,12.526],[78.1837,12.5266],[78.1849,12.5254],[78.1866,12.5229],[78.1874,12.5192],[78.1906,12.5159],[78.1934,12.5111],[78.1986,12.5064],[78.2007,12.5059],[78.2011,12.504],[78.2003,12.5019],[78.2015,12.5012],[78.2027,12.5026],[78.2031,12.5047],[78.2045,12.5049],[78.2083,12.4997],[78.2084,12.4978],[78.2096,12.4957],[78.2094,12.4938],[78.2085,12.4931],[78.2062,12.4929],[78.2045,12.4898],[78.2036,12.4865],[78.2053,12.4863],[78.2043,12.4834],[78.2003,12.4819],[78.1951,12.4815],[78.1892,12.4786],[78.1853,12.4726],[78.1829,12.4707],[78.1824,12.4723],[78.1812,12.4727],[78.178,12.4723],[78.1774,12.4756],[78.1763,12.4773],[78.1764,12.4786],[78.1753,12.4795],[78.1737,12.4776],[78.1713,12.4785],[78.1702,12.4783],[78.1686,12.4794],[78.1696,12.4825],[78.1664,12.4828],[78.1623,12.4859],[78.1619,12.4869],[78.163,12.4874],[78.1667,12.4872],[78.1658,12.4896],[78.1646,12.4908],[78.1638,12.495],[78.1628,12.4955],[78.1567,12.4914],[78.1556,12.4927],[78.1575,12.4947],[78.1583,12.4948],[78.1594,12.4972],[78.1567,12.502],[78.1571,12.5038],[78.1552,12.5063],[78.1543,12.5097],[78.1527,12.5118],[78.1526,12.5132],[78.1513,12.514],[78.149,12.5184],[78.1478,12.5237],[78.147,12.5254],[78.146,12.526],[78.1477,12.5254],[78.149,12.5236],[78.1503,12.5193],[78.1555,12.5136],[78.1591,12.513],[78.1624,12.5135],[78.1658,12.5122],[78.1677,12.5083],[78.169,12.508],[78.1695,12.5053],[78.1727,12.5036],[78.1732,12.5022],[78.1745,12.5016],[78.1753,12.5034],[78.1745,12.5065],[78.1756,12.5082],[78.172,12.5132],[78.17,12.518],[78.168,12.5197],[78.1676,12.5214],[78.164,12.5269],[78.1612,12.533],[78.1642,12.5324],[78.1699,12.5296],[78.1726,12.528],[78.1747,12.5252],[78.1808,12.5252],[78.1808,12.526]]]}},{"type":"Feature","properties":{"name":"4C1C6a2b3a1a","level":"micro-watershed","watershedCode":"4C1C6","subCatchmentCode":"4C1C","areaKm2InDistrict":17.2,"shedId":"SBP16"},"geometry":{"type":"Polygon","coordinates":[[[78.1563,12.5027],[78.1594,12.4972],[78.159,12.4958],[78.1543,12.4909],[78.1491,12.4872],[78.1429,12.4798],[78.1412,12.4708],[78.135,12.4573],[78.1261,12.4646],[78.1245,12.4645],[78.1174,12.4611],[78.1161,12.4614],[78.1157,12.4605],[78.1146,12.4602],[78.1091,12.461],[78.1068,12.4622],[78.1048,12.4648],[78.1029,12.4708],[78.1062,12.4762],[78.1079,12.4857],[78.1096,12.4898],[78.1127,12.4935],[78.1154,12.4937],[78.1162,12.4945],[78.116,12.4962],[78.1254,12.496],[78.1344,12.4986],[78.1563,12.5027]]]}},{"type":"Feature","properties":{"name":"4C1C6a2b3a1b","level":"micro-watershed","watershedCode":"4C1C6","subCatchmentCode":"4C1C","areaKm2InDistrict":4.5,"shedId":"SBP16"},"geometry":{"type":"Polygon","coordinates":[[[78.1354,12.4552],[78.1385,12.4497],[78.1348,12.4471],[78.13126,12.43876],[78.1224,12.4429],[78.1199,12.4427],[78.1183,12.4433],[78.1168,12.4458],[78.1185,12.4502],[78.1181,12.4534],[78.116,12.4552],[78.11416,12.45556],[78.1161,12.4614],[78.1174,12.4611],[78.1245,12.4645],[78.1261,12.4646],[78.1347,12.4576],[78.1354,12.4552]]]}},{"type":"Feature","properties":{"name":"4C1C6a2b3a2","level":"micro-watershed","watershedCode":"4C1C6","subCatchmentCode":"4C1C","areaKm2InDistrict":8.7,"shedId":"SBP16"},"geometry":{"type":"Polygon","coordinates":[[[78.1476,12.5228],[78.1513,12.514],[78.1526,12.5132],[78.1527,12.5118],[78.1543,12.5097],[78.1552,12.5063],[78.1571,12.5038],[78.1567,12.502],[78.1563,12.5027],[78.1344,12.4986],[78.1254,12.496],[78.1158,12.4963],[78.1146,12.5015],[78.1149,12.5044],[78.1157,12.5066],[78.1215,12.5124],[78.1313,12.518],[78.1423,12.5226],[78.1466,12.5232],[78.1476,12.5228]]]}},{"type":"Feature","properties":{"name":"4C1C6a2b3b1","level":"micro-watershed","watershedCode":"4C1C6","subCatchmentCode":"4C1C","areaKm2InDistrict":7.2,"shedId":"SBP16"},"geometry":{"type":"Polygon","coordinates":[[[78.116,12.4962],[78.1162,12.4945],[78.1154,12.4937],[78.113,12.4938],[78.1096,12.4898],[78.1072,12.4835],[78.1062,12.4762],[78.1029,12.4708],[78.1017,12.4725],[78.0999,12.4727],[78.0978,12.4718],[78.0963,12.4724],[78.0896,12.4693],[78.0863,12.4688],[78.0836,12.4709],[78.0818,12.4711],[78.0786,12.4729],[78.0741,12.4732],[78.0726,12.472],[78.0725,12.4791],[78.0789,12.4872],[78.0798,12.4877],[78.0901,12.4846],[78.092,12.4849],[78.0949,12.4863],[78.1004,12.493],[78.1053,12.4957],[78.1073,12.4962],[78.116,12.4962]]]}},{"type":"Feature","properties":{"name":"4C1C6a2b3b2","level":"micro-watershed","watershedCode":"4C1C6","subCatchmentCode":"4C1C","areaKm2InDistrict":9.0,"shedId":"SBP16"},"geometry":{"type":"Polygon","coordinates":[[[78.1035,12.4697],[78.1048,12.4648],[78.1068,12.4622],[78.1108,12.4606],[78.1157,12.4605],[78.1157,12.4596],[78.11416,12.45556],[78.1107,12.456],[78.1092,12.4538],[78.1079,12.4531],[78.1065,12.4501],[78.1008,12.4476],[78.1003,12.4451],[78.0993,12.4442],[78.0906,12.4468],[78.0854,12.4473],[78.0817,12.4488],[78.0799,12.4517],[78.0798,12.4596],[78.0786,12.4624],[78.06878,12.46458],[78.0717,12.468],[78.0726,12.472],[78.0741,12.4732],[78.0786,12.4729],[78.0818,12.4711],[78.0836,12.4709],[78.0863,12.4688],[78.0896,12.4693],[78.0963,12.4724],[78.0978,12.4718],[78.0999,12.4727],[78.1017,12.4725],[78.1035,12.4697]]]}},{"type":"Feature","properties":{"name":"4C1C6a2b4a1","level":"micro-watershed","watershedCode":"4C1C6","subCatchmentCode":"4C1C","areaKm2InDistrict":10.3,"shedId":"SBP16"},"geometry":{"type":"Polygon","coordinates":[[[78.1423,12.5302],[78.147,12.5254],[78.1477,12.5224],[78.1466,12.5232],[78.1442,12.5231],[78.1349,12.5197],[78.1234,12.5136],[78.1186,12.5095],[78.1167,12.5121],[78.1148,12.512],[78.1115,12.5145],[78.1082,12.516],[78.1017,12.5288],[78.0982,12.5333],[78.0996,12.538],[78.0989,12.5414],[78.099,12.5457],[78.1003,12.5473],[78.1026,12.548],[78.102,12.5496],[78.1049,12.5484],[78.114,12.5417],[78.1195,12.534],[78.1261,12.5308],[78.1321,12.5299],[78.1423,12.5302]]]}},{"type":"Feature","properties":{"name":"4C1C6a2b4a2","level":"micro-watershed","watershedCode":"4C1C6","subCatchmentCode":"4C1C","areaKm2InDistrict":5.1,"shedId":"SBP16"},"geometry":{"type":"Polygon","coordinates":[[[78.1186,12.5095],[78.1157,12.5066],[78.1149,12.5044],[78.1147,12.5006],[78.116,12.4964],[78.1084,12.496],[78.1073,12.4983],[78.1075,12.5004],[78.104,12.5062],[78.0991,12.5084],[78.0952,12.511],[78.0935,12.5142],[78.0926,12.5188],[78.0936,12.525],[78.0982,12.5333],[78.1017,12.5288],[78.1082,12.516],[78.1115,12.5145],[78.1148,12.512],[78.1167,12.5121],[78.1186,12.5095]]]}},{"type":"Feature","properties":{"name":"4C1C6a2b4a3a","level":"micro-watershed","watershedCode":"4C1C6","subCatchmentCode":"4C1C","areaKm2InDistrict":3.6,"shedId":"SBP16"},"geometry":{"type":"Polygon","coordinates":[[[78.0942,12.5259],[78.0926,12.5188],[78.0941,12.5126],[78.0952,12.511],[78.0991,12.5084],[78.104,12.5062],[78.1075,12.5004],[78.1073,12.4983],[78.1063,12.4976],[78.105,12.498],[78.1038,12.4993],[78.0999,12.4986],[78.0989,12.499],[78.0973,12.5001],[78.0948,12.5036],[78.0923,12.5045],[78.0902,12.5069],[78.0854,12.5091],[78.0822,12.5129],[78.0817,12.5144],[78.0829,12.522],[78.0837,12.5236],[78.0831,12.5278],[78.0854,12.5251],[78.0884,12.5252],[78.0914,12.5266],[78.0942,12.5259]]]}},{"type":"Feature","properties":{"name":"4C1C6a2b4a3b1","level":"micro-watershed","watershedCode":"4C1C6","subCatchmentCode":"4C1C","areaKm2InDistrict":9.6,"shedId":"SBP16"},"geometry":{"type":"Polygon","coordinates":[[[78.0831,12.5278],[78.0837,12.5236],[78.0829,12.522],[78.0817,12.5144],[78.0839,12.5103],[78.0902,12.5069],[78.0923,12.5045],[78.0948,12.5036],[78.0973,12.5001],[78.0989,12.499],[78.0999,12.4986],[78.1038,12.4993],[78.105,12.498],[78.1063,12.4976],[78.1074,12.4984],[78.1084,12.496],[78.1053,12.4957],[78.1004,12.493],[78.0949,12.4863],[78.092,12.4849],[78.0901,12.4846],[78.0798,12.4877],[78.0789,12.4872],[78.0725,12.4791],[78.0724,12.4724],[78.0717,12.4748],[78.0693,12.4763],[78.0685,12.4782],[78.0688,12.4827],[78.0712,12.487],[78.0772,12.4904],[78.077,12.4933],[78.0755,12.4979],[78.0769,12.5059],[78.0764,12.5066],[78.075,12.5062],[78.0739,12.5068],[78.0696,12.5122],[78.0705,12.5226],[78.0735,12.5249],[78.0754,12.5244],[78.0777,12.5307],[78.0798,12.5318],[78.0815,12.531],[78.0831,12.5278]]]}},{"type":"Feature","properties":{"name":"4C1C6a2b4a3b2","level":"micro-watershed","watershedCode":"4C1C6","subCatchmentCode":"4C1C","areaKm2InDistrict":14.4,"shedId":"SBP16"},"geometry":{"type":"Polygon","coordinates":[[[78.0726,12.472],[78.0717,12.468],[78.06878,12.46458],[78.0591,12.4636],[78.0595,12.4662],[78.0531,12.4706],[78.04819,12.47573],[78.0377,12.4991],[78.0384,12.5],[78.0415,12.4994],[78.0417,12.4983],[78.0439,12.4971],[78.0462,12.4923],[78.048,12.4917],[78.052,12.4961],[78.0532,12.5034],[78.0543,12.5064],[78.0564,12.5092],[78.0565,12.5111],[78.0588,12.514],[78.0604,12.5184],[78.0705,12.5226],[78.0696,12.5122],[78.0739,12.5068],[78.075,12.5062],[78.0764,12.5066],[78.0769,12.5059],[78.0755,12.4979],[78.077,12.4933],[78.0772,12.4904],[78.0712,12.487],[78.0688,12.4827],[78.0685,12.4782],[78.0693,12.4763],[78.0717,12.4748],[78.0726,12.472]]]}},{"type":"Feature","properties":{"name":"4C1C6a3c7a","level":"micro-watershed","watershedCode":"4C1C6","subCatchmentCode":"4C1C","areaKm2InDistrict":6.7,"shedId":"SBP16"},"geometry":{"type":"Polygon","coordinates":[[[78.2161,12.6264],[78.2027,12.6231],[78.1985,12.6243],[78.1974,12.6256],[78.1892,12.6266],[78.1781,12.6227],[78.1759,12.6227],[78.1742,12.6236],[78.1745,12.631],[78.1786,12.6312],[78.1808,12.6333],[78.1829,12.6338],[78.1885,12.6377],[78.1913,12.6405],[78.1951,12.643],[78.1963,12.6421],[78.1998,12.6415],[78.2035,12.6395],[78.2046,12.6381],[78.2064,12.6378],[78.2081,12.6383],[78.2106,12.6414],[78.2132,12.6434],[78.2129,12.642],[78.2172,12.639],[78.2138,12.6344],[78.2166,12.6296],[78.2161,12.6264]]]}},{"type":"Feature","properties":{"name":"4C1C6a3c7b","level":"micro-watershed","watershedCode":"4C1C6","subCatchmentCode":"4C1C","areaKm2InDistrict":4.3,"shedId":"SBP16"},"geometry":{"type":"Polygon","coordinates":[[[78.1745,12.6312],[78.1741,12.6225],[78.1716,12.6177],[78.1702,12.6187],[78.1619,12.6157],[78.1603,12.617],[78.1584,12.6168],[78.1579,12.6189],[78.1541,12.6188],[78.1528,12.6199],[78.1501,12.6255],[78.1512,12.6284],[78.1477,12.6306],[78.1495,12.633],[78.1548,12.6339],[78.1609,12.6339],[78.1706,12.6324],[78.1745,12.6312]]]}},{"type":"Feature","properties":{"name":"4C1C6a3c7c","level":"micro-watershed","watershedCode":"4C1C6","subCatchmentCode":"4C1C","areaKm2InDistrict":9.8,"shedId":"SBP16"},"geometry":{"type":"Polygon","coordinates":[[[78.2163,12.6265],[78.2179,12.6242],[78.2132,12.619],[78.21,12.6137],[78.2048,12.6091],[78.2021,12.6029],[78.2006,12.6038],[78.1991,12.6037],[78.1968,12.6024],[78.1942,12.6007],[78.1893,12.5955],[78.188,12.5972],[78.1846,12.5997],[78.1803,12.6006],[78.1782,12.6032],[78.1786,12.6039],[78.1765,12.6125],[78.1722,12.6126],[78.172,12.6133],[78.1716,12.6177],[78.1742,12.6236],[78.1759,12.6227],[78.1781,12.6227],[78.1892,12.6266],[78.1974,12.6256],[78.1985,12.6243],[78.2027,12.6231],[78.2163,12.6265]]]}},{"type":"Feature","properties":{"name":"4C1C6a3c8d","level":"micro-watershed","watershedCode":"4C1C6","subCatchmentCode":"4C1C","areaKm2InDistrict":9.5,"shedId":"SBP16"},"geometry":{"type":"Polygon","coordinates":[[[78.2006,12.6038],[78.2064,12.5989],[78.2073,12.5964],[78.21,12.5968],[78.2127,12.5945],[78.2121,12.5882],[78.2111,12.5859],[78.2115,12.5837],[78.211,12.5792],[78.2115,12.5783],[78.2087,12.5738],[78.216,12.5665],[78.2244,12.5621],[78.2367,12.558],[78.2356,12.5576],[78.2345,12.5585],[78.2309,12.5588],[78.2224,12.5579],[78.2175,12.5595],[78.212,12.5595],[78.2036,12.5621],[78.2004,12.5681],[78.1993,12.5688],[78.1991,12.574],[78.1984,12.5754],[78.1975,12.5761],[78.194,12.5765],[78.1925,12.5779],[78.1945,12.5827],[78.192,12.5829],[78.1898,12.585],[78.1862,12.5869],[78.1857,12.5885],[78.1872,12.5928],[78.1896,12.5944],[78.189,12.5954],[78.1942,12.6007],[78.1968,12.6024],[78.1991,12.6037],[78.2006,12.6038]]]}},{"type":"Feature","properties":{"name":"4C1C6b1a1","level":"micro-watershed","watershedCode":"4C1C6","subCatchmentCode":"4C1C","areaKm2InDistrict":4.9,"shedId":"SBP16"},"geometry":{"type":"Polygon","coordinates":[[[78.1391,12.5717],[78.1395,12.5673],[78.1378,12.5523],[78.1226,12.5563],[78.1048,12.5567],[78.1059,12.5591],[78.1067,12.5586],[78.1101,12.5614],[78.1202,12.5668],[78.1261,12.5687],[78.1287,12.572],[78.132,12.574],[78.1343,12.575],[78.1376,12.5733],[78.1391,12.5717]]]}},{"type":"Feature","properties":{"name":"4C1C6b1a2a","level":"micro-watershed","watershedCode":"4C1C6","subCatchmentCode":"4C1C","areaKm2InDistrict":6.5,"shedId":"SBP16"},"geometry":{"type":"Polygon","coordinates":[[[78.1018,12.5983],[78.1026,12.595],[78.1049,12.5934],[78.1104,12.586],[78.1115,12.5834],[78.1123,12.5783],[78.1107,12.5782],[78.1082,12.5766],[78.1052,12.5769],[78.1003,12.5757],[78.0955,12.5764],[78.0951,12.578],[78.0922,12.5818],[78.0864,12.5865],[78.0839,12.5929],[78.0834,12.597],[78.0837,12.6017],[78.0855,12.6065],[78.0893,12.6068],[78.0944,12.6048],[78.0949,12.6034],[78.0975,12.6017],[78.099,12.5992],[78.1018,12.5983]]]}},{"type":"Feature","properties":{"name":"4C1C6b1a2b","level":"micro-watershed","watershedCode":"4C1C6","subCatchmentCode":"4C1C","areaKm2InDistrict":1.9,"shedId":"SBP16"},"geometry":{"type":"Polygon","coordinates":[[[78.0951,12.5763],[78.0925,12.5724],[78.0865,12.5719],[78.0835,12.571],[78.08,12.5712],[78.0827,12.5827],[78.0853,12.5897],[78.0864,12.5865],[78.0922,12.5818],[78.0939,12.5797],[78.0951,12.578],[78.0951,12.5763]]]}},{"type":"Feature","properties":{"name":"4C1C6b32d","level":"micro-watershed","watershedCode":"4C1C6","subCatchmentCode":"4C1C","areaKm2InDistrict":5.3,"shedId":"SBP16"},"geometry":{"type":"Polygon","coordinates":[[[77.9347,12.6728],[77.9343,12.6679],[77.9306,12.6688],[77.9273,12.6679],[77.9166,12.6616],[77.9147,12.6595],[77.9098,12.6515],[77.9018,12.646],[77.896,12.6489],[77.8953,12.6502],[77.8986,12.6543],[77.8986,12.6574],[77.9002,12.6597],[77.9103,12.6676],[77.9158,12.6698],[77.9198,12.6732],[77.9211,12.6747],[77.9225,12.6811],[77.932,12.6758],[77.9347,12.6728]]]}},{"type":"Feature","properties":{"name":"4C1C6b3a1","level":"micro-watershed","watershedCode":"4C1C6","subCatchmentCode":"4C1C","areaKm2InDistrict":5.9,"shedId":"SBP16"},"geometry":{"type":"Polygon","coordinates":[[[78.0418,12.601],[78.0416,12.5984],[78.0429,12.5963],[78.0455,12.5941],[78.0507,12.5806],[78.0576,12.5765],[78.074,12.5727],[78.0726,12.5687],[78.0684,12.5699],[78.0602,12.5695],[78.0578,12.5699],[78.0539,12.5717],[78.0494,12.5784],[78.0475,12.5787],[78.0427,12.5772],[78.0408,12.5811],[78.039,12.5823],[78.0358,12.5831],[78.0309,12.5874],[78.0236,12.5918],[78.0272,12.5946],[78.0283,12.5967],[78.0315,12.5983],[78.0341,12.602],[78.0354,12.6052],[78.0358,12.6086],[78.0353,12.6102],[78.039,12.6038],[78.0418,12.601]]]}},{"type":"Feature","properties":{"name":"4C1C6b3a2","level":"micro-watershed","watershedCode":"4C1C6","subCatchmentCode":"4C1C","areaKm2InDistrict":15.7,"shedId":"SBP16"},"geometry":{"type":"Polygon","coordinates":[[[78.0034,12.6177],[78.0097,12.6178],[78.0123,12.6192],[78.0166,12.6239],[78.0191,12.6238],[78.0248,12.6215],[78.0282,12.6172],[78.0316,12.6148],[78.0352,12.6105],[78.0358,12.6086],[78.0354,12.6052],[78.0341,12.602],[78.0315,12.5983],[78.0283,12.5967],[78.0272,12.5946],[78.0236,12.5918],[78.0194,12.5939],[78.0145,12.5974],[78.0066,12.5985],[77.9974,12.5985],[77.9899,12.5954],[77.9864,12.5986],[77.9866,12.6009],[77.9858,12.6019],[77.9806,12.6054],[77.9772,12.6067],[77.9716,12.6046],[77.9704,12.6108],[77.9761,12.6129],[77.98,12.6166],[77.9872,12.6213],[77.987,12.6246],[77.9879,12.6253],[77.9938,12.6254],[77.9973,12.6231],[77.998,12.6204],[77.9989,12.6193],[78.0034,12.6177]]]}},{"type":"Feature","properties":{"name":"4C1C6b3b1","level":"micro-watershed","watershedCode":"4C1C6","subCatchmentCode":"4C1C","areaKm2InDistrict":8.8,"shedId":"SBP16"},"geometry":{"type":"Polygon","coordinates":[[[78.0194,12.5939],[78.0309,12.5874],[78.0358,12.5831],[78.039,12.5823],[78.0408,12.5811],[78.0427,12.5772],[78.0393,12.5763],[78.032,12.5773],[78.0269,12.5819],[78.0252,12.5819],[78.0243,12.5767],[78.0233,12.5761],[78.0165,12.575],[78.0143,12.5731],[78.0107,12.5718],[78.0089,12.5723],[78.0076,12.5731],[78.0047,12.5772],[78.0014,12.5834],[77.9926,12.5874],[77.9919,12.5888],[77.9912,12.5942],[77.9899,12.5954],[77.9974,12.5985],[78.0066,12.5985],[78.0145,12.5974],[78.0194,12.5939]]]}},{"type":"Feature","properties":{"name":"4C1C6b3b2","level":"micro-watershed","watershedCode":"4C1C6","subCatchmentCode":"4C1C","areaKm2InDistrict":18.6,"shedId":"SBP16"},"geometry":{"type":"Polygon","coordinates":[[[78.0142,12.573],[78.0152,12.5697],[78.0205,12.5659],[78.0208,12.5644],[78.0183,12.554],[78.0183,12.5514],[78.0191,12.5461],[78.0208,12.5414],[78.029,12.5333],[78.0198,12.5272],[78.0059,12.5272],[78.0034,12.5287],[78.0021,12.5285],[78.0002,12.5249],[77.9954,12.5213],[77.9931,12.521],[77.9901,12.5255],[77.9878,12.5251],[77.9865,12.5269],[77.9846,12.5278],[77.9835,12.5273],[77.9809,12.5281],[77.9722,12.5319],[77.9664,12.5323],[77.9578,12.5371],[77.9553,12.5418],[77.9587,12.5418],[77.9652,12.5398],[77.9702,12.5408],[77.9712,12.5417],[77.9849,12.5446],[77.9901,12.5544],[77.9999,12.556],[78.0021,12.5571],[78.0048,12.5593],[78.0069,12.5625],[78.0095,12.5678],[78.0107,12.572],[78.0142,12.573]]]}},{"type":"Feature","properties":{"name":"4C1C6b3b3","level":"micro-watershed","watershedCode":"4C1C6","subCatchmentCode":"4C1C","areaKm2InDistrict":6.9,"shedId":"SBP16"},"geometry":{"type":"Polygon","coordinates":[[[78.0393,12.5763],[78.0484,12.5787],[78.0451,12.5729],[78.0396,12.5693],[78.036,12.5657],[78.0319,12.5638],[78.0302,12.5622],[78.0294,12.5603],[78.0279,12.5533],[78.0282,12.5498],[78.0274,12.5388],[78.0288,12.5333],[78.0208,12.5414],[78.0191,12.5461],[78.0183,12.5514],[78.0183,12.554],[78.0208,12.5644],[78.0205,12.5659],[78.0152,12.5697],[78.0142,12.573],[78.0165,12.575],[78.0243,12.5767],[78.0252,12.5819],[78.0269,12.5819],[78.032,12.5773],[78.0344,12.5767],[78.0393,12.5763]]]}},{"type":"Feature","properties":{"name":"4C1C6b3b4","level":"micro-watershed","watershedCode":"4C1C6","subCatchmentCode":"4C1C","areaKm2InDistrict":11.7,"shedId":"SBP16"},"geometry":{"type":"Polygon","coordinates":[[[78.072,12.5684],[78.0706,12.5667],[78.065,12.5641],[78.0639,12.5625],[78.0614,12.5611],[78.0569,12.5623],[78.0491,12.5604],[78.0479,12.5596],[78.0465,12.5528],[78.0467,12.5506],[78.0475,12.5448],[78.0493,12.5405],[78.0502,12.5353],[78.0456,12.5336],[78.0398,12.5282],[78.0373,12.5231],[78.037,12.5201],[78.0352,12.5254],[78.0325,12.5274],[78.029,12.5333],[78.0274,12.5388],[78.0282,12.5498],[78.0279,12.5533],[78.0302,12.5622],[78.0319,12.5638],[78.036,12.5657],[78.0396,12.5693],[78.0451,12.5729],[78.0484,12.5787],[78.0507,12.5771],[78.0539,12.5717],[78.0578,12.5699],[78.0602,12.5695],[78.0684,12.5699],[78.072,12.5684]]]}},{"type":"Feature","properties":{"name":"4C1C6b3b5a","level":"micro-watershed","watershedCode":"4C1C6","subCatchmentCode":"4C1C","areaKm2InDistrict":4.8,"shedId":"SBP16"},"geometry":{"type":"Polygon","coordinates":[[[78.0742,12.573],[78.0792,12.5714],[78.0796,12.5704],[78.0779,12.5646],[78.0788,12.5583],[78.0757,12.552],[78.0754,12.5535],[78.0742,12.5548],[78.0692,12.5572],[78.0616,12.5524],[78.0584,12.5483],[78.0569,12.5476],[78.0533,12.5464],[78.0514,12.5479],[78.0489,12.5486],[78.0472,12.5482],[78.0465,12.5528],[78.0479,12.5596],[78.0491,12.5604],[78.0569,12.5623],[78.0614,12.5611],[78.0639,12.5625],[78.065,12.5641],[78.0715,12.5674],[78.073,12.5695],[78.0742,12.573]]]}},{"type":"Feature","properties":{"name":"4C1C6b3b5b","level":"micro-watershed","watershedCode":"4C1C6","subCatchmentCode":"4C1C","areaKm2InDistrict":1.8,"shedId":"SBP16"},"geometry":{"type":"Polygon","coordinates":[[[78.0584,12.5483],[78.0628,12.544],[78.0637,12.5366],[78.0573,12.5376],[78.0502,12.5354],[78.0493,12.5405],[78.0475,12.5448],[78.0471,12.5482],[78.0489,12.5486],[78.0514,12.5479],[78.0533,12.5464],[78.0584,12.5483]]]}},{"type":"Feature","properties":{"name":"4C1C6b3b5c","level":"micro-watershed","watershedCode":"4C1C6","subCatchmentCode":"4C1C","areaKm2InDistrict":2.8,"shedId":"SBP16"},"geometry":{"type":"Polygon","coordinates":[[[78.0757,12.552],[78.0738,12.5493],[78.0729,12.5448],[78.0731,12.5391],[78.0713,12.5352],[78.07,12.534],[78.0637,12.5366],[78.0628,12.544],[78.0584,12.5483],[78.0604,12.5512],[78.0634,12.5538],[78.0692,12.5572],[78.0723,12.556],[78.0754,12.5535],[78.0757,12.552]]]}},{"type":"Feature","properties":{"name":"4C1C6b3b6a","level":"micro-watershed","watershedCode":"4C1C6","subCatchmentCode":"4C1C","areaKm2InDistrict":3.5,"shedId":"SBP16"},"geometry":{"type":"Polygon","coordinates":[[[78.1082,12.5766],[78.0987,12.5704],[78.0956,12.5664],[78.0934,12.5608],[78.0911,12.5599],[78.0885,12.5602],[78.0835,12.5551],[78.0768,12.555],[78.0788,12.5583],[78.0779,12.5646],[78.0793,12.5687],[78.0792,12.5714],[78.0822,12.5709],[78.0865,12.5719],[78.0916,12.5721],[78.0929,12.5729],[78.0946,12.576],[78.096,12.5765],[78.1003,12.5757],[78.1052,12.5769],[78.1082,12.5766]]]}},{"type":"Feature","properties":{"name":"4C1C6b3b6c","level":"micro-watershed","watershedCode":"4C1C6","subCatchmentCode":"4C1C","areaKm2InDistrict":7.4,"shedId":"SBP16"},"geometry":{"type":"Polygon","coordinates":[[[78.1052,12.561],[78.0908,12.5465],[78.0861,12.5348],[78.0824,12.5336],[78.0798,12.5318],[78.0714,12.5331],[78.07,12.534],[78.0727,12.5374],[78.0729,12.5448],[78.0738,12.5493],[78.0757,12.552],[78.0768,12.555],[78.0835,12.5551],[78.0885,12.5602],[78.0911,12.5599],[78.0934,12.5608],[78.0956,12.5664],[78.0987,12.5704],[78.1086,12.577],[78.1095,12.5738],[78.1091,12.5697],[78.1052,12.561]]]}},{"type":"Feature","properties":{"name":"4C1C6b3b6d","level":"micro-watershed","watershedCode":"4C1C6","subCatchmentCode":"4C1C","areaKm2InDistrict":4.1,"shedId":"SBP16"},"geometry":{"type":"Polygon","coordinates":[[[78.1059,12.5591],[78.1039,12.5551],[78.1032,12.5516],[78.1015,12.5507],[78.1026,12.548],[78.1003,12.5473],[78.099,12.5457],[78.0993,12.5367],[78.0982,12.5333],[78.0942,12.5259],[78.0914,12.5266],[78.0884,12.5252],[78.0854,12.5251],[78.0828,12.5282],[78.0815,12.531],[78.0798,12.5318],[78.0824,12.5336],[78.0861,12.5348],[78.0908,12.5465],[78.0954,12.5517],[78.1052,12.561],[78.1059,12.5591]]]}},{"type":"Feature","properties":{"name":"4C1C6b3b6e","level":"micro-watershed","watershedCode":"4C1C6","subCatchmentCode":"4C1C","areaKm2InDistrict":11.7,"shedId":"SBP16"},"geometry":{"type":"MultiPolygon","coordinates":[[[[78.1048,12.5567],[78.1226,12.5563],[78.1378,12.5525],[78.1383,12.5492],[78.1407,12.5441],[78.1414,12.5411],[78.1409,12.5329],[78.142,12.5302],[78.1321,12.5299],[78.1261,12.5308],[78.1195,12.534],[78.114,12.5417],[78.1049,12.5484],[78.102,12.5496],[78.1015,12.5507],[78.1032,12.5516],[78.1048,12.5567]]],[[[78.1153,12.5775],[78.1204,12.5782],[78.1275,12.5776],[78.1293,12.5761],[78.1343,12.575],[78.1287,12.572],[78.1261,12.5687],[78.1202,12.5668],[78.1101,12.5614],[78.1067,12.5586],[78.1059,12.5591],[78.1052,12.561],[78.1091,12.5697],[78.1095,12.5738],[78.1086,12.577],[78.1107,12.5782],[78.1153,12.5775]]]]}},{"type":"Feature","properties":{"name":"4C1C6b3c1","level":"micro-watershed","watershedCode":"4C1C6","subCatchmentCode":"4C1C","areaKm2InDistrict":7.4,"shedId":"SBP16"},"geometry":{"type":"Polygon","coordinates":[[[77.9651,12.6268],[77.9672,12.6246],[77.9684,12.621],[77.9715,12.6178],[77.9697,12.6126],[77.9716,12.6046],[77.9772,12.6067],[77.9806,12.6054],[77.9858,12.6019],[77.9866,12.6009],[77.9864,12.5986],[77.9912,12.5942],[77.9919,12.5888],[77.9927,12.5873],[77.9865,12.5836],[77.9857,12.5817],[77.979,12.5832],[77.9766,12.5893],[77.9744,12.5904],[77.9722,12.5938],[77.9697,12.5954],[77.9598,12.5991],[77.9571,12.6012],[77.9573,12.6039],[77.9632,12.6186],[77.9651,12.6248],[77.9651,12.6268]]]}},{"type":"Feature","properties":{"name":"4C1C6b3c2","level":"micro-watershed","watershedCode":"4C1C6","subCatchmentCode":"4C1C","areaKm2InDistrict":4.7,"shedId":"SBP16"},"geometry":{"type":"Polygon","coordinates":[[[77.9692,12.6419],[77.9743,12.6414],[77.9753,12.637],[77.9817,12.6295],[77.9834,12.6288],[77.986,12.6222],[77.9872,12.6213],[77.98,12.6166],[77.9761,12.6129],[77.9704,12.6108],[77.9697,12.6126],[77.9715,12.6178],[77.9684,12.621],[77.9672,12.6246],[77.9652,12.6267],[77.9647,12.6323],[77.9677,12.6406],[77.9692,12.6419]]]}},{"type":"Feature","properties":{"name":"4C1C6b3c3a","level":"micro-watershed","watershedCode":"4C1C6","subCatchmentCode":"4C1C","areaKm2InDistrict":1.7,"shedId":"SBP16"},"geometry":{"type":"Polygon","coordinates":[[[77.9717,12.642],[77.9692,12.6419],[77.9677,12.6406],[77.9654,12.6347],[77.9646,12.6293],[77.9652,12.6267],[77.9591,12.6331],[77.9588,12.6345],[77.96,12.6377],[77.9594,12.6382],[77.955,12.6384],[77.9537,12.6394],[77.9576,12.6429],[77.9638,12.647],[77.9656,12.6465],[77.9716,12.6428],[77.9717,12.642]]]}},{"type":"Feature","properties":{"name":"4C1C6b3c3b","level":"micro-watershed","watershedCode":"4C1C6","subCatchmentCode":"4C1C","areaKm2InDistrict":3.4,"shedId":"SBP16"},"geometry":{"type":"Polygon","coordinates":[[[77.9611,12.6624],[77.9619,12.6612],[77.9615,12.6578],[77.9636,12.6469],[77.9576,12.6429],[77.9537,12.6394],[77.9528,12.6405],[77.9518,12.6441],[77.9528,12.6522],[77.95,12.6548],[77.9494,12.6564],[77.9434,12.6614],[77.9437,12.6625],[77.9467,12.669],[77.9483,12.6697],[77.951,12.6645],[77.9525,12.6635],[77.9611,12.6624]]]}},{"type":"Feature","properties":{"name":"4C1C6b3c3c","level":"micro-watershed","watershedCode":"4C1C6","subCatchmentCode":"4C1C","areaKm2InDistrict":11.5,"shedId":"SBP16"},"geometry":{"type":"Polygon","coordinates":[[[77.9434,12.6615],[77.9494,12.6564],[77.95,12.6548],[77.9528,12.6522],[77.9518,12.6441],[77.9528,12.6405],[77.955,12.6384],[77.9594,12.6382],[77.96,12.6377],[77.9588,12.6345],[77.9591,12.6331],[77.9651,12.6265],[77.9583,12.6263],[77.9558,12.6274],[77.9532,12.6254],[77.9487,12.6233],[77.9411,12.623],[77.9375,12.6248],[77.9358,12.6242],[77.9354,12.6258],[77.9337,12.6266],[77.932,12.6251],[77.9301,12.6253],[77.927,12.6285],[77.9251,12.6331],[77.9227,12.6351],[77.9217,12.6368],[77.9218,12.6379],[77.9242,12.6428],[77.9234,12.6444],[77.925,12.6466],[77.9286,12.6502],[77.9426,12.6611],[77.9434,12.6615]]]}},{"type":"Feature","properties":{"name":"4C1C6b3c4a1","level":"micro-watershed","watershedCode":"4C1C6","subCatchmentCode":"4C1C","areaKm2InDistrict":6.9,"shedId":"SBP16"},"geometry":{"type":"Polygon","coordinates":[[[77.9651,12.6248],[77.9584,12.606],[77.9542,12.6141],[77.9506,12.6127],[77.9493,12.6102],[77.9435,12.6073],[77.9313,12.6085],[77.9246,12.6085],[77.92,12.6096],[77.9226,12.6177],[77.9252,12.619],[77.9302,12.6192],[77.9334,12.6207],[77.9361,12.6245],[77.9375,12.6248],[77.9411,12.623],[77.9487,12.6233],[77.9532,12.6254],[77.9558,12.6274],[77.9583,12.6263],[77.9651,12.6265],[77.9651,12.6248]]]}},{"type":"Feature","properties":{"name":"4C1C6b3c4a2","level":"micro-watershed","watershedCode":"4C1C6","subCatchmentCode":"4C1C","areaKm2InDistrict":3.0,"shedId":"SBP16"},"geometry":{"type":"Polygon","coordinates":[[[77.9198,12.6097],[77.9246,12.6085],[77.9313,12.6085],[77.9435,12.6073],[77.9386,12.6057],[77.929,12.5998],[77.9175,12.597],[77.9161,12.5952],[77.9129,12.5951],[77.9113,12.5961],[77.9096,12.598],[77.908,12.6017],[77.9092,12.6027],[77.9139,12.6043],[77.9187,12.6091],[77.9198,12.6097]]]}},{"type":"Feature","properties":{"name":"4C1C6b3c4a3","level":"micro-watershed","watershedCode":"4C1C6","subCatchmentCode":"4C1C","areaKm2InDistrict":9.5,"shedId":"SBP16"},"geometry":{"type":"Polygon","coordinates":[[[77.9584,12.606],[77.9566,12.6013],[77.955,12.6013],[77.9524,12.6027],[77.9507,12.6026],[77.9493,12.6017],[77.9478,12.6019],[77.9467,12.6011],[77.9459,12.5982],[77.9472,12.5927],[77.9467,12.5914],[77.9444,12.5898],[77.9419,12.5868],[77.9388,12.5878],[77.9347,12.588],[77.9334,12.5908],[77.9323,12.5904],[77.9298,12.5862],[77.926,12.5849],[77.9249,12.5837],[77.9236,12.578],[77.9196,12.5749],[77.9184,12.5723],[77.917,12.5732],[77.9159,12.5766],[77.915,12.5775],[77.9123,12.5779],[77.9123,12.581],[77.9108,12.5846],[77.9076,12.5884],[77.9071,12.5899],[77.9073,12.5931],[77.9067,12.5936],[77.9053,12.5932],[77.9043,12.5944],[77.9039,12.5974],[77.9067,12.6024],[77.9077,12.6024],[77.9096,12.598],[77.9113,12.5961],[77.9129,12.5951],[77.9161,12.5952],[77.9175,12.597],[77.929,12.5998],[77.9386,12.6057],[77.9446,12.6075],[77.9493,12.6102],[77.9506,12.6127],[77.9542,12.6141],[77.9584,12.606]]]}},{"type":"Feature","properties":{"name":"4C1C6b3c4b1","level":"micro-watershed","watershedCode":"4C1C6","subCatchmentCode":"4C1C","areaKm2InDistrict":2.5,"shedId":"SBP16"},"geometry":{"type":"Polygon","coordinates":[[[77.9226,12.6452],[77.9242,12.6428],[77.9217,12.6368],[77.9227,12.6351],[77.9251,12.6331],[77.9283,12.6267],[77.9301,12.6253],[77.932,12.6251],[77.9337,12.6266],[77.9354,12.6258],[77.9358,12.6242],[77.9347,12.6225],[77.9315,12.6231],[77.9298,12.6246],[77.9289,12.624],[77.9287,12.6228],[77.9265,12.6235],[77.9248,12.6228],[77.9216,12.6233],[77.9155,12.6288],[77.9154,12.635],[77.914,12.6393],[77.9157,12.6416],[77.92,12.6453],[77.9226,12.6452]]]}},{"type":"Feature","properties":{"name":"4C1C6b3c4b2","level":"micro-watershed","watershedCode":"4C1C6","subCatchmentCode":"4C1C","areaKm2InDistrict":4.7,"shedId":"SBP16"},"geometry":{"type":"Polygon","coordinates":[[[77.914,12.6393],[77.9157,12.6321],[77.9155,12.6288],[77.9077,12.631],[77.8972,12.6292],[77.8885,12.6319],[77.8814,12.6301],[77.8786,12.6287],[77.8787,12.6301],[77.8814,12.6343],[77.8832,12.6387],[77.8838,12.6433],[77.891,12.645],[77.8944,12.6467],[77.8963,12.6442],[77.9068,12.6395],[77.9087,12.6366],[77.9109,12.6363],[77.914,12.6393]]]}},{"type":"Feature","properties":{"name":"4C1C6b3c4b3","level":"micro-watershed","watershedCode":"4C1C6","subCatchmentCode":"4C1C","areaKm2InDistrict":3.9,"shedId":"SBP16"},"geometry":{"type":"Polygon","coordinates":[[[77.9142,12.6295],[77.9187,12.6264],[77.9194,12.6249],[77.9131,12.6268],[77.9057,12.6234],[77.9005,12.6184],[77.8981,12.6174],[77.8926,12.6166],[77.8898,12.6167],[77.8833,12.6258],[77.8816,12.6257],[77.8806,12.6248],[77.8795,12.6254],[77.8787,12.6261],[77.8786,12.6287],[77.8814,12.6301],[77.8885,12.6319],[77.8972,12.6292],[77.9006,12.6294],[77.9049,12.6309],[77.9104,12.6306],[77.9142,12.6295]]]}},{"type":"Feature","properties":{"name":"4C1C6b3c4b4","level":"micro-watershed","watershedCode":"4C1C6","subCatchmentCode":"4C1C","areaKm2InDistrict":9.8,"shedId":"SBP16"},"geometry":{"type":"Polygon","coordinates":[[[77.9195,12.6247],[77.9216,12.6233],[77.9248,12.6228],[77.9265,12.6235],[77.9287,12.6228],[77.9289,12.624],[77.9298,12.6246],[77.9315,12.6231],[77.9347,12.6225],[77.9334,12.6207],[77.9302,12.6192],[77.9252,12.619],[77.9226,12.6177],[77.92,12.6096],[77.9187,12.6091],[77.9139,12.6043],[77.9092,12.6027],[77.908,12.6017],[77.9077,12.6024],[77.9067,12.6024],[77.9058,12.6016],[77.9039,12.5974],[77.9044,12.5942],[77.904,12.594],[77.9028,12.5958],[77.9001,12.597],[77.8955,12.6024],[77.8913,12.6039],[77.889,12.6038],[77.8871,12.6029],[77.8853,12.6033],[77.8828,12.6044],[77.8807,12.6084],[77.8811,12.6094],[77.8799,12.6134],[77.8816,12.6181],[77.8816,12.6243],[77.8806,12.6248],[77.8816,12.6257],[77.8833,12.6258],[77.8898,12.6167],[77.8926,12.6166],[77.8981,12.6174],[77.9005,12.6184],[77.9057,12.6234],[77.9131,12.6268],[77.9195,12.6247]]]}},{"type":"Feature","properties":{"name":"4C1C6b3c5a","level":"micro-watershed","watershedCode":"4C1C6","subCatchmentCode":"4C1C","areaKm2InDistrict":4.9,"shedId":"SBP16"},"geometry":{"type":"Polygon","coordinates":[[[77.9571,12.6012],[77.9598,12.5991],[77.9697,12.5954],[77.9722,12.5938],[77.9744,12.5904],[77.9766,12.5893],[77.9781,12.5854],[77.9706,12.5786],[77.9682,12.5776],[77.9662,12.5776],[77.9654,12.5806],[77.9637,12.5828],[77.9603,12.5845],[77.9569,12.5851],[77.9552,12.5865],[77.9509,12.5923],[77.9469,12.5938],[77.9459,12.5982],[77.9461,12.5999],[77.9474,12.6017],[77.9524,12.6027],[77.955,12.6013],[77.9571,12.6012]]]}},{"type":"Feature","properties":{"name":"4C1C6b3c5b","level":"micro-watershed","watershedCode":"4C1C6","subCatchmentCode":"4C1C","areaKm2InDistrict":11.4,"shedId":"SBP16"},"geometry":{"type":"Polygon","coordinates":[[[77.9663,12.5787],[77.9658,12.5719],[77.9646,12.5694],[77.9625,12.5679],[77.9598,12.5634],[77.96,12.5566],[77.9583,12.5543],[77.9565,12.5553],[77.9539,12.555],[77.952,12.5517],[77.9491,12.5585],[77.9463,12.5621],[77.9456,12.564],[77.9426,12.5657],[77.9394,12.5646],[77.9379,12.5627],[77.9362,12.5636],[77.9298,12.5757],[77.9282,12.5776],[77.9259,12.5786],[77.9236,12.578],[77.9236,12.579],[77.9249,12.5837],[77.926,12.5849],[77.9298,12.5862],[77.9323,12.5904],[77.9334,12.5908],[77.9347,12.588],[77.9388,12.5878],[77.9419,12.5868],[77.9444,12.5898],[77.9467,12.5914],[77.9472,12.5938],[77.9509,12.5923],[77.9552,12.5865],[77.9569,12.5851],[77.9603,12.5845],[77.9637,12.5828],[77.9663,12.5787]]]}},{"type":"Feature","properties":{"name":"4C1C6b3c5c","level":"micro-watershed","watershedCode":"4C1C6","subCatchmentCode":"4C1C","areaKm2InDistrict":2.9,"shedId":"SBP16"},"geometry":{"type":"Polygon","coordinates":[[[77.9333,12.5634],[77.9192,12.5651],[77.9142,12.5673],[77.9135,12.569],[77.909,12.5742],[77.9117,12.5778],[77.9135,12.5779],[77.9159,12.5766],[77.917,12.5732],[77.9184,12.5723],[77.9196,12.5749],[77.9233,12.5779],[77.9259,12.5786],[77.9282,12.5776],[77.9298,12.5757],[77.9362,12.5636],[77.9333,12.5634]]]}},{"type":"Feature","properties":{"name":"4C1C6b3c5d","level":"micro-watershed","watershedCode":"4C1C6","subCatchmentCode":"4C1C","areaKm2InDistrict":10.0,"shedId":"SBP16"},"geometry":{"type":"Polygon","coordinates":[[[77.9379,12.5627],[77.9394,12.5646],[77.9426,12.5657],[77.9456,12.564],[77.9463,12.5621],[77.9491,12.5585],[77.952,12.5517],[77.9508,12.5483],[77.9521,12.5436],[77.9553,12.5418],[77.9498,12.5407],[77.9454,12.5414],[77.9417,12.5409],[77.9334,12.5414],[77.9304,12.5421],[77.9237,12.5457],[77.9201,12.551],[77.9098,12.5567],[77.9072,12.562],[77.9067,12.5656],[77.9086,12.5705],[77.909,12.5742],[77.9135,12.569],[77.9142,12.5673],[77.9192,12.5651],[77.9333,12.5634],[77.9362,12.5636],[77.9379,12.5627]]]}},{"type":"Feature","properties":{"name":"4C1C6b3c5e","level":"micro-watershed","watershedCode":"4C1C6","subCatchmentCode":"4C1C","areaKm2InDistrict":8.8,"shedId":"SBP16"},"geometry":{"type":"Polygon","coordinates":[[[77.9862,12.5815],[77.9881,12.5804],[77.991,12.5803],[77.9924,12.5753],[77.9968,12.5676],[77.9913,12.5661],[77.9894,12.5642],[77.9855,12.5624],[77.9805,12.5624],[77.9795,12.5617],[77.9789,12.5593],[77.9749,12.5584],[77.9743,12.5574],[77.9746,12.5549],[77.974,12.5525],[77.972,12.549],[77.9711,12.5485],[77.9663,12.5489],[77.962,12.5508],[77.9583,12.5543],[77.96,12.5566],[77.9598,12.5634],[77.9625,12.5679],[77.9646,12.5694],[77.9658,12.5719],[77.9662,12.5776],[77.9682,12.5776],[77.9706,12.5786],[77.9781,12.5854],[77.979,12.5832],[77.9862,12.5815]]]}},{"type":"Feature","properties":{"name":"4C1C6b3c5f","level":"micro-watershed","watershedCode":"4C1C6","subCatchmentCode":"4C1C","areaKm2InDistrict":11.1,"shedId":"SBP16"},"geometry":{"type":"Polygon","coordinates":[[[78.0103,12.5698],[78.0048,12.5593],[77.9999,12.556],[77.9901,12.5544],[77.9849,12.5446],[77.9712,12.5417],[77.9702,12.5408],[77.9652,12.5398],[77.9587,12.5418],[77.9553,12.5418],[77.9521,12.5436],[77.9508,12.5483],[77.9539,12.555],[77.9565,12.5553],[77.959,12.5538],[77.962,12.5508],[77.9663,12.5489],[77.9711,12.5485],[77.972,12.549],[77.974,12.5525],[77.9746,12.5549],[77.9743,12.5574],[77.9749,12.5584],[77.9789,12.5593],[77.9795,12.5617],[77.9805,12.5624],[77.9855,12.5624],[77.9894,12.5642],[77.9913,12.5661],[77.9968,12.5676],[77.9924,12.5753],[77.991,12.5803],[77.9881,12.5804],[77.9857,12.5817],[77.9865,12.5836],[77.9927,12.5873],[78.0014,12.5834],[78.0076,12.5731],[78.0107,12.5718],[78.0103,12.5698]]]}},{"type":"Feature","properties":{"name":"4C1C6b3d1a","level":"micro-watershed","watershedCode":"4C1C6","subCatchmentCode":"4C1C","areaKm2InDistrict":7.0,"shedId":"SBP16"},"geometry":{"type":"Polygon","coordinates":[[[77.9433,12.7124],[77.9451,12.7106],[77.9471,12.7052],[77.9501,12.7006],[77.9533,12.6983],[77.9516,12.685],[77.9524,12.6779],[77.9533,12.6759],[77.9528,12.673],[77.9534,12.6717],[77.9586,12.6677],[77.9608,12.6625],[77.9525,12.6635],[77.951,12.6645],[77.9483,12.6697],[77.9467,12.669],[77.9434,12.6614],[77.937,12.6643],[77.9348,12.6663],[77.9343,12.6679],[77.9347,12.6725],[77.937,12.6747],[77.9395,12.6754],[77.9408,12.6766],[77.9418,12.6796],[77.9422,12.6857],[77.941,12.6932],[77.9419,12.6969],[77.9393,12.7046],[77.9401,12.7126],[77.9396,12.7135],[77.9433,12.7124]]]}},{"type":"Feature","properties":{"name":"4C1C6b3d1b","level":"micro-watershed","watershedCode":"4C1C6","subCatchmentCode":"4C1C","areaKm2InDistrict":7.5,"shedId":"SBP16"},"geometry":{"type":"Polygon","coordinates":[[[77.93709,12.67473],[77.9326,12.6846],[77.9325,12.6868],[77.9292,12.6897],[77.9266,12.6933],[77.9261,12.6962],[77.9265,12.7083],[77.924,12.7114],[77.9219,12.7162],[77.9188,12.7188],[77.9178,12.727],[77.9194,12.7271],[77.922,12.7285],[77.9247,12.7274],[77.9255,12.726],[77.9296,12.7233],[77.933,12.718],[77.9345,12.7165],[77.9396,12.7137],[77.9401,12.7126],[77.9392,12.706],[77.9419,12.6969],[77.941,12.6932],[77.9422,12.6857],[77.9418,12.6796],[77.9408,12.6766],[77.9395,12.6754],[77.93709,12.67473]]]}},{"type":"Feature","properties":{"name":"4C1C6b3d2a","level":"micro-watershed","watershedCode":"4C1C6","subCatchmentCode":"4C1C","areaKm2InDistrict":2.8,"shedId":"SBP16"},"geometry":{"type":"Polygon","coordinates":[[[77.9277,12.6914],[77.9325,12.6868],[77.9326,12.6846],[77.9371,12.6747],[77.9347,12.6725],[77.931,12.6766],[77.9228,12.6811],[77.921,12.6811],[77.9176,12.6795],[77.9179,12.682],[77.9152,12.6907],[77.9159,12.6943],[77.9168,12.6954],[77.9217,12.6926],[77.9238,12.6923],[77.9267,12.6933],[77.9277,12.6914]]]}},{"type":"Feature","properties":{"name":"4C1C6b3d2b","level":"micro-watershed","watershedCode":"4C1C6","subCatchmentCode":"4C1C","areaKm2InDistrict":2.9,"shedId":"SBP16"},"geometry":{"type":"Polygon","coordinates":[[[77.9266,12.6932],[77.9238,12.6923],[77.9217,12.6926],[77.9168,12.6954],[77.9164,12.6949],[77.9163,12.7101],[77.9158,12.7118],[77.9141,12.7132],[77.9135,12.7149],[77.9155,12.7205],[77.9179,12.7234],[77.9188,12.7188],[77.9219,12.7162],[77.924,12.7114],[77.9265,12.7083],[77.9261,12.6962],[77.9266,12.6932]]]}},{"type":"Feature","properties":{"name":"4C1C6b3d2c","level":"micro-watershed","watershedCode":"4C1C6","subCatchmentCode":"4C1C","areaKm2InDistrict":5.3,"shedId":"SBP16"},"geometry":{"type":"Polygon","coordinates":[[[77.9179,12.7234],[77.9155,12.7205],[77.9135,12.7149],[77.9141,12.7132],[77.9158,12.7118],[77.9166,12.7061],[77.916,12.6997],[77.9164,12.6949],[77.9152,12.6907],[77.9114,12.697],[77.9091,12.6991],[77.9041,12.7003],[77.9034,12.702],[77.8965,12.7066],[77.8961,12.7106],[77.8974,12.712],[77.8974,12.7145],[77.8984,12.7148],[77.8998,12.7171],[77.9037,12.7191],[77.905,12.724],[77.9059,12.7251],[77.9159,12.7286],[77.9178,12.727],[77.9179,12.7234]]]}},{"type":"Feature","properties":{"name":"4C1C6b3d3a","level":"micro-watershed","watershedCode":"4C1C6","subCatchmentCode":"4C1C","areaKm2InDistrict":4.5,"shedId":"SBP16"},"geometry":{"type":"Polygon","coordinates":[[[77.9158,12.6895],[77.9179,12.682],[77.9176,12.6795],[77.9138,12.6782],[77.9101,12.678],[77.9116,12.6863],[77.9109,12.6869],[77.9064,12.6854],[77.9038,12.6872],[77.8999,12.6881],[77.8966,12.6912],[77.895,12.6912],[77.8918,12.6882],[77.8912,12.6895],[77.8917,12.6975],[77.89,12.7018],[77.8934,12.7032],[77.8965,12.7066],[77.9034,12.702],[77.9041,12.7003],[77.9091,12.6991],[77.9114,12.697],[77.9158,12.6895]]]}},{"type":"Feature","properties":{"name":"4C1C6b3d3b","level":"micro-watershed","watershedCode":"4C1C6","subCatchmentCode":"4C1C","areaKm2InDistrict":1.5,"shedId":"SBP16"},"geometry":{"type":"Polygon","coordinates":[[[77.8916,12.6881],[77.8869,12.6896],[77.8832,12.6888],[77.8763,12.6928],[77.8755,12.6951],[77.8782,12.6961],[77.8824,12.6957],[77.8838,12.6976],[77.89,12.7018],[77.8917,12.6975],[77.8912,12.6895],[77.8916,12.6881]]]}},{"type":"Feature","properties":{"name":"4C1C6b3d3c","level":"micro-watershed","watershedCode":"4C1C6","subCatchmentCode":"4C1C","areaKm2InDistrict":2.1,"shedId":"SBP16"},"geometry":{"type":"Polygon","coordinates":[[[77.8974,12.712],[77.8961,12.7106],[77.8966,12.7067],[77.8934,12.7032],[77.8914,12.702],[77.8894,12.7018],[77.8867,12.6992],[77.8838,12.6976],[77.8824,12.6957],[77.8782,12.6961],[77.8756,12.6952],[77.8766,12.6979],[77.8785,12.6992],[77.8818,12.6997],[77.8846,12.7017],[77.8852,12.7029],[77.8849,12.7089],[77.8856,12.7116],[77.8877,12.7139],[77.8937,12.7165],[77.8969,12.7143],[77.8974,12.7145],[77.8974,12.712]]]}},{"type":"Feature","properties":{"name":"4C1C6b3d4a","level":"micro-watershed","watershedCode":"4C1C6","subCatchmentCode":"4C1C","areaKm2InDistrict":2.8,"shedId":"SBP16"},"geometry":{"type":"Polygon","coordinates":[[[77.8752,12.6731],[77.8752,12.6715],[77.8767,12.6702],[77.8775,12.6673],[77.8791,12.6646],[77.8799,12.6609],[77.8796,12.6591],[77.8773,12.6565],[77.8711,12.6644],[77.8559,12.6664],[77.8603,12.6682],[77.8622,12.6712],[77.8637,12.677],[77.8649,12.6789],[77.8668,12.6797],[77.8692,12.6796],[77.8752,12.6731]]]}},{"type":"Feature","properties":{"name":"4C1C6b3d4b","level":"micro-watershed","watershedCode":"4C1C6","subCatchmentCode":"4C1C","areaKm2InDistrict":1.4,"shedId":"SBP16"},"geometry":{"type":"Polygon","coordinates":[[[77.8808,12.6905],[77.8791,12.681],[77.8763,12.6768],[77.8752,12.6731],[77.8692,12.6796],[77.869,12.6829],[77.8713,12.6857],[77.8792,12.691],[77.8808,12.6905]]]}},{"type":"Feature","properties":{"name":"4C1C6b3d4c","level":"micro-watershed","watershedCode":"4C1C6","subCatchmentCode":"4C1C","areaKm2InDistrict":1.8,"shedId":"SBP16"},"geometry":{"type":"Polygon","coordinates":[[[77.8861,12.6892],[77.8877,12.6837],[77.8862,12.6827],[77.8825,12.6745],[77.8822,12.6669],[77.879,12.6647],[77.8767,12.6702],[77.8752,12.6715],[77.8752,12.6731],[77.8763,12.6768],[77.8791,12.681],[77.8808,12.6905],[77.8832,12.6888],[77.8861,12.6892]]]}},{"type":"Feature","properties":{"name":"4C1C6b3d5","level":"micro-watershed","watershedCode":"4C1C6","subCatchmentCode":"4C1C","areaKm2InDistrict":3.9,"shedId":"SBP16"},"geometry":{"type":"Polygon","coordinates":[[[77.9096,12.6864],[77.9058,12.6819],[77.9003,12.6785],[77.8957,12.673],[77.8936,12.6726],[77.8874,12.6687],[77.8822,12.6669],[77.8825,12.6745],[77.8862,12.6827],[77.8877,12.6837],[77.8861,12.6893],[77.8889,12.6893],[77.8916,12.6881],[77.893,12.6888],[77.895,12.6912],[77.8966,12.6912],[77.8999,12.6881],[77.9038,12.6872],[77.9064,12.6854],[77.9096,12.6864]]]}},{"type":"Feature","properties":{"name":"4C1C6b3d6a","level":"micro-watershed","watershedCode":"4C1C6","subCatchmentCode":"4C1C","areaKm2InDistrict":5.7,"shedId":"SBP16"},"geometry":{"type":"Polygon","coordinates":[[[77.9138,12.6782],[77.921,12.6811],[77.9225,12.6811],[77.9211,12.6747],[77.9198,12.6732],[77.9158,12.6698],[77.9103,12.6676],[77.9048,12.6636],[77.9002,12.6597],[77.8986,12.6574],[77.8978,12.6594],[77.8915,12.6604],[77.8903,12.6617],[77.8884,12.6623],[77.8833,12.6627],[77.8814,12.6643],[77.8792,12.6647],[77.8814,12.6666],[77.8874,12.6687],[77.8936,12.6726],[77.8957,12.673],[77.9003,12.6785],[77.9058,12.6819],[77.9098,12.6866],[77.9109,12.6869],[77.9116,12.6863],[77.9101,12.678],[77.9138,12.6782]]]}},{"type":"Feature","properties":{"name":"4C1C6b3d6b","level":"micro-watershed","watershedCode":"4C1C6","subCatchmentCode":"4C1C","areaKm2InDistrict":3.6,"shedId":"SBP16"},"geometry":{"type":"Polygon","coordinates":[[[77.8814,12.6643],[77.8833,12.6627],[77.8884,12.6623],[77.8903,12.6617],[77.8915,12.6604],[77.8978,12.6594],[77.8985,12.6586],[77.8986,12.6543],[77.8942,12.6486],[77.8944,12.6467],[77.891,12.645],[77.8838,12.6433],[77.8821,12.6443],[77.8818,12.6461],[77.8795,12.6486],[77.8773,12.6565],[77.8796,12.6591],[77.8799,12.6609],[77.879,12.6647],[77.8814,12.6643]]]}},{"type":"Feature","properties":{"name":"4C1C6b3d7a","level":"micro-watershed","watershedCode":"4C1C6","subCatchmentCode":"4C1C","areaKm2InDistrict":3.1,"shedId":"SBP16"},"geometry":{"type":"Polygon","coordinates":[[[77.9236,12.6446],[77.9214,12.6456],[77.92,12.6453],[77.9109,12.6363],[77.9087,12.6366],[77.9058,12.6402],[77.8963,12.6442],[77.8947,12.6458],[77.8942,12.6486],[77.8953,12.6502],[77.896,12.6489],[77.9018,12.646],[77.9098,12.6515],[77.9147,12.6595],[77.9152,12.6539],[77.925,12.6466],[77.9236,12.6446]]]}},{"type":"Feature","properties":{"name":"4C1C6b3d7b","level":"micro-watershed","watershedCode":"4C1C6","subCatchmentCode":"4C1C","areaKm2InDistrict":4.2,"shedId":"SBP16"},"geometry":{"type":"Polygon","coordinates":[[[77.9347,12.6677],[77.9355,12.6652],[77.9434,12.6615],[77.9297,12.6511],[77.925,12.6466],[77.9152,12.6539],[77.9147,12.6595],[77.9189,12.6633],[77.9283,12.6682],[77.9306,12.6688],[77.9347,12.6677]]]}},{"type":"Feature","properties":{"name":"4C1C6b3e1","level":"micro-watershed","watershedCode":"4C1C6","subCatchmentCode":"4C1C","areaKm2InDistrict":3.8,"shedId":"SBP16"},"geometry":{"type":"Polygon","coordinates":[[[77.9177,12.7389],[77.9181,12.7361],[77.9172,12.7332],[77.9171,12.7297],[77.9164,12.7289],[77.9059,12.7251],[77.905,12.724],[77.9037,12.7191],[77.8998,12.7171],[77.8984,12.7148],[77.8969,12.7143],[77.8937,12.7165],[77.8952,12.719],[77.8955,12.7242],[77.897,12.7264],[77.8984,12.7303],[77.899,12.7332],[77.8986,12.7374],[77.9075,12.7373],[77.9133,12.7404],[77.915,12.7406],[77.9164,12.7407],[77.9177,12.7389]]]}},{"type":"Feature","properties":{"name":"4C1C6b3e2","level":"micro-watershed","watershedCode":"4C1C6","subCatchmentCode":"4C1C","areaKm2InDistrict":5.8,"shedId":"SBP16"},"geometry":{"type":"Polygon","coordinates":[[[77.9236,12.7603],[77.9225,12.7534],[77.9203,12.7507],[77.9182,12.7462],[77.9173,12.7405],[77.9133,12.7404],[77.9075,12.7373],[77.8986,12.7374],[77.9011,12.741],[77.9011,12.7422],[77.8991,12.7444],[77.8999,12.7497],[77.9006,12.752],[77.9033,12.7543],[77.9056,12.7605],[77.9085,12.7614],[77.9216,12.7684],[77.9246,12.7614],[77.9236,12.7603]]]}},{"type":"Feature","properties":{"name":"4C1C6b3e3","level":"micro-watershed","watershedCode":"4C1C6","subCatchmentCode":"4C1C","areaKm2InDistrict":6.6,"shedId":"SBP16"},"geometry":{"type":"Polygon","coordinates":[[[77.899,12.7711],[77.9004,12.775],[77.9017,12.7762],[77.9072,12.7776],[77.9097,12.7807],[77.9097,12.7871],[77.9104,12.7901],[77.9217,12.7881],[77.9258,12.788],[77.9266,12.7888],[77.9269,12.7792],[77.9229,12.7695],[77.9223,12.7687],[77.9085,12.7614],[77.9056,12.7605],[77.9033,12.7543],[77.9006,12.752],[77.8998,12.7609],[77.9003,12.7686],[77.899,12.7711]]]}},{"type":"Feature","properties":{"name":"4C1C6b3e4","level":"micro-watershed","watershedCode":"4C1C6","subCatchmentCode":"4C1C","areaKm2InDistrict":4.7,"shedId":"SBP16"},"geometry":{"type":"Polygon","coordinates":[[[77.8963,12.7464],[77.9011,12.7422],[77.9011,12.741],[77.8986,12.7381],[77.899,12.7332],[77.8984,12.7303],[77.897,12.7264],[77.8955,12.7242],[77.8946,12.7173],[77.8931,12.716],[77.8877,12.7139],[77.8835,12.7209],[77.8766,12.7257],[77.8729,12.7264],[77.8755,12.7284],[77.8825,12.7306],[77.887,12.7341],[77.8885,12.7359],[77.8893,12.7411],[77.8908,12.7416],[77.8943,12.746],[77.8963,12.7464]]]}},{"type":"Feature","properties":{"name":"4C1C6b3e5","level":"micro-watershed","watershedCode":"4C1C6","subCatchmentCode":"4C1C","areaKm2InDistrict":3.0,"shedId":"SBP16"},"geometry":{"type":"Polygon","coordinates":[[[77.8687,12.7267],[77.8766,12.7257],[77.8835,12.7209],[77.887,12.7157],[77.8878,12.7138],[77.8856,12.7116],[77.8849,12.7089],[77.8849,12.7048],[77.8818,12.7055],[77.8777,12.7086],[77.8725,12.716],[77.8681,12.7201],[77.8648,12.7249],[77.8687,12.7267]]]}},{"type":"Feature","properties":{"name":"4C1C6b3e6a","level":"micro-watershed","watershedCode":"4C1C6","subCatchmentCode":"4C1C","areaKm2InDistrict":9.2,"shedId":"SBP16"},"geometry":{"type":"Polygon","coordinates":[[[77.8648,12.7249],[77.8681,12.7201],[77.8725,12.716],[77.8777,12.7086],[77.8818,12.7055],[77.885,12.7048],[77.8852,12.7029],[77.8846,12.7017],[77.8818,12.6997],[77.8785,12.6992],[77.8766,12.6979],[77.8756,12.6951],[77.8724,12.6991],[77.8692,12.7003],[77.8601,12.6966],[77.8572,12.6982],[77.8547,12.6978],[77.8533,12.6995],[77.8516,12.6991],[77.8516,12.703],[77.8525,12.7033],[77.8529,12.7043],[77.8515,12.7062],[77.8517,12.7085],[77.8512,12.7098],[77.8493,12.7114],[77.8462,12.7171],[77.8444,12.7264],[77.8434,12.7279],[77.841,12.7291],[77.843,12.7295],[77.8459,12.7273],[77.8479,12.7269],[77.8502,12.7296],[77.8519,12.7298],[77.8593,12.7277],[77.8648,12.7249]]]}},{"type":"Feature","properties":{"name":"4C1C6b3e6b","level":"micro-watershed","watershedCode":"4C1C6","subCatchmentCode":"4C1C","areaKm2InDistrict":4.6,"shedId":"SBP16"},"geometry":{"type":"Polygon","coordinates":[[[77.8426,12.7284],[77.8445,12.7261],[77.8415,12.7246],[77.8398,12.7228],[77.8356,12.7135],[77.8318,12.7113],[77.8293,12.7085],[77.8288,12.7107],[77.8274,12.7115],[77.82,12.7109],[77.8163,12.7094],[77.8106,12.7107],[77.8119,12.7136],[77.8125,12.7172],[77.8154,12.7223],[77.8167,12.723],[77.817,12.7246],[77.8191,12.7256],[77.821,12.7249],[77.8221,12.7253],[77.8233,12.7269],[77.8236,12.7285],[77.8247,12.7294],[77.8253,12.7296],[77.8259,12.726],[77.8345,12.7257],[77.8389,12.7268],[77.841,12.7291],[77.8426,12.7284]]]}},{"type":"Feature","properties":{"name":"4C1C6b3e6c","level":"micro-watershed","watershedCode":"4C1C6","subCatchmentCode":"4C1C","areaKm2InDistrict":7.6,"shedId":"SBP16"},"geometry":{"type":"Polygon","coordinates":[[[77.8516,12.6991],[77.8501,12.6984],[77.8488,12.6946],[77.8443,12.6928],[77.8434,12.6915],[77.8412,12.6905],[77.8361,12.6906],[77.8342,12.6898],[77.8326,12.6879],[77.833,12.6838],[77.8346,12.6784],[77.8334,12.6741],[77.8318,12.6741],[77.8294,12.6771],[77.8295,12.6809],[77.826,12.6931],[77.8268,12.6952],[77.8304,12.6999],[77.8308,12.7022],[77.8293,12.7085],[77.8318,12.7113],[77.8356,12.7135],[77.8398,12.7228],[77.8415,12.7246],[77.8443,12.7261],[77.8452,12.7241],[77.8462,12.7171],[77.8493,12.7114],[77.8512,12.7098],[77.8515,12.7062],[77.8529,12.7043],[77.8525,12.7033],[77.8516,12.703],[77.8516,12.6991]]]}},{"type":"Feature","properties":{"name":"4C1C6b3e7a","level":"micro-watershed","watershedCode":"4C1C6","subCatchmentCode":"4C1C","areaKm2InDistrict":13.1,"shedId":"SBP16"},"geometry":{"type":"Polygon","coordinates":[[[77.876,12.6935],[77.8796,12.6909],[77.8727,12.6867],[77.8696,12.6841],[77.869,12.6829],[77.8692,12.6796],[77.8668,12.6797],[77.8649,12.6789],[77.8637,12.677],[77.8622,12.6712],[77.8603,12.6682],[77.8559,12.6664],[77.8459,12.6657],[77.8431,12.6634],[77.8423,12.6618],[77.842,12.6622],[77.8384,12.6599],[77.8375,12.6586],[77.8336,12.6599],[77.8337,12.6638],[77.8349,12.6685],[77.8348,12.6711],[77.8333,12.6743],[77.8346,12.6784],[77.833,12.6838],[77.8326,12.6879],[77.8342,12.6898],[77.8361,12.6906],[77.8412,12.6905],[77.8434,12.6915],[77.8443,12.6928],[77.8488,12.6946],[77.8501,12.6984],[77.8533,12.6995],[77.8547,12.6978],[77.8572,12.6982],[77.8601,12.6966],[77.8692,12.7003],[77.8724,12.6991],[77.8754,12.6955],[77.876,12.6935]]]}},{"type":"Feature","properties":{"name":"4C1C6b3e7b","level":"micro-watershed","watershedCode":"4C1C6","subCatchmentCode":"4C1C","areaKm2InDistrict":8.0,"shedId":"SBP16"},"geometry":{"type":"Polygon","coordinates":[[[77.8288,12.7107],[77.8305,12.7045],[77.8304,12.6999],[77.8268,12.6952],[77.826,12.6931],[77.8295,12.6809],[77.8294,12.6771],[77.8318,12.6741],[77.8233,12.6797],[77.8177,12.6813],[77.8069,12.6895],[77.8033,12.6912],[77.799,12.6914],[77.8031,12.6962],[77.8037,12.6977],[77.8033,12.7003],[77.8046,12.7028],[77.8057,12.7043],[77.8087,12.7058],[77.8098,12.7096],[77.8111,12.7107],[77.8163,12.7094],[77.82,12.7109],[77.8274,12.7115],[77.8288,12.7107]]]}},{"type":"Feature","properties":{"name":"4C1C6b3e7c","level":"micro-watershed","watershedCode":"4C1C6","subCatchmentCode":"4C1C","areaKm2InDistrict":7.9,"shedId":"SBP16"},"geometry":{"type":"Polygon","coordinates":[[[77.8334,12.6741],[77.8348,12.6711],[77.8349,12.6685],[77.8337,12.6638],[77.8336,12.6599],[77.8293,12.6613],[77.8203,12.6611],[77.8127,12.6622],[77.8079,12.6692],[77.8011,12.675],[77.7958,12.6854],[77.7991,12.6915],[77.8033,12.6912],[77.8078,12.689],[77.8177,12.6813],[77.8216,12.6805],[77.8262,12.6782],[77.8289,12.6756],[77.8318,12.6741],[77.8334,12.6741]]]}},{"type":"Feature","properties":{"name":"4C1C6b5c","level":"micro-watershed","watershedCode":"4C1C6","subCatchmentCode":"4C1C","areaKm2InDistrict":11.1,"shedId":"SBP16"},"geometry":{"type":"Polygon","coordinates":[[[78.0658,12.5359],[78.0714,12.5331],[78.0798,12.5318],[78.0777,12.5307],[78.0754,12.5244],[78.0735,12.5249],[78.0705,12.5226],[78.0604,12.5184],[78.0588,12.514],[78.0565,12.5111],[78.0564,12.5092],[78.0543,12.5064],[78.0532,12.5034],[78.052,12.4961],[78.048,12.4917],[78.0462,12.4923],[78.0439,12.4971],[78.0417,12.4983],[78.0425,12.5052],[78.0392,12.5091],[78.0383,12.5111],[78.0381,12.5157],[78.037,12.5201],[78.038,12.5247],[78.0398,12.5282],[78.0456,12.5336],[78.0475,12.5344],[78.0573,12.5376],[78.0599,12.5375],[78.0658,12.5359]]]}},{"type":"Feature","properties":{"name":"4C1C8a1","level":"micro-watershed","watershedCode":"4C1C8","subCatchmentCode":"4C1C","areaKm2InDistrict":5.2,"shedId":"SBP16"},"geometry":{"type":"Polygon","coordinates":[[[77.9004,12.7511],[77.8991,12.7444],[77.8963,12.7464],[77.8943,12.746],[77.8908,12.7416],[77.8893,12.741],[77.8884,12.7413],[77.8861,12.7443],[77.8852,12.7492],[77.8842,12.7507],[77.8792,12.7555],[77.8774,12.7583],[77.88,12.7621],[77.8848,12.7652],[77.8929,12.7693],[77.899,12.7711],[77.9003,12.7686],[77.8998,12.7609],[77.9004,12.7511]]]}},{"type":"Feature","properties":{"name":"4C1C8a2","level":"micro-watershed","watershedCode":"4C1C8","subCatchmentCode":"4C1C","areaKm2InDistrict":4.5,"shedId":"SBP16"},"geometry":{"type":"Polygon","coordinates":[[[77.8834,12.7866],[77.8927,12.776],[77.8989,12.7711],[77.8929,12.7693],[77.8848,12.7652],[77.88,12.7621],[77.8774,12.7583],[77.8758,12.7613],[77.8778,12.7651],[77.8779,12.7675],[77.8771,12.7693],[77.8743,12.7703],[77.8741,12.7726],[77.876,12.7755],[77.8727,12.7769],[77.8723,12.7801],[77.8753,12.7812],[77.8766,12.7832],[77.8762,12.7846],[77.8745,12.7856],[77.8739,12.7869],[77.877,12.7908],[77.8784,12.7905],[77.8799,12.7872],[77.881,12.7865],[77.8834,12.7866]]]}},{"type":"Feature","properties":{"name":"4C1C8a3","level":"micro-watershed","watershedCode":"4C1C8","subCatchmentCode":"4C1C","areaKm2InDistrict":5.1,"shedId":"SBP16"},"geometry":{"type":"Polygon","coordinates":[[[77.9097,12.7871],[77.9097,12.7807],[77.9072,12.7776],[77.9017,12.7762],[77.9004,12.775],[77.899,12.7711],[77.8927,12.776],[77.8834,12.7866],[77.8853,12.7889],[77.8844,12.7913],[77.8847,12.7933],[77.8964,12.7955],[77.9018,12.7944],[77.9038,12.7925],[77.9062,12.7927],[77.9084,12.7918],[77.9095,12.7903],[77.9104,12.7901],[77.9097,12.7871]]]}},{"type":"Feature","properties":{"name":"4C1C8a4a","level":"micro-watershed","watershedCode":"4C1C8","subCatchmentCode":"4C1C","areaKm2InDistrict":5.6,"shedId":"SBP16"},"geometry":{"type":"Polygon","coordinates":[[[77.9265,12.7888],[77.9217,12.7881],[77.9116,12.7897],[77.9095,12.7903],[77.9072,12.7924],[77.9038,12.7925],[77.9018,12.7944],[77.8964,12.7955],[77.8846,12.7933],[77.8842,12.7977],[77.8866,12.8008],[77.8868,12.8029],[77.8889,12.8048],[77.8899,12.8069],[77.8901,12.8061],[77.8918,12.8055],[77.8969,12.8056],[77.9043,12.807],[77.9058,12.8079],[77.9105,12.8131],[77.9117,12.8049],[77.9133,12.8012],[77.9133,12.797],[77.9157,12.7966],[77.9189,12.7981],[77.9216,12.7975],[77.9229,12.7965],[77.9249,12.7926],[77.9265,12.7888]]]}},{"type":"Feature","properties":{"name":"4C1C8a4b","level":"micro-watershed","watershedCode":"4C1C8","subCatchmentCode":"4C1C","areaKm2InDistrict":5.8,"shedId":"SBP16"},"geometry":{"type":"Polygon","coordinates":[[[77.937,12.8149],[77.9383,12.8082],[77.9375,12.8041],[77.935,12.8018],[77.9328,12.7982],[77.9286,12.7954],[77.9276,12.7941],[77.9265,12.7888],[77.9229,12.7965],[77.9216,12.7975],[77.9189,12.7981],[77.9157,12.7966],[77.9133,12.797],[77.9133,12.8012],[77.9117,12.8049],[77.9105,12.8131],[77.9152,12.8171],[77.9236,12.8165],[77.9325,12.8149],[77.937,12.8149]]]}},{"type":"Feature","properties":{"name":"4C1C8a4c","level":"micro-watershed","watershedCode":"4C1C8","subCatchmentCode":"4C1C","areaKm2InDistrict":5.2,"shedId":"SBP16"},"geometry":{"type":"Polygon","coordinates":[[[77.8901,12.8061],[77.8903,12.8101],[77.8858,12.8117],[77.8882,12.8134],[77.8935,12.8215],[77.896,12.8334],[77.9002,12.8311],[77.9062,12.8309],[77.9066,12.8306],[77.9058,12.8285],[77.9098,12.8207],[77.9111,12.819],[77.9153,12.817],[77.9111,12.8138],[77.9058,12.8079],[77.9043,12.807],[77.8969,12.8056],[77.8918,12.8055],[77.8901,12.8061]]]}},{"type":"Feature","properties":{"name":"4C1C8a4c1","level":"micro-watershed","watershedCode":"4C1C8","subCatchmentCode":"4C1C","areaKm2InDistrict":3.2,"shedId":"SBP16"},"geometry":{"type":"Polygon","coordinates":[[[77.9085,12.8789],[77.911,12.8714],[77.9059,12.8658],[77.9032,12.8604],[77.9029,12.8575],[77.9016,12.8594],[77.8951,12.8632],[77.8946,12.8663],[77.8927,12.8669],[77.8904,12.8697],[77.8951,12.8785],[77.9085,12.8789]]]}},{"type":"Feature","properties":{"name":"4C1C8a4c2","level":"micro-watershed","watershedCode":"4C1C8","subCatchmentCode":"4C1C","areaKm2InDistrict":13.3,"shedId":"SBP16"},"geometry":{"type":"Polygon","coordinates":[[[77.911,12.8714],[77.919,12.8583],[77.92305,12.85524],[77.9243,12.8506],[77.9199,12.8422],[77.9178,12.8395],[77.9184,12.8351],[77.918,12.8319],[77.9208,12.8282],[77.9228,12.83],[77.9267,12.8302],[77.9299,12.8257],[77.9352,12.8238],[77.9398,12.8231],[77.9394,12.8194],[77.9371,12.8149],[77.9325,12.8149],[77.9236,12.8165],[77.9152,12.8171],[77.9126,12.818],[77.911,12.8191],[77.9082,12.8233],[77.9075,12.826],[77.9058,12.8285],[77.9066,12.8306],[77.9002,12.8311],[77.896,12.8334],[77.8962,12.8349],[77.8942,12.8389],[77.8941,12.8409],[77.8952,12.8448],[77.894,12.847],[77.8996,12.8487],[77.9029,12.8525],[77.9034,12.8548],[77.9029,12.8575],[77.9032,12.8604],[77.9059,12.8658],[77.911,12.8714]]]}},{"type":"Feature","properties":{"name":"4C1C8a4c3","level":"micro-watershed","watershedCode":"4C1C8","subCatchmentCode":"4C1C","areaKm2InDistrict":5.2,"shedId":"SBP16"},"geometry":{"type":"Polygon","coordinates":[[[77.9087,12.8849],[77.9149,12.8843],[77.9147,12.8822],[77.9165,12.8796],[77.9159,12.8784],[77.9161,12.877],[77.9188,12.8757],[77.9282,12.873],[77.9296,12.8729],[77.9296,12.8741],[77.9416,12.8723],[77.9412,12.8678],[77.9399,12.8669],[77.9367,12.8668],[77.9355,12.8624],[77.9335,12.8626],[77.9331,12.8616],[77.9316,12.8617],[77.9271,12.8575],[77.9244,12.8575],[77.92305,12.85524],[77.919,12.8583],[77.911,12.8714],[77.9085,12.8789],[77.9087,12.8849]]]}},{"type":"Feature","properties":{"name":"4C1C8a4c4","level":"micro-watershed","watershedCode":"4C1C8","subCatchmentCode":"4C1C","areaKm2InDistrict":2.4,"shedId":"SBP16"},"geometry":{"type":"Polygon","coordinates":[[[77.9294,12.891],[77.9359,12.8872],[77.936,12.8834],[77.9357,12.882],[77.934,12.8806],[77.9294,12.8807],[77.9274,12.8815],[77.9269,12.8789],[77.9272,12.8756],[77.9277,12.8743],[77.9292,12.8741],[77.9296,12.8729],[77.9188,12.8757],[77.9161,12.877],[77.9159,12.8784],[77.9165,12.8796],[77.9147,12.8822],[77.9149,12.8843],[77.9219,12.8842],[77.9251,12.89],[77.9294,12.891]]]}},{"type":"Feature","properties":{"name":"4C1C8a5a","level":"micro-watershed","watershedCode":"4C1C8","subCatchmentCode":"4C1C","areaKm2InDistrict":6.2,"shedId":"SBP16"},"geometry":{"type":"Polygon","coordinates":[[[77.8962,12.8349],[77.8935,12.8215],[77.8882,12.8134],[77.8858,12.8117],[77.8828,12.8158],[77.8801,12.8179],[77.8785,12.8206],[77.8739,12.8239],[77.8731,12.829],[77.874,12.833],[77.8752,12.8351],[77.8798,12.8374],[77.8804,12.8412],[77.883,12.8449],[77.886,12.844],[77.888,12.8441],[77.894,12.847],[77.895,12.846],[77.8942,12.8389],[77.8962,12.8349]]]}},{"type":"Feature","properties":{"name":"4C1C8a5b1","level":"micro-watershed","watershedCode":"4C1C8","subCatchmentCode":"4C1C","areaKm2InDistrict":3.6,"shedId":"SBP16"},"geometry":{"type":"Polygon","coordinates":[[[77.883,12.8449],[77.8804,12.8412],[77.8798,12.8374],[77.8764,12.836],[77.8743,12.8336],[77.8733,12.829],[77.867,12.8333],[77.867,12.8368],[77.865,12.8381],[77.861,12.8393],[77.86,12.8408],[77.8623,12.843],[77.8676,12.8504],[77.8734,12.8551],[77.8776,12.8516],[77.879,12.8482],[77.8805,12.8464],[77.883,12.8449]]]}},{"type":"Feature","properties":{"name":"4C1C8a5b2","level":"micro-watershed","watershedCode":"4C1C8","subCatchmentCode":"4C1C","areaKm2InDistrict":6.5,"shedId":"SBP16"},"geometry":{"type":"Polygon","coordinates":[[[77.887,12.8707],[77.8904,12.8697],[77.8927,12.8669],[77.8946,12.8663],[77.8951,12.8632],[77.9016,12.8594],[77.903,12.8574],[77.9034,12.8548],[77.9029,12.8525],[77.8996,12.8487],[77.8929,12.8466],[77.8907,12.845],[77.886,12.844],[77.8805,12.8464],[77.879,12.8482],[77.8776,12.8516],[77.8734,12.8551],[77.8749,12.8567],[77.8759,12.8592],[77.8757,12.861],[77.8744,12.862],[77.8726,12.8668],[77.8758,12.867],[77.8764,12.8693],[77.8825,12.8681],[77.8836,12.8701],[77.887,12.8707]]]}},{"type":"Feature","properties":{"name":"4C1C8a5b3","level":"micro-watershed","watershedCode":"4C1C8","subCatchmentCode":"4C1C","areaKm2InDistrict":5.3,"shedId":"SBP16"},"geometry":{"type":"Polygon","coordinates":[[[77.8607,12.8684],[77.8727,12.8671],[77.8744,12.862],[77.8757,12.861],[77.8759,12.8592],[77.8749,12.8567],[77.8709,12.8527],[77.8676,12.8504],[77.8623,12.843],[77.86,12.8413],[77.8519,12.8496],[77.8487,12.8518],[77.8471,12.854],[77.8532,12.861],[77.8595,12.8662],[77.8607,12.8684]]]}},{"type":"Feature","properties":{"name":"4C1C8a5b4","level":"micro-watershed","watershedCode":"4C1C8","subCatchmentCode":"4C1C","areaKm2InDistrict":2.6,"shedId":"SBP16"},"geometry":{"type":"Polygon","coordinates":[[[77.8357,12.8713],[77.8384,12.869],[77.8469,12.8687],[77.8505,12.8658],[77.855,12.8667],[77.8575,12.8687],[77.8607,12.8684],[77.8595,12.8662],[77.8532,12.861],[77.8471,12.854],[77.8446,12.8591],[77.8419,12.8616],[77.8348,12.8618],[77.8326,12.8613],[77.831,12.8619],[77.8306,12.8652],[77.8313,12.8678],[77.8357,12.8713]]]}},{"type":"Feature","properties":{"name":"4C1C8b1a","level":"micro-watershed","watershedCode":"4C1C8","subCatchmentCode":"4C1C","areaKm2InDistrict":1.9,"shedId":"SBP16"},"geometry":{"type":"Polygon","coordinates":[[[77.7988,12.8519],[77.8055,12.849],[77.8045,12.8382],[77.8032,12.8364],[77.8027,12.8335],[77.7988,12.8337],[77.7956,12.8348],[77.7924,12.8408],[77.7922,12.8431],[77.7948,12.8455],[77.7971,12.8451],[77.7988,12.8519]]]}},{"type":"Feature","properties":{"name":"4C1C8b1b","level":"micro-watershed","watershedCode":"4C1C8","subCatchmentCode":"4C1C","areaKm2InDistrict":5.9,"shedId":"SBP16"},"geometry":{"type":"Polygon","coordinates":[[[77.8326,12.8613],[77.836,12.8616],[77.8354,12.8536],[77.8329,12.8455],[77.832,12.8442],[77.8271,12.8425],[77.8238,12.8392],[77.8211,12.8378],[77.8143,12.8384],[77.8064,12.8375],[77.8045,12.8382],[77.8055,12.849],[77.8077,12.8476],[77.8096,12.8486],[77.8107,12.8526],[77.8127,12.8533],[77.816,12.8561],[77.8223,12.8558],[77.8248,12.8603],[77.8292,12.8617],[77.831,12.8619],[77.8326,12.8613]]]}},{"type":"Feature","properties":{"name":"4C1C8b2a","level":"micro-watershed","watershedCode":"4C1C8","subCatchmentCode":"4C1C","areaKm2InDistrict":5.6,"shedId":"SBP16"},"geometry":{"type":"Polygon","coordinates":[[[77.8477,12.853],[77.8519,12.8496],[77.8548,12.8463],[77.849,12.8425],[77.8428,12.8319],[77.8365,12.829],[77.8378,12.8327],[77.836,12.835],[77.8322,12.8362],[77.8211,12.8378],[77.8238,12.8392],[77.8271,12.8425],[77.832,12.8442],[77.8329,12.8455],[77.8354,12.8536],[77.836,12.8616],[77.8408,12.8618],[77.8428,12.8611],[77.8446,12.8591],[77.8477,12.853]]]}},{"type":"Feature","properties":{"name":"4C1C8b2b","level":"micro-watershed","watershedCode":"4C1C8","subCatchmentCode":"4C1C","areaKm2InDistrict":7.7,"shedId":"SBP16"},"geometry":{"type":"Polygon","coordinates":[[[77.8143,12.8384],[77.8322,12.8362],[77.836,12.835],[77.8374,12.8338],[77.8378,12.8327],[77.8366,12.8297],[77.8364,12.8256],[77.8395,12.8183],[77.8391,12.8162],[77.8346,12.8108],[77.8321,12.813],[77.8284,12.8142],[77.8248,12.8141],[77.8219,12.8126],[77.8208,12.8131],[77.8151,12.8178],[77.8142,12.8219],[77.8125,12.824],[77.808,12.8258],[77.8098,12.8315],[77.8027,12.8335],[77.8032,12.8364],[77.8045,12.8382],[77.8064,12.8375],[77.8143,12.8384]]]}},{"type":"Feature","properties":{"name":"4C1C8b3a","level":"micro-watershed","watershedCode":"4C1C8","subCatchmentCode":"4C1C","areaKm2InDistrict":6.6,"shedId":"SBP16"},"geometry":{"type":"Polygon","coordinates":[[[77.8596,12.842],[77.861,12.8393],[77.865,12.8381],[77.867,12.8368],[77.8668,12.8337],[77.8673,12.833],[77.8631,12.8293],[77.8601,12.8249],[77.8591,12.8221],[77.8529,12.8176],[77.8483,12.8158],[77.8385,12.8156],[77.8395,12.8183],[77.8364,12.8256],[77.8365,12.829],[77.8428,12.8319],[77.849,12.8425],[77.8548,12.8463],[77.8596,12.842]]]}},{"type":"Feature","properties":{"name":"4C1C8b3b","level":"micro-watershed","watershedCode":"4C1C8","subCatchmentCode":"4C1C","areaKm2InDistrict":4.8,"shedId":"SBP16"},"geometry":{"type":"Polygon","coordinates":[[[77.8726,12.8299],[77.8739,12.8239],[77.8785,12.8206],[77.8808,12.8171],[77.8835,12.8149],[77.8851,12.812],[77.8903,12.8101],[77.89,12.8069],[77.8797,12.8075],[77.8711,12.8071],[77.8672,12.8093],[77.8657,12.8132],[77.8591,12.8221],[77.8591,12.823],[77.8631,12.8293],[77.8673,12.833],[77.8726,12.8299]]]}},{"type":"Feature","properties":{"name":"4C1C8b3c","level":"micro-watershed","watershedCode":"4C1C8","subCatchmentCode":"4C1C","areaKm2InDistrict":4.7,"shedId":"SBP16"},"geometry":{"type":"Polygon","coordinates":[[[77.8706,12.8058],[77.8663,12.8047],[77.8584,12.804],[77.853,12.8024],[77.8499,12.8045],[77.8473,12.8053],[77.8416,12.806],[77.8374,12.8057],[77.8346,12.8108],[77.8385,12.8156],[77.8483,12.8158],[77.8529,12.8176],[77.8591,12.8221],[77.8657,12.8132],[77.8672,12.8093],[77.8701,12.8076],[77.8706,12.8058]]]}},{"type":"Feature","properties":{"name":"4C1C8b4","level":"micro-watershed","watershedCode":"4C1C8","subCatchmentCode":"4C1C","areaKm2InDistrict":2.9,"shedId":"SBP16"},"geometry":{"type":"Polygon","coordinates":[[[77.89,12.8069],[77.8889,12.8048],[77.8868,12.8029],[77.8866,12.8008],[77.8842,12.7977],[77.8844,12.7913],[77.8853,12.7889],[77.8834,12.7867],[77.881,12.7865],[77.8799,12.7872],[77.8784,12.7905],[77.874,12.7921],[77.8723,12.8019],[77.8701,12.8076],[77.8711,12.8071],[77.8797,12.8075],[77.89,12.8069]]]}},{"type":"Feature","properties":{"name":"4C1C8b5","level":"micro-watershed","watershedCode":"4C1C8","subCatchmentCode":"4C1C","areaKm2InDistrict":6.5,"shedId":"SBP16"},"geometry":{"type":"Polygon","coordinates":[[[77.877,12.7907],[77.8749,12.7888],[77.8739,12.7869],[77.8745,12.7856],[77.8762,12.7846],[77.8766,12.7832],[77.8753,12.7812],[77.8723,12.7801],[77.8721,12.7791],[77.8727,12.7769],[77.876,12.7755],[77.8741,12.7721],[77.8711,12.7727],[77.8603,12.7719],[77.8513,12.7684],[77.8502,12.7674],[77.8512,12.7724],[77.853,12.7742],[77.8573,12.7755],[77.8583,12.7778],[77.8573,12.7803],[77.8578,12.7812],[77.8594,12.7813],[77.8599,12.7819],[77.8615,12.7854],[77.8601,12.7909],[77.859,12.7923],[77.858,12.7955],[77.8531,12.8025],[77.8584,12.804],[77.8708,12.8055],[77.8723,12.8019],[77.874,12.7921],[77.8746,12.7915],[77.8759,12.7918],[77.877,12.7907]]]}},{"type":"Feature","properties":{"name":"4C1C8b6a","level":"micro-watershed","watershedCode":"4C1C8","subCatchmentCode":"4C1C","areaKm2InDistrict":4.3,"shedId":"SBP16"},"geometry":{"type":"Polygon","coordinates":[[[77.8501,12.7671],[77.8492,12.7694],[77.8454,12.771],[77.8419,12.7715],[77.8391,12.7733],[77.838,12.7752],[77.8392,12.7831],[77.839,12.7884],[77.8445,12.7884],[77.8497,12.7898],[77.8539,12.7893],[77.8591,12.7923],[77.8601,12.7909],[77.8615,12.7854],[77.8599,12.7819],[77.8594,12.7813],[77.8578,12.7812],[77.8573,12.7803],[77.8583,12.7778],[77.8573,12.7755],[77.853,12.7742],[77.8512,12.7724],[77.8501,12.7671]]]}},{"type":"Feature","properties":{"name":"4C1C8b6b","level":"micro-watershed","watershedCode":"4C1C8","subCatchmentCode":"4C1C","areaKm2InDistrict":3.2,"shedId":"SBP16"},"geometry":{"type":"Polygon","coordinates":[[[77.8527,12.8028],[77.858,12.7955],[77.859,12.7923],[77.8539,12.7893],[77.8497,12.7898],[77.8445,12.7884],[77.839,12.7884],[77.8405,12.7938],[77.8408,12.7985],[77.8386,12.8021],[77.8374,12.8057],[77.8416,12.806],[77.8499,12.8045],[77.8527,12.8028]]]}},{"type":"Feature","properties":{"name":"4C1C8b7","level":"micro-watershed","watershedCode":"4C1C8","subCatchmentCode":"4C1C","areaKm2InDistrict":5.1,"shedId":"SBP16"},"geometry":{"type":"Polygon","coordinates":[[[77.8741,12.7721],[77.8743,12.7703],[77.8771,12.7693],[77.8779,12.7675],[77.8778,12.7651],[77.8758,12.7613],[77.876,12.7605],[77.8792,12.7555],[77.8842,12.7507],[77.8852,12.7492],[77.8856,12.7476],[77.8853,12.7485],[77.8736,12.748],[77.8711,12.7499],[77.8679,12.7511],[77.8668,12.7542],[77.8601,12.762],[77.8585,12.7631],[77.8548,12.7629],[77.8501,12.7671],[77.8513,12.7684],[77.8603,12.7719],[77.8711,12.7727],[77.8741,12.7721]]]}}]}